{"type":"FeatureCollection","features":[{"type":"Feature","properties":{"id":24676971,"osm_type":"way","name":"Matteus kyrkogård","category":"cemetery","tags":{"landuse":"cemetery","name":"Matteus kyrkogård","wikidata":"Q111010576"}},"geometry":{"type":"Point","coordinates":[16.1703828,58.5913309]}},{"type":"Feature","properties":{"id":27757663,"osm_type":"way","name":"Södra kyrkogården","category":"cemetery","tags":{"landuse":"cemetery","name":"Södra kyrkogården"}},"geometry":{"type":"Point","coordinates":[16.1851037,58.58334]}},{"type":"Feature","properties":{"id":40864990,"osm_type":"way","name":"","category":"cemetery","tags":{"denomination":"lutheran","landuse":"cemetery","religion":"christian"}},"geometry":{"type":"Point","coordinates":[16.3113934,58.4811372]}},{"type":"Feature","properties":{"id":72986731,"osm_type":"way","name":"Minneslund","category":"cemetery","tags":{"denomination":"lutheran","landuse":"cemetery","name":"Minneslund","religion":"christian","wikidata":"Q115304986"}},"geometry":{"type":"Point","coordinates":[16.1736282,58.6692658]}},{"type":"Feature","properties":{"id":89370250,"osm_type":"way","name":"","category":"cemetery","tags":{"landuse":"cemetery","wikidata":"Q115304993"}},"geometry":{"type":"Point","coordinates":[16.1343107,58.6477216]}},{"type":"Feature","properties":{"id":91118612,"osm_type":"way","name":"Ättetorps kyrkogård","category":"cemetery","tags":{"landuse":"cemetery","name":"Ättetorps kyrkogård","wikidata":"Q115304986"}},"geometry":{"type":"Point","coordinates":[16.1760206,58.6682245]}},{"type":"Feature","properties":{"id":91859394,"osm_type":"way","name":"","category":"cemetery","tags":{"amenity":"grave_yard","wikidata":"Q115304984"}},"geometry":{"type":"Point","coordinates":[16.1965244,58.5767473]}},{"type":"Feature","properties":{"id":92036033,"osm_type":"way","name":"","category":"cemetery","tags":{"amenity":"grave_yard","wikidata":"Q115305000"}},"geometry":{"type":"Point","coordinates":[16.1374037,58.6098521]}},{"type":"Feature","properties":{"id":92411588,"osm_type":"way","name":"Norra kyrkogården","category":"cemetery","tags":{"landuse":"cemetery","name":"Norra kyrkogården","wikidata":"Q115304982"}},"geometry":{"type":"Point","coordinates":[16.1592307,58.5912139]}},{"type":"Feature","properties":{"id":96231982,"osm_type":"way","name":"Borgsmo kyrkogård","category":"cemetery","tags":{"amenity":"grave_yard","area":"yes","landuse":"cemetery","name":"Borgsmo kyrkogård","wikidata":"Q115304977"}},"geometry":{"type":"Point","coordinates":[16.1447662,58.5754665]}},{"type":"Feature","properties":{"id":198187470,"osm_type":"way","name":"","category":"cemetery","tags":{"amenity":"grave_yard","barrier":"wall","wikidata":"Q115305071"}},"geometry":{"type":"Point","coordinates":[16.3443785,58.5555291]}},{"type":"Feature","properties":{"id":500980444,"osm_type":"way","name":"Västra Husby kyrkogård","category":"cemetery","tags":{"amenity":"grave_yard","name":"Västra Husby kyrkogård","wikidata":"Q115305019"}},"geometry":{"type":"Point","coordinates":[16.1792989,58.4916821]}},{"type":"Feature","properties":{"id":544533891,"osm_type":"way","name":"","category":"cemetery","tags":{"landuse":"cemetery"}},"geometry":{"type":"Point","coordinates":[16.312548,58.4783478]}},{"type":"Feature","properties":{"id":794456064,"osm_type":"way","name":"","category":"cemetery","tags":{"landuse":"cemetery","wikidata":"Q115304994"}},"geometry":{"type":"Point","coordinates":[16.0965331,58.5735035]}},{"type":"Feature","properties":{"id":1063569752,"osm_type":"way","name":"Eldstiernska gravkoret","category":"cemetery","tags":{"historic":"yes","landuse":"cemetery","name":"Eldstiernska gravkoret"}},"geometry":{"type":"Point","coordinates":[16.1310675,58.5910539]}},{"type":"Feature","properties":{"id":1120783187,"osm_type":"way","name":"","category":"cemetery","tags":{"amenity":"grave_yard","wikidata":"Q115305069"}},"geometry":{"type":"Point","coordinates":[16.3168449,58.5822468]}},{"type":"Feature","properties":{"id":1164910060,"osm_type":"way","name":"","category":"cemetery","tags":{"landuse":"cemetery","religion":"christian","wikidata":"Q115304997"}},"geometry":{"type":"Point","coordinates":[16.2693861,58.5617592]}},{"type":"Feature","properties":{"id":1236050777,"osm_type":"way","name":"","category":"cemetery","tags":{"description":"Gravplats","historic":"yes","landuse":"cemetery","note":"Needs surveying"}},"geometry":{"type":"Point","coordinates":[16.0973995,58.7370683]}},{"type":"Feature","properties":{"id":1408410022,"osm_type":"way","name":"","category":"cemetery","tags":{"amenity":"grave_yard","wikidata":"Q115305018"}},"geometry":{"type":"Point","coordinates":[16.0973543,58.4454288]}},{"type":"Feature","properties":{"id":1408410827,"osm_type":"way","name":"","category":"cemetery","tags":{"amenity":"grave_yard","wikidata":"Q115305045"}},"geometry":{"type":"Point","coordinates":[16.3158032,58.480834]}},{"type":"Feature","properties":{"id":1420205285,"osm_type":"way","name":"Judiska Begravningsplatsen","category":"cemetery","tags":{"landuse":"cemetery","name":"Judiska Begravningsplatsen","religion":"jewish"}},"geometry":{"type":"Point","coordinates":[16.169296,58.5901328]}},{"type":"Feature","properties":{"id":1456733666,"osm_type":"way","name":"","category":"cemetery","tags":{"amenity":"grave_yard","wikidata":"Q115304998"}},"geometry":{"type":"Point","coordinates":[16.2916623,58.5292216]}}]}