{"type":"FeatureCollection","features":[{"type":"Feature","properties":{"id":96647790,"osm_type":"way","name":"Mångfaldshuset","category":"community_centre","tags":{"addr:city":"Norrköping","addr:country":"SE","addr:housenumber":"21","addr:street":"Stockholmsvägen","amenity":"community_centre","building":"yes","name":"Mångfaldshuset","operator":"Norrköpings kommun","operator:type":"public","website":"http://mangfaldshuset.blogspot.com/"}},"geometry":{"type":"Point","coordinates":[16.1710358,58.5969746]}},{"type":"Feature","properties":{"id":97687809,"osm_type":"way","name":"Lindö församlingshem","category":"community_centre","tags":{"addr:city":"Norrköping","addr:country":"SE","addr:housenumber":"7","addr:postcode":"603 65","addr:street":"Lindöhällsvägen","amenity":"community_centre","building":"civic","community_centre":"parish_hall","denomination":"lutheran","name":"Lindö församlingshem","operator":"Svenska kyrkan","operator:type":"religious","operator:wikidata":"Q749243","religion":"christian"}},"geometry":{"type":"Point","coordinates":[16.2517699,58.6085939]}},{"type":"Feature","properties":{"id":705167927,"osm_type":"way","name":"Östra Eneby församlingshem","category":"community_centre","tags":{"addr:city":"Norrköping","addr:country":"SE","addr:housenumber":"36","addr:postcode":"60209","addr:street":"Heleneborgsgatan","amenity":"community_centre","building":"yes","community_centre":"parish_hall","denomination":"lutheran","name":"Östra Eneby församlingshem","opening_hours":"Mo, We-Th 09:00-12:00","operator":"Svenska kyrkan","operator:type":"religious","operator:wikidata":"Q749243","religion":"christian","website":"https://www.svenskakyrkan.se/norrkoping/ostra-eneby-forsamlingshem"}},"geometry":{"type":"Point","coordinates":[16.1371732,58.6088156]}},{"type":"Feature","properties":{"id":720170723,"osm_type":"way","name":"Bygdegården","category":"community_centre","tags":{"amenity":"community_centre","building":"yes","name":"Bygdegården"}},"geometry":{"type":"Point","coordinates":[16.168382,58.4802179]}},{"type":"Feature","properties":{"id":1043410268,"osm_type":"way","name":"","category":"community_centre","tags":{"addr:city":"Norrköping","addr:country":"SE","addr:housenumber":"2","addr:postcode":"603 70","addr:street":"Ånestadsgatan","amenity":"community_centre","building":"yes","building:levels":"1","check_date":"2023-07-25","community_centre":"parish_hall","denomination":"lutheran","religion":"christian","website":"https://www.svenskakyrkan.se/platser/10196-norrkopings-st-johannes-forsamling-anestadsgatan-2"}},"geometry":{"type":"Point","coordinates":[16.2312823,58.5688952]}},{"type":"Feature","properties":{"id":1420207493,"osm_type":"way","name":"Matteussalen","category":"community_centre","tags":{"amenity":"community_centre","building":"civic","community_centre":"parish_hall","denomination":"lutheran","name":"Matteussalen","operator":"Svenska kyrkan","operator:type":"religious","operator:wikidata":"Q749243","religion":"christian","website":"https://www.svenskakyrkan.se/norrkoping/matteussalen"}},"geometry":{"type":"Point","coordinates":[16.1718405,58.5928385]}},{"type":"Feature","properties":{"id":1424788209,"osm_type":"way","name":"Norrköpings segelsällskap","category":"community_centre","tags":{"amenity":"community_centre","building":"yes","club":"sport","community_centre":"club_home","name":"Norrköpings segelsällskap"}},"geometry":{"type":"Point","coordinates":[16.2609334,58.6080425]}},{"type":"Feature","properties":{"id":1443496030,"osm_type":"way","name":"Norrköpings arbetareförening","category":"community_centre","tags":{"amenity":"community_centre","building":"yes","check_date:opening_hours":"2025-11-01","club":"yes","community_centre":"club_home","name":"Norrköpings arbetareförening","opening_hours:signed":"no"}},"geometry":{"type":"Point","coordinates":[16.1601634,58.6015406]}}]}