{"type":"FeatureCollection","features":[{"type":"Feature","properties":{"id":865035026,"osm_type":"node","name":"Folktandvården","category":"dentistry","tags":{"addr:country":"SE","addr:housenumber":"28","addr:street":"Nyköpingsvägen","amenity":"dentist","brand":"Folktandvården","brand:wikidata":"Q10497476","brand:wikipedia":"sv:Folktandvården","name":"Folktandvården","opening_hours":"Mo-Th 07:30-17:00, Fr 07:30-15:00"}},"geometry":{"type":"Point","coordinates":[16.1822539,58.6653788]}},{"type":"Feature","properties":{"id":7913273915,"osm_type":"node","name":"Folktandvården","category":"dentistry","tags":{"addr:country":"SE","addr:housenumber":"10","addr:street":"Södra torget","amenity":"dentist","branch":"Hageby","brand":"Folktandvården","brand:wikidata":"Q10497476","healthcare":"dentist","name":"Folktandvården","operator":"Region Östergötland"}},"geometry":{"type":"Point","coordinates":[16.2033414,58.5751522]}},{"type":"Feature","properties":{"id":7927936709,"osm_type":"node","name":"Folktandvården","category":"dentistry","tags":{"amenity":"dentist","brand":"Folktandvården","brand:wikidata":"Q10497476","healthcare":"dentist","name":"Folktandvården","operator":"Region Östergötland"}},"geometry":{"type":"Point","coordinates":[16.1862533,58.5953084]}},{"type":"Feature","properties":{"id":9128660433,"osm_type":"node","name":"Folktandvården Sandbyhov","category":"dentistry","tags":{"amenity":"dentist","branch":"Sandbyhov","brand":"Folktandvården","brand:wikidata":"Q10497476","check_date:opening_hours":"2025-09-20","healthcare":"dentist","name":"Folktandvården Sandbyhov","opening_hours:signed":"no","operator":"Region Östergötland"}},"geometry":{"type":"Point","coordinates":[16.1632248,58.6049559]}},{"type":"Feature","properties":{"id":10905668930,"osm_type":"node","name":"X Dental","category":"dentistry","tags":{"amenity":"dentist","healthcare":"dentist","name":"X Dental"}},"geometry":{"type":"Point","coordinates":[16.1785695,58.5910729]}}]}