{"type":"FeatureCollection","features":[{"type":"Feature","properties":{"id":93481365,"osm_type":"way","name":"Station Centrum","category":"fire_station","tags":{"amenity":"fire_station","building":"yes","building:levels":"3","name":"Station Centrum"}},"geometry":{"type":"Point","coordinates":[16.1766895,58.5848508]}},{"type":"Feature","properties":{"id":253115545,"osm_type":"way","name":"Räddningsstation Kvillinge","category":"fire_station","tags":{"addr:city":"Åby","addr:country":"SE","addr:housenumber":"6","addr:postcode":"61634","addr:street":"Cylindervägen","amenity":"fire_station","building":"yes","check_date":"2026-06-21","name":"Räddningsstation Kvillinge"}},"geometry":{"type":"Point","coordinates":[16.1661235,58.6473987]}},{"type":"Feature","properties":{"id":447836634,"osm_type":"way","name":"Räddningstjänstens utbildningsanläggning","category":"fire_station","tags":{"amenity":"fire_station","building":"yes","name":"Räddningstjänstens utbildningsanläggning","operator":"Räddningstjänsten Östra Götaland"}},"geometry":{"type":"Point","coordinates":[16.2489179,58.5831727]}},{"type":"Feature","properties":{"id":827889849,"osm_type":"way","name":"Räddningstjänsten","category":"fire_station","tags":{"amenity":"fire_station","building":"yes","check_date":"2024-04-01","name":"Räddningstjänsten"}},"geometry":{"type":"Point","coordinates":[16.3101257,58.482847]}},{"type":"Feature","properties":{"id":1516252692,"osm_type":"way","name":"Räddningsstation Ljura","category":"fire_station","tags":{"addr:housenumber":"27","addr:street":"Dagsbergsvägen","amenity":"fire_station","building":"fire_station","name":"Räddningsstation Ljura","operator":"Räddningstjänsten Östra Götaland"}},"geometry":{"type":"Point","coordinates":[16.2077053,58.5813818]}}]}