{"type":"FeatureCollection","features":[{"type":"Feature","properties":{"id":310929394,"osm_type":"node","name":"St1","category":"grocery","tags":{"addr:city":"Norrköping","addr:country":"SE","addr:housenumber":"10","addr:postcode":"602 15","addr:street":"Hagagatan","amenity":"fuel","brand":"St1","brand:wikidata":"Q7592214","brand:wikipedia":"sv:Shell","compressed_air":"yes","fuel:HGV_diesel":"no","fuel:biodiesel":"no","fuel:cng":"no","fuel:diesel":"yes","fuel:e85":"yes","fuel:lpg":"no","name":"St1","operator":"St1","shop":"convenience"}},"geometry":{"type":"Point","coordinates":[16.156644,58.5956222]}},{"type":"Feature","properties":{"id":472330106,"osm_type":"node","name":"Åby grill och kiosk","category":"grocery","tags":{"name":"Åby grill och kiosk","shop":"convenience"}},"geometry":{"type":"Point","coordinates":[16.1819172,58.6717335]}},{"type":"Feature","properties":{"id":497270901,"osm_type":"node","name":"Tempo","category":"grocery","tags":{"brand":"Tempo","brand:wikidata":"Q10692628","check_date":"2025-05-29","name":"Tempo","opening_hours":"Mo-Su 09:00-20:00","shop":"supermarket"}},"geometry":{"type":"Point","coordinates":[16.3223409,58.4799405]}},{"type":"Feature","properties":{"id":624150775,"osm_type":"node","name":"Tempo","category":"grocery","tags":{"addr:city":"Norrköping","addr:country":"SE","addr:housenumber":"17","addr:street":"Breda vägen","name":"Tempo","opening_hours":"Mo-Sa 09:00-20:00; Su 10:00-19:00","shop":"convenience"}},"geometry":{"type":"Point","coordinates":[16.1608837,58.6035359]}},{"type":"Feature","properties":{"id":864974840,"osm_type":"node","name":"Ättetorp livs & pizza","category":"grocery","tags":{"addr:country":"SE","addr:housenumber":"32a","addr:street":"Ättetorpsvägen","name":"Ättetorp livs & pizza","opening_hours":"Mo-Fr 09:00-20:00; Sa 09:00-18:00; Su 11:00-17:00","shop":"convenience"}},"geometry":{"type":"Point","coordinates":[16.1735808,58.6736691]}},{"type":"Feature","properties":{"id":1028596334,"osm_type":"node","name":"ICA Kvantum","category":"grocery","tags":{"brand":"ICA Kvantum","brand:wikidata":"Q1663776","brand:wikipedia":"sv:Ica","name":"ICA Kvantum","opening_hours":"Mo-Su 08:00-22:00","shop":"supermarket","wheelchair":"yes"}},"geometry":{"type":"Point","coordinates":[16.2112094,58.5733113]}},{"type":"Feature","properties":{"id":1082239741,"osm_type":"node","name":"Coop Saluhallen Norrköping","category":"grocery","tags":{"addr:city":"Norrköping","addr:country":"SE","addr:housenumber":"26","addr:postcode":"602 27","addr:street":"Hospitalsgatan","brand":"Coop","brand:wikidata":"Q106684510","name":"Coop Saluhallen Norrköping","opening_hours":"Mo-Fr 07:00-22:00; Sa-Su 08:00-22:00","phone":"+46 10-7414890","shop":"supermarket","website":"https://www.coop.se/butiker-erbjudanden/coop/coop-saluhallen/"}},"geometry":{"type":"Point","coordinates":[16.1915533,58.5912947]}},{"type":"Feature","properties":{"id":1082462283,"osm_type":"node","name":"Coop Bråddgatan","category":"grocery","tags":{"addr:city":"Norrköping","addr:country":"SE","addr:housenumber":"30","addr:postcode":"602 22","addr:street":"Bråddgatan","brand":"Coop","brand:wikidata":"Q106684510","name":"Coop Bråddgatan","opening_hours":"Mo-Fr 08:00-21:00; Sa 08:00-21:00; Su 10:00-21:00","phone":"+46 10-7464280","shop":"supermarket","website":"https://www.coop.se/butiker-erbjudanden/coop/coop-braddgatan/"}},"geometry":{"type":"Point","coordinates":[16.1793165,58.5933645]}},{"type":"Feature","properties":{"id":1083684214,"osm_type":"node","name":"Hemköp Norrköping Lasarettsgatan","category":"grocery","tags":{"addr:city":"Norrköping","addr:country":"SE","addr:housenumber":"39","addr:street":"Gamla Lasarettsgatan","brand":"Hemköp","brand:wikidata":"Q10521746","name":"Hemköp Norrköping Lasarettsgatan","opening_hours":"Mo-Fr 08:00-20:00; Sa-Su 09:00-19:00","phone":"011-101906","shop":"supermarket","website":"https://www.hemkop.se/butik/4200"}},"geometry":{"type":"Point","coordinates":[16.1793,58.5839]}},{"type":"Feature","properties":{"id":1107920352,"osm_type":"node","name":"Coop Trozelligatan","category":"grocery","tags":{"addr:city":"Norrköping","addr:country":"SE","addr:housenumber":"14","addr:postcode":"602 35","addr:street":"Trozelligatan","brand":"Coop","brand:wikidata":"Q106684510","name":"Coop Trozelligatan","opening_hours":"Mo-Fr 07:00-22:00; Sa,Su 08:00-22:00","operator":"Coop","phone":"+46 10-7414870","shop":"supermarket","website":"https://www.coop.se/butiker-erbjudanden/coop/coop-trozelligatan/"}},"geometry":{"type":"Point","coordinates":[16.1863233,58.5828098]}},{"type":"Feature","properties":{"id":1108877881,"osm_type":"node","name":"X:-tra Ljura","category":"grocery","tags":{"addr:city":"Norrköping","addr:country":"SE","addr:housenumber":"79","addr:postcode":"603 50","addr:street":"Albrektsvägen","brand":"X:-tra","brand:wikidata":"Q123402132","name":"X:-tra Ljura","opening_hours":"Mo-Sa 08:00-21:00; Su 10:00-21:00","operator":"Coop Östra","operator:wikidata":"Q126279028","phone":"+46 10-7464310","shop":"supermarket","website":"https://x-tra.se/butiker/ljura"}},"geometry":{"type":"Point","coordinates":[16.1957265,58.5800956]}},{"type":"Feature","properties":{"id":1108877882,"osm_type":"node","name":"Coop Hantverkaregatan","category":"grocery","tags":{"addr:city":"Norrköping","addr:country":"SE","addr:housenumber":"74","addr:postcode":"602 30","addr:street":"Hantverkaregatan","brand":"Coop","brand:wikidata":"Q106684510","name":"Coop Hantverkaregatan","opening_hours":"08:00-22:00","phone":"+46 10-7414880","shop":"supermarket","website":"https://www.coop.se/butiker-erbjudanden/coop/coop-hantverkaregatan/"}},"geometry":{"type":"Point","coordinates":[16.2008325,58.5885841]}},{"type":"Feature","properties":{"id":1117875426,"osm_type":"node","name":"Hemköp Norrköping Kungsgatan","category":"grocery","tags":{"addr:city":"Norrköping","addr:country":"SE","addr:housenumber":"33","addr:postcode":"602 20","addr:street":"Kungsgatan","brand":"Hemköp","brand:wikidata":"Q10521746","brand:wikipedia":"sv:Hemköp","name":"Hemköp Norrköping Kungsgatan","opening_hours":"Mo-Fr 06:30-22:00; Sa,Su,PH 08:00-22:00","phone":"011-124260","shop":"supermarket","website":"https://www.hemkop.se/butik/4539"}},"geometry":{"type":"Point","coordinates":[16.1783042,58.5915791]}},{"type":"Feature","properties":{"id":1117875427,"osm_type":"node","name":"ICA Strömmen","category":"grocery","tags":{"addr:city":"Norrköping","addr:country":"SE","addr:housenumber":"41","addr:postcode":"602 20","addr:street":"Kungsgatan","brand":"ICA Nära","brand:wikidata":"Q1663776","brand:wikipedia":"sv:Ica","check_date:opening_hours":"2026-01-07","name":"ICA Strömmen","opening_hours":"Mo-Fr 06:30-22:00; Sa,Su,PH 08:00-22:00","shop":"supermarket","wheelchair":"yes"}},"geometry":{"type":"Point","coordinates":[16.1788728,58.5906415]}},{"type":"Feature","properties":{"id":1177842846,"osm_type":"node","name":"Coop Skarphagen","category":"grocery","tags":{"addr:city":"Norrköping","addr:country":"SE","addr:housenumber":"29","addr:postcode":"603 64","addr:street":"Skarphagsgatan","brand":"Coop","brand:wikidata":"Q106684510","name":"Coop Skarphagen","opening_hours":"Mo-Fr 08:00-22:00; Sa-Su 08:00-21:00","phone":"+46 10-7414860","shop":"supermarket","website":"https://www.coop.se/butiker-erbjudanden/coop/coop-skarphagen/"}},"geometry":{"type":"Point","coordinates":[16.1583715,58.5774674]}},{"type":"Feature","properties":{"id":1181400481,"osm_type":"node","name":"Ica Supermarket Eneby","category":"grocery","tags":{"addr:city":"Norrköping","addr:country":"SE","addr:housenumber":"80","addr:street":"Slåttergatan","brand":"ICA Supermarket","brand:wikidata":"Q1663776","brand:wikipedia":"sv:Ica","name":"Ica Supermarket Eneby","shop":"supermarket","wheelchair":"yes"}},"geometry":{"type":"Point","coordinates":[16.1442783,58.6037913]}},{"type":"Feature","properties":{"id":1181489712,"osm_type":"node","name":"ICA Nära","category":"grocery","tags":{"addr:city":"Norrköping","addr:country":"SE","addr:housenumber":"2","addr:street":"Villagatan","branch":"Kneippen","brand":"ICA Nära","brand:wikidata":"Q1663776","brand:wikipedia":"sv:Ica","name":"ICA Nära","opening_hours":"PH,Mo-Su 08:00-22:00","shop":"convenience","website":"https://www.ica.se/Butikssidor/Nara/Norrkoping/Kneippen-2170/Kontakta-oss/"}},"geometry":{"type":"Point","coordinates":[16.1610924,58.5849842]}},{"type":"Feature","properties":{"id":1185864032,"osm_type":"node","name":"CircleK Gamla Övägen","category":"grocery","tags":{"addr:city":"Norrköping","addr:street":"Gamla Övägen","amenity":"fuel","compressed_air":"yes","fuel:biodiesel":"no","fuel:cng":"no","fuel:diesel":"yes","fuel:e85":"yes","fuel:lpg":"no","fuel:octane_95":"yes","fuel:octane_98":"yes","name":"CircleK Gamla Övägen","opening_hours":"24/7","operator":"CircleK","shop":"convenience"}},"geometry":{"type":"Point","coordinates":[16.1811175,58.5765971]}},{"type":"Feature","properties":{"id":1313226941,"osm_type":"node","name":"Norins ost","category":"grocery","tags":{"name":"Norins ost","shop":"convenience"}},"geometry":{"type":"Point","coordinates":[16.185872,58.5891205]}},{"type":"Feature","properties":{"id":1863265187,"osm_type":"node","name":"ICA Supermarket","category":"grocery","tags":{"brand":"ICA Supermarket","brand:wikidata":"Q1663776","brand:wikipedia":"sv:Ica","check_date":"2025-07-20","name":"ICA Supermarket","opening_hours":"Mo-Fr 07:00-22:00; Sa-Su 08:00-20:00","shop":"supermarket"}},"geometry":{"type":"Point","coordinates":[16.1908288,58.586221]}},{"type":"Feature","properties":{"id":2517772725,"osm_type":"node","name":"Direkten","category":"grocery","tags":{"brand":"Direkten","brand:wikidata":"Q105693281","name":"Direkten","opening_hours":"Mo-Fr 08:30-20:00, Sa 08:30-16:00, Su,PH 10:00-16:00","shop":"convenience"}},"geometry":{"type":"Point","coordinates":[16.1920589,58.5913899]}},{"type":"Feature","properties":{"id":2590196221,"osm_type":"node","name":"Willys Norrköping Ingelsta","category":"grocery","tags":{"addr:city":"Norrköping","addr:country":"SE","addr:housenumber":"3","addr:street":"Kromgatan","brand":"Willys","brand:wikidata":"Q10720214","brand:wikipedia":"sv:Willys","name":"Willys Norrköping Ingelsta","opening_hours":"Mo-Su 08:00-21:00","phone":"011-197580","shop":"supermarket","website":"https://www.willys.se/butik/2212"}},"geometry":{"type":"Point","coordinates":[16.1639905,58.6122369]}},{"type":"Feature","properties":{"id":2912579680,"osm_type":"node","name":"St1","category":"grocery","tags":{"addr:city":"Norrköping","addr:country":"SE","addr:housenumber":"2","addr:postcode":"602 23","addr:street":"Boktryckaregatan","amenity":"fuel","brand":"St1","brand:wikidata":"Q7592214","compressed_air":"yes","fuel:biodiesel":"no","fuel:cng":"no","fuel:diesel":"yes","fuel:e85":"yes","fuel:octane_95":"yes","name":"St1","operator":"Shell","shop":"convenience"}},"geometry":{"type":"Point","coordinates":[16.1745769,58.6058132]}},{"type":"Feature","properties":{"id":3172419401,"osm_type":"node","name":"Willys","category":"grocery","tags":{"brand":"Willys","brand:wikidata":"Q10720214","brand:wikipedia":"sv:Willys","name":"Willys","opening_hours":"Mo-Sa 08:00-21:00; Su 10:00-21:00","shop":"supermarket","wheelchair":"yes"}},"geometry":{"type":"Point","coordinates":[16.2108341,58.5732922]}},{"type":"Feature","properties":{"id":3278925164,"osm_type":"node","name":"Raed livs","category":"grocery","tags":{"addr:city":"Norrköping","addr:country":"SE","addr:housenumber":"14","addr:postcode":"60214","addr:street":"Breda vägen","contact:phone":"+46-11160240","name":"Raed livs","opening_hours":"Mo-Su 09:00-20:00","shop":"convenience"}},"geometry":{"type":"Point","coordinates":[16.1625023,58.603651]}},{"type":"Feature","properties":{"id":3278925165,"osm_type":"node","name":"MyWay","category":"grocery","tags":{"addr:city":"Norrköping","addr:country":"SE","addr:housenumber":"7","addr:postcode":"60246","addr:street":"Taborsbergsvägen","name":"MyWay","opening_hours":"Mo-Fr 09:00-19:00; Sa 10:00-17:00","shop":"convenience"}},"geometry":{"type":"Point","coordinates":[16.1599914,58.5997679]}},{"type":"Feature","properties":{"id":4109196591,"osm_type":"node","name":"Thai Isan Livsmed","category":"grocery","tags":{"name":"Thai Isan Livsmed","opening_hours":"Mo-Fr 10:00-18:00; Sa 10:00-16:00","phone":"+46 11-168-018","shop":"supermarket"}},"geometry":{"type":"Point","coordinates":[16.1954891,58.5895075]}},{"type":"Feature","properties":{"id":4125376889,"osm_type":"node","name":"Jerrys","category":"grocery","tags":{"name":"Jerrys","opening_hours":"Mo-Fr 10:00-19:00; Sa-Su 11:00-18:00","shop":"convenience"}},"geometry":{"type":"Point","coordinates":[16.1939628,58.585522]}},{"type":"Feature","properties":{"id":4253098855,"osm_type":"node","name":"Istanbul Mix Livs","category":"grocery","tags":{"addr:city":"Norrköping","addr:country":"SE","addr:housenumber":"79","addr:postcode":"603 50","addr:street":"Albrektsvägen","name":"Istanbul Mix Livs","opening_hours":"09:00-20:00","shop":"convenience"}},"geometry":{"type":"Point","coordinates":[16.1956444,58.5801579]}},{"type":"Feature","properties":{"id":4253107369,"osm_type":"node","name":"Furat's Livs","category":"grocery","tags":{"addr:city":"Norrköping","addr:country":"SE","addr:housenumber":"79","addr:postcode":"603 50","addr:street":"Albrektsvägen","name":"Furat's Livs","opening_hours":"09:00-20:00","phone":"+46 11-13 33 06","shop":"convenience"}},"geometry":{"type":"Point","coordinates":[16.1949986,58.5799726]}},{"type":"Feature","properties":{"id":4280624995,"osm_type":"node","name":"Coop Domino","category":"grocery","tags":{"addr:city":"Norrköping","addr:country":"SE","addr:housenumber":"14","addr:postcode":"602 32","addr:street":"Repslagaregatan","brand":"Coop","brand:wikidata":"Q106684510","name":"Coop Domino","opening_hours":"Mo-Fr 08:00-20:00; Sa 08:00-18:00; Su 11:00-17:00","operator":"Coop","phone":"+46 10-7464320","shop":"supermarket","website":"https://www.coop.se/butiker-erbjudanden/coop/coop-domino/"}},"geometry":{"type":"Point","coordinates":[16.1901663,58.588632]}},{"type":"Feature","properties":{"id":4284563409,"osm_type":"node","name":"Allsultan Livs","category":"grocery","tags":{"name":"Allsultan Livs","shop":"convenience"}},"geometry":{"type":"Point","coordinates":[16.2023303,58.5899836]}},{"type":"Feature","properties":{"id":6628771866,"osm_type":"node","name":"Ica Supermarket Vilbergen","category":"grocery","tags":{"brand":"ICA Supermarket","brand:wikidata":"Q1663776","brand:wikipedia":"sv:Ica","name":"Ica Supermarket Vilbergen","opening_hours":"Mo-Su 07:00-22:00","shop":"supermarket"}},"geometry":{"type":"Point","coordinates":[16.1701883,58.5709122]}},{"type":"Feature","properties":{"id":8047354515,"osm_type":"node","name":"Haddadson","category":"grocery","tags":{"name":"Haddadson","shop":"convenience"}},"geometry":{"type":"Point","coordinates":[16.1894051,58.5911515]}},{"type":"Feature","properties":{"id":8074450873,"osm_type":"node","name":"Alomare Livs","category":"grocery","tags":{"name":"Alomare Livs","shop":"convenience"}},"geometry":{"type":"Point","coordinates":[16.1945703,58.5893814]}},{"type":"Feature","properties":{"id":8303172578,"osm_type":"node","name":"Nasz Supermarket","category":"grocery","tags":{"name":"Nasz Supermarket","shop":"convenience"}},"geometry":{"type":"Point","coordinates":[16.1879939,58.5909453]}},{"type":"Feature","properties":{"id":9720037839,"osm_type":"node","name":"Matoasen","category":"grocery","tags":{"addr:city":"Norrköping","addr:country":"SE","addr:housenumber":"125","addr:street":"Albrektsvägen","name":"Matoasen","shop":"supermarket"}},"geometry":{"type":"Point","coordinates":[16.1810793,58.5795439]}},{"type":"Feature","properties":{"id":9910380102,"osm_type":"node","name":"24food","category":"grocery","tags":{"name":"24food","shop":"supermarket"}},"geometry":{"type":"Point","coordinates":[16.1745011,58.4902145]}},{"type":"Feature","properties":{"id":10560019583,"osm_type":"node","name":"Gäverstad hage","category":"grocery","tags":{"name":"Gäverstad hage","shop":"greengrocer"}},"geometry":{"type":"Point","coordinates":[16.2195866,58.4946542]}},{"type":"Feature","properties":{"id":11737705031,"osm_type":"node","name":"Maxi ICA Stormarknad","category":"grocery","tags":{"brand":"Maxi ICA Stormarknad","brand:wikidata":"Q1663776","check_date":"2025-09-06","name":"Maxi ICA Stormarknad","opening_hours":"06:00-22:00","shop":"supermarket","short_name":"ICA Maxi"}},"geometry":{"type":"Point","coordinates":[16.1619454,58.6156029]}},{"type":"Feature","properties":{"id":12536322057,"osm_type":"node","name":"City Livs","category":"grocery","tags":{"name":"City Livs","shop":"convenience"}},"geometry":{"type":"Point","coordinates":[16.1915478,58.5889716]}},{"type":"Feature","properties":{"id":12542144166,"osm_type":"node","name":"Ila Papaya","category":"grocery","tags":{"check_date":"2025-01-29","name":"Ila Papaya","shop":"supermarket"}},"geometry":{"type":"Point","coordinates":[16.1811205,58.586762]}},{"type":"Feature","properties":{"id":12542144176,"osm_type":"node","name":"","category":"grocery","tags":{"check_date":"2025-01-29","shop":"convenience"}},"geometry":{"type":"Point","coordinates":[16.1786883,58.586981]}},{"type":"Feature","properties":{"id":12542144180,"osm_type":"node","name":"Direkten","category":"grocery","tags":{"brand":"Direkten","brand:wikidata":"Q105693281","check_date":"2025-01-29","name":"Direkten","shop":"convenience"}},"geometry":{"type":"Point","coordinates":[16.1891964,58.5859887]}},{"type":"Feature","properties":{"id":13110781537,"osm_type":"node","name":"Clove","category":"grocery","tags":{"addr:city":"Norrköping","addr:country":"SE","addr:housenumber":"119","addr:postcode":"603 53","addr:street":"Albrektsvägen","name":"Clove","shop":"convenience"}},"geometry":{"type":"Point","coordinates":[16.1837393,58.5794213]}},{"type":"Feature","properties":{"id":13314319110,"osm_type":"node","name":"Automat","category":"grocery","tags":{"name":"Automat","operator":"Automat","shop":"convenience"}},"geometry":{"type":"Point","coordinates":[16.2015535,58.5963571]}},{"type":"Feature","properties":{"id":87646831,"osm_type":"way","name":"Coop Åby","category":"grocery","tags":{"addr:city":"Åby","addr:country":"SE","addr:housenumber":"18","addr:postcode":"616 30","addr:street":"Nyköpingsvägen","brand":"Coop","brand:wikidata":"Q106684510","building":"yes","name":"Coop Åby","opening_hours":"Mo-Fr 07:00-22:00; Sa-Su 08:00-22:00","phone":"+46 10-7414740","shop":"supermarket","website":"https://www.coop.se/butiker-erbjudanden/coop/coop-aby/"}},"geometry":{"type":"Point","coordinates":[16.1819617,58.6649479]}},{"type":"Feature","properties":{"id":92404133,"osm_type":"way","name":"Hemköp Norrköping Lindö","category":"grocery","tags":{"addr:city":"Norrköping","addr:housenumber":"4","addr:postcode":"602 28","addr:street":"Lindövägen","brand":"Hemköp","brand:wikidata":"Q10521746","building":"retail","name":"Hemköp Norrköping Lindö","opening_hours":"Mo-Su 08:00-21:00","shop":"supermarket","website":"https://www.hemkop.se/butik/4546"}},"geometry":{"type":"Point","coordinates":[16.2458342,58.6018366]}},{"type":"Feature","properties":{"id":92968163,"osm_type":"way","name":"Hemköp Norrköping Ljura","category":"grocery","tags":{"addr:city":"Norrköping","addr:country":"SE","addr:housenumber":"1","addr:postcode":"603 49","addr:street":"Ljuragatan","brand":"Hemköp","brand:wikidata":"Q10521746","building":"retail","building:levels":"1","name":"Hemköp Norrköping Ljura","opening_hours":"Mo-Fr 07:00-22:00; Sa-Su 08:00-22:00","phone":"+46 11-444 69 10","shop":"supermarket","website":"https://www.hemkop.se/butik/4232"}},"geometry":{"type":"Point","coordinates":[16.1971518,58.5807037]}},{"type":"Feature","properties":{"id":93308240,"osm_type":"way","name":"Lidl","category":"grocery","tags":{"addr:city":"Norrköping","addr:country":"SE","addr:housenumber":"6","addr:street":"Bangårdsgatan","brand":"Lidl","brand:wikidata":"Q151954","brand:wikipedia":"sv:Lidl","building":"yes","name":"Lidl","opening_hours":"Mo-Fr 08:00-20:00; Sa 08:00-18:00; Su 09:00-18:00","shop":"supermarket"}},"geometry":{"type":"Point","coordinates":[16.2056858,58.5909138]}},{"type":"Feature","properties":{"id":93353421,"osm_type":"way","name":"Coop Stockholmsvägen","category":"grocery","tags":{"addr:city":"Norrköping","addr:country":"SE","addr:housenumber":"52","addr:postcode":"602 17","addr:street":"Stockholmsvägen","brand":"Coop","brand:wikidata":"Q106684510","building":"yes","check_date:opening_hours":"2025-08-21","name":"Coop Stockholmsvägen","opening_hours":"Mo-Fr 08:00-20:00; Sa 08:00-20:00; Su 10:00-20:00","phone":"+46 10-7464290","shop":"supermarket","source":"Bing","website":"https://www.coop.se/butiker-erbjudanden/coop/coop-stockholmsvagen/"}},"geometry":{"type":"Point","coordinates":[16.1676215,58.6006704]}},{"type":"Feature","properties":{"id":93614533,"osm_type":"way","name":"Stora Coop Risängen","category":"grocery","tags":{"addr:city":"Norrköping","addr:country":"SE","addr:housenumber":"21","addr:postcode":"603 61","addr:street":"Fjärilsgatan","brand":"Coop","brand:wikidata":"Q106684510","building":"retail","building:levels":"1","name":"Stora Coop Risängen","opening_hours":"Mo-Su 07:00-22:00","operator":"Coop","phone":"+46 10-7415170","shop":"supermarket","website":"https://www.coop.se/butiker-erbjudanden/stora-coop/stora-coop-risangen/"}},"geometry":{"type":"Point","coordinates":[16.2204934,58.5803456]}},{"type":"Feature","properties":{"id":93895619,"osm_type":"way","name":"Lidl","category":"grocery","tags":{"addr:city":"Norrköping","addr:country":"SE","addr:housenumber":"48-66","addr:postcode":"603 74","addr:street":"Ektorpsgatan","brand":"Lidl","brand:wikidata":"Q151954","brand:wikipedia":"sv:Lidl","building":"retail","building:levels":"1","name":"Lidl","opening_hours":"Mo-Fr 08:00-21:00; Sa 08:00-20:00; Su 09:00-20:00","shop":"supermarket","website":"https://www.lidl.se/"}},"geometry":{"type":"Point","coordinates":[16.1717368,58.5801445]}},{"type":"Feature","properties":{"id":95586550,"osm_type":"way","name":"City Gross","category":"grocery","tags":{"addr:city":"Norrköping","addr:country":"SE","addr:housenumber":"41","addr:postcode":"602 23","addr:street":"Malmgatan","brand":"City Gross","brand:wikidata":"Q10453555","building":"retail","contact:phone":"+46-1188800","name":"City Gross","shop":"supermarket"}},"geometry":{"type":"Point","coordinates":[16.1742055,58.6164817]}},{"type":"Feature","properties":{"id":99737378,"osm_type":"way","name":"Coop Värmlandsgatan","category":"grocery","tags":{"addr:city":"Norrköping","addr:country":"SE","addr:housenumber":"43","addr:postcode":"602 16","addr:street":"Värmlandsgatan","brand":"Coop","brand:wikidata":"Q106684510","building":"yes","check_date":"2024-07-19","name":"Coop Värmlandsgatan","opening_hours":"Mo-Fr 08:00-21:00; Sa-Su 09:00-21:00","payment:cash":"yes","payment:credit_cards":"yes","payment:debit_cards":"yes","phone":"+46 10-7414990","shop":"supermarket","website":"https://www.coop.se/butiker-erbjudanden/coop/coop-varmlandsgatan"}},"geometry":{"type":"Point","coordinates":[16.1658251,58.5971782]}},{"type":"Feature","properties":{"id":134806059,"osm_type":"way","name":"Willy:s","category":"grocery","tags":{"brand":"Willys","brand:wikidata":"Q10720214","building":"retail","building:levels":"1","name":"Willy:s","opening_hours":"Mo-Su 08:00-21:00","roof:levels":"1","roof:shape":"flat","shop":"supermarket"}},"geometry":{"type":"Point","coordinates":[16.3344672,58.4739777]}},{"type":"Feature","properties":{"id":149717308,"osm_type":"way","name":"ICA Supermarket Smedby","category":"grocery","tags":{"addr:city":"Norrköping","addr:country":"SE","addr:housenumber":"101","addr:postcode":"603 61","addr:street":"Bigatan","brand":"ICA Supermarket","brand:wikidata":"Q1663776","brand:wikipedia":"sv:Ica","building":"retail","building:levels":"1","name":"ICA Supermarket Smedby","opening_hours":"Mo-Fr 07:00-22:00","roof:levels":"0","roof:shape":"many","shop":"supermarket","wheelchair":"yes"}},"geometry":{"type":"Point","coordinates":[16.2299169,58.5705359]}},{"type":"Feature","properties":{"id":157911695,"osm_type":"way","name":"OKQ8 Skarphagsleden","category":"grocery","tags":{"addr:city":"Norrköping","addr:postcode":"603 63","addr:street":"Skarphagsleden","amenity":"fuel","brand":"OKQ8","building":"yes","fuel:HGV_diesel":"no","fuel:biodiesel":"yes","fuel:cng":"no","fuel:diesel":"no","fuel:e85":"yes","fuel:lpg":"no","fuel:octane_95":"yes","name":"OKQ8 Skarphagsleden","opening_hours":"Mo-Fr 06:00-22:00; Sa-Su 08:00-22:00","operator":"OKQ8","shop":"convenience"}},"geometry":{"type":"Point","coordinates":[16.1607796,58.5784092]}},{"type":"Feature","properties":{"id":225410338,"osm_type":"way","name":"Salutorget","category":"grocery","tags":{"amenity":"marketplace","name":"Salutorget"}},"geometry":{"type":"Point","coordinates":[16.1859698,58.5892054]}},{"type":"Feature","properties":{"id":225410597,"osm_type":"way","name":"Hötorget","category":"grocery","tags":{"amenity":"marketplace","name":"Hötorget","source":"Bing"}},"geometry":{"type":"Point","coordinates":[16.1920266,58.5865655]}},{"type":"Feature","properties":{"id":255800808,"osm_type":"way","name":"Ica Kvantum Klockaretorpet","category":"grocery","tags":{"addr:city":"Norrköping","addr:country":"SE","addr:housenumber":"1","addr:postcode":"603 80","addr:street":"Folkborgsvägen","brand":"ICA Kvantum","brand:wikidata":"Q1663776","brand:wikipedia":"sv:Ica","building":"retail","name":"Ica Kvantum Klockaretorpet","opening_hours":"Mo-Su 07:00-22:00","shop":"supermarket"}},"geometry":{"type":"Point","coordinates":[16.1412811,58.5820298]}},{"type":"Feature","properties":{"id":287685623,"osm_type":"way","name":"OKQ8 Skärblackavägen","category":"grocery","tags":{"addr:city":"Norrköping","addr:postcode":"60597","addr:street":"Trafikplats Klinga","amenity":"fuel","brand":"OKQ8","building":"yes","fuel:HGV_diesel":"yes","fuel:biodiesel":"no","fuel:cng":"no","fuel:diesel":"yes","fuel:e85":"yes","fuel:octane_95":"yes","name":"OKQ8 Skärblackavägen","opening_hours":"Mo-Fr 06:00-24:00; Sa-Su 07:00-24:00","operator":"OKQ8","shop":"convenience"}},"geometry":{"type":"Point","coordinates":[16.0797716,58.5686203]}},{"type":"Feature","properties":{"id":456093487,"osm_type":"way","name":"Hemköp","category":"grocery","tags":{"brand":"Hemköp","brand:wikidata":"Q10521746","brand:wikipedia":"sv:Hemköp","building":"retail","name":"Hemköp","shop":"supermarket"}},"geometry":{"type":"Point","coordinates":[16.3136875,58.4828235]}},{"type":"Feature","properties":{"id":456093492,"osm_type":"way","name":"Circle K","category":"grocery","tags":{"brand":"Circle K","brand:wikidata":"Q3268010","brand:wikipedia":"sv:Circle K","building":"retail","name":"Circle K","shop":"convenience"}},"geometry":{"type":"Point","coordinates":[16.3134711,58.4838167]}},{"type":"Feature","properties":{"id":456178101,"osm_type":"way","name":"ICA Supermarket Söderköping","category":"grocery","tags":{"brand":"ICA Supermarket","brand:wikidata":"Q1663776","brand:wikipedia":"sv:Ica","building":"retail","building:levels":"1","name":"ICA Supermarket Söderköping","roof:levels":"1","roof:shape":"flat","shop":"supermarket","website":"https://www.ica.se/butiker/supermarket/soderkoping/ica-supermarket-soderkoping-13755/start/"}},"geometry":{"type":"Point","coordinates":[16.3313209,58.4754888]}},{"type":"Feature","properties":{"id":787900698,"osm_type":"way","name":"Lidl","category":"grocery","tags":{"brand":"Lidl","brand:wikidata":"Q151954","brand:wikipedia":"sv:Lidl","building":"retail","name":"Lidl","shop":"supermarket","wheelchair":"yes"}},"geometry":{"type":"Point","coordinates":[16.1442413,58.5823781]}},{"type":"Feature","properties":{"id":1354216664,"osm_type":"way","name":"Hemköp Norrköping Björkalund Östenssons","category":"grocery","tags":{"addr:city":"Norrköping","addr:country":"SE","addr:housenumber":"10","addr:street":"Holmtorpsvägen","brand":"Hemköp","brand:wikidata":"Q10521746","building":"retail","email":"info@ostenssons.se","name":"Hemköp Norrköping Björkalund Östenssons","opening_hours":"07:00-21:00","operator":"Östenssons Livs AB","operator:website":"https://ostenssons.se/","operator:wikidata":"Q10727810","phone":"+46 11-461 18 10","post_office":"post_partner","post_office:brand":"PostNord;Bring;DB_Schenker;DHL","shop":"supermarket","website":"https://www.hemkop.se/butik/4756"}},"geometry":{"type":"Point","coordinates":[16.1695822,58.5595108]}},{"type":"Feature","properties":{"id":1443570395,"osm_type":"way","name":"Stora Coop Ingelsta","category":"grocery","tags":{"brand":"Coop","brand:wikidata":"Q106684510","level":"0","name":"Stora Coop Ingelsta","opening_hours":"07:00-22:00","phone":"+46 10-7433340","shop":"supermarket","website":"https://www.coop.se/butiker-erbjudanden/stora-coop/stora-coop-ingelsta/"}},"geometry":{"type":"Point","coordinates":[16.1574099,58.6180746]}}]}