{"type":"FeatureCollection","features":[{"type":"Feature","properties":{"id":1153081139,"osm_type":"node","name":"Vävens vårdcentral","category":"healthcare_center","tags":{"addr:city":"Norrköping","addr:country":"SE","addr:housenumber":"51","addr:street":"Hantverkaregatan","amenity":"doctors","healthcare":"doctor","name":"Vävens vårdcentral"}},"geometry":{"type":"Point","coordinates":[16.1933915,58.587871]}},{"type":"Feature","properties":{"id":2888636302,"osm_type":"node","name":"Kry vårdcentral Spiran","category":"healthcare_center","tags":{"addr:city":"Norrköping","addr:country":"SE","addr:housenumber":"56","addr:street":"Drottninggatan","amenity":"clinic","healthcare":"clinic","name":"Kry vårdcentral Spiran","operator":"Kry","website":"https://www.kry.se/vardcentraler/ostergotland/spiran/"}},"geometry":{"type":"Point","coordinates":[16.1885727,58.5870795]}},{"type":"Feature","properties":{"id":5392793223,"osm_type":"node","name":"Kvinnokliniken","category":"healthcare_center","tags":{"amenity":"clinic","healthcare":"clinic","healthcare:speciality":"gynaecology","name":"Kvinnokliniken","operator":"Vrinnevisjukhuset"}},"geometry":{"type":"Point","coordinates":[16.1768596,58.5625429]}},{"type":"Feature","properties":{"id":6628771862,"osm_type":"node","name":"Helsa Vårdcentral Vilbergen","category":"healthcare_center","tags":{"amenity":"clinic","name":"Helsa Vårdcentral Vilbergen"}},"geometry":{"type":"Point","coordinates":[16.1700176,58.5713428]}},{"type":"Feature","properties":{"id":7913273916,"osm_type":"node","name":"Cityhälsan Söder","category":"healthcare_center","tags":{"addr:country":"SE","addr:housenumber":"10","addr:street":"Södra torget","amenity":"clinic","healthcare":"clinic","name":"Cityhälsan Söder","operator":"Region Östergötland","operator:type":"public"}},"geometry":{"type":"Point","coordinates":[16.2034752,58.574969]}},{"type":"Feature","properties":{"id":8025129135,"osm_type":"node","name":"Kry barnavårdscentral","category":"healthcare_center","tags":{"amenity":"doctors","healthcare":"doctor","healthcare:speciality":"paediatrics","name":"Kry barnavårdscentral"}},"geometry":{"type":"Point","coordinates":[16.2029829,58.5880073]}},{"type":"Feature","properties":{"id":8050091586,"osm_type":"node","name":"Barnhälsovårdsenheten","category":"healthcare_center","tags":{"amenity":"clinic","healthcare":"nurse","name":"Barnhälsovårdsenheten","operator":"Region Östergötland"}},"geometry":{"type":"Point","coordinates":[16.1917639,58.5892212]}},{"type":"Feature","properties":{"id":8479145905,"osm_type":"node","name":"Lovisa läkarmottagning","category":"healthcare_center","tags":{"addr:city":"Norrköping","addr:country":"SE","addr:housenumber":"1","addr:postcode":"60242","addr:street":"Torggatan","amenity":"doctors","healthcare":"doctor","name":"Lovisa läkarmottagning"}},"geometry":{"type":"Point","coordinates":[16.1870157,58.593242]}},{"type":"Feature","properties":{"id":9097234507,"osm_type":"node","name":"Familjecentralen Sandbyhov","category":"healthcare_center","tags":{"amenity":"clinic","check_date:opening_hours":"2025-09-20","healthcare":"clinic","name":"Familjecentralen Sandbyhov","opening_hours:signed":"no"}},"geometry":{"type":"Point","coordinates":[16.1634922,58.6049379]}},{"type":"Feature","properties":{"id":9128660432,"osm_type":"node","name":"Vårdcentralen Sandbyhov","category":"healthcare_center","tags":{"addr:city":"Norrköping","addr:country":"SE","addr:housenumber":"5","addr:postcode":"602 11","addr:street":"Doktor Butlers gata","amenity":"clinic","check_date:opening_hours":"2025-09-20","healthcare":"clinic","name":"Vårdcentralen Sandbyhov","opening_hours:signed":"no","operator":"Region Östergötland","operator:type":"public"}},"geometry":{"type":"Point","coordinates":[16.163355,58.6049485]}},{"type":"Feature","properties":{"id":10127626158,"osm_type":"node","name":"Fotakuten","category":"healthcare_center","tags":{"addr:city":"Söderköping","addr:housenumber":"7","addr:postcode":"61434","addr:street":"Linköpingsgatan","beauty":"nails","check_date":"2025-05-05","check_date:currency:XBT":"2025-05-05","currency:XBT":"yes","healthcare":"doctor","name":"Fotakuten","payment:lightning":"yes","payment:lightning_contactless":"no","payment:onchain":"yes","phone":"+46 70 247 84 69","shop":"beauty","website":"https://fotakuten.nu/"}},"geometry":{"type":"Point","coordinates":[16.3163612,58.481497]}},{"type":"Feature","properties":{"id":12862541501,"osm_type":"node","name":"Geria Vårdcentral i Söderköping","category":"healthcare_center","tags":{"addr:housenumber":"53","addr:postcode":"61434","addr:street":"Ågatan","amenity":"clinic","name":"Geria Vårdcentral i Söderköping","opening_hours":"Mo-Fr 08:00-17:00","phone":"+46 10 105 92 25","website":"https://doktor.se/vardcentraler/geria-vardcentral"}},"geometry":{"type":"Point","coordinates":[16.3284341,58.4806082]}},{"type":"Feature","properties":{"id":94830645,"osm_type":"way","name":"Såpkullens vårdcentral","category":"healthcare_center","tags":{"addr:city":"Norrköping","addr:country":"SE","addr:housenumber":"18","addr:street":"Gamla Lasarettsgatan","amenity":"doctors","building":"yes","healthcare":"doctor","name":"Såpkullens vårdcentral"}},"geometry":{"type":"Point","coordinates":[16.1782278,58.5828995]}},{"type":"Feature","properties":{"id":102022271,"osm_type":"way","name":"Kneippens vårdcentral","category":"healthcare_center","tags":{"addr:city":"Norrköping","addr:country":"SE","addr:housenumber":"4","addr:street":"Kneippgatan","amenity":"doctors","building":"yes","healthcare":"doctor","name":"Kneippens vårdcentral"}},"geometry":{"type":"Point","coordinates":[16.1628211,58.5856203]}},{"type":"Feature","properties":{"id":1443570396,"osm_type":"way","name":"VaccinDirekt","category":"healthcare_center","tags":{"healthcare":"vaccination_centre","level":"0","name":"VaccinDirekt"}},"geometry":{"type":"Point","coordinates":[16.1564591,58.6177151]}}]}