{"type":"FeatureCollection","features":[{"type":"Feature","properties":{"id":498416470,"osm_type":"node","name":"Sankt Ragnhilds källa","category":"historic_landmark","tags":{"historic":"ruins","name":"Sankt Ragnhilds källa","tourism":"attraction","wheelchair":"no"}},"geometry":{"type":"Point","coordinates":[16.3246886,58.4828664]}},{"type":"Feature","properties":{"id":1798924491,"osm_type":"node","name":"Herrebro petroglyphs","category":"historic_landmark","tags":{"archaeological_site":"petroglyph","historic":"archaeological_site","name":"Herrebro petroglyphs","tourism":"attraction"}},"geometry":{"type":"Point","coordinates":[16.1056504,58.5751283]}},{"type":"Feature","properties":{"id":2681990265,"osm_type":"node","name":"Mässhallen","category":"historic_landmark","tags":{"name":"Mässhallen","tourism":"attraction"}},"geometry":{"type":"Point","coordinates":[16.1467592,58.5868666]}},{"type":"Feature","properties":{"id":3702922689,"osm_type":"node","name":"Runic writings","category":"historic_landmark","tags":{"historic":"yes","name":"Runic writings"}},"geometry":{"type":"Point","coordinates":[16.1725619,58.6121785]}},{"type":"Feature","properties":{"id":5588181613,"osm_type":"node","name":"Kolbotten","category":"historic_landmark","tags":{"description":"Kolbotten","historic":"yes","information":"guidepost","name":"Kolbotten","tourism":"information"}},"geometry":{"type":"Point","coordinates":[16.2648135,58.7358959]}},{"type":"Feature","properties":{"id":5588181614,"osm_type":"node","name":"Kolbotten","category":"historic_landmark","tags":{"description":"Kolbotten","historic":"yes","name":"Kolbotten"}},"geometry":{"type":"Point","coordinates":[16.2649892,58.7359383]}},{"type":"Feature","properties":{"id":6126131375,"osm_type":"node","name":"Persbo","category":"historic_landmark","tags":{"building":"ruins","historic":"yes","name":"Persbo","place":"locality"}},"geometry":{"type":"Point","coordinates":[16.1955917,58.7436856]}},{"type":"Feature","properties":{"id":7207718103,"osm_type":"node","name":"Kjusäng","category":"historic_landmark","tags":{"historic":"yes","name":"Kjusäng","place":"locality"}},"geometry":{"type":"Point","coordinates":[16.2338175,58.7338443]}},{"type":"Feature","properties":{"id":8764383480,"osm_type":"node","name":"Sveden","category":"historic_landmark","tags":{"historic":"yes","name":"Sveden","place":"locality"}},"geometry":{"type":"Point","coordinates":[16.3349611,58.7030364]}},{"type":"Feature","properties":{"id":9421122956,"osm_type":"node","name":"","category":"historic_landmark","tags":{"historic":"yes"}},"geometry":{"type":"Point","coordinates":[16.2489706,58.7435171]}},{"type":"Feature","properties":{"id":10758922619,"osm_type":"node","name":"Varggrop","category":"historic_landmark","tags":{"description":"Varggrop","historic":"yes","name":"Varggrop","place":"locality"}},"geometry":{"type":"Point","coordinates":[16.3268928,58.7442666]}},{"type":"Feature","properties":{"id":12402127005,"osm_type":"node","name":"Sörby Tegelbruk","category":"historic_landmark","tags":{"historic":"yes","name":"Sörby Tegelbruk","place":"locality"}},"geometry":{"type":"Point","coordinates":[16.3253081,58.5455857]}},{"type":"Feature","properties":{"id":12513884813,"osm_type":"node","name":"Fransberg hpl","category":"historic_landmark","tags":{"historic":"yes","name":"Fransberg hpl","place":"locality"}},"geometry":{"type":"Point","coordinates":[16.2929491,58.5196962]}},{"type":"Feature","properties":{"id":12874983250,"osm_type":"node","name":"Skvallertorget","category":"historic_landmark","tags":{"name":"Skvallertorget","tourism":"attraction"}},"geometry":{"type":"Point","coordinates":[16.3167858,58.4806439]}},{"type":"Feature","properties":{"id":13174890661,"osm_type":"node","name":"Strand","category":"historic_landmark","tags":{"historic":"yes","name":"Strand","place":"locality"}},"geometry":{"type":"Point","coordinates":[16.1800858,58.6292296]}},{"type":"Feature","properties":{"id":58839641,"osm_type":"way","name":"Stenkullen","category":"historic_landmark","tags":{"building":"yes","name":"Stenkullen","tourism":"attraction"}},"geometry":{"type":"Point","coordinates":[16.2102501,58.6693383]}},{"type":"Feature","properties":{"id":88798635,"osm_type":"way","name":"Strykjärnet","category":"historic_landmark","tags":{"addr:postcode":"602 21","building":"yes","height":"0","historic":"yes","name":"Strykjärnet","old_name":"Strykjärnet","source":"bing","wikidata":"Q3500731","wikipedia":"sv:Strykjärnet"}},"geometry":{"type":"Point","coordinates":[16.1799594,58.5891255]}},{"type":"Feature","properties":{"id":93314170,"osm_type":"way","name":"Kaktusplanteringen","category":"historic_landmark","tags":{"name":"Kaktusplanteringen","tourism":"attraction","wikidata":"Q119122"}},"geometry":{"type":"Point","coordinates":[16.184559,58.5941853]}},{"type":"Feature","properties":{"id":225410342,"osm_type":"way","name":"Restaurangtorget, Knäppingsborg","category":"historic_landmark","tags":{"name":"Restaurangtorget, Knäppingsborg","tourism":"attraction"}},"geometry":{"type":"Point","coordinates":[16.1852002,58.5891297]}},{"type":"Feature","properties":{"id":544778689,"osm_type":"way","name":"","category":"historic_landmark","tags":{"bridge":"yes","highway":"path","historic":"yes","mtb:scale":"1","trail_visibility":"good"}},"geometry":{"type":"Point","coordinates":[16.176333,58.694212]}},{"type":"Feature","properties":{"id":674186016,"osm_type":"way","name":"","category":"historic_landmark","tags":{"historic":"yes","source":"Lantmäteriet"}},"geometry":{"type":"Point","coordinates":[16.2362194,58.5435914]}},{"type":"Feature","properties":{"id":674186017,"osm_type":"way","name":"","category":"historic_landmark","tags":{"historic":"yes","source":"Lantmäteriet"}},"geometry":{"type":"Point","coordinates":[16.2289457,58.5672641]}},{"type":"Feature","properties":{"id":674186019,"osm_type":"way","name":"","category":"historic_landmark","tags":{"historic":"yes","source":"Lantmäteriet"}},"geometry":{"type":"Point","coordinates":[16.2222754,58.5554209]}},{"type":"Feature","properties":{"id":674186020,"osm_type":"way","name":"","category":"historic_landmark","tags":{"historic":"yes","source":"Lantmäteriet"}},"geometry":{"type":"Point","coordinates":[16.2702361,58.5403082]}},{"type":"Feature","properties":{"id":674188146,"osm_type":"way","name":"","category":"historic_landmark","tags":{"historic":"yes","source":"Lantmäteriet"}},"geometry":{"type":"Point","coordinates":[16.0878822,58.5678466]}},{"type":"Feature","properties":{"id":674188149,"osm_type":"way","name":"","category":"historic_landmark","tags":{"historic":"yes","source":"Lantmäteriet"}},"geometry":{"type":"Point","coordinates":[16.0857752,58.568857]}},{"type":"Feature","properties":{"id":674188151,"osm_type":"way","name":"","category":"historic_landmark","tags":{"historic":"yes","source":"Lantmäteriet"}},"geometry":{"type":"Point","coordinates":[16.0858263,58.5698204]}},{"type":"Feature","properties":{"id":674188153,"osm_type":"way","name":"Brudberget","category":"historic_landmark","tags":{"historic":"yes","name":"Brudberget","source":"Lantmäteriet"}},"geometry":{"type":"Point","coordinates":[16.083975,58.5520635]}},{"type":"Feature","properties":{"id":674189454,"osm_type":"way","name":"","category":"historic_landmark","tags":{"historic":"yes","source":"Lantmäteriet"}},"geometry":{"type":"Point","coordinates":[16.2919849,58.4850863]}},{"type":"Feature","properties":{"id":674189455,"osm_type":"way","name":"","category":"historic_landmark","tags":{"historic":"yes","source":"Lantmäteriet"}},"geometry":{"type":"Point","coordinates":[16.2899889,58.4896048]}},{"type":"Feature","properties":{"id":674189456,"osm_type":"way","name":"","category":"historic_landmark","tags":{"historic":"yes","source":"Lantmäteriet"}},"geometry":{"type":"Point","coordinates":[16.3058791,58.5280995]}},{"type":"Feature","properties":{"id":674189457,"osm_type":"way","name":"","category":"historic_landmark","tags":{"historic":"yes","source":"Lantmäteriet"}},"geometry":{"type":"Point","coordinates":[16.3011993,58.5352274]}},{"type":"Feature","properties":{"id":674189460,"osm_type":"way","name":"","category":"historic_landmark","tags":{"historic":"yes","source":"Lantmäteriet"}},"geometry":{"type":"Point","coordinates":[16.2893913,58.5192243]}},{"type":"Feature","properties":{"id":674189461,"osm_type":"way","name":"","category":"historic_landmark","tags":{"historic":"yes","source":"Lantmäteriet"}},"geometry":{"type":"Point","coordinates":[16.2651345,58.5322372]}},{"type":"Feature","properties":{"id":674189463,"osm_type":"way","name":"","category":"historic_landmark","tags":{"historic":"yes","source":"Lantmäteriet"}},"geometry":{"type":"Point","coordinates":[16.2885681,58.4962087]}},{"type":"Feature","properties":{"id":674189464,"osm_type":"way","name":"","category":"historic_landmark","tags":{"historic":"yes","source":"Lantmäteriet"}},"geometry":{"type":"Point","coordinates":[16.2926129,58.494196]}},{"type":"Feature","properties":{"id":674189465,"osm_type":"way","name":"","category":"historic_landmark","tags":{"historic":"yes","source":"Lantmäteriet"}},"geometry":{"type":"Point","coordinates":[16.1770713,58.4895092]}},{"type":"Feature","properties":{"id":674189988,"osm_type":"way","name":"Stora Rövarborgen","category":"historic_landmark","tags":{"historic":"yes","name":"Stora Rövarborgen","source":"Lantmäteriet"}},"geometry":{"type":"Point","coordinates":[16.0861298,58.5175622]}},{"type":"Feature","properties":{"id":674189990,"osm_type":"way","name":"Lilla Rövarborgen","category":"historic_landmark","tags":{"historic":"yes","name":"Lilla Rövarborgen","source":"Lantmäteriet"}},"geometry":{"type":"Point","coordinates":[16.081225,58.5210866]}},{"type":"Feature","properties":{"id":742155705,"osm_type":"way","name":"Kättsätters gamla tomt","category":"historic_landmark","tags":{"historic":"yes","name":"Kättsätters gamla tomt","source":"Terrängkartan"}},"geometry":{"type":"Point","coordinates":[16.1577665,58.5623437]}},{"type":"Feature","properties":{"id":742155706,"osm_type":"way","name":"","category":"historic_landmark","tags":{"historic":"yes","source":"Terrängkartan"}},"geometry":{"type":"Point","coordinates":[16.1269319,58.5613616]}},{"type":"Feature","properties":{"id":742155708,"osm_type":"way","name":"","category":"historic_landmark","tags":{"historic":"yes","source":"Terrängkartan"}},"geometry":{"type":"Point","coordinates":[16.1181182,58.5660675]}},{"type":"Feature","properties":{"id":781547955,"osm_type":"way","name":"Varggrop","category":"historic_landmark","tags":{"description":"Varggrop","historic":"yes","name":"Varggrop"}},"geometry":{"type":"Point","coordinates":[16.2531041,58.6824776]}},{"type":"Feature","properties":{"id":789022620,"osm_type":"way","name":"","category":"historic_landmark","tags":{"historic":"yes","note":"Needs surveying"}},"geometry":{"type":"Point","coordinates":[16.1505005,58.6848987]}},{"type":"Feature","properties":{"id":845497742,"osm_type":"way","name":"Stallet","category":"historic_landmark","tags":{"building":"yes","building:colour":"#801818","building:levels":"2","building:material":"wood","historic":"yes","name":"Stallet","roof:material":"roof_tiles","roof:shape":"gabled","start_date":"1811"}},"geometry":{"type":"Point","coordinates":[16.1796939,58.5897634]}},{"type":"Feature","properties":{"id":946811693,"osm_type":"way","name":"","category":"historic_landmark","tags":{"historic":"yes","source":"Lantmäteriet Terrängkartan"}},"geometry":{"type":"Point","coordinates":[16.3161967,58.7316002]}},{"type":"Feature","properties":{"id":954862602,"osm_type":"way","name":"","category":"historic_landmark","tags":{"historic":"yes","source":"Lantmäteriet Terrängkartan"}},"geometry":{"type":"Point","coordinates":[16.1942386,58.6191322]}},{"type":"Feature","properties":{"id":958807899,"osm_type":"way","name":"","category":"historic_landmark","tags":{"historic":"yes","source":"Lantmäteriet Terrängkartan"}},"geometry":{"type":"Point","coordinates":[16.1782274,58.6432405]}},{"type":"Feature","properties":{"id":981211085,"osm_type":"way","name":"","category":"historic_landmark","tags":{"historic":"yes","source":"Lantmäteriet Terrängkartan"}},"geometry":{"type":"Point","coordinates":[16.0887158,58.59969]}},{"type":"Feature","properties":{"id":981211086,"osm_type":"way","name":"Fållberga gamla tomt","category":"historic_landmark","tags":{"historic":"yes","name":"Fållberga gamla tomt","source":"Lantmäteriet Terrängkartan"}},"geometry":{"type":"Point","coordinates":[16.092023,58.5966656]}},{"type":"Feature","properties":{"id":1063569752,"osm_type":"way","name":"Eldstiernska gravkoret","category":"historic_landmark","tags":{"historic":"yes","landuse":"cemetery","name":"Eldstiernska gravkoret"}},"geometry":{"type":"Point","coordinates":[16.1310675,58.5910539]}},{"type":"Feature","properties":{"id":1155212381,"osm_type":"way","name":"","category":"historic_landmark","tags":{"historic":"yes","source":"Lantmäteriet"}},"geometry":{"type":"Point","coordinates":[16.0514074,58.5948692]}},{"type":"Feature","properties":{"id":1190236894,"osm_type":"way","name":"","category":"historic_landmark","tags":{"historic":"yes","level":"-1","tunnel":"yes","waterway":"stream"}},"geometry":{"type":"Point","coordinates":[16.1446487,58.7114284]}},{"type":"Feature","properties":{"id":1236050777,"osm_type":"way","name":"","category":"historic_landmark","tags":{"description":"Gravplats","historic":"yes","landuse":"cemetery","note":"Needs surveying"}},"geometry":{"type":"Point","coordinates":[16.0973995,58.7370683]}},{"type":"Feature","properties":{"id":1270109351,"osm_type":"way","name":"","category":"historic_landmark","tags":{"historic":"yes","source":"Lantmäteriet"}},"geometry":{"type":"Point","coordinates":[16.1060015,58.6289096]}},{"type":"Feature","properties":{"id":1270109352,"osm_type":"way","name":"Moteklint","category":"historic_landmark","tags":{"historic":"yes","name":"Moteklint","source":"Lantmäteriet"}},"geometry":{"type":"Point","coordinates":[16.0825,58.6485533]}},{"type":"Feature","properties":{"id":1270109353,"osm_type":"way","name":"Skärlötaborgen","category":"historic_landmark","tags":{"historic":"yes","name":"Skärlötaborgen","source":"Lantmäteriet"}},"geometry":{"type":"Point","coordinates":[16.0910031,58.6498637]}},{"type":"Feature","properties":{"id":1270109354,"osm_type":"way","name":"","category":"historic_landmark","tags":{"historic":"yes","source":"Lantmäteriet"}},"geometry":{"type":"Point","coordinates":[16.1120528,58.6509375]}},{"type":"Feature","properties":{"id":1270109355,"osm_type":"way","name":"Torsborgen","category":"historic_landmark","tags":{"historic":"yes","name":"Torsborgen","source":"Lantmäteriet"}},"geometry":{"type":"Point","coordinates":[16.134253,58.6598605]}},{"type":"Feature","properties":{"id":1274325485,"osm_type":"way","name":"Lillsjöborgen","category":"historic_landmark","tags":{"historic":"yes","name":"Lillsjöborgen"}},"geometry":{"type":"Point","coordinates":[16.1452674,58.6564594]}},{"type":"Feature","properties":{"id":1286497281,"osm_type":"way","name":"","category":"historic_landmark","tags":{"historic":"yes"}},"geometry":{"type":"Point","coordinates":[16.1454284,58.6230591]}},{"type":"Feature","properties":{"id":1286497282,"osm_type":"way","name":"","category":"historic_landmark","tags":{"historic":"yes"}},"geometry":{"type":"Point","coordinates":[16.1497199,58.6234166]}},{"type":"Feature","properties":{"id":1354232760,"osm_type":"way","name":"","category":"historic_landmark","tags":{"building":"yes","historic":"building"}},"geometry":{"type":"Point","coordinates":[16.1683285,58.588171]}},{"type":"Feature","properties":{"id":1354232761,"osm_type":"way","name":"","category":"historic_landmark","tags":{"building":"yes","historic":"building"}},"geometry":{"type":"Point","coordinates":[16.1686002,58.5881143]}},{"type":"Feature","properties":{"id":1354232762,"osm_type":"way","name":"","category":"historic_landmark","tags":{"building":"yes","historic":"building"}},"geometry":{"type":"Point","coordinates":[16.1682454,58.587829]}},{"type":"Feature","properties":{"id":1358625091,"osm_type":"way","name":"","category":"historic_landmark","tags":{"historic":"yes","landuse":"quarry"}},"geometry":{"type":"Point","coordinates":[16.3321222,58.7156325]}},{"type":"Feature","properties":{"id":1421562610,"osm_type":"way","name":"","category":"historic_landmark","tags":{"highway":"path","historic":"yes","note":"Needs more surveying"}},"geometry":{"type":"Point","coordinates":[16.2272681,58.7182891]}},{"type":"Feature","properties":{"id":1427644732,"osm_type":"way","name":"Åselstads gamla tomt","category":"historic_landmark","tags":{"historic":"yes","name":"Åselstads gamla tomt"}},"geometry":{"type":"Point","coordinates":[16.2349812,58.5487289]}},{"type":"Feature","properties":{"id":1441512928,"osm_type":"way","name":"","category":"historic_landmark","tags":{"historic":"yes"}},"geometry":{"type":"Point","coordinates":[16.0454759,58.5119602]}},{"type":"Feature","properties":{"id":1441512929,"osm_type":"way","name":"","category":"historic_landmark","tags":{"historic":"yes"}},"geometry":{"type":"Point","coordinates":[16.07126,58.494804]}},{"type":"Feature","properties":{"id":1443226407,"osm_type":"way","name":"Broby gamla tomt","category":"historic_landmark","tags":{"historic":"yes","name":"Broby gamla tomt"}},"geometry":{"type":"Point","coordinates":[16.1678022,58.4915812]}},{"type":"Feature","properties":{"id":1488897631,"osm_type":"way","name":"","category":"historic_landmark","tags":{"historic":"yes"}},"geometry":{"type":"Point","coordinates":[16.0682545,58.6704072]}}]}