{"type":"FeatureCollection","features":[{"type":"Feature","properties":{"id":1325759,"osm_type":"relation","name":"Vrinnevisjukhuset","category":"hospital","tags":{"addr:city":"Norrköping","addr:country":"SE","addr:housenumber":"25","addr:postcode":"601 82","addr:street":"Gamla Övägen","amenity":"hospital","building":"hospital","emergency":"yes","health_specialty:emergency_medicine":"yes","health_specialty:family_medicine":"yes","health_specialty:intensive_care_medicine":"yes","health_specialty:orthopaedics":"yes","health_specialty:surgery":"yes","healthcare":"hospital","layer":"1","name":"Vrinnevisjukhuset","opening_hours":"24/7","phone":"+46 10 103 00 00","type":"multipolygon","website":"https://www.1177.se/hitta-vard/kontaktkort/Vrinnevisjukhuset-i-Norrkoping/","wikidata":"Q10716987"}},"geometry":{"type":"Point","coordinates":[16.1784886,58.5634112]}}]}