{"type":"FeatureCollection","features":[{"type":"Feature","properties":{"id":287088525,"osm_type":"node","name":"Getå turisthotell","category":"hotel","tags":{"name":"Getå turisthotell","tourism":"hotel"}},"geometry":{"type":"Point","coordinates":[16.293991,58.6669567]}},{"type":"Feature","properties":{"id":453644183,"osm_type":"node","name":"Mangelgården","category":"hotel","tags":{"name":"Mangelgården","tourism":"hostel"}},"geometry":{"type":"Point","coordinates":[16.3338654,58.4781341]}},{"type":"Feature","properties":{"id":558530191,"osm_type":"node","name":"Hotel Centric","category":"hotel","tags":{"addr:city":"Norrköping","addr:country":"SE","addr:housenumber":"18-20","addr:street":"Gamla Rådstugugatan","name":"Hotel Centric","stars":"3","tourism":"hotel"}},"geometry":{"type":"Point","coordinates":[16.1851949,58.5911252]}},{"type":"Feature","properties":{"id":624527280,"osm_type":"node","name":"Scandic City","category":"hotel","tags":{"addr:city":"Norrköping","addr:country":"SE","addr:housenumber":"99","addr:street":"Slottsgatan","brand":"Scandic Hotels","brand:wikidata":"Q129391","name":"Scandic City","tourism":"hotel"}},"geometry":{"type":"Point","coordinates":[16.1859325,58.5949158]}},{"type":"Feature","properties":{"id":815902547,"osm_type":"node","name":"Brådtom Sluss slusscafé & stugor","category":"hotel","tags":{"name":"Brådtom Sluss slusscafé & stugor","tourism":"hostel","website":"https://bradtomsluss.se/"}},"geometry":{"type":"Point","coordinates":[16.0324215,58.5082692]}},{"type":"Feature","properties":{"id":815953630,"osm_type":"node","name":"Abborrebergs Veranda","category":"hotel","tags":{"name":"Abborrebergs Veranda","tourism":"hostel","website":"http://www.abborreberg.se/"}},"geometry":{"type":"Point","coordinates":[16.2727625,58.6091398]}},{"type":"Feature","properties":{"id":815953634,"osm_type":"node","name":"Turistgården","category":"hotel","tags":{"addr:city":"Norrköping","addr:country":"SE","addr:housenumber":"31","addr:street":"Ingelstagatan","alt_name":"Turistgården","name":"Turistgården","tourism":"hostel","website":"https://turistgarden.se/"}},"geometry":{"type":"Point","coordinates":[16.1753404,58.6006892]}},{"type":"Feature","properties":{"id":818001752,"osm_type":"node","name":"Tallbackens Gård vandrarhem","category":"hotel","tags":{"addr:city":"Norrköping","addr:country":"SE","addr:housename":"497","addr:postcode":"60580","addr:street":"Finspångsvägen","name":"Tallbackens Gård vandrarhem","tourism":"hostel","website":"https://www.tallbackensgard.se/"}},"geometry":{"type":"Point","coordinates":[16.0575762,58.6456648]}},{"type":"Feature","properties":{"id":818079756,"osm_type":"node","name":"Söderköpings Camping & Vandrarhem","category":"hotel","tags":{"check_date":"2025-07-17","name":"Söderköpings Camping & Vandrarhem","tourism":"hostel","website":"https://www.soderkopingscamping.se/"}},"geometry":{"type":"Point","coordinates":[16.3065803,58.4913755]}},{"type":"Feature","properties":{"id":1149910757,"osm_type":"node","name":"Strand hotell","category":"hotel","tags":{"check_date":"2024-05-10","contact:website":"http://www.hotelstrand.se","name":"Strand hotell","tourism":"hotel"}},"geometry":{"type":"Point","coordinates":[16.1857373,58.5929779]}},{"type":"Feature","properties":{"id":1158304022,"osm_type":"node","name":"Best Western Princess Hotel","category":"hotel","tags":{"addr:city":"Norrköping","addr:country":"SE","addr:housenumber":"8","addr:street":"Skomakaregatan","brand":"Best Western","brand:wikidata":"Q830334","contact:phone":"+46 11 28 58 40","contact:website":"http://www.princesshotel.se/","name":"Best Western Princess Hotel","tourism":"hotel","wikidata":"Q111875487"}},"geometry":{"type":"Point","coordinates":[16.1870777,58.5867617]}},{"type":"Feature","properties":{"id":1313899994,"osm_type":"node","name":"Hotell Hörnan","category":"hotel","tags":{"name":"Hotell Hörnan","tourism":"hotel","wikidata":"Q112014280"}},"geometry":{"type":"Point","coordinates":[16.1880898,58.5861326]}},{"type":"Feature","properties":{"id":1818309113,"osm_type":"node","name":"Vattengrändens Vanderhem&Hotel","category":"hotel","tags":{"check_date":"2025-01-29","name":"Vattengrändens Vanderhem&Hotel","phone":"+46 73 140 56 25","tourism":"hostel","website":"https://www.marican-hotel.com/","wikidata":"Q111111871"}},"geometry":{"type":"Point","coordinates":[16.1815185,58.5934395]}},{"type":"Feature","properties":{"id":2341975493,"osm_type":"node","name":"The Lamp Hotel","category":"hotel","tags":{"name":"The Lamp Hotel","tourism":"hotel"}},"geometry":{"type":"Point","coordinates":[16.1877084,58.5908977]}},{"type":"Feature","properties":{"id":2342037253,"osm_type":"node","name":"Hotel President","category":"hotel","tags":{"addr:city":"Norrköping","addr:country":"SE","addr:housenumber":"11","addr:postcode":"602 22","addr:street":"Vattengränden","brand":"ProfilHotels","email":"hotelpresident@profilhotels.se","internet_access":"wlan","name":"Hotel President","operator":"Ligula Hospitality Group AB","phone":"+46 11 12 95 20","rooms":"78","smoking":"no","tourism":"hotel","website":"https://ligula.se/profilhotels/hotel-president/"}},"geometry":{"type":"Point","coordinates":[16.1814238,58.5939742]}},{"type":"Feature","properties":{"id":3021915333,"osm_type":"node","name":"Centralstationens Hotell & Vandrarhem","category":"hotel","tags":{"check_date":"2024-05-13","contact:website":"http://www.centralstationens.se/","internet_access":"wlan","name":"Centralstationens Hotell & Vandrarhem","phone":"+46 11 10 18 28","tourism":"hostel"}},"geometry":{"type":"Point","coordinates":[16.183006,58.596291]}},{"type":"Feature","properties":{"id":4350836711,"osm_type":"node","name":"Pronova Hotell & Vandrarhem","category":"hotel","tags":{"name":"Pronova Hotell & Vandrarhem","tourism":"hostel","website":"https://www.pronovahostel.se/","wikidata":"Q112014279"}},"geometry":{"type":"Point","coordinates":[16.173267,58.5884727]}},{"type":"Feature","properties":{"id":5263390937,"osm_type":"node","name":"Comfort Hotell Norrköping","category":"hotel","tags":{"addr:country":"SE","addr:housenumber":"29","addr:street":"Saltängsgatan","check_date":"2024-05-09","name":"Comfort Hotell Norrköping","operator":"Nordic Choice hotell","phone":"+46 11 15 65 00","tourism":"hotel","website":"https://www.nordicchoicehotels.se/hotell/sverige/norrkoping/comfort-hotel-norrkoping/"}},"geometry":{"type":"Point","coordinates":[16.1926063,58.5952675]}},{"type":"Feature","properties":{"id":7087944691,"osm_type":"node","name":"First Hotel Central","category":"hotel","tags":{"brand":"First Hotels","brand:wikidata":"Q11969007","name":"First Hotel Central","tourism":"hotel","website":"https://www.firsthotels.com/hotels/sweden/norrkoping/first-hotel-central/","website:da":"https://www.firsthotels.dk/hoteller/sverige/norrkoping/first-hotel-central/","website:en":"https://www.firsthotels.com/hotels/sweden/norrkoping/first-hotel-central/","website:no":"https://www.firsthotels.no/hoteller/sverige/norrkoping/first-hotel-central/","website:sv":"https://www.firsthotels.se/hotell/sverige/norrkoping/first-hotel-central/","wikidata":"Q111875486"}},"geometry":{"type":"Point","coordinates":[16.1886379,58.5924142]}},{"type":"Feature","properties":{"id":12542144174,"osm_type":"node","name":"Hotel Drott","category":"hotel","tags":{"check_date":"2025-01-29","name":"Hotel Drott","tourism":"hotel"}},"geometry":{"type":"Point","coordinates":[16.1794948,58.5916328]}},{"type":"Feature","properties":{"id":12873214263,"osm_type":"node","name":"Slussen rum","category":"hotel","tags":{"name":"Slussen rum","tourism":"hotel","website":"https://slussenrum.se/"}},"geometry":{"type":"Point","coordinates":[16.3248207,58.4820408]}},{"type":"Feature","properties":{"id":12879745974,"osm_type":"node","name":"VANDER Inre Hamnen","category":"hotel","tags":{"brand":"VANDER","internet_access":"wlan","internet_access:fee":"no","name":"VANDER Inre Hamnen","tourism":"hotel","website":"https://vanderapartments.com"}},"geometry":{"type":"Point","coordinates":[16.2016966,58.5953918]}},{"type":"Feature","properties":{"id":13086431446,"osm_type":"node","name":"Johannas Guest House","category":"hotel","tags":{"name":"Johannas Guest House","tourism":"guest_house"}},"geometry":{"type":"Point","coordinates":[16.3266231,58.4799458]}},{"type":"Feature","properties":{"id":92413289,"osm_type":"way","name":"Elite Grand Hotell","category":"hotel","tags":{"brand":"Elite Hotels","building":"hotel","building:colour":"#ffa500","building:levels":"6","check_date":"2025-07-09","height":"20","name":"Elite Grand Hotell","roof:colour":"black","roof:levels":"1","tourism":"hotel"}},"geometry":{"type":"Point","coordinates":[16.1864731,58.592996]}},{"type":"Feature","properties":{"id":93353418,"osm_type":"way","name":"Hotell Nordic","category":"hotel","tags":{"building":"yes","name":"Hotell Nordic","source":"Bing","tourism":"hotel","wikidata":"Q111875482"}},"geometry":{"type":"Point","coordinates":[16.1722277,58.5968346]}},{"type":"Feature","properties":{"id":94467518,"osm_type":"way","name":"Scandic Norrköping Nord","category":"hotel","tags":{"addr:city":"Norrköping","addr:country":"SE","addr:housenumber":"17","addr:street":"Järngatan","brand":"Scandic Hotels","brand:wikidata":"Q129391","building":"hotel","name":"Scandic Norrköping Nord","phone":"+46 11 495 55 00","tourism":"hotel","website":"https://www.scandichotels.com/sv/hotell/scandic-norrkoping-nord","wikidata":"Q111410068"}},"geometry":{"type":"Point","coordinates":[16.1612548,58.6186841]}},{"type":"Feature","properties":{"id":96957695,"osm_type":"way","name":"Södra hotellet","category":"hotel","tags":{"addr:city":"Norrköping","addr:country":"SE","addr:housenumber":"142","addr:postcode":"602 31","addr:street":"Södra Promenaden","building":"yes","name":"Södra hotellet","tourism":"hotel","website":"https://www.sodrahotellet.se/"}},"geometry":{"type":"Point","coordinates":[16.1990919,58.5851659]}},{"type":"Feature","properties":{"id":102346888,"osm_type":"way","name":"Hotell Kneippen","category":"hotel","tags":{"addr:city":"Norrköping","addr:country":"SE","addr:housenumber":"7","addr:street":"Kneippgatan","building":"yes","contact:website":"http://www.kneippen.se/","name":"Hotell Kneippen","tourism":"hotel"}},"geometry":{"type":"Point","coordinates":[16.1612802,58.5860698]}},{"type":"Feature","properties":{"id":275574832,"osm_type":"way","name":"Borgs Villahotell","category":"hotel","tags":{"addr:city":"Norrköping","addr:country":"SE","addr:housenumber":"27","addr:postcode":"603 37","addr:street":"Odensgatan","building":"yes","internet_access":"wlan","internet_access:fee":"no","name":"Borgs Villahotell","tourism":"hotel","wikidata":"Q112014282"}},"geometry":{"type":"Point","coordinates":[16.1603607,58.5818166]}},{"type":"Feature","properties":{"id":299205782,"osm_type":"way","name":"Villa Fridhem","category":"hotel","tags":{"building":"yes","name":"Villa Fridhem","tourism":"hotel","website":"https://villafridhem.se"}},"geometry":{"type":"Point","coordinates":[16.2576869,58.6697824]}},{"type":"Feature","properties":{"id":299205783,"osm_type":"way","name":"Villa Fridhem","category":"hotel","tags":{"building":"yes","name":"Villa Fridhem","tourism":"hotel","website":"https://villafridhem.se"}},"geometry":{"type":"Point","coordinates":[16.2581626,58.6696023]}},{"type":"Feature","properties":{"id":527979495,"osm_type":"way","name":"Söderköpings Brunn","category":"hotel","tags":{"addr:city":"Söderköping","addr:country":"SE","addr:housenumber":"35","addr:postcode":"614 30","addr:street":"Skönbergagatan","amenity":"restaurant","building":"yes","name":"Söderköpings Brunn","phone":"+46 121 10900","tourism":"hotel","website":"http://soderkopingsbrunn.se","wikidata":"Q111875494"}},"geometry":{"type":"Point","coordinates":[16.3306652,58.4793937]}}]}