{"type":"FeatureCollection","features":[{"type":"Feature","properties":{"id":822037271,"osm_type":"node","name":"","category":"kindergarten","tags":{"amenity":"kindergarten"}},"geometry":{"type":"Point","coordinates":[16.1793033,58.6643676]}},{"type":"Feature","properties":{"id":1153081138,"osm_type":"node","name":"Strandgårdens förskola","category":"kindergarten","tags":{"amenity":"kindergarten","name":"Strandgårdens förskola"}},"geometry":{"type":"Point","coordinates":[16.1898752,58.5949901]}},{"type":"Feature","properties":{"id":1368296600,"osm_type":"node","name":"Förskolan Liljan","category":"kindergarten","tags":{"amenity":"kindergarten","name":"Förskolan Liljan"}},"geometry":{"type":"Point","coordinates":[16.160997,58.653621]}},{"type":"Feature","properties":{"id":1785627491,"osm_type":"node","name":"Klätterträdet","category":"kindergarten","tags":{"amenity":"kindergarten","name":"Klätterträdet"}},"geometry":{"type":"Point","coordinates":[16.1560553,58.5778184]}},{"type":"Feature","properties":{"id":3183766689,"osm_type":"node","name":"Bitbockens förskola","category":"kindergarten","tags":{"amenity":"kindergarten","name":"Bitbockens förskola"}},"geometry":{"type":"Point","coordinates":[16.2366191,58.5690778]}},{"type":"Feature","properties":{"id":3183766690,"osm_type":"node","name":"Bjärby förskola","category":"kindergarten","tags":{"amenity":"kindergarten","name":"Bjärby förskola"}},"geometry":{"type":"Point","coordinates":[16.242842,58.5705247]}},{"type":"Feature","properties":{"id":3183766691,"osm_type":"node","name":"Enbärets förskola","category":"kindergarten","tags":{"amenity":"kindergarten","name":"Enbärets förskola"}},"geometry":{"type":"Point","coordinates":[16.2409019,58.5688945]}},{"type":"Feature","properties":{"id":3183766692,"osm_type":"node","name":"Hageby öppna förskola","category":"kindergarten","tags":{"amenity":"kindergarten","name":"Hageby öppna förskola"}},"geometry":{"type":"Point","coordinates":[16.2080985,58.5782035]}},{"type":"Feature","properties":{"id":3183766693,"osm_type":"node","name":"Månens natt- och helgomsorg","category":"kindergarten","tags":{"amenity":"kindergarten","check_date":"2025-09-19","name":"Månens natt- och helgomsorg"}},"geometry":{"type":"Point","coordinates":[16.1922439,58.5783113]}},{"type":"Feature","properties":{"id":3183766694,"osm_type":"node","name":"Nyckelpigans förskola","category":"kindergarten","tags":{"amenity":"kindergarten","name":"Nyckelpigans förskola"}},"geometry":{"type":"Point","coordinates":[16.2122605,58.5659962]}},{"type":"Feature","properties":{"id":3183766834,"osm_type":"node","name":"Önskestjärnans förskola","category":"kindergarten","tags":{"amenity":"kindergarten","check_date":"2024-05-27","name":"Önskestjärnans förskola"}},"geometry":{"type":"Point","coordinates":[16.2121201,58.5714496]}},{"type":"Feature","properties":{"id":9073462779,"osm_type":"node","name":"Hyacintens förskola","category":"kindergarten","tags":{"amenity":"childcare","check_date":"2025-08-20","name":"Hyacintens förskola","operator":"Norrköpings kommun","operator:type":"public"}},"geometry":{"type":"Point","coordinates":[16.1557021,58.5975617]}},{"type":"Feature","properties":{"id":10905668925,"osm_type":"node","name":"Kastanjegårdem","category":"kindergarten","tags":{"amenity":"kindergarten","name":"Kastanjegårdem"}},"geometry":{"type":"Point","coordinates":[16.1794013,58.5911918]}},{"type":"Feature","properties":{"id":11208823856,"osm_type":"node","name":"","category":"kindergarten","tags":{"amenity":"kindergarten"}},"geometry":{"type":"Point","coordinates":[16.1322355,58.6157932]}},{"type":"Feature","properties":{"id":12553783237,"osm_type":"node","name":"Vittra Röda Stan","category":"kindergarten","tags":{"addr:city":"Norrköping","addr:housenumber":"11","addr:postcode":"602 18","addr:street":"Bergslagsgatan","amenity":"kindergarten","contact:email":"rodastan@vittra.se","contact:phone":"+46 11-21 14 70","name":"Vittra Röda Stan","operator":"Academedia","operator:type":"private","preschool":"yes","website":"https://vittra.se/roda-stan/om/forskola/"}},"geometry":{"type":"Point","coordinates":[16.168498,58.5953114]}},{"type":"Feature","properties":{"id":88598828,"osm_type":"way","name":"Fridtunatäppan","category":"kindergarten","tags":{"addr:city":"Norrköping","addr:country":"SE","addr:housenumber":"19","addr:postcode":"602 35","addr:street":"Hagebygatan","amenity":"kindergarten","building":"yes","building:levels":"1","contact:phone":"+46-11-152122","name":"Fridtunatäppan"}},"geometry":{"type":"Point","coordinates":[16.1934915,58.5822569]}},{"type":"Feature","properties":{"id":88749554,"osm_type":"way","name":"Torshags Förskola","category":"kindergarten","tags":{"addr:city":"Åby","addr:country":"SE","addr:housenumber":"39","addr:postcode":"61633","addr:street":"Katrineholmsvägen","amenity":"kindergarten","building":"yes","name":"Torshags Förskola","operator":"Norrköpings kommun"}},"geometry":{"type":"Point","coordinates":[16.1729344,58.6759337]}},{"type":"Feature","properties":{"id":91331033,"osm_type":"way","name":"Klingsta förskola","category":"kindergarten","tags":{"addr:country":"SE","addr:housenumber":"3","addr:street":"Åbymovägen","amenity":"kindergarten","building":"yes","name":"Klingsta förskola"}},"geometry":{"type":"Point","coordinates":[16.1795113,58.6644133]}},{"type":"Feature","properties":{"id":92017185,"osm_type":"way","name":"Förskolan Nektarinen","category":"kindergarten","tags":{"addr:city":"Norrköping","addr:country":"SE","addr:housenumber":"26","addr:street":"Gjuterigatan","amenity":"kindergarten","building":"kindergarten","name":"Förskolan Nektarinen"}},"geometry":{"type":"Point","coordinates":[16.1680157,58.5982523]}},{"type":"Feature","properties":{"id":92144916,"osm_type":"way","name":"Kvarntorpets Förskola","category":"kindergarten","tags":{"addr:country":"SE","addr:housenumber":"7","addr:street":"Konsumvägen","amenity":"kindergarten","building":"yes","name":"Kvarntorpets Förskola","operator":"Norrköpings kommun"}},"geometry":{"type":"Point","coordinates":[16.1837505,58.6711009]}},{"type":"Feature","properties":{"id":92342105,"osm_type":"way","name":"","category":"kindergarten","tags":{"addr:city":"Norrköping","addr:country":"SE","addr:housenumber":"6","addr:street":"Sprängstensgatan","amenity":"kindergarten","building":"yes"}},"geometry":{"type":"Point","coordinates":[16.1814183,58.5698553]}},{"type":"Feature","properties":{"id":93460840,"osm_type":"way","name":"Äpplets förskola","category":"kindergarten","tags":{"addr:city":"Norrköping","addr:country":"SE","addr:housenumber":"270","addr:street":"Lidaleden","amenity":"kindergarten","name":"Äpplets förskola"}},"geometry":{"type":"Point","coordinates":[16.2198491,58.5701529]}},{"type":"Feature","properties":{"id":93900001,"osm_type":"way","name":"Förskola Moagården","category":"kindergarten","tags":{"addr:city":"Norrköping","addr:country":"SE","addr:housenumber":"11","addr:postcode":"603 54","addr:street":"Fältskärsgatan","amenity":"kindergarten","building":"apartments","building:levels":"1","building:material":"brick","name":"Förskola Moagården","roof:shape":"gabled"}},"geometry":{"type":"Point","coordinates":[16.191196,58.5781059]}},{"type":"Feature","properties":{"id":93900005,"osm_type":"way","name":"Moagården","category":"kindergarten","tags":{"amenity":"kindergarten","check_date":"2025-08-17","name":"Moagården"}},"geometry":{"type":"Point","coordinates":[16.1913291,58.57806]}},{"type":"Feature","properties":{"id":94706759,"osm_type":"way","name":"Förskolan Igelkotten / Harlyckans skola och fritidshem","category":"kindergarten","tags":{"addr:city":"Norrköping","addr:country":"SE","addr:housenumber":"12","addr:street":"Stafettgatan","amenity":"kindergarten","name":"Förskolan Igelkotten / Harlyckans skola och fritidshem"}},"geometry":{"type":"Point","coordinates":[16.1722344,58.5772884]}},{"type":"Feature","properties":{"id":94708285,"osm_type":"way","name":"Kaffebackens förskola","category":"kindergarten","tags":{"amenity":"kindergarten","name":"Kaffebackens förskola"}},"geometry":{"type":"Point","coordinates":[16.1745035,58.5761579]}},{"type":"Feature","properties":{"id":94708287,"osm_type":"way","name":"Kaffebackens förskola","category":"kindergarten","tags":{"addr:city":"Norrköping","addr:country":"SE","addr:housenumber":"11","addr:street":"Ektorpsgatan","amenity":"kindergarten","building":"yes","name":"Kaffebackens förskola"}},"geometry":{"type":"Point","coordinates":[16.1745273,58.5761567]}},{"type":"Feature","properties":{"id":95514100,"osm_type":"way","name":"Albäcken","category":"kindergarten","tags":{"addr:country":"SE","addr:housenumber":"2","addr:street":"Stenbrinksvägen","amenity":"kindergarten","building":"yes","name":"Albäcken"}},"geometry":{"type":"Point","coordinates":[16.1791541,58.6679731]}},{"type":"Feature","properties":{"id":95534495,"osm_type":"way","name":"Domarringen förskola","category":"kindergarten","tags":{"amenity":"kindergarten","name":"Domarringen förskola"}},"geometry":{"type":"Point","coordinates":[16.1755604,58.5802059]}},{"type":"Feature","properties":{"id":95557875,"osm_type":"way","name":"Jursla förskola","category":"kindergarten","tags":{"addr:country":"SE","addr:housenumber":"1","addr:street":"Jursla Trädgårdsväg","amenity":"kindergarten","building":"yes","name":"Jursla förskola"}},"geometry":{"type":"Point","coordinates":[16.1602746,58.6525278]}},{"type":"Feature","properties":{"id":95582682,"osm_type":"way","name":"Förskolan Nyckelpigan","category":"kindergarten","tags":{"addr:city":"Norrköping","addr:country":"SE","addr:housenumber":"32","addr:postcode":"603 59","addr:street":"Timmermansgatan","amenity":"kindergarten","building":"yes","building:levels":"2","name":"Förskolan Nyckelpigan"}},"geometry":{"type":"Point","coordinates":[16.2085852,58.5740162]}},{"type":"Feature","properties":{"id":96580332,"osm_type":"way","name":"Förskolan Flagglinan","category":"kindergarten","tags":{"amenity":"kindergarten","name":"Förskolan Flagglinan"}},"geometry":{"type":"Point","coordinates":[16.1941337,58.5911883]}},{"type":"Feature","properties":{"id":96580335,"osm_type":"way","name":"","category":"kindergarten","tags":{"addr:city":"Norrköping","addr:country":"SE","addr:housenumber":"53","addr:street":"Knäppingsborgsgatan","amenity":"kindergarten","building":"yes"}},"geometry":{"type":"Point","coordinates":[16.1942313,58.5912014]}},{"type":"Feature","properties":{"id":97689405,"osm_type":"way","name":"Solstrålens förskola","category":"kindergarten","tags":{"amenity":"kindergarten","building":"yes","name":"Solstrålens förskola"}},"geometry":{"type":"Point","coordinates":[16.2625032,58.6053645]}},{"type":"Feature","properties":{"id":97689409,"osm_type":"way","name":"Båtens förskola","category":"kindergarten","tags":{"addr:country":"SE","addr:housenumber":"3","addr:street":"Travbanevägen","amenity":"kindergarten","check_date":"2025-08-28","name":"Båtens förskola"}},"geometry":{"type":"Point","coordinates":[16.261462,58.6058041]}},{"type":"Feature","properties":{"id":97689410,"osm_type":"way","name":"Solstrålens förskola","category":"kindergarten","tags":{"amenity":"kindergarten","name":"Solstrålens förskola"}},"geometry":{"type":"Point","coordinates":[16.2627185,58.6054512]}},{"type":"Feature","properties":{"id":97992128,"osm_type":"way","name":"Förskolan Fågelsången","category":"kindergarten","tags":{"addr:city":"Norrköping","addr:country":"SE","addr:housenumber":"56","addr:postcode":"602 28","addr:street":"Storsvängen","amenity":"kindergarten","building":"yes","name":"Förskolan Fågelsången"}},"geometry":{"type":"Point","coordinates":[16.211036,58.5866321]}},{"type":"Feature","properties":{"id":97992130,"osm_type":"way","name":"","category":"kindergarten","tags":{"amenity":"kindergarten","building":"yes"}},"geometry":{"type":"Point","coordinates":[16.2106454,58.5867606]}},{"type":"Feature","properties":{"id":97992131,"osm_type":"way","name":"","category":"kindergarten","tags":{"amenity":"kindergarten"}},"geometry":{"type":"Point","coordinates":[16.2107752,58.5865819]}},{"type":"Feature","properties":{"id":97992732,"osm_type":"way","name":"","category":"kindergarten","tags":{"amenity":"kindergarten"}},"geometry":{"type":"Point","coordinates":[16.2092766,58.5872622]}},{"type":"Feature","properties":{"id":97992734,"osm_type":"way","name":"Förskolan Vimpeln","category":"kindergarten","tags":{"addr:city":"Norrköping","addr:country":"SE","addr:housenumber":"6","addr:postcode":"602 28","addr:street":"Tvåbackarbrinken","amenity":"kindergarten","building":"yes","name":"Förskolan Vimpeln"}},"geometry":{"type":"Point","coordinates":[16.2092072,58.587309]}},{"type":"Feature","properties":{"id":99242076,"osm_type":"way","name":"Stationsgärdets förskola","category":"kindergarten","tags":{"amenity":"kindergarten","barrier":"fence","name":"Stationsgärdets förskola","operator":"Norrköpings kommun"}},"geometry":{"type":"Point","coordinates":[16.1782569,58.6586568]}},{"type":"Feature","properties":{"id":99737365,"osm_type":"way","name":"Fröbelgården","category":"kindergarten","tags":{"addr:city":"Norrköping","addr:country":"SE","addr:housenumber":"14","addr:street":"Tulegatan","amenity":"kindergarten","building":"yes","name":"Fröbelgården"}},"geometry":{"type":"Point","coordinates":[16.166539,58.5961704]}},{"type":"Feature","properties":{"id":99738565,"osm_type":"way","name":"Plysaren","category":"kindergarten","tags":{"addr:city":"Norrköping","addr:country":"SE","addr:housenumber":"10","addr:street":"Bergslagsgatan","amenity":"kindergarten","building":"yes","name":"Plysaren"}},"geometry":{"type":"Point","coordinates":[16.1703472,58.5967098]}},{"type":"Feature","properties":{"id":99743053,"osm_type":"way","name":"Regnbågens förskola","category":"kindergarten","tags":{"addr:city":"Norrköping","addr:country":"SE","addr:housenumber":"65","addr:street":"Albrektsvägen","amenity":"kindergarten","building":"yes","name":"Regnbågens förskola"}},"geometry":{"type":"Point","coordinates":[16.1994332,58.581249]}},{"type":"Feature","properties":{"id":99743054,"osm_type":"way","name":"","category":"kindergarten","tags":{"addr:city":"Norrköping","addr:country":"SE","addr:housenumber":"270","addr:postcode":"603 81","addr:street":"Lidaleden","amenity":"kindergarten","building":"yes"}},"geometry":{"type":"Point","coordinates":[16.2199311,58.5703192]}},{"type":"Feature","properties":{"id":99745675,"osm_type":"way","name":"Villastadens förskola","category":"kindergarten","tags":{"addr:city":"Norrköping","addr:country":"SE","addr:housenumber":"9","addr:street":"Rågatan","amenity":"kindergarten","building":"yes","name":"Villastadens förskola"}},"geometry":{"type":"Point","coordinates":[16.1546689,58.5828513]}},{"type":"Feature","properties":{"id":99745682,"osm_type":"way","name":"Taborsbergs förskola","category":"kindergarten","tags":{"addr:city":"Norrköping","addr:country":"SE","addr:housenumber":"29","addr:street":"Taborsbergsvägen","amenity":"kindergarten","building":"yes","name":"Taborsbergs förskola"}},"geometry":{"type":"Point","coordinates":[16.15445,58.6017001]}},{"type":"Feature","properties":{"id":101180431,"osm_type":"way","name":"Förskola Trombonen","category":"kindergarten","tags":{"addr:city":"Norrköping","addr:country":"SE","addr:housenumber":"72","addr:postcode":"603 76","addr:street":"Mathilda Jungstedts gata","amenity":"kindergarten","barrier":"fence","fence_type":"wire","name":"Förskola Trombonen","operator":"Norrköpings kommun"}},"geometry":{"type":"Point","coordinates":[16.1233988,58.5757641]}},{"type":"Feature","properties":{"id":101261942,"osm_type":"way","name":"Förskola Kättsätter","category":"kindergarten","tags":{"amenity":"kindergarten","name":"Förskola Kättsätter","operator":"Norrköpings kommun","operator:type":"government","operator:wikidata":"Q504676","preschool":"yes"}},"geometry":{"type":"Point","coordinates":[16.166422,58.5666799]}},{"type":"Feature","properties":{"id":101263838,"osm_type":"way","name":"Förskola Örtagården","category":"kindergarten","tags":{"amenity":"kindergarten","check_date":"2024-06-02","name":"Förskola Örtagården","operator":"Norrköpings kommun"}},"geometry":{"type":"Point","coordinates":[16.1464464,58.5738616]}},{"type":"Feature","properties":{"id":101263843,"osm_type":"way","name":"Förskola Hyllan","category":"kindergarten","tags":{"amenity":"kindergarten","name":"Förskola Hyllan","operator":"Norrköpings kommun"}},"geometry":{"type":"Point","coordinates":[16.1495095,58.5770863]}},{"type":"Feature","properties":{"id":101264242,"osm_type":"way","name":"Förskolan Berlocken","category":"kindergarten","tags":{"amenity":"kindergarten","name":"Förskolan Berlocken"}},"geometry":{"type":"Point","coordinates":[16.1683521,58.5721092]}},{"type":"Feature","properties":{"id":101267367,"osm_type":"way","name":"Lövkojans förskola","category":"kindergarten","tags":{"amenity":"kindergarten","name":"Lövkojans förskola"}},"geometry":{"type":"Point","coordinates":[16.1315509,58.605468]}},{"type":"Feature","properties":{"id":101267368,"osm_type":"way","name":"Förskolan Smultronet","category":"kindergarten","tags":{"addr:city":"Norrköping","addr:country":"SE","addr:housenumber":"1","addr:street":"Anna Karlssons gränd","amenity":"kindergarten","name":"Förskolan Smultronet"}},"geometry":{"type":"Point","coordinates":[16.1580204,58.6050108]}},{"type":"Feature","properties":{"id":101324509,"osm_type":"way","name":"","category":"kindergarten","tags":{"amenity":"kindergarten"}},"geometry":{"type":"Point","coordinates":[16.1742504,58.6004894]}},{"type":"Feature","properties":{"id":101324516,"osm_type":"way","name":"Solgläntans förskola","category":"kindergarten","tags":{"addr:city":"Norrköping","addr:country":"SE","addr:housenumber":"14","addr:postcode":"602 41","addr:street":"Ståhlbomsgatan","amenity":"kindergarten","building":"yes","name":"Solgläntans förskola"}},"geometry":{"type":"Point","coordinates":[16.1742874,58.6005173]}},{"type":"Feature","properties":{"id":102033518,"osm_type":"way","name":"Lagerlunda förskola","category":"kindergarten","tags":{"amenity":"kindergarten","name":"Lagerlunda förskola"}},"geometry":{"type":"Point","coordinates":[16.173188,58.606189]}},{"type":"Feature","properties":{"id":102486749,"osm_type":"way","name":"Klockaretorpets familjecentral","category":"kindergarten","tags":{"addr:city":"Norrköping","addr:country":"SE","addr:housenumber":"119","addr:postcode":"603 76","addr:street":"Mathilda Jungstedts gata","amenity":"kindergarten","barrier":"fence","fence_type":"wood","name":"Klockaretorpets familjecentral"}},"geometry":{"type":"Point","coordinates":[16.1250312,58.5764932]}},{"type":"Feature","properties":{"id":102588944,"osm_type":"way","name":"Tamburinens Skola, Fritidshem","category":"kindergarten","tags":{"addr:city":"Norrköping","addr:country":"SE","addr:housenumber":"199","addr:postcode":"603 76","addr:street":"Mathilda Jungstedts gata","amenity":"kindergarten","name":"Tamburinens Skola, Fritidshem","operator":"Norrköpings kommun"}},"geometry":{"type":"Point","coordinates":[16.1242971,58.5754564]}},{"type":"Feature","properties":{"id":102966722,"osm_type":"way","name":"Armbandets Förskola","category":"kindergarten","tags":{"amenity":"kindergarten","name":"Armbandets Förskola","operator":"Norrköpings kommun"}},"geometry":{"type":"Point","coordinates":[16.1815322,58.5699357]}},{"type":"Feature","properties":{"id":163983206,"osm_type":"way","name":"Förskolan Ekan","category":"kindergarten","tags":{"addr:country":"SE","addr:housenumber":"68","addr:postcode":"603 75","addr:street":"Händelövägen","amenity":"kindergarten","building":"yes","check_date":"2025-08-28","name":"Förskolan Ekan"}},"geometry":{"type":"Point","coordinates":[16.240962,58.6082027]}},{"type":"Feature","properties":{"id":175851895,"osm_type":"way","name":"Förskolan Villan","category":"kindergarten","tags":{"amenity":"kindergarten","name":"Förskolan Villan"}},"geometry":{"type":"Point","coordinates":[16.1612192,58.6530166]}},{"type":"Feature","properties":{"id":175855479,"osm_type":"way","name":"Förskolan Kolikok","category":"kindergarten","tags":{"amenity":"kindergarten","name":"Förskolan Kolikok"}},"geometry":{"type":"Point","coordinates":[16.1618237,58.6563965]}},{"type":"Feature","properties":{"id":198290044,"osm_type":"way","name":"Förskola Galaxen","category":"kindergarten","tags":{"amenity":"kindergarten","barrier":"fence","name":"Förskola Galaxen","operator":"Norrköpings kommun"}},"geometry":{"type":"Point","coordinates":[16.1703541,58.5720694]}},{"type":"Feature","properties":{"id":269140267,"osm_type":"way","name":"Solrosens förskola","category":"kindergarten","tags":{"amenity":"kindergarten","building":"kindergarten","name":"Solrosens förskola"}},"geometry":{"type":"Point","coordinates":[16.1546064,58.6084237]}},{"type":"Feature","properties":{"id":310825235,"osm_type":"way","name":"","category":"kindergarten","tags":{"amenity":"kindergarten"}},"geometry":{"type":"Point","coordinates":[16.2493428,58.5693532]}},{"type":"Feature","properties":{"id":310825257,"osm_type":"way","name":"Solstenens förskola","category":"kindergarten","tags":{"addr:city":"Norrköping","addr:country":"SE","addr:housenumber":"2","addr:postcode":"60371","addr:street":"Rapsgatan","amenity":"kindergarten","building":"school","name":"Solstenens förskola","phone":"+46 72 5294138","source":"norrkoping.se"}},"geometry":{"type":"Point","coordinates":[16.2496979,58.5691974]}},{"type":"Feature","properties":{"id":312517971,"osm_type":"way","name":"Björnbärets förskola","category":"kindergarten","tags":{"amenity":"kindergarten","name":"Björnbärets förskola"}},"geometry":{"type":"Point","coordinates":[16.2375295,58.5669712]}},{"type":"Feature","properties":{"id":312517972,"osm_type":"way","name":"Gullvivans förskola","category":"kindergarten","tags":{"amenity":"kindergarten","name":"Gullvivans förskola","preschool":"no"}},"geometry":{"type":"Point","coordinates":[16.1460164,58.607149]}},{"type":"Feature","properties":{"id":312517973,"osm_type":"way","name":"Murklans förskola","category":"kindergarten","tags":{"amenity":"kindergarten","name":"Murklans förskola"}},"geometry":{"type":"Point","coordinates":[16.2248155,58.5667112]}},{"type":"Feature","properties":{"id":312517974,"osm_type":"way","name":"Palettens förskola","category":"kindergarten","tags":{"amenity":"kindergarten","name":"Palettens förskola"}},"geometry":{"type":"Point","coordinates":[16.2158812,58.5656707]}},{"type":"Feature","properties":{"id":312517975,"osm_type":"way","name":"Sadelmakarens förskola","category":"kindergarten","tags":{"amenity":"kindergarten","name":"Sadelmakarens förskola"}},"geometry":{"type":"Point","coordinates":[16.2086336,58.5762672]}},{"type":"Feature","properties":{"id":312517984,"osm_type":"way","name":"Önskeringens förskola","category":"kindergarten","tags":{"amenity":"kindergarten","name":"Önskeringens förskola"}},"geometry":{"type":"Point","coordinates":[16.2174795,58.5610115]}},{"type":"Feature","properties":{"id":507980049,"osm_type":"way","name":"","category":"kindergarten","tags":{"amenity":"kindergarten"}},"geometry":{"type":"Point","coordinates":[16.1657172,58.5046854]}},{"type":"Feature","properties":{"id":559344690,"osm_type":"way","name":"","category":"kindergarten","tags":{"amenity":"kindergarten"}},"geometry":{"type":"Point","coordinates":[16.3411338,58.4753108]}},{"type":"Feature","properties":{"id":559344692,"osm_type":"way","name":"","category":"kindergarten","tags":{"amenity":"kindergarten"}},"geometry":{"type":"Point","coordinates":[16.3422569,58.4748735]}},{"type":"Feature","properties":{"id":630489968,"osm_type":"way","name":"Förskolan Borgen","category":"kindergarten","tags":{"amenity":"kindergarten","name":"Förskolan Borgen","operator":"Norrköpings kommun"}},"geometry":{"type":"Point","coordinates":[16.1452623,58.5780467]}},{"type":"Feature","properties":{"id":989064180,"osm_type":"way","name":"","category":"kindergarten","tags":{"amenity":"kindergarten"}},"geometry":{"type":"Point","coordinates":[16.3070799,58.4769026]}},{"type":"Feature","properties":{"id":1088568848,"osm_type":"way","name":"Förskola Hultet","category":"kindergarten","tags":{"amenity":"kindergarten","name":"Förskola Hultet","operator":"Norrköpings kommun"}},"geometry":{"type":"Point","coordinates":[16.1547112,58.5849178]}},{"type":"Feature","properties":{"id":1089721832,"osm_type":"way","name":"Förskola Äppellunden","category":"kindergarten","tags":{"amenity":"kindergarten","name":"Förskola Äppellunden","operator":"Norrköpings kommun"}},"geometry":{"type":"Point","coordinates":[16.0878736,58.5875334]}},{"type":"Feature","properties":{"id":1105375743,"osm_type":"way","name":"Vattentornets förskola","category":"kindergarten","tags":{"addr:city":"Norrköping","addr:country":"SE","addr:housenumber":"12","addr:postcode":"603 63","addr:street":"Fotbollsgatan","amenity":"kindergarten","name":"Vattentornets förskola","operator":"Norrköpings kommun","operator:type":"public","phone":"011-15 63 66","preschool":"yes"}},"geometry":{"type":"Point","coordinates":[16.1660956,58.5838642]}},{"type":"Feature","properties":{"id":1198265206,"osm_type":"way","name":"Skogsgläntans Förskola","category":"kindergarten","tags":{"amenity":"kindergarten","name":"Skogsgläntans Förskola","preschool":"yes"}},"geometry":{"type":"Point","coordinates":[16.3080732,58.5792452]}},{"type":"Feature","properties":{"id":1207571358,"osm_type":"way","name":"Mariagårdens förskola","category":"kindergarten","tags":{"amenity":"kindergarten","name":"Mariagårdens förskola"}},"geometry":{"type":"Point","coordinates":[16.1807331,58.5919341]}},{"type":"Feature","properties":{"id":1212700626,"osm_type":"way","name":"Tuppens förskola","category":"kindergarten","tags":{"amenity":"kindergarten","name":"Tuppens förskola","website":"https://www.norrkoping.se/skola-och-forskola/forskola-och-annan-barnomsorg/kommunala-forskolor/skolor/tuppen"}},"geometry":{"type":"Point","coordinates":[16.1804173,58.592952]}},{"type":"Feature","properties":{"id":1212701127,"osm_type":"way","name":"Kastanjegården","category":"kindergarten","tags":{"amenity":"kindergarten","name":"Kastanjegården","operator":"Norrköpings kommun","operator:type":"government","operator:wikidata":"Q504676","website":"https://www.norrkoping.se/skola-och-forskola/forskola-och-annan-barnomsorg/kommunala-forskolor/skolor/kastanjegarden"}},"geometry":{"type":"Point","coordinates":[16.179768,58.5909714]}},{"type":"Feature","properties":{"id":1334351420,"osm_type":"way","name":"","category":"kindergarten","tags":{"amenity":"kindergarten","building":"yes"}},"geometry":{"type":"Point","coordinates":[16.1694112,58.582464]}},{"type":"Feature","properties":{"id":1354208334,"osm_type":"way","name":"Skattens förskola","category":"kindergarten","tags":{"amenity":"kindergarten","name":"Skattens förskola"}},"geometry":{"type":"Point","coordinates":[16.218677,58.5593435]}},{"type":"Feature","properties":{"id":1443286948,"osm_type":"way","name":"Björkalunds förskola","category":"kindergarten","tags":{"amenity":"kindergarten","education":"kindergarten","name":"Björkalunds förskola","operator":"Norrköpings kommun","operator:type":"government","operator:wikidata":"Q504676"}},"geometry":{"type":"Point","coordinates":[16.1818644,58.5554521]}}]}