{"type":"FeatureCollection","features":[{"type":"Feature","properties":{"id":490133073,"osm_type":"node","name":"Stinsen","category":"library","tags":{"amenity":"library","information":"office","name":"Stinsen","tourism":"information"}},"geometry":{"type":"Point","coordinates":[16.3228826,58.478293]}},{"type":"Feature","properties":{"id":864465338,"osm_type":"node","name":"Åby bibliotek","category":"library","tags":{"addr:country":"SE","addr:housenumber":"2","addr:street":"Hultvägen","amenity":"library","name":"Åby bibliotek"}},"geometry":{"type":"Point","coordinates":[16.1740526,58.6620861]}},{"type":"Feature","properties":{"id":1371162534,"osm_type":"node","name":"Eneby bibliotek","category":"library","tags":{"amenity":"library","name":"Eneby bibliotek","wikidata":"Q61752395"}},"geometry":{"type":"Point","coordinates":[16.1481029,58.6063437]}},{"type":"Feature","properties":{"id":2464631551,"osm_type":"node","name":"Hageby bibliotek","category":"library","tags":{"amenity":"library","name":"Hageby bibliotek","opening_hours":"Mo-Fr 10:00-20:00; Sa,Su 10:00-18:00"}},"geometry":{"type":"Point","coordinates":[16.2097486,58.5725897]}},{"type":"Feature","properties":{"id":2920517726,"osm_type":"node","name":"Eneby bibliotek","category":"library","tags":{"addr:city":"Norrköping","addr:country":"SE","addr:housenumber":"106","addr:street":"Slåttergatan","amenity":"library","name":"Eneby bibliotek","website":"https://www.gotabiblioteken.se/web/arena/eneby-bibliotek"}},"geometry":{"type":"Point","coordinates":[16.1439187,58.603863]}},{"type":"Feature","properties":{"id":6628771860,"osm_type":"node","name":"Vilbergens bibliotek","category":"library","tags":{"amenity":"library","name":"Vilbergens bibliotek","operator":"Norrköpings kommun","wikidata":"Q61752396"}},"geometry":{"type":"Point","coordinates":[16.1696923,58.5706337]}},{"type":"Feature","properties":{"id":97595668,"osm_type":"way","name":"Stadsbiblioteket","category":"library","tags":{"addr:city":"Norrköping","addr:country":"SE","addr:housenumber":"105","addr:postcode":"60234","addr:street":"Södra Promenaden","amenity":"library","building":"yes","building:levels":"2","check_date":"2024-05-10","email":"stadsbiblioteket@norrkoping.se","name":"Stadsbiblioteket","opening_hours":"Mo-Th 08:00-19:00; Fr 08:00-18:00; Sa-Su 11:00-15:00","phone":"+46 11 15 26 65","roof:shape":"many","source":"Bing","website":"https://www.nsb.norrkoping.se/","wikidata":"Q10602824"}},"geometry":{"type":"Point","coordinates":[16.1907197,58.58489]}}]}