{"type":"FeatureCollection","features":[{"type":"Feature","properties":{"id":92413830,"osm_type":"way","name":"Domino","category":"mall","tags":{"building":"yes","name":"Domino","opening_hours":"Mo-Fr 10:00-19:00; Sa 10:00-17:00; Su 11:00-17:00","shop":"mall","website":"https://galleriadomino.se/","wikidata":"Q10475811","wikipedia":"sv:Domino, Norrköping"}},"geometry":{"type":"Point","coordinates":[16.1892523,58.5882806]}},{"type":"Feature","properties":{"id":92413832,"osm_type":"way","name":"Linden","category":"mall","tags":{"building":"retail","name":"Linden","shop":"mall"}},"geometry":{"type":"Point","coordinates":[16.189956,58.5876201]}},{"type":"Feature","properties":{"id":92794895,"osm_type":"way","name":"Mirum Galleria","category":"mall","tags":{"addr:city":"Norrköping","addr:country":"SE","addr:housenumber":"8","addr:postcode":"60014","addr:street":"Lidaleden","building":"yes","building:levels":"3","name":"Mirum Galleria","shop":"mall"}},"geometry":{"type":"Point","coordinates":[16.2093592,58.5727407]}},{"type":"Feature","properties":{"id":253103739,"osm_type":"way","name":"Ingelsta Shopping","category":"mall","tags":{"addr:country":"SE","addr:housenumber":"20","addr:street":"Koppargatan","building":"retail","building:levels":"1","name":"Ingelsta Shopping","opening_hours":"Mo-Fr 10:00-20:00; Sa-Su 10:00-18:00","roof:levels":"0","shop":"mall","website":"https://ingelstashopping.se/"}},"geometry":{"type":"Point","coordinates":[16.1565164,58.6186251]}}]}