{"type":"FeatureCollection","features":[{"type":"Feature","properties":{"id":58821683,"osm_type":"way","name":"Krusenhov","category":"manor","tags":{"alt_name":"Krusenhof","building":"yes","historic":"manor","name":"Krusenhov","start_date":"1915","wikipedia:se":"Krusenhof"}},"geometry":{"type":"Point","coordinates":[16.2245181,58.6404384]}},{"type":"Feature","properties":{"id":58858005,"osm_type":"way","name":"Rodga","category":"manor","tags":{"building":"yes","historic":"manor","name":"Rodga","wikipedia:se":"Rodga"}},"geometry":{"type":"Point","coordinates":[16.0920765,58.736321]}},{"type":"Feature","properties":{"id":67386903,"osm_type":"way","name":"Hults Bruk","category":"manor","tags":{"building":"yes","historic":"manor","name":"Hults Bruk","wikipedia:se":"Hultsbruk"}},"geometry":{"type":"Point","coordinates":[16.1262867,58.6739277]}},{"type":"Feature","properties":{"id":87653181,"osm_type":"way","name":"Björnsnäs","category":"manor","tags":{"building":"yes","historic":"manor","name":"Björnsnäs","wikidata":"Q10430750","wikipedia":"sv:Björnsnäs"}},"geometry":{"type":"Point","coordinates":[16.2144174,58.660663]}},{"type":"Feature","properties":{"id":102631754,"osm_type":"way","name":"Himmelstadlund","category":"manor","tags":{"building":"yes","historic":"manor","name":"Himmelstadlund","wikipedia:se":"Himmelstadlunds_herrgård"}},"geometry":{"type":"Point","coordinates":[16.1524978,58.5878108]}},{"type":"Feature","properties":{"id":137466663,"osm_type":"way","name":"","category":"manor","tags":{"building":"school","historic":"manor","wikipedia:sv":"Marieborgs_herrgård"}},"geometry":{"type":"Point","coordinates":[16.1790495,58.619662]}},{"type":"Feature","properties":{"id":197176735,"osm_type":"way","name":"Minsjö","category":"manor","tags":{"building":"yes","historic":"manor","name":"Minsjö","wikipedia:se":"Minsjö"}},"geometry":{"type":"Point","coordinates":[16.1366423,58.4989635]}},{"type":"Feature","properties":{"id":497261208,"osm_type":"way","name":"","category":"manor","tags":{"building":"yes","historic":"manor"}},"geometry":{"type":"Point","coordinates":[16.2383467,58.6767024]}},{"type":"Feature","properties":{"id":881436800,"osm_type":"way","name":"","category":"manor","tags":{"building":"yes","historic":"manor"}},"geometry":{"type":"Point","coordinates":[16.2801896,58.5478153]}},{"type":"Feature","properties":{"id":1063569751,"osm_type":"way","name":"Borgs säteri","category":"manor","tags":{"building":"yes","historic":"manor","name":"Borgs säteri","wikipedia:sv":"Borg,_Norrköping"}},"geometry":{"type":"Point","coordinates":[16.1299121,58.5913293]}},{"type":"Feature","properties":{"id":1128178941,"osm_type":"way","name":"Skörtinge","category":"manor","tags":{"building":"house","historic":"manor","name":"Skörtinge"}},"geometry":{"type":"Point","coordinates":[16.0381147,58.4986104]}}]}