{"type":"FeatureCollection","features":[{"type":"Feature","properties":{"id":1129833344,"osm_type":"node","name":"Norrköpings stadsmuseum","category":"museum","tags":{"email":"stadsmuseet@norrkoping.se","fee":"no","name":"Norrköpings stadsmuseum","opening_hours":"Tu-Fr 11:00-17:00; Sa-Su 11:00-16:00","phone":"+46 11-15 26 20","tourism":"museum","website":"https://www.norrkopingsstadsmuseum.se/","wikidata":"Q10602826"}},"geometry":{"type":"Point","coordinates":[16.1799272,58.5896788]}},{"type":"Feature","properties":{"id":1153387590,"osm_type":"node","name":"Visualiseringscenter C","category":"museum","tags":{"addr:city":"Norrköping","addr:country":"SE","addr:housenumber":"54","addr:street":"Kungsgatan","name":"Visualiseringscenter C","tourism":"museum"}},"geometry":{"type":"Point","coordinates":[16.1774782,58.5891277]}},{"type":"Feature","properties":{"id":1170495205,"osm_type":"node","name":"Färgargården friluftsmuseum","category":"museum","tags":{"name":"Färgargården friluftsmuseum","tourism":"museum"}},"geometry":{"type":"Point","coordinates":[16.1676773,58.5880374]}},{"type":"Feature","properties":{"id":1313256528,"osm_type":"node","name":"Arbetets Museum","category":"museum","tags":{"email":"info@arbetetsmuseum.se","fee":"no","internet_access":"wlan","name":"Arbetets Museum","opening_hours":"Mo-Su 10:00-17:00","phone":"+46 11-18 98 00","tourism":"museum","website":"https://www.arbetetsmuseum.se/","wheelchair":"yes","wikidata":"Q6941060","wikipedia":"sv:Arbetets museum"}},"geometry":{"type":"Point","coordinates":[16.1800731,58.5891541]}},{"type":"Feature","properties":{"id":2341952370,"osm_type":"node","name":"Norrköpings konstmuseum","category":"museum","tags":{"addr:street":"Kristinaplatsen","email":"konstmuseet@norrkoping.se","internet_access":"wlan","name":"Norrköpings konstmuseum","opening_hours":"Tu, Th-Su 11:00-17:00; We 11:00-20:00","phone":"+46 11-15 26 00","tourism":"museum","website":"https://www.norrkopingskonstmuseum.se/"}},"geometry":{"type":"Point","coordinates":[16.1908737,58.5830325]}},{"type":"Feature","properties":{"id":4875390547,"osm_type":"node","name":"Löfstad slott museum","category":"museum","tags":{"name":"Löfstad slott museum","tourism":"museum","website":"https://ostergotlandsmuseum.se/lofstad"}},"geometry":{"type":"Point","coordinates":[16.0410356,58.5503512]}},{"type":"Feature","properties":{"id":90115327,"osm_type":"way","name":"Hällristningsmuséet","category":"museum","tags":{"building":"yes","name":"Hällristningsmuséet","source":"Bing","tourism":"museum"}},"geometry":{"type":"Point","coordinates":[16.1552391,58.591248]}},{"type":"Feature","properties":{"id":93315147,"osm_type":"way","name":"Grå huset","category":"museum","tags":{"building":"yes","name":"Grå huset","roof:shape":"gabled","tourism":"museum"}},"geometry":{"type":"Point","coordinates":[16.179321,58.5898732]}},{"type":"Feature","properties":{"id":93316933,"osm_type":"way","name":"Bergsbrogården","category":"museum","tags":{"addr:city":"Norrköping","addr:country":"SE","addr:housenumber":"21","addr:postcode":"602 21","addr:street":"Västgötegatan","building":"yes","height":"0","name":"Bergsbrogården","tourism":"museum"}},"geometry":{"type":"Point","coordinates":[16.1797283,58.5899746]}},{"type":"Feature","properties":{"id":97724691,"osm_type":"way","name":"Norrköpings spårvägsmuseum","category":"museum","tags":{"building":"yes","name":"Norrköpings spårvägsmuseum","tourism":"museum"}},"geometry":{"type":"Point","coordinates":[16.2069354,58.5854372]}},{"type":"Feature","properties":{"id":710497799,"osm_type":"way","name":"S:t Ragnhilds Gilles Stadshistoriska museum","category":"museum","tags":{"building":"yes","name":"S:t Ragnhilds Gilles Stadshistoriska museum","tourism":"museum"}},"geometry":{"type":"Point","coordinates":[16.3207192,58.4804138]}}]}