{"type":"FeatureCollection","features":[{"type":"Feature","properties":{"id":424257121,"osm_type":"node","name":"Arbis","category":"nightclub","tags":{"addr:city":"Norrköping","addr:country":"SE","addr:housenumber":"54","addr:street":"Bredgatan","amenity":"nightclub","name":"Arbis","opening_hours":"Fr, Sa 17:00-27:00","website":"https://www.arbis.se/"}},"geometry":{"type":"Point","coordinates":[16.1749247,58.5900321]}},{"type":"Feature","properties":{"id":1424342934,"osm_type":"node","name":"Puls","category":"nightclub","tags":{"addr:city":"Norrköping","addr:country":"SE","addr:housenumber":"118","addr:street":"Slottsgatan","amenity":"nightclub","name":"Puls","old_name":"Otten"}},"geometry":{"type":"Point","coordinates":[16.1818423,58.5952237]}}]}