{"type":"FeatureCollection","features":[{"type":"Feature","properties":{"id":24450652,"osm_type":"way","name":"Strömsholmen","category":"park","tags":{"leisure":"park","name":"Strömsholmen","place":"islet"}},"geometry":{"type":"Point","coordinates":[16.1912929,58.5940069]}},{"type":"Feature","properties":{"id":24676996,"osm_type":"way","name":"Folkparken","category":"park","tags":{"leisure":"park","name":"Folkparken","wikidata":"Q10497447","wikipedia":"sv:Folkparken, Norrköping"}},"geometry":{"type":"Point","coordinates":[16.1680582,58.5910405]}},{"type":"Feature","properties":{"id":24677047,"osm_type":"way","name":"","category":"park","tags":{"leisure":"park"}},"geometry":{"type":"Point","coordinates":[16.1419984,58.5884971]}},{"type":"Feature","properties":{"id":24677054,"osm_type":"way","name":"","category":"park","tags":{"leisure":"park"}},"geometry":{"type":"Point","coordinates":[16.1463735,58.5933024]}},{"type":"Feature","properties":{"id":26384851,"osm_type":"way","name":"Götaparken","category":"park","tags":{"leisure":"park","name":"Götaparken"}},"geometry":{"type":"Point","coordinates":[16.1829488,58.5951117]}},{"type":"Feature","properties":{"id":27666697,"osm_type":"way","name":"Strömparken","category":"park","tags":{"leisure":"park","name":"Strömparken","wikidata":"Q19978700"}},"geometry":{"type":"Point","coordinates":[16.184357,58.5912306]}},{"type":"Feature","properties":{"id":27666783,"osm_type":"way","name":"Hörsalsparken","category":"park","tags":{"leisure":"park","name":"Hörsalsparken"}},"geometry":{"type":"Point","coordinates":[16.1877082,58.5880856]}},{"type":"Feature","properties":{"id":27753578,"osm_type":"way","name":"Sveaparken","category":"park","tags":{"leisure":"park","name":"Sveaparken"}},"geometry":{"type":"Point","coordinates":[16.1851025,58.5954593]}},{"type":"Feature","properties":{"id":27787071,"osm_type":"way","name":"Djäkneparken","category":"park","tags":{"leisure":"park","name":"Djäkneparken"}},"geometry":{"type":"Point","coordinates":[16.1970103,58.5885829]}},{"type":"Feature","properties":{"id":27787087,"osm_type":"way","name":"Oxelbergsparken","category":"park","tags":{"leisure":"park","name":"Oxelbergsparken"}},"geometry":{"type":"Point","coordinates":[16.2053855,58.5882865]}},{"type":"Feature","properties":{"id":28093112,"osm_type":"way","name":"","category":"park","tags":{"area":"yes","created_by":"Potlatch 0.10f","leisure":"park"}},"geometry":{"type":"Point","coordinates":[16.2128381,58.586365]}},{"type":"Feature","properties":{"id":34104717,"osm_type":"way","name":"","category":"park","tags":{"leisure":"park"}},"geometry":{"type":"Point","coordinates":[16.1558805,58.5902227]}},{"type":"Feature","properties":{"id":40166862,"osm_type":"way","name":"","category":"park","tags":{"leisure":"park"}},"geometry":{"type":"Point","coordinates":[16.1708039,58.6034128]}},{"type":"Feature","properties":{"id":40912255,"osm_type":"way","name":"","category":"park","tags":{"leisure":"park"}},"geometry":{"type":"Point","coordinates":[16.1708182,58.6027629]}},{"type":"Feature","properties":{"id":88708795,"osm_type":"way","name":"","category":"park","tags":{"leisure":"park"}},"geometry":{"type":"Point","coordinates":[16.1921284,58.583238]}},{"type":"Feature","properties":{"id":88708812,"osm_type":"way","name":"","category":"park","tags":{"leisure":"park"}},"geometry":{"type":"Point","coordinates":[16.1915919,58.583693]}},{"type":"Feature","properties":{"id":88709808,"osm_type":"way","name":"","category":"park","tags":{"leisure":"park"}},"geometry":{"type":"Point","coordinates":[16.1918953,58.5832085]}},{"type":"Feature","properties":{"id":88709812,"osm_type":"way","name":"","category":"park","tags":{"leisure":"park"}},"geometry":{"type":"Point","coordinates":[16.1919701,58.5833407]}},{"type":"Feature","properties":{"id":90966521,"osm_type":"way","name":"","category":"park","tags":{"leisure":"park"}},"geometry":{"type":"Point","coordinates":[16.1707511,58.6681994]}},{"type":"Feature","properties":{"id":90966522,"osm_type":"way","name":"","category":"park","tags":{"leisure":"park"}},"geometry":{"type":"Point","coordinates":[16.1703408,58.6670124]}},{"type":"Feature","properties":{"id":90966526,"osm_type":"way","name":"","category":"park","tags":{"leisure":"park"}},"geometry":{"type":"Point","coordinates":[16.1746617,58.6654537]}},{"type":"Feature","properties":{"id":91339454,"osm_type":"way","name":"Bockängen","category":"park","tags":{"leisure":"park","name":"Bockängen"}},"geometry":{"type":"Point","coordinates":[16.1825368,58.5826773]}},{"type":"Feature","properties":{"id":91356677,"osm_type":"way","name":"","category":"park","tags":{"leisure":"park"}},"geometry":{"type":"Point","coordinates":[16.2050458,58.5893912]}},{"type":"Feature","properties":{"id":91859393,"osm_type":"way","name":"Klingsbergsparken","category":"park","tags":{"leisure":"park","name":"Klingsbergsparken"}},"geometry":{"type":"Point","coordinates":[16.1865467,58.5777571]}},{"type":"Feature","properties":{"id":92030162,"osm_type":"way","name":"","category":"park","tags":{"leisure":"park"}},"geometry":{"type":"Point","coordinates":[16.1597559,58.5973982]}},{"type":"Feature","properties":{"id":92482182,"osm_type":"way","name":"","category":"park","tags":{"landuse":"grass","leisure":"park"}},"geometry":{"type":"Point","coordinates":[16.1526279,58.5833909]}},{"type":"Feature","properties":{"id":93340392,"osm_type":"way","name":"","category":"park","tags":{"leisure":"park"}},"geometry":{"type":"Point","coordinates":[16.1891053,58.5928605]}},{"type":"Feature","properties":{"id":93340393,"osm_type":"way","name":"","category":"park","tags":{"leisure":"park"}},"geometry":{"type":"Point","coordinates":[16.1879251,58.5927463]}},{"type":"Feature","properties":{"id":93340983,"osm_type":"way","name":"","category":"park","tags":{"leisure":"park"}},"geometry":{"type":"Point","coordinates":[16.1892142,58.5933155]}},{"type":"Feature","properties":{"id":93355620,"osm_type":"way","name":"","category":"park","tags":{"leisure":"park"}},"geometry":{"type":"Point","coordinates":[16.1795994,58.5957774]}},{"type":"Feature","properties":{"id":93445064,"osm_type":"way","name":"Karl Johans park","category":"park","tags":{"leisure":"park","name":"Karl Johans park","wikidata":"Q10543695","wikipedia":"sv:Carl Johans park"}},"geometry":{"type":"Point","coordinates":[16.1841295,58.5946807]}},{"type":"Feature","properties":{"id":93585346,"osm_type":"way","name":"","category":"park","tags":{"leisure":"park"}},"geometry":{"type":"Point","coordinates":[16.1888838,58.5898448]}},{"type":"Feature","properties":{"id":93586490,"osm_type":"way","name":"Stortorget","category":"park","tags":{"leisure":"park","name":"Stortorget"}},"geometry":{"type":"Point","coordinates":[16.1962456,58.5868463]}},{"type":"Feature","properties":{"id":93613784,"osm_type":"way","name":"","category":"park","tags":{"leisure":"park"}},"geometry":{"type":"Point","coordinates":[16.2037927,58.5835819]}},{"type":"Feature","properties":{"id":93982324,"osm_type":"way","name":"Folkets park","category":"park","tags":{"leisure":"park","name":"Folkets park"}},"geometry":{"type":"Point","coordinates":[16.1470056,58.5782698]}},{"type":"Feature","properties":{"id":93984134,"osm_type":"way","name":"","category":"park","tags":{"leisure":"park"}},"geometry":{"type":"Point","coordinates":[16.1516358,58.5766751]}},{"type":"Feature","properties":{"id":94575294,"osm_type":"way","name":"","category":"park","tags":{"leisure":"park"}},"geometry":{"type":"Point","coordinates":[16.1989652,58.6009204]}},{"type":"Feature","properties":{"id":94831338,"osm_type":"way","name":"Gamla Lasarettsparken","category":"park","tags":{"leisure":"park","name":"Gamla Lasarettsparken"}},"geometry":{"type":"Point","coordinates":[16.1809219,58.5819097]}},{"type":"Feature","properties":{"id":94831348,"osm_type":"way","name":"Gamla Lasarettsparken","category":"park","tags":{"leisure":"park","name":"Gamla Lasarettsparken"}},"geometry":{"type":"Point","coordinates":[16.1821785,58.5817188]}},{"type":"Feature","properties":{"id":95027141,"osm_type":"way","name":"","category":"park","tags":{"leisure":"park"}},"geometry":{"type":"Point","coordinates":[16.2003493,58.5807933]}},{"type":"Feature","properties":{"id":95027387,"osm_type":"way","name":"","category":"park","tags":{"leisure":"park"}},"geometry":{"type":"Point","coordinates":[16.2007208,58.5801123]}},{"type":"Feature","properties":{"id":95028042,"osm_type":"way","name":"Ljuraparken","category":"park","tags":{"leisure":"park","name":"Ljuraparken"}},"geometry":{"type":"Point","coordinates":[16.2025017,58.5807457]}},{"type":"Feature","properties":{"id":95028046,"osm_type":"way","name":"","category":"park","tags":{"leisure":"park"}},"geometry":{"type":"Point","coordinates":[16.2019063,58.5796201]}},{"type":"Feature","properties":{"id":95028047,"osm_type":"way","name":"","category":"park","tags":{"leisure":"park"}},"geometry":{"type":"Point","coordinates":[16.2041848,58.5808345]}},{"type":"Feature","properties":{"id":95028440,"osm_type":"way","name":"","category":"park","tags":{"leisure":"park"}},"geometry":{"type":"Point","coordinates":[16.2039743,58.5815266]}},{"type":"Feature","properties":{"id":95031254,"osm_type":"way","name":"","category":"park","tags":{"leisure":"park"}},"geometry":{"type":"Point","coordinates":[16.2030851,58.5797781]}},{"type":"Feature","properties":{"id":95031255,"osm_type":"way","name":"","category":"park","tags":{"leisure":"park"}},"geometry":{"type":"Point","coordinates":[16.2030516,58.5799655]}},{"type":"Feature","properties":{"id":95186914,"osm_type":"way","name":"Skulpturparken","category":"park","tags":{"leisure":"park","name":"Skulpturparken","operator":"Norrköpings Konstmuseum"}},"geometry":{"type":"Point","coordinates":[16.1897894,58.5825919]}},{"type":"Feature","properties":{"id":95272607,"osm_type":"way","name":"Vasaparken","category":"park","tags":{"leisure":"park","name":"Vasaparken"}},"geometry":{"type":"Point","coordinates":[16.1943021,58.5823894]}},{"type":"Feature","properties":{"id":95429904,"osm_type":"way","name":"Skulpturparken","category":"park","tags":{"leisure":"park","name":"Skulpturparken","operator":"Norrköpings Konstmuseum"}},"geometry":{"type":"Point","coordinates":[16.1911279,58.5830142]}},{"type":"Feature","properties":{"id":95562360,"osm_type":"way","name":"","category":"park","tags":{"leisure":"park"}},"geometry":{"type":"Point","coordinates":[16.2003463,58.5717169]}},{"type":"Feature","properties":{"id":95582676,"osm_type":"way","name":"","category":"park","tags":{"leisure":"park"}},"geometry":{"type":"Point","coordinates":[16.2070949,58.5761501]}},{"type":"Feature","properties":{"id":96730737,"osm_type":"way","name":"Chamberts plats","category":"park","tags":{"leisure":"park","name":"Chamberts plats"}},"geometry":{"type":"Point","coordinates":[16.1852575,58.5866568]}},{"type":"Feature","properties":{"id":99270229,"osm_type":"way","name":"Prinslotten","category":"park","tags":{"area":"yes","leisure":"park","name":"Prinslotten"}},"geometry":{"type":"Point","coordinates":[16.2117274,58.5898078]}},{"type":"Feature","properties":{"id":101324514,"osm_type":"way","name":"","category":"park","tags":{"leisure":"park"}},"geometry":{"type":"Point","coordinates":[16.1716336,58.6022627]}},{"type":"Feature","properties":{"id":101324515,"osm_type":"way","name":"","category":"park","tags":{"leisure":"park"}},"geometry":{"type":"Point","coordinates":[16.1737735,58.6014608]}},{"type":"Feature","properties":{"id":102347928,"osm_type":"way","name":"","category":"park","tags":{"leisure":"park"}},"geometry":{"type":"Point","coordinates":[16.1602691,58.5848178]}},{"type":"Feature","properties":{"id":102347942,"osm_type":"way","name":"","category":"park","tags":{"leisure":"park"}},"geometry":{"type":"Point","coordinates":[16.160438,58.5845459]}},{"type":"Feature","properties":{"id":172419673,"osm_type":"way","name":"Krusenhov","category":"park","tags":{"leisure":"park","name":"Krusenhov"}},"geometry":{"type":"Point","coordinates":[16.2250276,58.639936]}},{"type":"Feature","properties":{"id":193867838,"osm_type":"way","name":"","category":"park","tags":{"leisure":"park"}},"geometry":{"type":"Point","coordinates":[16.1539327,58.5994588]}},{"type":"Feature","properties":{"id":225425046,"osm_type":"way","name":"Lejongropen","category":"park","tags":{"leisure":"park","name":"Lejongropen"}},"geometry":{"type":"Point","coordinates":[16.1646172,58.5917825]}},{"type":"Feature","properties":{"id":225434939,"osm_type":"way","name":"","category":"park","tags":{"leisure":"park"}},"geometry":{"type":"Point","coordinates":[16.1891121,58.5948684]}},{"type":"Feature","properties":{"id":255840659,"osm_type":"way","name":"","category":"park","tags":{"leisure":"park"}},"geometry":{"type":"Point","coordinates":[16.2125741,58.5705985]}},{"type":"Feature","properties":{"id":262523231,"osm_type":"way","name":"Rosariet","category":"park","tags":{"leisure":"park","name":"Rosariet"}},"geometry":{"type":"Point","coordinates":[16.1465532,58.5859222]}},{"type":"Feature","properties":{"id":262529704,"osm_type":"way","name":"","category":"park","tags":{"leisure":"park"}},"geometry":{"type":"Point","coordinates":[16.1470031,58.5853054]}},{"type":"Feature","properties":{"id":278577596,"osm_type":"way","name":"","category":"park","tags":{"leisure":"park"}},"geometry":{"type":"Point","coordinates":[16.1510895,58.6013959]}},{"type":"Feature","properties":{"id":278602641,"osm_type":"way","name":"Enebyparken","category":"park","tags":{"leisure":"park","name":"Enebyparken"}},"geometry":{"type":"Point","coordinates":[16.1465825,58.6068237]}},{"type":"Feature","properties":{"id":278610369,"osm_type":"way","name":"","category":"park","tags":{"leisure":"park"}},"geometry":{"type":"Point","coordinates":[16.1403447,58.6116234]}},{"type":"Feature","properties":{"id":285081413,"osm_type":"way","name":"Gamla Lasarettsparken","category":"park","tags":{"leisure":"park","name":"Gamla Lasarettsparken"}},"geometry":{"type":"Point","coordinates":[16.1805666,58.5824712]}},{"type":"Feature","properties":{"id":457243796,"osm_type":"way","name":"Johannesdals vilthägn","category":"park","tags":{"animal_keeping":"deer","animal_keeping:type":"grazing","bicycle":"yes","foot":"yes","layer":"1","leisure":"park","name":"Johannesdals vilthägn"}},"geometry":{"type":"Point","coordinates":[16.2625547,58.518025]}},{"type":"Feature","properties":{"id":469361486,"osm_type":"way","name":"","category":"park","tags":{"leisure":"park"}},"geometry":{"type":"Point","coordinates":[16.1430911,58.6040972]}},{"type":"Feature","properties":{"id":469362861,"osm_type":"way","name":"","category":"park","tags":{"leisure":"park"}},"geometry":{"type":"Point","coordinates":[16.1421578,58.6045937]}},{"type":"Feature","properties":{"id":469362863,"osm_type":"way","name":"","category":"park","tags":{"leisure":"park"}},"geometry":{"type":"Point","coordinates":[16.1413211,58.6052479]}},{"type":"Feature","properties":{"id":469419555,"osm_type":"way","name":"Åbackarna","category":"park","tags":{"layer":"-1","leisure":"park","name":"Åbackarna"}},"geometry":{"type":"Point","coordinates":[16.1615166,58.5878043]}},{"type":"Feature","properties":{"id":478726300,"osm_type":"way","name":"","category":"park","tags":{"leisure":"park"}},"geometry":{"type":"Point","coordinates":[16.1928012,58.5868598]}},{"type":"Feature","properties":{"id":544533885,"osm_type":"way","name":"","category":"park","tags":{"leisure":"park"}},"geometry":{"type":"Point","coordinates":[16.3326088,58.4802614]}},{"type":"Feature","properties":{"id":544533886,"osm_type":"way","name":"Brunnsparken","category":"park","tags":{"leisure":"park","name":"Brunnsparken"}},"geometry":{"type":"Point","coordinates":[16.3338156,58.4794112]}},{"type":"Feature","properties":{"id":544533887,"osm_type":"way","name":"","category":"park","tags":{"leisure":"park"}},"geometry":{"type":"Point","coordinates":[16.3242797,58.4728978]}},{"type":"Feature","properties":{"id":544533888,"osm_type":"way","name":"","category":"park","tags":{"leisure":"park"}},"geometry":{"type":"Point","coordinates":[16.3250339,58.4727273]}},{"type":"Feature","properties":{"id":544533890,"osm_type":"way","name":"","category":"park","tags":{"leisure":"park"}},"geometry":{"type":"Point","coordinates":[16.3154103,58.4776771]}},{"type":"Feature","properties":{"id":544533893,"osm_type":"way","name":"Kyrkparken","category":"park","tags":{"leisure":"park","name":"Kyrkparken","wikidata":"Q115305049"}},"geometry":{"type":"Point","coordinates":[16.3199344,58.4803566]}},{"type":"Feature","properties":{"id":549147814,"osm_type":"way","name":"","category":"park","tags":{"leisure":"park"}},"geometry":{"type":"Point","coordinates":[16.3185456,58.4726108]}},{"type":"Feature","properties":{"id":552867415,"osm_type":"way","name":"Engelska parken","category":"park","tags":{"description":"Löfstads slotts engelska park anlades i början av 1800-talet. Den strikta barockträdgården ersattes då med en naturinspirerad engelsk park. Mitt i parken ligger en damm med en liten holme där det finns ett minnesmärke över Axel Fersen.","leisure":"park","name":"Engelska parken","name:en":"The English Park","source":"local knowledge","website":"https://ostergotlandsmuseum.se/pages/45"}},"geometry":{"type":"Point","coordinates":[16.0389117,58.5507042]}},{"type":"Feature","properties":{"id":559351980,"osm_type":"way","name":"","category":"park","tags":{"leisure":"park"}},"geometry":{"type":"Point","coordinates":[16.3403674,58.4759583]}},{"type":"Feature","properties":{"id":595161867,"osm_type":"way","name":"","category":"park","tags":{"leisure":"park"}},"geometry":{"type":"Point","coordinates":[16.3313329,58.4677679]}},{"type":"Feature","properties":{"id":601050217,"osm_type":"way","name":"Djuröns Naturreservat","category":"park","tags":{"communication:amateur_radio:pota":"SM-0093","leisure":"park","name":"Djuröns Naturreservat"}},"geometry":{"type":"Point","coordinates":[16.3551747,58.6257147]}},{"type":"Feature","properties":{"id":601052880,"osm_type":"way","name":"Djuröns parkkområde","category":"park","tags":{"leisure":"park","name":"Djuröns parkkområde"}},"geometry":{"type":"Point","coordinates":[16.3469734,58.6302703]}},{"type":"Feature","properties":{"id":787900696,"osm_type":"way","name":"Kavaljersparken","category":"park","tags":{"leisure":"park","name":"Kavaljersparken"}},"geometry":{"type":"Point","coordinates":[16.1456514,58.5775129]}},{"type":"Feature","properties":{"id":819018655,"osm_type":"way","name":"Ellen Mobergs park","category":"park","tags":{"leisure":"park","name":"Ellen Mobergs park"}},"geometry":{"type":"Point","coordinates":[16.1442609,58.5807395]}},{"type":"Feature","properties":{"id":847568344,"osm_type":"way","name":"Sandbyhovsparken","category":"park","tags":{"leisure":"park","name":"Sandbyhovsparken"}},"geometry":{"type":"Point","coordinates":[16.1590366,58.6063204]}},{"type":"Feature","properties":{"id":923310423,"osm_type":"way","name":"","category":"park","tags":{"leisure":"park"}},"geometry":{"type":"Point","coordinates":[16.0414793,58.550449]}},{"type":"Feature","properties":{"id":948657039,"osm_type":"way","name":"","category":"park","tags":{"leisure":"park"}},"geometry":{"type":"Point","coordinates":[16.3022759,58.5786533]}},{"type":"Feature","properties":{"id":948934532,"osm_type":"way","name":"Mjölnareparken","category":"park","tags":{"leisure":"park","name":"Mjölnareparken"}},"geometry":{"type":"Point","coordinates":[16.1814402,58.5900844]}},{"type":"Feature","properties":{"id":948934533,"osm_type":"way","name":"Faktoriparken","category":"park","tags":{"leisure":"park","name":"Faktoriparken"}},"geometry":{"type":"Point","coordinates":[16.1809259,58.5875496]}},{"type":"Feature","properties":{"id":1002361626,"osm_type":"way","name":"","category":"park","tags":{"leisure":"park"}},"geometry":{"type":"Point","coordinates":[16.3096098,58.5780373]}},{"type":"Feature","properties":{"id":1043410294,"osm_type":"way","name":"","category":"park","tags":{"leisure":"park"}},"geometry":{"type":"Point","coordinates":[16.2312222,58.5680166]}},{"type":"Feature","properties":{"id":1057846269,"osm_type":"way","name":"","category":"park","tags":{"leisure":"park"}},"geometry":{"type":"Point","coordinates":[16.1808983,58.5809853]}},{"type":"Feature","properties":{"id":1081259446,"osm_type":"way","name":"Carl von Linneés plats","category":"park","tags":{"leisure":"park","name":"Carl von Linneés plats","surface":"gravel"}},"geometry":{"type":"Point","coordinates":[16.1844167,58.5890935]}},{"type":"Feature","properties":{"id":1101396255,"osm_type":"way","name":"Kärleksparken","category":"park","tags":{"leisure":"park","name":"Kärleksparken"}},"geometry":{"type":"Point","coordinates":[16.1790222,58.5900419]}},{"type":"Feature","properties":{"id":1134532746,"osm_type":"way","name":"Vidablicksparken","category":"park","tags":{"leisure":"park","name":"Vidablicksparken","operator":"Norrköpings kommun","operator:type":"public"}},"geometry":{"type":"Point","coordinates":[16.1565079,58.6076091]}},{"type":"Feature","properties":{"id":1214872789,"osm_type":"way","name":"","category":"park","tags":{"leisure":"park","opening_hours":"24/7"}},"geometry":{"type":"Point","coordinates":[16.1822335,58.593852]}},{"type":"Feature","properties":{"id":1214872790,"osm_type":"way","name":"","category":"park","tags":{"leisure":"park","opening_hours":"24/7"}},"geometry":{"type":"Point","coordinates":[16.1819934,58.5943578]}},{"type":"Feature","properties":{"id":1307043241,"osm_type":"way","name":"","category":"park","tags":{"leisure":"park"}},"geometry":{"type":"Point","coordinates":[16.1592276,58.5773092]}},{"type":"Feature","properties":{"id":1307043242,"osm_type":"way","name":"","category":"park","tags":{"leisure":"park"}},"geometry":{"type":"Point","coordinates":[16.1604317,58.577628]}},{"type":"Feature","properties":{"id":1307046526,"osm_type":"way","name":"","category":"park","tags":{"leisure":"park"}},"geometry":{"type":"Point","coordinates":[16.1961289,58.5807382]}},{"type":"Feature","properties":{"id":1307046528,"osm_type":"way","name":"","category":"park","tags":{"leisure":"park"}},"geometry":{"type":"Point","coordinates":[16.2185493,58.5827378]}},{"type":"Feature","properties":{"id":1307046529,"osm_type":"way","name":"","category":"park","tags":{"leisure":"park"}},"geometry":{"type":"Point","coordinates":[16.2263346,58.5932197]}},{"type":"Feature","properties":{"id":1354431055,"osm_type":"way","name":"Varvsparken","category":"park","tags":{"leisure":"park","name":"Varvsparken"}},"geometry":{"type":"Point","coordinates":[16.2001753,58.595295]}},{"type":"Feature","properties":{"id":1391413438,"osm_type":"way","name":"Fjärilsparken","category":"park","tags":{"leisure":"park","name":"Fjärilsparken"}},"geometry":{"type":"Point","coordinates":[16.3230533,58.479463]}},{"type":"Feature","properties":{"id":1421982482,"osm_type":"way","name":"","category":"park","tags":{"leisure":"park"}},"geometry":{"type":"Point","coordinates":[16.166042,58.5717205]}},{"type":"Feature","properties":{"id":1432003517,"osm_type":"way","name":"Lindön","category":"park","tags":{"leisure":"park","name":"Lindön"}},"geometry":{"type":"Point","coordinates":[16.2640276,58.6080842]}},{"type":"Feature","properties":{"id":1380344,"osm_type":"relation","name":"Domarringen","category":"park","tags":{"leisure":"park","name":"Domarringen","type":"multipolygon"}},"geometry":{"type":"Point","coordinates":[16.1767446,58.5800377]}},{"type":"Feature","properties":{"id":14661499,"osm_type":"relation","name":"","category":"park","tags":{"leisure":"park","type":"multipolygon"}},"geometry":{"type":"Point","coordinates":[16.1715626,58.5887805]}}]}