{"type":"FeatureCollection","features":[{"type":"Feature","properties":{"id":687711274,"osm_type":"node","name":"Apoteket","category":"pharmacy","tags":{"addr:country":"SE","addr:housenumber":"21","addr:street":"Nyköpingsvägen","amenity":"pharmacy","app:apk":"se.apoteket.recept","app:apple":"https://itunes.apple.com/se/app/mitt-apotek/id1053398061","branch":"Apoteket Mården","brand":"Apoteket","dispensing":"yes","name":"Apoteket","operator":"Apoteket AB (556138-6532)","owner":"Svenska Staten","ownership":"national","phone":"+46771450450","website:stock":"https://www.fass.se/"}},"geometry":{"type":"Point","coordinates":[16.1814965,58.6652796]}},{"type":"Feature","properties":{"id":1028596323,"osm_type":"node","name":"Apotek Hjärtat","category":"pharmacy","tags":{"addr:city":"Norrköping","addr:country":"SE","addr:housenumber":"54","addr:postcode":"603 59","addr:street":"Timmermansgatan","amenity":"pharmacy","app:apple":"https://itunes.apple.com/se/app/apotek-hj%C3%A4rtat-n%C3%A4ra-dig/id1150817089","app:google":"https://play.google.com/store/apps/details?id=com.presencekit.apotek.se&hl=en_US","brand":"Apotek Hjärtat","brand:wikidata":"Q10416114","healthcare":"pharmacy","name":"Apotek Hjärtat","opening_hours":"Mo-Fr 10:00-20:00; Sa,Su 10:00-18:00","operator":"Apotek Hjärtat Retail AB","owner":"ICA Gruppen AB","ownership":"private","phone":"+46771405405","website:stock":"https://www.fass.se/"}},"geometry":{"type":"Point","coordinates":[16.2108882,58.5729232]}},{"type":"Feature","properties":{"id":1108877885,"osm_type":"node","name":"Apotek Hjärtat","category":"pharmacy","tags":{"addr:city":"Norrköping","addr:country":"SE","addr:housenumber":"56","addr:postcode":"602 32","addr:street":"Drottninggatan","amenity":"pharmacy","app:apple":"https://itunes.apple.com/se/app/apotek-hj%C3%A4rtat-n%C3%A4ra-dig/id1150817089","app:google":"https://play.google.com/store/apps/details?id=com.presencekit.apotek.se&hl=en_US","brand":"Apotek Hjärtat","brand:wikidata":"Q10416114","healthcare":"pharmacy","name":"Apotek Hjärtat","operator":"Apotek Hjärtat Retail AB","owner":"ICA Gruppen AB","ownership":"private","phone":"+46771405405","website:stock":"https://www.fass.se/"}},"geometry":{"type":"Point","coordinates":[16.1887757,58.5869326]}},{"type":"Feature","properties":{"id":1181400413,"osm_type":"node","name":"Kronans Apotek","category":"pharmacy","tags":{"addr:city":"Norrköping","addr:country":"SE","addr:housenumber":"100","addr:street":"Slåttergatan","amenity":"pharmacy","app:apple":"https://itunes.apple.com/se/app/kronans-apotek/id1129771604?l=en","app:google":"https://play.google.com/store/apps/details?id=se.kronansapotek.kronan","brand":"Kronans apotek","dispensing":"yes","name":"Kronans Apotek","old_name":"Apoteket Vesslan","operator":"Kronans Droghandel Apotek AB","phone":"+46771612612","website":"http://www.kronansdroghandel.se/Valj-Apotek/Ostergotlands-lan/Vesslan/","website:stock":"https://www.fass.se/"}},"geometry":{"type":"Point","coordinates":[16.1436961,58.6036818]}},{"type":"Feature","properties":{"id":1705133434,"osm_type":"node","name":"Kronans Apotek","category":"pharmacy","tags":{"addr:street":"Hospitalsgatan","amenity":"pharmacy","app:apple":"https://itunes.apple.com/se/app/kronans-apotek/id1129771604?l=en","app:google":"https://play.google.com/store/apps/details?id=se.kronansapotek.kronan","brand":"Kronans Apotek","brand:wikidata":"Q10549422","dispensing":"yes","healthcare":"pharmacy","name":"Kronans Apotek","opening_hours":"Mo-Fr 09:00-19:00, Sa 09:00-14:00","operator":"Kronans Droghandel Apotek AB","phone":"+46771612612","website:stock":"https://www.fass.se/"}},"geometry":{"type":"Point","coordinates":[16.1914054,58.5912907]}},{"type":"Feature","properties":{"id":1786421914,"osm_type":"node","name":"Apoteket","category":"pharmacy","tags":{"amenity":"pharmacy","app:apk":"se.apoteket.recept","app:apple":"https://itunes.apple.com/se/app/mitt-apotek/id1053398061","branch":"Apoteket Kronan","brand":"Apoteket","dispensing":"no","name":"Apoteket","opening_hours":"Mo-Fr 08:30-18:30;Sa 08:00-14:00","operator":"Apoteket AB (556138-6532)","owner":"Svenska Staten","ownership":"national","phone":"+46771450450","website:stock":"https://www.fass.se/"}},"geometry":{"type":"Point","coordinates":[16.1576394,58.5771503]}},{"type":"Feature","properties":{"id":2341949340,"osm_type":"node","name":"Apoteket","category":"pharmacy","tags":{"amenity":"pharmacy","app:apk":"se.apoteket.recept","app:apple":"https://itunes.apple.com/se/app/mitt-apotek/id1053398061","branch":"Apoteket AB","brand":"Apoteket","brand:wikidata":"Q1785637","healthcare":"pharmacy","name":"Apoteket","opening_hours":"Mo-Fr 09:00-19:00; Sa 10:00-17:00; Su 11:00-16:00","operator":"Apoteket AB (556138-6532)","owner":"Svenska Staten","ownership":"national","phone":"+46771450450","website":"https://apoteket.se/","website:stock":"https://www.fass.se/"}},"geometry":{"type":"Point","coordinates":[16.1910236,58.5874589]}},{"type":"Feature","properties":{"id":4128114092,"osm_type":"node","name":"Kronans Apotek","category":"pharmacy","tags":{"addr:city":"Norrköping","addr:country":"SE","addr:housenumber":"36","addr:postcode":"602 20","addr:street":"Kungsgatan","amenity":"pharmacy","brand":"Kronans Apotek","brand:wikidata":"Q10549422","healthcare":"pharmacy","name":"Kronans Apotek","opening_hours":"Sa 10:00-14:00; Mo-Fr 09:00-18:00","website":"https://www.kronansapotek.se/hitta-apotek/kronans-apotek-norrkoping-kungsgatan-0832/","website:stock":"https://www.fass.se/"}},"geometry":{"type":"Point","coordinates":[16.178021,58.591005]}},{"type":"Feature","properties":{"id":6628771864,"osm_type":"node","name":"Apoteket Fasanen","category":"pharmacy","tags":{"amenity":"pharmacy","dispensing":"yes","name":"Apoteket Fasanen","operator":"Apoteket AB"}},"geometry":{"type":"Point","coordinates":[16.1697497,58.5709683]}},{"type":"Feature","properties":{"id":8494135310,"osm_type":"node","name":"Apotek Hagatorget","category":"pharmacy","tags":{"addr:city":"Söderköping","addr:country":"SE","addr:housenumber":"2","addr:postcode":"61430","addr:street":"Hagatorget","amenity":"pharmacy","check_date":"2025-05-29","dispensing":"yes","healthcare":"pharmacy","name":"Apotek Hagatorget","opening_hours":"Mo-Fr 09:00-18:00; Sa 10:00-14:00","website":"https://apotek-hagatorget.business.site/"}},"geometry":{"type":"Point","coordinates":[16.3224424,58.4806848]}},{"type":"Feature","properties":{"id":10809061168,"osm_type":"node","name":"Kronans Apotek","category":"pharmacy","tags":{"amenity":"pharmacy","brand":"Kronans Apotek","brand:wikidata":"Q10549422","healthcare":"pharmacy","name":"Kronans Apotek"}},"geometry":{"type":"Point","coordinates":[16.3350396,58.4743202]}},{"type":"Feature","properties":{"id":10905690301,"osm_type":"node","name":"Apoteket","category":"pharmacy","tags":{"amenity":"pharmacy","brand":"Apoteket","brand:wikidata":"Q1785637","dispensing":"yes","drive_through":"no","healthcare":"pharmacy","name":"Apoteket"}},"geometry":{"type":"Point","coordinates":[16.1783598,58.5635168]}},{"type":"Feature","properties":{"id":11693845772,"osm_type":"node","name":"Apotek Hjärtat","category":"pharmacy","tags":{"amenity":"pharmacy","brand":"Apotek Hjärtat","brand:wikidata":"Q10416114","check_date":"2025-09-06","healthcare":"pharmacy","name":"Apotek Hjärtat","opening_hours":"07:00-22:00"}},"geometry":{"type":"Point","coordinates":[16.1623473,58.6156774]}},{"type":"Feature","properties":{"id":13110781535,"osm_type":"node","name":"Hälsa Apotek","category":"pharmacy","tags":{"addr:city":"Norrköping","addr:country":"SE","addr:housenumber":"77","addr:postcode":"603 50","addr:street":"Albrektsvägen","amenity":"pharmacy","healthcare":"pharmacy","name":"Hälsa Apotek","opening_hours":"Mo-Fr 09:00-17:00","phone":"+46 771-25 00 44","website":"https://www.halsaapotek.se/"}},"geometry":{"type":"Point","coordinates":[16.1968533,58.5809213]}},{"type":"Feature","properties":{"id":1443570451,"osm_type":"way","name":"Kronans Apotek","category":"pharmacy","tags":{"amenity":"pharmacy","brand":"Kronans Apotek","brand:wikidata":"Q10549422","healthcare":"pharmacy","level":"0","name":"Kronans Apotek"}},"geometry":{"type":"Point","coordinates":[16.1576977,58.6194719]}}]}