{"type":"FeatureCollection","features":[{"type":"Feature","properties":{"id":4109868591,"osm_type":"node","name":"Sankta Maria Syrisk ortodoxa kyrka","category":"place_of_worship","tags":{"amenity":"place_of_worship","denomination":"syriac_orthodox","name":"Sankta Maria Syrisk ortodoxa kyrka","religion":"christian","short_name":"S:ta Maria Syrisk ortodoxa kyrka"}},"geometry":{"type":"Point","coordinates":[16.172664,58.5794819]}},{"type":"Feature","properties":{"id":4719418181,"osm_type":"node","name":"","category":"place_of_worship","tags":{"amenity":"place_of_worship","building":"shrine","denomination":"catholic","note":"this is a small shrine","religion":"christian"}},"geometry":{"type":"Point","coordinates":[16.1896837,58.58919]}},{"type":"Feature","properties":{"id":5263392121,"osm_type":"node","name":"Aisha moskén","category":"place_of_worship","tags":{"addr:country":"SE","addr:housenumber":"17","addr:street":"Mäster Påvels gränd","amenity":"place_of_worship","name":"Aisha moskén","religion":"muslim","website":"https://www.aishamosken.se/"}},"geometry":{"type":"Point","coordinates":[16.1812608,58.5904767]}},{"type":"Feature","properties":{"id":5263392122,"osm_type":"node","name":"Bosniska Islamiska Föreningen","category":"place_of_worship","tags":{"amenity":"place_of_worship","check_date":"2025-08-19","name":"Bosniska Islamiska Föreningen","religion":"muslim","website":"https://www.izb.se/"}},"geometry":{"type":"Point","coordinates":[16.1796227,58.594992]}},{"type":"Feature","properties":{"id":13788964318,"osm_type":"node","name":"Navestad kyrka","category":"place_of_worship","tags":{"amenity":"place_of_worship","denomination":"lutheran","name":"Navestad kyrka","religion":"christian"}},"geometry":{"type":"Point","coordinates":[16.2235527,58.5573894]}},{"type":"Feature","properties":{"id":13788971972,"osm_type":"node","name":"Klockargårdens kyrka","category":"place_of_worship","tags":{"amenity":"place_of_worship","denomination":"lutheran","name":"Klockargårdens kyrka","religion":"christian"}},"geometry":{"type":"Point","coordinates":[16.1335353,58.5771147]}},{"type":"Feature","properties":{"id":87235803,"osm_type":"way","name":"Matteus kyrka","category":"place_of_worship","tags":{"amenity":"place_of_worship","building":"church","denomination":"lutheran","name":"Matteus kyrka","religion":"christian","wikidata":"Q10578518","wikipedia":"sv:Matteus kyrka"}},"geometry":{"type":"Point","coordinates":[16.1717777,58.5930803]}},{"type":"Feature","properties":{"id":87250087,"osm_type":"way","name":"Sankt Olai kyrka","category":"place_of_worship","tags":{"amenity":"place_of_worship","building":"yes","building:colour":"lightyellow","check_date":"2024-05-09","denomination":"lutheran","name":"Sankt Olai kyrka","religion":"christian","roof:material":"copper","source":"Bing","wikidata":"Q1701458","wikipedia":"sv:Sankt Olai kyrka"}},"geometry":{"type":"Point","coordinates":[16.1894163,58.590056]}},{"type":"Feature","properties":{"id":88598845,"osm_type":"way","name":"Kyrkan vid Vasaparken","category":"place_of_worship","tags":{"addr:city":"Norrköping","addr:country":"SE","addr:housenumber":"106","addr:postcode":"602 31","addr:street":"Södra Promenaden","amenity":"place_of_worship","building":"yes","denomination":"evangelical","name":"Kyrkan vid Vasaparken","old_name":"Immanuelskyrkan","religion":"christian","website":"https://korskyrkan.se","wheelchair":"yes","wikidata":"Q18759755","wikipedia":"sv:Kyrkan vid Vasaparken, Norrköping"}},"geometry":{"type":"Point","coordinates":[16.1923683,58.5840579]}},{"type":"Feature","properties":{"id":88741182,"osm_type":"way","name":"Hedvigs kyrka","category":"place_of_worship","tags":{"addr:city":"Norrköping","addr:country":"SE","addr:housenumber":"1","addr:street":"Tyska torget","amenity":"place_of_worship","building":"church","building:colour":"firebrick","denomination":"lutheran","name":"Hedvigs kyrka","old_name":"Tyska kyrkan","religion":"christian","roof:material":"copper","roof:shape":"gabled","start_date":"1673","website":"https://www.svenskakyrkan.se/norrkoping/hedvigs-kyrka","wikidata":"Q10519262","wikipedia":"sv:Hedvigs kyrka"}},"geometry":{"type":"Point","coordinates":[16.1878505,58.5928122]}},{"type":"Feature","properties":{"id":89370279,"osm_type":"way","name":"Kvillinge kyrka","category":"place_of_worship","tags":{"amenity":"place_of_worship","building":"yes","denomination":"lutheran","name":"Kvillinge kyrka","religion":"christian","wikidata":"Q10551108"}},"geometry":{"type":"Point","coordinates":[16.1343013,58.6476937]}},{"type":"Feature","properties":{"id":91859390,"osm_type":"way","name":"S:t Johannes kyrka","category":"place_of_worship","tags":{"addr:street":"Hagebygatan","amenity":"place_of_worship","building":"yes","check_date":"2024-09-21","denomination":"lutheran","name":"S:t Johannes kyrka","religion":"christian","wikidata":"Q10661374","wikipedia":"sv:Sankt Johannes kyrka, Norrköping"}},"geometry":{"type":"Point","coordinates":[16.1972848,58.5766466]}},{"type":"Feature","properties":{"id":92342104,"osm_type":"way","name":"Rikets sal","category":"place_of_worship","tags":{"addr:city":"Norrköping","addr:country":"SE","addr:housenumber":"4","addr:street":"Sprängstensgatan","amenity":"place_of_worship","building":"yes","denomination":"jehovahs_witness","name":"Rikets sal","religion":"christian"}},"geometry":{"type":"Point","coordinates":[16.1802112,58.5693789]}},{"type":"Feature","properties":{"id":92388204,"osm_type":"way","name":"Norrköpings synagoga","category":"place_of_worship","tags":{"addr:city":"Norrköping","addr:country":"SE","addr:housenumber":"32","addr:street":"Bråddgatan","amenity":"place_of_worship","building":"synagogue","name":"Norrköpings synagoga","religion":"jewish","wikidata":"Q1716414","wikipedia":"sv:Norrköpings synagoga"}},"geometry":{"type":"Point","coordinates":[16.17865,58.59337]}},{"type":"Feature","properties":{"id":92427814,"osm_type":"way","name":"Centrumkyrkan","category":"place_of_worship","tags":{"addr:city":"Norrköping","addr:country":"SE","addr:housenumber":"113","addr:postcode":"60232","addr:street":"S:t Persgatan","amenity":"place_of_worship","building":"yes","denomination":"uniting_church_in_sweden","name":"Centrumkyrkan","religion":"christian","service_times":"Su 11:00","website":"https://www.centrumkyrkan-norrkoping.se"}},"geometry":{"type":"Point","coordinates":[16.1915138,58.5866525]}},{"type":"Feature","properties":{"id":93087024,"osm_type":"way","name":"Sankt Kyriakos kyrka","category":"place_of_worship","tags":{"addr:city":"Norrköping","addr:country":"SE","addr:housenumber":"10","addr:postcode":"603 70","addr:street":"Brånnestadsgatan","alt_name":"Syrisk Ortodoxa Kyrkan - S:t Kyriakos","amenity":"place_of_worship","building":"church","denomination":"syriac_orthodox","name":"Sankt Kyriakos kyrka","religion":"christian","short_name":"S:t Kyriakos kyrka","website":"https://stkyriakos.se/"}},"geometry":{"type":"Point","coordinates":[16.2273328,58.5614301]}},{"type":"Feature","properties":{"id":93934573,"osm_type":"way","name":"Östra Eneby kyrka","category":"place_of_worship","tags":{"addr:city":"Norrköping","addr:country":"SE","addr:housenumber":"150","addr:postcode":"602 10","addr:street":"Finspångsvägen","amenity":"place_of_worship","building":"church","denomination":"lutheran","name":"Östra Eneby kyrka","religion":"christian","website":"https://www.svenskakyrkan.se/norrkoping/ostra-eneby-kyrka","wikidata":"Q10728266","wikipedia":"sv:Östra Eneby kyrka"}},"geometry":{"type":"Point","coordinates":[16.1363779,58.609653]}},{"type":"Feature","properties":{"id":95506561,"osm_type":"way","name":"Åbylundskyrkan","category":"place_of_worship","tags":{"addr:city":"Åby","addr:country":"SE","addr:housenumber":"11","addr:postcode":"61632","addr:street":"Krusenhofsvägen","amenity":"place_of_worship","building":"yes","denomination":"uniting_church_in_sweden","name":"Åbylundskyrkan","religion":"christian","website":"https://www.abylundskyrkan.se/","wikidata":"Q10726189"}},"geometry":{"type":"Point","coordinates":[16.1764413,58.6602283]}},{"type":"Feature","properties":{"id":95514096,"osm_type":"way","name":"Ättetorpskyrkan","category":"place_of_worship","tags":{"addr:street":"Borgiavägen","amenity":"place_of_worship","building":"yes","denomination":"lutheran","name":"Ättetorpskyrkan","religion":"christian","wikidata":"Q10726118"}},"geometry":{"type":"Point","coordinates":[16.1747828,58.6693731]}},{"type":"Feature","properties":{"id":96394799,"osm_type":"way","name":"Sankta Birgitta kyrka","category":"place_of_worship","tags":{"addr:city":"Norrköping","addr:country":"SE","addr:housenumber":"14 B","addr:postcode":"602 25","addr:street":"Skolgatan","amenity":"place_of_worship","building":"church","denomination":"catholic","name":"Sankta Birgitta kyrka","religion":"christian","website":"http://www.sanktabirgitta.se","wikidata":"Q42402208","wikipedia":"sv:Sankta Birgitta kyrka, Norrköping"}},"geometry":{"type":"Point","coordinates":[16.1893016,58.5893213]}},{"type":"Feature","properties":{"id":97687810,"osm_type":"way","name":"Lindö kapell","category":"place_of_worship","tags":{"addr:city":"Norrköping","addr:country":"SE","addr:housenumber":"7","addr:postcode":"603 65","addr:street":"Lindöhällsvägen","amenity":"place_of_worship","building":"chapel","check_date":"2025-08-28","denomination":"lutheran","name":"Lindö kapell","religion":"christian","website":"https://www.svenskakyrkan.se/platser/10195-norrkopings-st-olofs-forsamling-lindo-kapell","wikidata":"Q10562657","wikipedia":"sv:Lindö kapell"}},"geometry":{"type":"Point","coordinates":[16.2521915,58.6085932]}},{"type":"Feature","properties":{"id":97866576,"osm_type":"way","name":"Frälsningsarmén","category":"place_of_worship","tags":{"addr:city":"Kolmården","addr:country":"SE","addr:housenumber":"511","addr:postcode":"618 33","addr:street":"Nyköpingsvägen","amenity":"place_of_worship","building":"yes","denomination":"salvation_army","name":"Frälsningsarmén","religion":"christian","website":"https://www.fralsningsarmen.se/krokek/"}},"geometry":{"type":"Point","coordinates":[16.3400334,58.6871481]}},{"type":"Feature","properties":{"id":98028334,"osm_type":"way","name":"Frälsningsarmén","category":"place_of_worship","tags":{"addr:city":"Norrköping","addr:country":"SE","addr:housenumber":"5","addr:postcode":"602 20","addr:street":"Vattengatan","amenity":"place_of_worship","building":"yes","denomination":"salvation_army","name":"Frälsningsarmén","phone":"+46-11-12 14 64","religion":"christian","url":"http://www.fralsningsarmen.se/Norrkoping/"}},"geometry":{"type":"Point","coordinates":[16.1807528,58.5921426]}},{"type":"Feature","properties":{"id":98653668,"osm_type":"way","name":"Söderledskyrkan","category":"place_of_worship","tags":{"addr:city":"Norrköping","addr:country":"SE","addr:housenumber":"100","addr:street":"Vilbergsgatan","amenity":"place_of_worship","building":"church","denomination":"lutheran","name":"Söderledskyrkan","religion":"christian","wikidata":"Q10688576"}},"geometry":{"type":"Point","coordinates":[16.166535,58.5742105]}},{"type":"Feature","properties":{"id":100063707,"osm_type":"way","name":"Vidablickskyrkan","category":"place_of_worship","tags":{"addr:city":"Norrköping","addr:country":"SE","addr:housenumber":"60","addr:postcode":"602 09","addr:street":"De Geersgatan","amenity":"place_of_worship","building":"yes","denomination":"uniting_church_in_sweden","name":"Vidablickskyrkan","religion":"christian","website":"https://www.vidablickskyrkan.se/"}},"geometry":{"type":"Point","coordinates":[16.1466987,58.6092242]}},{"type":"Feature","properties":{"id":102024939,"osm_type":"way","name":"Adventkyrkan","category":"place_of_worship","tags":{"addr:city":"Norrköping","addr:country":"SE","addr:housenumber":"14-16","addr:postcode":"603 80","addr:street":"Skarphagsgatan","amenity":"place_of_worship","building":"yes","denomination":"seventh_day_adventist","name":"Adventkyrkan","religion":"christian","website":"https://norrkoping.adventkyrka.se/","wikidata":"Q93864486","wikipedia":"sv:Adventkyrkan, Norrköping"}},"geometry":{"type":"Point","coordinates":[16.1558382,58.5777722]}},{"type":"Feature","properties":{"id":153229623,"osm_type":"way","name":"Styrstads kyrka","category":"place_of_worship","tags":{"amenity":"place_of_worship","building":"church","denomination":"lutheran","name":"Styrstads kyrka","religion":"christian","wikidata":"Q10682814","wikipedia":"sv:Styrstads kyrka"}},"geometry":{"type":"Point","coordinates":[16.2694433,58.5618018]}},{"type":"Feature","properties":{"id":197976356,"osm_type":"way","name":"Dagsbergs kyrka","category":"place_of_worship","tags":{"amenity":"place_of_worship","building":"church","denomination":"lutheran","name":"Dagsbergs kyrka","religion":"christian","wikidata":"Q10465943","wikipedia":"sv:Dagsbergs kyrka"}},"geometry":{"type":"Point","coordinates":[16.3170684,58.5821737]}},{"type":"Feature","properties":{"id":197980165,"osm_type":"way","name":"Furingstads kyrka","category":"place_of_worship","tags":{"amenity":"place_of_worship","building":"church","denomination":"lutheran","name":"Furingstads kyrka","religion":"christian","wikidata":"Q10500209","wikipedia":"sv:Furingstads kyrka"}},"geometry":{"type":"Point","coordinates":[16.3444961,58.5554728]}},{"type":"Feature","properties":{"id":198053470,"osm_type":"way","name":"Tingstads kyrka","category":"place_of_worship","tags":{"amenity":"place_of_worship","building":"church","denomination":"lutheran","name":"Tingstads kyrka","religion":"christian","wikidata":"Q10698272"}},"geometry":{"type":"Point","coordinates":[16.2916057,58.5292437]}},{"type":"Feature","properties":{"id":375770004,"osm_type":"way","name":"Borgs kyrka","category":"place_of_worship","tags":{"amenity":"place_of_worship","building":"church","denomination":"lutheran","name":"Borgs kyrka","religion":"christian","wikidata":"Q10433186","wikipedia":"sv:Borgs kyrka"}},"geometry":{"type":"Point","coordinates":[16.0959961,58.5736879]}},{"type":"Feature","properties":{"id":415773602,"osm_type":"way","name":"Borgsmo kapell","category":"place_of_worship","tags":{"amenity":"place_of_worship","building":"chapel","name":"Borgsmo kapell","religion":"christian","wikidata":"Q135113555"}},"geometry":{"type":"Point","coordinates":[16.1453891,58.5757553]}},{"type":"Feature","properties":{"id":500980443,"osm_type":"way","name":"Västra Husby kyrka","category":"place_of_worship","tags":{"amenity":"place_of_worship","building":"church","denomination":"lutheran","name":"Västra Husby kyrka","religion":"christian","wikidata":"Q10718269","wikipedia":"sv:Västra Husby kyrka"}},"geometry":{"type":"Point","coordinates":[16.179227,58.4916795]}},{"type":"Feature","properties":{"id":685016759,"osm_type":"way","name":"Drothems kyrka","category":"place_of_worship","tags":{"amenity":"place_of_worship","building":"church","denomination":"lutheran","name":"Drothems kyrka","religion":"christian","wikidata":"Q12124607"}},"geometry":{"type":"Point","coordinates":[16.315883,58.4808505]}},{"type":"Feature","properties":{"id":685016766,"osm_type":"way","name":"Sankt Laurentii kyrka","category":"place_of_worship","tags":{"amenity":"place_of_worship","building":"church","check_date":"2025-07-13","denomination":"lutheran","name":"Sankt Laurentii kyrka","religion":"christian","short_name":"S:t Laurentii kyrka","wikidata":"Q10661406"}},"geometry":{"type":"Point","coordinates":[16.3197672,58.4802814]}},{"type":"Feature","properties":{"id":1510553978,"osm_type":"way","name":"","category":"place_of_worship","tags":{"amenity":"place_of_worship","building":"yes","religion":"christian","wikidata":"Q10512520","wikipedia":"sv:Gårdeby kyrka"}},"geometry":{"type":"Point","coordinates":[16.097398,58.4455524]}}]}