{"type":"FeatureCollection","features":[{"type":"Feature","properties":{"id":289438966,"osm_type":"node","name":"","category":"playground","tags":{"access":"yes","leisure":"playground"}},"geometry":{"type":"Point","coordinates":[16.1644425,58.5961822]}},{"type":"Feature","properties":{"id":497280892,"osm_type":"node","name":"","category":"playground","tags":{"leisure":"playground"}},"geometry":{"type":"Point","coordinates":[16.3138801,58.4694834]}},{"type":"Feature","properties":{"id":500130227,"osm_type":"node","name":"","category":"playground","tags":{"leisure":"playground"}},"geometry":{"type":"Point","coordinates":[16.319824,58.4745708]}},{"type":"Feature","properties":{"id":503019197,"osm_type":"node","name":"","category":"playground","tags":{"leisure":"playground"}},"geometry":{"type":"Point","coordinates":[16.3184227,58.4705788]}},{"type":"Feature","properties":{"id":564041845,"osm_type":"node","name":"Busfabriken","category":"playground","tags":{"addr:city":"Norrköping","addr:country":"SE","addr:housenumber":"48","addr:street":"Ståthögavägen","leisure":"playground","name":"Busfabriken"}},"geometry":{"type":"Point","coordinates":[16.1682726,58.6097205]}},{"type":"Feature","properties":{"id":1208664471,"osm_type":"node","name":"","category":"playground","tags":{"leisure":"playground"}},"geometry":{"type":"Point","coordinates":[16.1205107,58.5749083]}},{"type":"Feature","properties":{"id":1371541231,"osm_type":"node","name":"","category":"playground","tags":{"leisure":"playground"}},"geometry":{"type":"Point","coordinates":[16.1796639,58.5836179]}},{"type":"Feature","properties":{"id":1371541232,"osm_type":"node","name":"","category":"playground","tags":{"leisure":"playground"}},"geometry":{"type":"Point","coordinates":[16.1784404,58.5838776]}},{"type":"Feature","properties":{"id":1756464154,"osm_type":"node","name":"","category":"playground","tags":{"access":"yes","leisure":"playground"}},"geometry":{"type":"Point","coordinates":[16.2546427,58.6037356]}},{"type":"Feature","properties":{"id":1912875464,"osm_type":"node","name":"","category":"playground","tags":{"leisure":"playground"}},"geometry":{"type":"Point","coordinates":[16.3435084,58.6918096]}},{"type":"Feature","properties":{"id":2295452307,"osm_type":"node","name":"","category":"playground","tags":{"leisure":"playground"}},"geometry":{"type":"Point","coordinates":[16.1950698,58.5839391]}},{"type":"Feature","properties":{"id":2342499481,"osm_type":"node","name":"","category":"playground","tags":{"leisure":"playground"}},"geometry":{"type":"Point","coordinates":[16.2501544,58.5678564]}},{"type":"Feature","properties":{"id":3039082653,"osm_type":"node","name":"","category":"playground","tags":{"access":"yes","leisure":"playground"}},"geometry":{"type":"Point","coordinates":[16.1846625,58.5902283]}},{"type":"Feature","properties":{"id":3048441733,"osm_type":"node","name":"","category":"playground","tags":{"leisure":"playground"}},"geometry":{"type":"Point","coordinates":[16.085488,58.7221952]}},{"type":"Feature","properties":{"id":3048441745,"osm_type":"node","name":"","category":"playground","tags":{"leisure":"playground"}},"geometry":{"type":"Point","coordinates":[16.0843642,58.7232551]}},{"type":"Feature","properties":{"id":4119435389,"osm_type":"node","name":"","category":"playground","tags":{"leisure":"playground"}},"geometry":{"type":"Point","coordinates":[16.1807419,58.5830002]}},{"type":"Feature","properties":{"id":4161774825,"osm_type":"node","name":"","category":"playground","tags":{"leisure":"playground"}},"geometry":{"type":"Point","coordinates":[16.1501191,58.5890441]}},{"type":"Feature","properties":{"id":4325612571,"osm_type":"node","name":"","category":"playground","tags":{"artwork_type":"statue","description":"Tortoise","leisure":"playground","material":"wood","playground":"statue","tourism":"artwork"}},"geometry":{"type":"Point","coordinates":[16.1955833,58.5838737]}},{"type":"Feature","properties":{"id":4325613813,"osm_type":"node","name":"","category":"playground","tags":{"artwork_type":"statue","description":"Tortoise","leisure":"playground","material":"wood","playground":"statue","tourism":"artwork"}},"geometry":{"type":"Point","coordinates":[16.195585,58.5838682]}},{"type":"Feature","properties":{"id":4822487879,"osm_type":"node","name":"","category":"playground","tags":{"leisure":"playground"}},"geometry":{"type":"Point","coordinates":[16.1288951,58.5748888]}},{"type":"Feature","properties":{"id":4822487880,"osm_type":"node","name":"","category":"playground","tags":{"leisure":"playground"}},"geometry":{"type":"Point","coordinates":[16.1302203,58.5742158]}},{"type":"Feature","properties":{"id":4822487881,"osm_type":"node","name":"","category":"playground","tags":{"leisure":"playground"}},"geometry":{"type":"Point","coordinates":[16.1310846,58.5740098]}},{"type":"Feature","properties":{"id":5154014751,"osm_type":"node","name":"","category":"playground","tags":{"access":"yes","leisure":"playground"}},"geometry":{"type":"Point","coordinates":[16.1420845,58.6013818]}},{"type":"Feature","properties":{"id":5403556354,"osm_type":"node","name":"","category":"playground","tags":{"leisure":"playground","playground":"swing","wheelchair":"yes","wheelchair:description":"A swing for wheelchairs!"}},"geometry":{"type":"Point","coordinates":[16.1953094,58.5841495]}},{"type":"Feature","properties":{"id":6482159627,"osm_type":"node","name":"","category":"playground","tags":{"access":"yes","leisure":"playground"}},"geometry":{"type":"Point","coordinates":[16.1753619,58.568865]}},{"type":"Feature","properties":{"id":6847057039,"osm_type":"node","name":"","category":"playground","tags":{"leisure":"playground"}},"geometry":{"type":"Point","coordinates":[16.1322185,58.5748188]}},{"type":"Feature","properties":{"id":6849379989,"osm_type":"node","name":"","category":"playground","tags":{"leisure":"playground"}},"geometry":{"type":"Point","coordinates":[16.1271492,58.5782127]}},{"type":"Feature","properties":{"id":6849381219,"osm_type":"node","name":"","category":"playground","tags":{"leisure":"playground"}},"geometry":{"type":"Point","coordinates":[16.1324117,58.5774478]}},{"type":"Feature","properties":{"id":6849381308,"osm_type":"node","name":"","category":"playground","tags":{"leisure":"playground"}},"geometry":{"type":"Point","coordinates":[16.1311054,58.5790698]}},{"type":"Feature","properties":{"id":6849381487,"osm_type":"node","name":"","category":"playground","tags":{"leisure":"playground"}},"geometry":{"type":"Point","coordinates":[16.1365825,58.5795257]}},{"type":"Feature","properties":{"id":6872674578,"osm_type":"node","name":"","category":"playground","tags":{"leisure":"playground"}},"geometry":{"type":"Point","coordinates":[16.1291608,58.5770115]}},{"type":"Feature","properties":{"id":7369925155,"osm_type":"node","name":"","category":"playground","tags":{"leisure":"playground"}},"geometry":{"type":"Point","coordinates":[16.1306137,58.6016572]}},{"type":"Feature","properties":{"id":7781336185,"osm_type":"node","name":"","category":"playground","tags":{"leisure":"playground"}},"geometry":{"type":"Point","coordinates":[16.1816501,58.59005]}},{"type":"Feature","properties":{"id":8244726622,"osm_type":"node","name":"","category":"playground","tags":{"leisure":"playground"}},"geometry":{"type":"Point","coordinates":[16.13556,58.617229]}},{"type":"Feature","properties":{"id":8784525528,"osm_type":"node","name":"","category":"playground","tags":{"access":"yes","leisure":"playground"}},"geometry":{"type":"Point","coordinates":[16.1810158,58.5875817]}},{"type":"Feature","properties":{"id":9656320975,"osm_type":"node","name":"","category":"playground","tags":{"leisure":"playground"}},"geometry":{"type":"Point","coordinates":[16.1694435,58.5838297]}},{"type":"Feature","properties":{"id":9663617427,"osm_type":"node","name":"","category":"playground","tags":{"leisure":"playground"}},"geometry":{"type":"Point","coordinates":[16.2308259,58.5515228]}},{"type":"Feature","properties":{"id":9663617428,"osm_type":"node","name":"","category":"playground","tags":{"leisure":"playground"}},"geometry":{"type":"Point","coordinates":[16.2306903,58.5516098]}},{"type":"Feature","properties":{"id":9663617491,"osm_type":"node","name":"","category":"playground","tags":{"leisure":"playground"}},"geometry":{"type":"Point","coordinates":[16.2333023,58.5506148]}},{"type":"Feature","properties":{"id":9663617492,"osm_type":"node","name":"","category":"playground","tags":{"leisure":"playground"}},"geometry":{"type":"Point","coordinates":[16.2325726,58.5517628]}},{"type":"Feature","properties":{"id":9663617643,"osm_type":"node","name":"","category":"playground","tags":{"leisure":"playground"}},"geometry":{"type":"Point","coordinates":[16.2281058,58.5523675]}},{"type":"Feature","properties":{"id":9663617754,"osm_type":"node","name":"","category":"playground","tags":{"leisure":"playground"}},"geometry":{"type":"Point","coordinates":[16.2282707,58.5529304]}},{"type":"Feature","properties":{"id":9910369955,"osm_type":"node","name":"","category":"playground","tags":{"access":"yes","leisure":"playground"}},"geometry":{"type":"Point","coordinates":[16.1847483,58.5904739]}},{"type":"Feature","properties":{"id":9981175319,"osm_type":"node","name":"","category":"playground","tags":{"leisure":"playground"}},"geometry":{"type":"Point","coordinates":[16.1317071,58.6063201]}},{"type":"Feature","properties":{"id":9981175320,"osm_type":"node","name":"","category":"playground","tags":{"leisure":"playground"}},"geometry":{"type":"Point","coordinates":[16.1326015,58.6073302]}},{"type":"Feature","properties":{"id":10900665106,"osm_type":"node","name":"","category":"playground","tags":{"leisure":"playground"}},"geometry":{"type":"Point","coordinates":[16.1765049,58.5579677]}},{"type":"Feature","properties":{"id":11121321104,"osm_type":"node","name":"Tuppenparken","category":"playground","tags":{"access":"yes","leisure":"playground","name":"Tuppenparken","operator":"Norrköpings kommun","surface":"woodchips"}},"geometry":{"type":"Point","coordinates":[16.1813588,58.5926702]}},{"type":"Feature","properties":{"id":11136548756,"osm_type":"node","name":"","category":"playground","tags":{"access":"yes","leisure":"playground"}},"geometry":{"type":"Point","coordinates":[16.17042,58.6033469]}},{"type":"Feature","properties":{"id":11189038251,"osm_type":"node","name":"","category":"playground","tags":{"leisure":"playground"}},"geometry":{"type":"Point","coordinates":[16.1768697,58.592247]}},{"type":"Feature","properties":{"id":11189038261,"osm_type":"node","name":"Mariagårdens förskola","category":"playground","tags":{"leisure":"playground","name":"Mariagårdens förskola","note":"Available to public when kindergarten is closed","operator":"Norrköpings kommun","surface":"artificial_turf"}},"geometry":{"type":"Point","coordinates":[16.1808201,58.5918557]}},{"type":"Feature","properties":{"id":11831814262,"osm_type":"node","name":"","category":"playground","tags":{"leisure":"playground"}},"geometry":{"type":"Point","coordinates":[16.1540222,58.6611874]}},{"type":"Feature","properties":{"id":13230992530,"osm_type":"node","name":"","category":"playground","tags":{"leisure":"playground"}},"geometry":{"type":"Point","coordinates":[16.200095,58.5955327]}},{"type":"Feature","properties":{"id":41077480,"osm_type":"way","name":"","category":"playground","tags":{"leisure":"playground"}},"geometry":{"type":"Point","coordinates":[16.3106443,58.4688842]}},{"type":"Feature","properties":{"id":60698943,"osm_type":"way","name":"","category":"playground","tags":{"leisure":"playground"}},"geometry":{"type":"Point","coordinates":[16.1785378,58.6557674]}},{"type":"Feature","properties":{"id":68273480,"osm_type":"way","name":"","category":"playground","tags":{"leisure":"playground"}},"geometry":{"type":"Point","coordinates":[16.1939002,58.6679113]}},{"type":"Feature","properties":{"id":95031264,"osm_type":"way","name":"","category":"playground","tags":{"leisure":"playground"}},"geometry":{"type":"Point","coordinates":[16.2037624,58.5800039]}},{"type":"Feature","properties":{"id":95260430,"osm_type":"way","name":"","category":"playground","tags":{"access":"yes","leisure":"playground"}},"geometry":{"type":"Point","coordinates":[16.1883893,58.5810967]}},{"type":"Feature","properties":{"id":95264312,"osm_type":"way","name":"","category":"playground","tags":{"leisure":"playground"}},"geometry":{"type":"Point","coordinates":[16.1870027,58.5798054]}},{"type":"Feature","properties":{"id":95527139,"osm_type":"way","name":"","category":"playground","tags":{"leisure":"playground"}},"geometry":{"type":"Point","coordinates":[16.1861254,58.5753845]}},{"type":"Feature","properties":{"id":95557673,"osm_type":"way","name":"","category":"playground","tags":{"leisure":"playground"}},"geometry":{"type":"Point","coordinates":[16.1606175,58.6534572]}},{"type":"Feature","properties":{"id":98859607,"osm_type":"way","name":"","category":"playground","tags":{"access":"yes","leisure":"playground"}},"geometry":{"type":"Point","coordinates":[16.1775707,58.6637298]}},{"type":"Feature","properties":{"id":99242078,"osm_type":"way","name":"","category":"playground","tags":{"leisure":"playground"}},"geometry":{"type":"Point","coordinates":[16.1772673,58.6586045]}},{"type":"Feature","properties":{"id":101180506,"osm_type":"way","name":"","category":"playground","tags":{"leisure":"playground"}},"geometry":{"type":"Point","coordinates":[16.1226291,58.5755802]}},{"type":"Feature","properties":{"id":102024937,"osm_type":"way","name":"","category":"playground","tags":{"leisure":"playground"}},"geometry":{"type":"Point","coordinates":[16.1562568,58.5778612]}},{"type":"Feature","properties":{"id":102141652,"osm_type":"way","name":"","category":"playground","tags":{"leisure":"playground"}},"geometry":{"type":"Point","coordinates":[16.2075255,58.5754453]}},{"type":"Feature","properties":{"id":102603323,"osm_type":"way","name":"","category":"playground","tags":{"leisure":"playground"}},"geometry":{"type":"Point","coordinates":[16.1792468,58.5797885]}},{"type":"Feature","properties":{"id":102686463,"osm_type":"way","name":"","category":"playground","tags":{"leisure":"playground"}},"geometry":{"type":"Point","coordinates":[16.1255039,58.5760393]}},{"type":"Feature","properties":{"id":102966737,"osm_type":"way","name":"","category":"playground","tags":{"access":"yes","leisure":"playground"}},"geometry":{"type":"Point","coordinates":[16.1767687,58.5703756]}},{"type":"Feature","properties":{"id":102966780,"osm_type":"way","name":"","category":"playground","tags":{"leisure":"playground"}},"geometry":{"type":"Point","coordinates":[16.1814411,58.5696874]}},{"type":"Feature","properties":{"id":109791699,"osm_type":"way","name":"","category":"playground","tags":{"access":"yes","leisure":"playground"}},"geometry":{"type":"Point","coordinates":[16.1746273,58.6731588]}},{"type":"Feature","properties":{"id":118222344,"osm_type":"way","name":"","category":"playground","tags":{"leisure":"playground"}},"geometry":{"type":"Point","coordinates":[16.1777345,58.6604357]}},{"type":"Feature","properties":{"id":118222944,"osm_type":"way","name":"","category":"playground","tags":{"leisure":"playground"}},"geometry":{"type":"Point","coordinates":[16.1732007,58.6602534]}},{"type":"Feature","properties":{"id":118360226,"osm_type":"way","name":"","category":"playground","tags":{"leisure":"playground"}},"geometry":{"type":"Point","coordinates":[16.169635,58.6635751]}},{"type":"Feature","properties":{"id":122851166,"osm_type":"way","name":"","category":"playground","tags":{"leisure":"playground"}},"geometry":{"type":"Point","coordinates":[16.1639792,58.6608262]}},{"type":"Feature","properties":{"id":158436859,"osm_type":"way","name":"","category":"playground","tags":{"leisure":"playground"}},"geometry":{"type":"Point","coordinates":[16.1664027,58.5765558]}},{"type":"Feature","properties":{"id":158436863,"osm_type":"way","name":"","category":"playground","tags":{"leisure":"playground"}},"geometry":{"type":"Point","coordinates":[16.1635698,58.5770408]}},{"type":"Feature","properties":{"id":158534922,"osm_type":"way","name":"","category":"playground","tags":{"leisure":"playground"}},"geometry":{"type":"Point","coordinates":[16.168562,58.5771696]}},{"type":"Feature","properties":{"id":158755313,"osm_type":"way","name":"","category":"playground","tags":{"leisure":"playground"}},"geometry":{"type":"Point","coordinates":[16.1649187,58.5783512]}},{"type":"Feature","properties":{"id":165072951,"osm_type":"way","name":"","category":"playground","tags":{"leisure":"playground"}},"geometry":{"type":"Point","coordinates":[16.1875393,58.6674785]}},{"type":"Feature","properties":{"id":165185506,"osm_type":"way","name":"","category":"playground","tags":{"leisure":"playground"}},"geometry":{"type":"Point","coordinates":[16.187339,58.6712431]}},{"type":"Feature","properties":{"id":166440688,"osm_type":"way","name":"","category":"playground","tags":{"leisure":"playground"}},"geometry":{"type":"Point","coordinates":[16.1523811,58.5777388]}},{"type":"Feature","properties":{"id":166440689,"osm_type":"way","name":"","category":"playground","tags":{"leisure":"playground"}},"geometry":{"type":"Point","coordinates":[16.1533378,58.5780471]}},{"type":"Feature","properties":{"id":166440690,"osm_type":"way","name":"","category":"playground","tags":{"leisure":"playground"}},"geometry":{"type":"Point","coordinates":[16.1543021,58.5784044]}},{"type":"Feature","properties":{"id":175969354,"osm_type":"way","name":"","category":"playground","tags":{"leisure":"playground"}},"geometry":{"type":"Point","coordinates":[16.1945945,58.5862227]}},{"type":"Feature","properties":{"id":191985063,"osm_type":"way","name":"","category":"playground","tags":{"leisure":"playground"}},"geometry":{"type":"Point","coordinates":[16.208048,58.5692662]}},{"type":"Feature","properties":{"id":192152727,"osm_type":"way","name":"","category":"playground","tags":{"leisure":"playground"}},"geometry":{"type":"Point","coordinates":[16.206402,58.5698852]}},{"type":"Feature","properties":{"id":192583829,"osm_type":"way","name":"","category":"playground","tags":{"leisure":"playground"}},"geometry":{"type":"Point","coordinates":[16.2046829,58.5714377]}},{"type":"Feature","properties":{"id":192583835,"osm_type":"way","name":"","category":"playground","tags":{"leisure":"playground"}},"geometry":{"type":"Point","coordinates":[16.2056822,58.5707034]}},{"type":"Feature","properties":{"id":197034055,"osm_type":"way","name":"","category":"playground","tags":{"access":"yes","leisure":"playground"}},"geometry":{"type":"Point","coordinates":[16.2214429,58.5590402]}},{"type":"Feature","properties":{"id":197034057,"osm_type":"way","name":"","category":"playground","tags":{"access":"yes","leisure":"playground"}},"geometry":{"type":"Point","coordinates":[16.2213394,58.5589154]}},{"type":"Feature","properties":{"id":197034058,"osm_type":"way","name":"","category":"playground","tags":{"access":"yes","leisure":"playground"}},"geometry":{"type":"Point","coordinates":[16.2217567,58.5591638]}},{"type":"Feature","properties":{"id":201816757,"osm_type":"way","name":"","category":"playground","tags":{"leisure":"playground"}},"geometry":{"type":"Point","coordinates":[16.1333982,58.5784426]}},{"type":"Feature","properties":{"id":201816758,"osm_type":"way","name":"","category":"playground","tags":{"leisure":"playground"}},"geometry":{"type":"Point","coordinates":[16.1327349,58.579391]}},{"type":"Feature","properties":{"id":201816759,"osm_type":"way","name":"","category":"playground","tags":{"leisure":"playground"}},"geometry":{"type":"Point","coordinates":[16.1337907,58.5790014]}},{"type":"Feature","properties":{"id":218034004,"osm_type":"way","name":"","category":"playground","tags":{"leisure":"playground"}},"geometry":{"type":"Point","coordinates":[16.1394474,58.5769199]}},{"type":"Feature","properties":{"id":243975710,"osm_type":"way","name":"","category":"playground","tags":{"leisure":"playground"}},"geometry":{"type":"Point","coordinates":[16.1585098,58.5873424]}},{"type":"Feature","properties":{"id":254713752,"osm_type":"way","name":"","category":"playground","tags":{"leisure":"playground"}},"geometry":{"type":"Point","coordinates":[16.1293673,58.5758342]}},{"type":"Feature","properties":{"id":269140265,"osm_type":"way","name":"","category":"playground","tags":{"access":"yes","leisure":"playground"}},"geometry":{"type":"Point","coordinates":[16.1545073,58.6081261]}},{"type":"Feature","properties":{"id":269140266,"osm_type":"way","name":"","category":"playground","tags":{"leisure":"playground"}},"geometry":{"type":"Point","coordinates":[16.1540204,58.6082406]}},{"type":"Feature","properties":{"id":279811068,"osm_type":"way","name":"","category":"playground","tags":{"access":"yes","leisure":"playground"}},"geometry":{"type":"Point","coordinates":[16.234479,58.5752629]}},{"type":"Feature","properties":{"id":281261993,"osm_type":"way","name":"","category":"playground","tags":{"access":"yes","leisure":"playground"}},"geometry":{"type":"Point","coordinates":[16.165726,58.5726741]}},{"type":"Feature","properties":{"id":316417761,"osm_type":"way","name":"","category":"playground","tags":{"leisure":"playground"}},"geometry":{"type":"Point","coordinates":[16.1353716,58.5732628]}},{"type":"Feature","properties":{"id":316417762,"osm_type":"way","name":"","category":"playground","tags":{"leisure":"playground"}},"geometry":{"type":"Point","coordinates":[16.1371488,58.5728282]}},{"type":"Feature","properties":{"id":316418003,"osm_type":"way","name":"","category":"playground","tags":{"leisure":"playground"}},"geometry":{"type":"Point","coordinates":[16.1378414,58.5736927]}},{"type":"Feature","properties":{"id":316418004,"osm_type":"way","name":"","category":"playground","tags":{"leisure":"playground"}},"geometry":{"type":"Point","coordinates":[16.1378516,58.5740159]}},{"type":"Feature","properties":{"id":316418761,"osm_type":"way","name":"","category":"playground","tags":{"leisure":"playground"}},"geometry":{"type":"Point","coordinates":[16.1351603,58.5746258]}},{"type":"Feature","properties":{"id":316420321,"osm_type":"way","name":"","category":"playground","tags":{"leisure":"playground","surface":"rubbercrumb"}},"geometry":{"type":"Point","coordinates":[16.1331381,58.5768337]}},{"type":"Feature","properties":{"id":317122289,"osm_type":"way","name":"","category":"playground","tags":{"leisure":"playground"}},"geometry":{"type":"Point","coordinates":[16.1248609,58.577814]}},{"type":"Feature","properties":{"id":318411112,"osm_type":"way","name":"","category":"playground","tags":{"access":"yes","leisure":"playground"}},"geometry":{"type":"Point","coordinates":[16.1750678,58.5734048]}},{"type":"Feature","properties":{"id":318411114,"osm_type":"way","name":"","category":"playground","tags":{"access":"yes","leisure":"playground"}},"geometry":{"type":"Point","coordinates":[16.17506,58.5740851]}},{"type":"Feature","properties":{"id":318411116,"osm_type":"way","name":"","category":"playground","tags":{"access":"yes","leisure":"playground"}},"geometry":{"type":"Point","coordinates":[16.1771246,58.5733562]}},{"type":"Feature","properties":{"id":345764711,"osm_type":"way","name":"","category":"playground","tags":{"leisure":"playground"}},"geometry":{"type":"Point","coordinates":[16.3200753,58.4698534]}},{"type":"Feature","properties":{"id":347654507,"osm_type":"way","name":"","category":"playground","tags":{"leisure":"playground"}},"geometry":{"type":"Point","coordinates":[16.167353,58.5645871]}},{"type":"Feature","properties":{"id":367454175,"osm_type":"way","name":"","category":"playground","tags":{"access":"yes","leisure":"playground"}},"geometry":{"type":"Point","coordinates":[16.2436193,58.6059785]}},{"type":"Feature","properties":{"id":396355771,"osm_type":"way","name":"","category":"playground","tags":{"access":"yes","leisure":"playground"}},"geometry":{"type":"Point","coordinates":[16.1673684,58.590601]}},{"type":"Feature","properties":{"id":404722125,"osm_type":"way","name":"","category":"playground","tags":{"access":"yes","leisure":"playground"}},"geometry":{"type":"Point","coordinates":[16.1781464,58.6278008]}},{"type":"Feature","properties":{"id":415773599,"osm_type":"way","name":"","category":"playground","tags":{"leisure":"playground"}},"geometry":{"type":"Point","coordinates":[16.1504387,58.5768039]}},{"type":"Feature","properties":{"id":434662023,"osm_type":"way","name":"","category":"playground","tags":{"leisure":"playground"}},"geometry":{"type":"Point","coordinates":[16.1959633,58.5789845]}},{"type":"Feature","properties":{"id":469362860,"osm_type":"way","name":"","category":"playground","tags":{"leisure":"playground"}},"geometry":{"type":"Point","coordinates":[16.142314,58.6050281]}},{"type":"Feature","properties":{"id":469362862,"osm_type":"way","name":"","category":"playground","tags":{"leisure":"playground"}},"geometry":{"type":"Point","coordinates":[16.1413108,58.6058467]}},{"type":"Feature","properties":{"id":469364341,"osm_type":"way","name":"","category":"playground","tags":{"leisure":"playground"}},"geometry":{"type":"Point","coordinates":[16.1446234,58.605845]}},{"type":"Feature","properties":{"id":471106598,"osm_type":"way","name":"Kottebanan","category":"playground","tags":{"leisure":"playground","name":"Kottebanan"}},"geometry":{"type":"Point","coordinates":[16.1908493,58.5694673]}},{"type":"Feature","properties":{"id":476961134,"osm_type":"way","name":"","category":"playground","tags":{"leisure":"playground"}},"geometry":{"type":"Point","coordinates":[16.187196,58.5390477]}},{"type":"Feature","properties":{"id":494199745,"osm_type":"way","name":"","category":"playground","tags":{"access":"yes","leisure":"playground"}},"geometry":{"type":"Point","coordinates":[16.239008,58.5670301]}},{"type":"Feature","properties":{"id":500980418,"osm_type":"way","name":"","category":"playground","tags":{"leisure":"playground"}},"geometry":{"type":"Point","coordinates":[16.1742883,58.4827125]}},{"type":"Feature","properties":{"id":500980419,"osm_type":"way","name":"","category":"playground","tags":{"leisure":"playground"}},"geometry":{"type":"Point","coordinates":[16.1744209,58.4823834]}},{"type":"Feature","properties":{"id":500980439,"osm_type":"way","name":"","category":"playground","tags":{"leisure":"playground"}},"geometry":{"type":"Point","coordinates":[16.1745613,58.4840924]}},{"type":"Feature","properties":{"id":519300268,"osm_type":"way","name":"","category":"playground","tags":{"leisure":"playground"}},"geometry":{"type":"Point","coordinates":[16.1373208,58.5769298]}},{"type":"Feature","properties":{"id":544533894,"osm_type":"way","name":"","category":"playground","tags":{"leisure":"playground"}},"geometry":{"type":"Point","coordinates":[16.3214269,58.4807941]}},{"type":"Feature","properties":{"id":544533896,"osm_type":"way","name":"","category":"playground","tags":{"access":"yes","leisure":"playground"}},"geometry":{"type":"Point","coordinates":[16.3230911,58.4807237]}},{"type":"Feature","properties":{"id":549147807,"osm_type":"way","name":"","category":"playground","tags":{"leisure":"playground"}},"geometry":{"type":"Point","coordinates":[16.3462807,58.4720143]}},{"type":"Feature","properties":{"id":549147818,"osm_type":"way","name":"","category":"playground","tags":{"leisure":"playground"}},"geometry":{"type":"Point","coordinates":[16.318202,58.4728113]}},{"type":"Feature","properties":{"id":549147820,"osm_type":"way","name":"","category":"playground","tags":{"leisure":"playground"}},"geometry":{"type":"Point","coordinates":[16.318623,58.4778498]}},{"type":"Feature","properties":{"id":549147826,"osm_type":"way","name":"","category":"playground","tags":{"leisure":"playground"}},"geometry":{"type":"Point","coordinates":[16.3281154,58.4794018]}},{"type":"Feature","properties":{"id":549147827,"osm_type":"way","name":"","category":"playground","tags":{"access":"yes","leisure":"playground"}},"geometry":{"type":"Point","coordinates":[16.3182815,58.4814859]}},{"type":"Feature","properties":{"id":549147829,"osm_type":"way","name":"","category":"playground","tags":{"leisure":"playground"}},"geometry":{"type":"Point","coordinates":[16.3176597,58.4841674]}},{"type":"Feature","properties":{"id":549588165,"osm_type":"way","name":"","category":"playground","tags":{"leisure":"playground"}},"geometry":{"type":"Point","coordinates":[16.317804,58.4822783]}},{"type":"Feature","properties":{"id":552391616,"osm_type":"way","name":"","category":"playground","tags":{"leisure":"playground"}},"geometry":{"type":"Point","coordinates":[16.3237156,58.4684546]}},{"type":"Feature","properties":{"id":552391618,"osm_type":"way","name":"","category":"playground","tags":{"leisure":"playground"}},"geometry":{"type":"Point","coordinates":[16.3444118,58.4734625]}},{"type":"Feature","properties":{"id":559349619,"osm_type":"way","name":"","category":"playground","tags":{"access":"yes","leisure":"playground"}},"geometry":{"type":"Point","coordinates":[16.3408115,58.4764143]}},{"type":"Feature","properties":{"id":587195548,"osm_type":"way","name":"Kanallekplatsen","category":"playground","tags":{"access":"yes","leisure":"playground","name":"Kanallekplatsen","opening_hours":"24/7"}},"geometry":{"type":"Point","coordinates":[16.3254025,58.4821259]}},{"type":"Feature","properties":{"id":633851307,"osm_type":"way","name":"","category":"playground","tags":{"leisure":"playground"}},"geometry":{"type":"Point","coordinates":[16.1825081,58.671919]}},{"type":"Feature","properties":{"id":633852990,"osm_type":"way","name":"","category":"playground","tags":{"leisure":"playground"}},"geometry":{"type":"Point","coordinates":[16.1745203,58.6678401]}},{"type":"Feature","properties":{"id":683843087,"osm_type":"way","name":"","category":"playground","tags":{"leisure":"playground"}},"geometry":{"type":"Point","coordinates":[16.2079306,58.5672831]}},{"type":"Feature","properties":{"id":683843091,"osm_type":"way","name":"","category":"playground","tags":{"leisure":"playground"}},"geometry":{"type":"Point","coordinates":[16.2151021,58.5604315]}},{"type":"Feature","properties":{"id":683843092,"osm_type":"way","name":"","category":"playground","tags":{"leisure":"playground"}},"geometry":{"type":"Point","coordinates":[16.2127733,58.5618075]}},{"type":"Feature","properties":{"id":683843093,"osm_type":"way","name":"","category":"playground","tags":{"leisure":"playground"}},"geometry":{"type":"Point","coordinates":[16.2142089,58.5623174]}},{"type":"Feature","properties":{"id":683843094,"osm_type":"way","name":"","category":"playground","tags":{"leisure":"playground"}},"geometry":{"type":"Point","coordinates":[16.2149184,58.5626759]}},{"type":"Feature","properties":{"id":683843095,"osm_type":"way","name":"","category":"playground","tags":{"leisure":"playground"}},"geometry":{"type":"Point","coordinates":[16.2176214,58.561654]}},{"type":"Feature","properties":{"id":730445056,"osm_type":"way","name":"Blomsterängen lekmiljö","category":"playground","tags":{"access":"yes","leisure":"playground","name":"Blomsterängen lekmiljö"}},"geometry":{"type":"Point","coordinates":[16.1645594,58.60467]}},{"type":"Feature","properties":{"id":730968658,"osm_type":"way","name":"","category":"playground","tags":{"access":"yes","leisure":"playground"}},"geometry":{"type":"Point","coordinates":[16.234876,58.5639797]}},{"type":"Feature","properties":{"id":739020969,"osm_type":"way","name":"","category":"playground","tags":{"leisure":"playground"}},"geometry":{"type":"Point","coordinates":[16.1522576,58.5728513]}},{"type":"Feature","properties":{"id":880920806,"osm_type":"way","name":"","category":"playground","tags":{"access":"yes","leisure":"playground"}},"geometry":{"type":"Point","coordinates":[16.2410997,58.5679732]}},{"type":"Feature","properties":{"id":880952427,"osm_type":"way","name":"","category":"playground","tags":{"access":"yes","leisure":"playground","surface":"unpaved"}},"geometry":{"type":"Point","coordinates":[16.2288346,58.569625]}},{"type":"Feature","properties":{"id":880959927,"osm_type":"way","name":"","category":"playground","tags":{"access":"yes","leisure":"playground"}},"geometry":{"type":"Point","coordinates":[16.2236819,58.5690416]}},{"type":"Feature","properties":{"id":952782254,"osm_type":"way","name":"","category":"playground","tags":{"leisure":"playground"}},"geometry":{"type":"Point","coordinates":[16.3069958,58.5758043]}},{"type":"Feature","properties":{"id":1043410292,"osm_type":"way","name":"","category":"playground","tags":{"access":"yes","leisure":"playground"}},"geometry":{"type":"Point","coordinates":[16.2309451,58.5680278]}},{"type":"Feature","properties":{"id":1057846609,"osm_type":"way","name":"","category":"playground","tags":{"access":"yes","leisure":"playground","playground:theme":"castle","surface":"dirt/sand"}},"geometry":{"type":"Point","coordinates":[16.1804182,58.5810985]}},{"type":"Feature","properties":{"id":1060665490,"osm_type":"way","name":"","category":"playground","tags":{"leisure":"playground"}},"geometry":{"type":"Point","coordinates":[16.2354155,58.5705196]}},{"type":"Feature","properties":{"id":1075745084,"osm_type":"way","name":"","category":"playground","tags":{"leisure":"playground"}},"geometry":{"type":"Point","coordinates":[16.1356221,58.5786296]}},{"type":"Feature","properties":{"id":1086053513,"osm_type":"way","name":"","category":"playground","tags":{"access":"yes","leisure":"playground"}},"geometry":{"type":"Point","coordinates":[16.2428902,58.6069046]}},{"type":"Feature","properties":{"id":1134532745,"osm_type":"way","name":"Vidabliksparkens lekplats","category":"playground","tags":{"access":"yes","leisure":"playground","name":"Vidabliksparkens lekplats"}},"geometry":{"type":"Point","coordinates":[16.1569972,58.6079042]}},{"type":"Feature","properties":{"id":1137713626,"osm_type":"way","name":"","category":"playground","tags":{"access":"yes","leisure":"playground","surface":"sand"}},"geometry":{"type":"Point","coordinates":[16.1846885,58.5787251]}},{"type":"Feature","properties":{"id":1147751135,"osm_type":"way","name":"","category":"playground","tags":{"access":"yes","leisure":"playground"}},"geometry":{"type":"Point","coordinates":[16.3368395,58.6716494]}},{"type":"Feature","properties":{"id":1162125518,"osm_type":"way","name":"","category":"playground","tags":{"leisure":"playground"}},"geometry":{"type":"Point","coordinates":[16.3111531,58.4791922]}},{"type":"Feature","properties":{"id":1162136462,"osm_type":"way","name":"","category":"playground","tags":{"leisure":"playground"}},"geometry":{"type":"Point","coordinates":[16.3142844,58.4740271]}},{"type":"Feature","properties":{"id":1162251395,"osm_type":"way","name":"","category":"playground","tags":{"leisure":"playground"}},"geometry":{"type":"Point","coordinates":[16.3157141,58.4742737]}},{"type":"Feature","properties":{"id":1162256890,"osm_type":"way","name":"","category":"playground","tags":{"leisure":"playground"}},"geometry":{"type":"Point","coordinates":[16.3090763,58.4790146]}},{"type":"Feature","properties":{"id":1164905296,"osm_type":"way","name":"","category":"playground","tags":{"leisure":"playground"}},"geometry":{"type":"Point","coordinates":[16.2501549,58.5678782]}},{"type":"Feature","properties":{"id":1251389882,"osm_type":"way","name":"","category":"playground","tags":{"access":"yes","leisure":"playground"}},"geometry":{"type":"Point","coordinates":[16.2045457,58.5815532]}},{"type":"Feature","properties":{"id":1354375036,"osm_type":"way","name":"","category":"playground","tags":{"access":"yes","leisure":"playground"}},"geometry":{"type":"Point","coordinates":[16.1847487,58.5905008]}},{"type":"Feature","properties":{"id":1354487080,"osm_type":"way","name":"","category":"playground","tags":{"access":"yes","leisure":"playground"}},"geometry":{"type":"Point","coordinates":[16.2193465,58.5786663]}},{"type":"Feature","properties":{"id":1421757471,"osm_type":"way","name":"","category":"playground","tags":{"access":"yes","leisure":"playground"}},"geometry":{"type":"Point","coordinates":[16.1621825,58.6029533]}},{"type":"Feature","properties":{"id":1421757472,"osm_type":"way","name":"","category":"playground","tags":{"access":"yes","leisure":"playground"}},"geometry":{"type":"Point","coordinates":[16.1619392,58.6040907]}},{"type":"Feature","properties":{"id":1432003518,"osm_type":"way","name":"Lindöhamn","category":"playground","tags":{"access":"yes","dog":"no","leisure":"playground","name":"Lindöhamn"}},"geometry":{"type":"Point","coordinates":[16.2651039,58.6082073]}},{"type":"Feature","properties":{"id":1443310687,"osm_type":"way","name":"","category":"playground","tags":{"access":"yes","leisure":"playground","playground:theme":"playground","surface":"sand"}},"geometry":{"type":"Point","coordinates":[16.1933668,58.5791806]}},{"type":"Feature","properties":{"id":1443496038,"osm_type":"way","name":"","category":"playground","tags":{"access":"yes","leisure":"playground"}},"geometry":{"type":"Point","coordinates":[16.1605945,58.6012113]}},{"type":"Feature","properties":{"id":1463673834,"osm_type":"way","name":"","category":"playground","tags":{"leisure":"playground"}},"geometry":{"type":"Point","coordinates":[16.1641632,58.6039834]}},{"type":"Feature","properties":{"id":1463673839,"osm_type":"way","name":"","category":"playground","tags":{"leisure":"playground"}},"geometry":{"type":"Point","coordinates":[16.157571,58.6063377]}}]}