{"type":"FeatureCollection","features":[{"type":"Feature","properties":{"id":304107779,"osm_type":"node","name":"Polishuset","category":"police","tags":{"addr:city":"Norrköping","addr:country":"SE","addr:housenumber":"4","addr:postcode":"602 17","addr:street":"Stockholmsvägen","amenity":"police","check_date":"2024-06-03","name":"Polishuset"}},"geometry":{"type":"Point","coordinates":[16.1751182,58.5955819]}},{"type":"Feature","properties":{"id":490187881,"osm_type":"node","name":"","category":"police","tags":{"amenity":"police"}},"geometry":{"type":"Point","coordinates":[16.32389,58.479987]}}]}