{"type":"FeatureCollection","features":[{"type":"Feature","properties":{"id":434200843,"osm_type":"node","name":"Smultronstället","category":"restaurant","tags":{"addr:postcode":"614 34","addr:street":"Kanalgatan","amenity":"ice_cream","check_date":"2024-08-10","cuisine":"ice_cream","email":"sommar@smultronstallet.se","indoor_seating":"yes;no","mobile":"+46 70 855 35 85","name":"Smultronstället","opening_hours":"Apr 28-May 24 10:00-18:00; May 24-Jun 19 10:00-19:00; Jun 20 10:00-18:00; Jun 21-Aug 10 10:00-20:00; Aug 11-Aug 24 10:00-19:00; Aug 25-Aug 31 10:00-18:00","outdoor_seating":"yes","phone":"+46 121 216 11","smoking":"no","start_date":"1982","takeaway":"only","website":"https://www.smultronstallet.se/;https://www.smultronstallet.se/oppettider/","wheelchair":"yes"}},"geometry":{"type":"Point","coordinates":[16.3252442,58.4818737]}},{"type":"Feature","properties":{"id":442278220,"osm_type":"node","name":"SouthEast i Åby","category":"restaurant","tags":{"addr:country":"SE","addr:housenumber":"19","addr:postcode":"61630","addr:street":"Nyköpingsvägen","amenity":"restaurant","cuisine":"sushi;thai;hawaiian","name":"SouthEast i Åby","phone":"+46 11 70670","website":"https://www.southeastaby.com/"}},"geometry":{"type":"Point","coordinates":[16.180994,58.6646334]}},{"type":"Feature","properties":{"id":442278224,"osm_type":"node","name":"Kycklingkebaben","category":"restaurant","tags":{"addr:city":"Åby","addr:country":"SE","addr:housenumber":"9","addr:street":"Nyköpingsvägen","amenity":"fast_food","name":"Kycklingkebaben","opening_hours":"Mo-Su 11:00-20:00","phone":"+46 11 64144","website":"https://www.kycklingkebaben.com/"}},"geometry":{"type":"Point","coordinates":[16.1787475,58.6627698]}},{"type":"Feature","properties":{"id":457910702,"osm_type":"node","name":"Kanalkrogen","category":"restaurant","tags":{"amenity":"restaurant","name":"Kanalkrogen"}},"geometry":{"type":"Point","coordinates":[16.3228931,58.482581]}},{"type":"Feature","properties":{"id":483582377,"osm_type":"node","name":"Oskarshällsbacken","category":"restaurant","tags":{"amenity":"cafe","name":"Oskarshällsbacken","website":"http://www.oscarshall.se/text1_9.html"}},"geometry":{"type":"Point","coordinates":[16.3268042,58.6706063]}},{"type":"Feature","properties":{"id":496164071,"osm_type":"node","name":"Trädgårdscaféet Löfstad Slott","category":"restaurant","tags":{"amenity":"cafe","name":"Trädgårdscaféet Löfstad Slott","operator":"Värdshuset Löfstad slott"}},"geometry":{"type":"Point","coordinates":[16.042685,58.5503599]}},{"type":"Feature","properties":{"id":496164193,"osm_type":"node","name":"Värdshuset Löfstad slott","category":"restaurant","tags":{"amenity":"restaurant","name":"Värdshuset Löfstad slott","website":"https://www.vardshusetlofstadslott.se/"}},"geometry":{"type":"Point","coordinates":[16.0406508,58.5505749]}},{"type":"Feature","properties":{"id":498114398,"osm_type":"node","name":"Pizzeria Vi & Ni","category":"restaurant","tags":{"amenity":"restaurant","indoor_seating":"yes","name":"Pizzeria Vi & Ni","outdoor_seating":"yes"}},"geometry":{"type":"Point","coordinates":[16.3256749,58.4798956]}},{"type":"Feature","properties":{"id":518943123,"osm_type":"node","name":"McDonald's","category":"restaurant","tags":{"amenity":"fast_food","brand":"McDonald's","brand:wikidata":"Q38076","brand:wikipedia":"sv:McDonald's","changing_table":"no","check_date:opening_hours":"2026-03-10","cuisine":"burger","internet_access":"wlan","name":"McDonald's","opening_hours":"Su-Th 09:00-24:00, Fr,Sa 09:00-04:00","operator":"McDonald's","takeaway":"yes","toilets":"yes","toilets:access":"customers","wheelchair":"yes"}},"geometry":{"type":"Point","coordinates":[16.188647,58.5871583]}},{"type":"Feature","properties":{"id":530179561,"osm_type":"node","name":"McDonald's","category":"restaurant","tags":{"addr:city":"Norrköping","addr:country":"SE","addr:housenumber":"18","addr:street":"Apelgatan","amenity":"fast_food","branch":"Stockholmsrondellen","brand":"McDonald's","brand:wikidata":"Q38076","cuisine":"burger","name":"McDonald's","opening_hours":"24/7","takeaway":"yes"}},"geometry":{"type":"Point","coordinates":[16.1652259,58.602851]}},{"type":"Feature","properties":{"id":624150770,"osm_type":"node","name":"Pizzeria Vesuvio","category":"restaurant","tags":{"addr:city":"Norrköping","addr:country":"SE","addr:housenumber":"12","addr:street":"Breda vägen","amenity":"restaurant","name":"Pizzeria Vesuvio","opening_hours":"Mo-Su 11:00-22:00"}},"geometry":{"type":"Point","coordinates":[16.1628843,58.6036313]}},{"type":"Feature","properties":{"id":729024536,"osm_type":"node","name":"Fredgagården","category":"restaurant","tags":{"amenity":"restaurant","name":"Fredgagården"}},"geometry":{"type":"Point","coordinates":[16.2642177,58.6642562]}},{"type":"Feature","properties":{"id":759936577,"osm_type":"node","name":"Bistro Bubbel","category":"restaurant","tags":{"addr:city":"Åby","addr:country":"SE","addr:housenumber":"24","addr:postcode":"61630","addr:street":"Nyköpingsvägen","amenity":"restaurant","name":"Bistro Bubbel","phone":"+46 11 10 20 60","website":"https://bistrobubbel.se/"}},"geometry":{"type":"Point","coordinates":[16.1822104,58.66524]}},{"type":"Feature","properties":{"id":813846329,"osm_type":"node","name":"Hulta glass","category":"restaurant","tags":{"amenity":"cafe","name":"Hulta glass","opening_hours":"10:00-18:00"}},"geometry":{"type":"Point","coordinates":[16.1219304,58.6745036]}},{"type":"Feature","properties":{"id":821883340,"osm_type":"node","name":"Ánima","category":"restaurant","tags":{"addr:city":"Norrköping","addr:country":"SE","addr:housenumber":"26-28","addr:street":"Gamla Rådstugugatan","amenity":"restaurant","cuisine":"fine_dining;italian;drinks;wine","name":"Ánima"}},"geometry":{"type":"Point","coordinates":[16.1857366,58.5902558]}},{"type":"Feature","properties":{"id":1115231589,"osm_type":"node","name":"Dillqvists","category":"restaurant","tags":{"addr:city":"Norrköping","addr:country":"SE","addr:housenumber":"1a","addr:street":"Sprängstensgatan","amenity":"restaurant","contact:phone":"+46 11 141 71 47","name":"Dillqvists"}},"geometry":{"type":"Point","coordinates":[16.1803721,58.5711617]}},{"type":"Feature","properties":{"id":1117875444,"osm_type":"node","name":"The Cromwell House","category":"restaurant","tags":{"addr:city":"Norrköping","addr:country":"SE","addr:housenumber":"36","addr:postcode":"602 20","addr:street":"Kungsgatan","amenity":"pub","name":"The Cromwell House","opening_hours":"Mo 14:00-23:00, Tu-Th 14:00-24:00, Fr 14:00-27:00, Sa 13:00-27:00, Su 13:00-22:00","wheelchair":"limited"}},"geometry":{"type":"Point","coordinates":[16.1781835,58.5905912]}},{"type":"Feature","properties":{"id":1118667764,"osm_type":"node","name":"Sibylla","category":"restaurant","tags":{"addr:city":"Norrköping","addr:country":"SE","addr:housenumber":"60","addr:street":"Lindövägen","amenity":"fast_food","branch":"Grilletten","brand":"Sibylla","brand:wikidata":"Q488643","cuisine":"burger","name":"Sibylla","operator":"Sibylla","takeaway":"yes"}},"geometry":{"type":"Point","coordinates":[16.2161637,58.5903928]}},{"type":"Feature","properties":{"id":1123862423,"osm_type":"node","name":"Remmaren","category":"restaurant","tags":{"addr:city":"Norrköping","addr:country":"SE","addr:housenumber":"77-79","addr:street":"Slottsgatan","amenity":"restaurant","name":"Remmaren","phone":"+46 11 133667"}},"geometry":{"type":"Point","coordinates":[16.1890974,58.5955687]}},{"type":"Feature","properties":{"id":1123891120,"osm_type":"node","name":"Gubbens trädgård","category":"restaurant","tags":{"addr:city":"Norrköping","addr:country":"SE","addr:housenumber":"15","addr:street":"Saltängsgatan","amenity":"cafe","name":"Gubbens trädgård"}},"geometry":{"type":"Point","coordinates":[16.1890741,58.5949094]}},{"type":"Feature","properties":{"id":1126284704,"osm_type":"node","name":"Albrekts pizzeria","category":"restaurant","tags":{"addr:city":"Norrköping","addr:country":"SE","addr:housenumber":"113","addr:street":"Albrektsvägen","amenity":"fast_food","name":"Albrekts pizzeria"}},"geometry":{"type":"Point","coordinates":[16.1855329,58.5793063]}},{"type":"Feature","properties":{"id":1152853221,"osm_type":"node","name":"Benny Hill","category":"restaurant","tags":{"addr:city":"Norrköping","addr:country":"SE","addr:housenumber":"7","addr:street":"Kristinagatan","amenity":"pub","name":"Benny Hill"}},"geometry":{"type":"Point","coordinates":[16.1914108,58.5911928]}},{"type":"Feature","properties":{"id":1156791109,"osm_type":"node","name":"Pizzeria Marinara","category":"restaurant","tags":{"addr:city":"Norrköping","addr:country":"SE","addr:housenumber":"129","addr:street":"Finspångsvägen","amenity":"fast_food","cuisine":"pizza","name":"Pizzeria Marinara"}},"geometry":{"type":"Point","coordinates":[16.1385002,58.6059585]}},{"type":"Feature","properties":{"id":1158263921,"osm_type":"node","name":"God Vän","category":"restaurant","tags":{"addr:city":"Norrköping","addr:country":"SE","addr:housenumber":"71","addr:street":"Kungsgatan","amenity":"restaurant","cuisine":"regional","indoor_seating":"yes","name":"God Vän","outdoor_seating":"yes"}},"geometry":{"type":"Point","coordinates":[16.1767082,58.5871497]}},{"type":"Feature","properties":{"id":1177842883,"osm_type":"node","name":"Rixi Konditori","category":"restaurant","tags":{"amenity":"cafe","name":"Rixi Konditori"}},"geometry":{"type":"Point","coordinates":[16.157924,58.5772891]}},{"type":"Feature","properties":{"id":1177971871,"osm_type":"node","name":"Landerholms konditori","category":"restaurant","tags":{"addr:city":"Norrköping","addr:country":"SE","addr:housenumber":"51","addr:street":"Linköpingsvägen","amenity":"cafe","name":"Landerholms konditori"}},"geometry":{"type":"Point","coordinates":[16.1545695,58.5840307]}},{"type":"Feature","properties":{"id":1177971908,"osm_type":"node","name":"Queens corner","category":"restaurant","tags":{"addr:city":"Norrköping","addr:country":"SE","addr:housenumber":"16","addr:street":"Drottninggatan","amenity":"fast_food","cuisine":"kebab","name":"Queens corner","opening_hours":"Mo-Th 11:00-22:00, Fr 11:00-28:00, Sa 12:00-28:00, Su 12:00-21:00"}},"geometry":{"type":"Point","coordinates":[16.1864474,58.5915487]}},{"type":"Feature","properties":{"id":1177971945,"osm_type":"node","name":"Royal Fenix","category":"restaurant","tags":{"addr:city":"Norrköping","addr:country":"SE","addr:housenumber":"14","addr:street":"Gymnastikgatan","amenity":"restaurant","name":"Royal Fenix"}},"geometry":{"type":"Point","coordinates":[16.1807291,58.5838545]}},{"type":"Feature","properties":{"id":1178008700,"osm_type":"node","name":"Sahara","category":"restaurant","tags":{"addr:city":"Norrköping","addr:country":"SE","addr:housenumber":"28","addr:street":"Fredriksdalsgatan","amenity":"restaurant","indoor_seating":"yes","name":"Sahara","outdoor_seating":"yes","payment:credit_cards":"yes","payment:debit_cards":"yes","wheelchair":"yes"}},"geometry":{"type":"Point","coordinates":[16.1824981,58.6002428]}},{"type":"Feature","properties":{"id":1178048644,"osm_type":"node","name":"Åby konditori","category":"restaurant","tags":{"addr:city":"Norrköping","addr:country":"SE","addr:housenumber":"66","addr:street":"Drottninggatan","amenity":"cafe","name":"Åby konditori","opening_hours":"Mo-Fr 07:00-18:00; Sa 10:30-14:30; Su off"}},"geometry":{"type":"Point","coordinates":[16.1894139,58.5856342]}},{"type":"Feature","properties":{"id":1178048653,"osm_type":"node","name":"Istanbul Kebab","category":"restaurant","tags":{"addr:city":"Norrköping","addr:country":"SE","addr:housenumber":"26","addr:street":"Hantverkaregatan","amenity":"fast_food","cuisine":"kebab","drive_through":"yes","name":"Istanbul Kebab"}},"geometry":{"type":"Point","coordinates":[16.1902552,58.5869791]}},{"type":"Feature","properties":{"id":1181400499,"osm_type":"node","name":"Eneby pizzeria","category":"restaurant","tags":{"addr:city":"Norrköping","addr:country":"SE","addr:housenumber":"96","addr:street":"Slåttergatan","amenity":"fast_food","cuisine":"pizza","name":"Eneby pizzeria"}},"geometry":{"type":"Point","coordinates":[16.1438813,58.6035441]}},{"type":"Feature","properties":{"id":1181457411,"osm_type":"node","name":"Lagerqvist","category":"restaurant","tags":{"addr:city":"Norrköping","addr:country":"SE","addr:housenumber":"4","addr:postcode":"602 32","addr:street":"Gamla torget","amenity":"restaurant","name":"Lagerqvist"}},"geometry":{"type":"Point","coordinates":[16.1861993,58.5880425]}},{"type":"Feature","properties":{"id":1181457441,"osm_type":"node","name":"Trädgårn","category":"restaurant","tags":{"amenity":"restaurant","name":"Trädgårn","website":"http://www.bacchus.se/Tradgarn/Hittatilloss/tabid/513/language/en-US/Default.aspx"}},"geometry":{"type":"Point","coordinates":[16.1862758,58.5877144]}},{"type":"Feature","properties":{"id":1185190408,"osm_type":"node","name":"Highlander Inn","category":"restaurant","tags":{"addr:city":"Norrköping","addr:country":"SE","addr:housenumber":"94","addr:street":"S:t Persgatan","amenity":"pub","name":"Highlander Inn","website":"http://www.highlanderinn.net/"}},"geometry":{"type":"Point","coordinates":[16.1881226,58.5862038]}},{"type":"Feature","properties":{"id":1185190445,"osm_type":"node","name":"Butlers hörna","category":"restaurant","tags":{"addr:city":"Norrköping","addr:country":"SE","addr:housenumber":"48","addr:street":"Gamla Rådstugugatan","amenity":"restaurant","name":"Butlers hörna","opening_hours":"Mo-Th 11:30-22:00; Fr 11:30-23:00; Sa 12:00-23:00; Su 13:00-21:00"}},"geometry":{"type":"Point","coordinates":[16.1875149,58.5868169]}},{"type":"Feature","properties":{"id":1185190503,"osm_type":"node","name":"Rosegarden","category":"restaurant","tags":{"addr:city":"Norrköping","addr:country":"SE","addr:housenumber":"63A","addr:street":"Drottninggatan","amenity":"restaurant","cuisine":"asian","name":"Rosegarden","opening_hours":"Mo-Th 11:30-14:30,17:30-21:00; Sa 12:00-15:00,17:00-22:00; Fr 11:30-14:30,17:00-22:00; Su 13:00-15:00,17:30-21:00","website":"http://norrkoping.harryspubar.se/"}},"geometry":{"type":"Point","coordinates":[16.1898231,58.5856502]}},{"type":"Feature","properties":{"id":1185190539,"osm_type":"node","name":"Matcompagniet","category":"restaurant","tags":{"addr:city":"Norrköping","addr:country":"SE","addr:housenumber":"55","addr:street":"Drottninggatan","amenity":"restaurant","name":"Matcompagniet"}},"geometry":{"type":"Point","coordinates":[16.1905678,58.5862738]}},{"type":"Feature","properties":{"id":1185190542,"osm_type":"node","name":"Hugo","category":"restaurant","tags":{"addr:city":"Norrköping","addr:country":"SE","addr:housenumber":"118","addr:street":"Slottsgatan","amenity":"pub","name":"Hugo","wheelchair":"limited"}},"geometry":{"type":"Point","coordinates":[16.1819658,58.5951106]}},{"type":"Feature","properties":{"id":1185190574,"osm_type":"node","name":"O'Learys","category":"restaurant","tags":{"addr:city":"Norrköping","addr:country":"SE","addr:housenumber":"30","addr:street":"Olai Kyrkogata","amenity":"pub","brand":"O'Learys","brand:wikidata":"Q10605590","name":"O'Learys","opening_hours":"Mo,Tu 11:00-23:00, We,Th 11:00-01:00, Fr 11:00-03:00, Sa 11:30-03:00, Su 11:30-23:00","payment:credit_cards":"yes","payment:debit_cards":"yes","phone":"+46 11 442 14 10","website":"https://olearys.com/sv-se/norrkoeping/"}},"geometry":{"type":"Point","coordinates":[16.1910386,58.5877104]}},{"type":"Feature","properties":{"id":1185240375,"osm_type":"node","name":"Peking house","category":"restaurant","tags":{"addr:city":"Norrköping","addr:country":"SE","addr:housenumber":"16","addr:street":"Drottninggatan","amenity":"restaurant","cuisine":"chinese","name":"Peking house","opening_hours":"Tu-Fr 11:00-21:00; Sa 12:00-21:00; Mo 11:00-15:00; Su 12:00-18:00","phone":"+46 11 13 30 33"}},"geometry":{"type":"Point","coordinates":[16.186426,58.5916592]}},{"type":"Feature","properties":{"id":1185240380,"osm_type":"node","name":"Renströmmen","category":"restaurant","tags":{"addr:city":"Norrköping","addr:country":"SE","addr:housenumber":"1","addr:street":"Drottninggatan","amenity":"restaurant","diet:vegetarian":"yes","name":"Renströmmen","opening_hours":"Mo-Fr 11:00-16:00"}},"geometry":{"type":"Point","coordinates":[16.1851549,58.5947224]}},{"type":"Feature","properties":{"id":1185240385,"osm_type":"node","name":"Trattoria Gabriel","category":"restaurant","tags":{"addr:city":"Norrköping","addr:country":"SE","addr:housenumber":"16","addr:street":"Gamla Rådstugugatan","amenity":"restaurant","cuisine":"pizza","name":"Trattoria Gabriel"}},"geometry":{"type":"Point","coordinates":[16.1851197,58.5913936]}},{"type":"Feature","properties":{"id":1185240402,"osm_type":"node","name":"Broadway Kvarterskrog","category":"restaurant","tags":{"addr:city":"Norrköping","addr:country":"SE","addr:housenumber":"26","addr:postcode":"602 22","addr:street":"Bråddgatan","amenity":"cafe","name":"Broadway Kvarterskrog"}},"geometry":{"type":"Point","coordinates":[16.1799004,58.5934538]}},{"type":"Feature","properties":{"id":1185240406,"osm_type":"node","name":"Bishops Arms","category":"restaurant","tags":{"addr:city":"Norrköping","addr:country":"SE","addr:housenumber":"5","addr:street":"Drottninggatan","amenity":"pub","brand":"The Bishops Arms","brand:wikidata":"Q10430084","internet_access":"wlan","name":"Bishops Arms","opening_hours":"Fr 16:00-01:00, Sa 15:00-01:00, Su 16:00-22:00, Mo-Th 16:00-23:00","toilets":"yes","website":"https://www.bishopsarms.com/vara-pubar/norrkoping/"}},"geometry":{"type":"Point","coordinates":[16.1861473,58.5930866]}},{"type":"Feature","properties":{"id":1193963902,"osm_type":"node","name":"Hasibas","category":"restaurant","tags":{"addr:city":"Norrköping","addr:country":"SE","addr:housenumber":"23","addr:postcode":"602 25","addr:street":"Repslagaregatan","amenity":"cafe","name":"Hasibas"}},"geometry":{"type":"Point","coordinates":[16.1931003,58.5893902]}},{"type":"Feature","properties":{"id":1193978800,"osm_type":"node","name":"Selims kolgrill","category":"restaurant","tags":{"addr:city":"Norrköping","addr:country":"SE","addr:housenumber":"27","addr:postcode":"602 25","addr:street":"Repslagaregatan","amenity":"restaurant","name":"Selims kolgrill"}},"geometry":{"type":"Point","coordinates":[16.1935045,58.5894423]}},{"type":"Feature","properties":{"id":1206688976,"osm_type":"node","name":"Pizzeria Napoli","category":"restaurant","tags":{"addr:city":"Norrköping","addr:country":"SE","addr:housenumber":"38","addr:street":"S:t Persgatan","amenity":"restaurant","name":"Pizzeria Napoli"}},"geometry":{"type":"Point","coordinates":[16.1783981,58.5870295]}},{"type":"Feature","properties":{"id":1207211737,"osm_type":"node","name":"Durkslaget","category":"restaurant","tags":{"addr:city":"Norrköping","addr:country":"SE","addr:housenumber":"22","addr:postcode":"602 33","addr:street":"S:t Persgatan","amenity":"restaurant","name":"Durkslaget"}},"geometry":{"type":"Point","coordinates":[16.1751742,58.5872154]}},{"type":"Feature","properties":{"id":1255871537,"osm_type":"node","name":"Café Kajen","category":"restaurant","tags":{"addr:country":"SE","addr:housenumber":"32a","addr:street":"Ättetorpsvägen","amenity":"cafe","name":"Café Kajen"}},"geometry":{"type":"Point","coordinates":[16.173697,58.67358]}},{"type":"Feature","properties":{"id":1313194880,"osm_type":"node","name":"Cafe Kuriosa","category":"restaurant","tags":{"addr:city":"Norrköping","addr:country":"SE","addr:housenumber":"6","addr:street":"Hörngatan","amenity":"cafe","cuisine":"coffee_shop","name":"Cafe Kuriosa","opening_hours":"Mo-Fr 10:00-18:00; Sa 10:00-16:00; Su off","wheelchair":"no"}},"geometry":{"type":"Point","coordinates":[16.1876038,58.5856716]}},{"type":"Feature","properties":{"id":1313203516,"osm_type":"node","name":"Chili & Wok","category":"restaurant","tags":{"addr:city":"Norrköping","addr:country":"SE","addr:housenumber":"26","addr:street":"Hantverkaregatan","amenity":"fast_food","cuisine":"asian","name":"Chili & Wok"}},"geometry":{"type":"Point","coordinates":[16.1901822,58.5871201]}},{"type":"Feature","properties":{"id":1313226914,"osm_type":"node","name":"Kvarterskrogen Asken","category":"restaurant","tags":{"amenity":"restaurant","cuisine":"regional","name":"Kvarterskrogen Asken"}},"geometry":{"type":"Point","coordinates":[16.1850968,58.5892519]}},{"type":"Feature","properties":{"id":1313226918,"osm_type":"node","name":"Pizzeria Maestro","category":"restaurant","tags":{"amenity":"fast_food","cuisine":"pizza","name":"Pizzeria Maestro"}},"geometry":{"type":"Point","coordinates":[16.1874223,58.5862701]}},{"type":"Feature","properties":{"id":1313226920,"osm_type":"node","name":"Istanbul Chicken Kebab","category":"restaurant","tags":{"amenity":"fast_food","cuisine":"chicken","name":"Istanbul Chicken Kebab"}},"geometry":{"type":"Point","coordinates":[16.188698,58.5870074]}},{"type":"Feature","properties":{"id":1313226922,"osm_type":"node","name":"Tao Noi","category":"restaurant","tags":{"amenity":"restaurant","cuisine":"asian","name":"Tao Noi","website":"https://taonoi.se/"}},"geometry":{"type":"Point","coordinates":[16.1873758,58.5869584]}},{"type":"Feature","properties":{"id":1313226933,"osm_type":"node","name":"Wok Time","category":"restaurant","tags":{"amenity":"fast_food","cuisine":"asian","name":"Wok Time"}},"geometry":{"type":"Point","coordinates":[16.1880177,58.587039]}},{"type":"Feature","properties":{"id":1313226937,"osm_type":"node","name":"Urbane Goat","category":"restaurant","tags":{"addr:city":"Norrköping","addr:country":"SE","addr:housenumber":"88","addr:street":"S:t Persgatan","amenity":"restaurant","cuisine":"fine_dining","name":"Urbane Goat","opening_hours":"Mo-Fr 11:00-14:00,16:30-24:00; Sa 16:30-24:00+; Su off"}},"geometry":{"type":"Point","coordinates":[16.187087,58.5863009]}},{"type":"Feature","properties":{"id":1313226950,"osm_type":"node","name":"Boca Pizza","category":"restaurant","tags":{"addr:country":"SE","addr:housenumber":"5","addr:postcode":"60232","addr:street":"Prästgatan","amenity":"restaurant","cuisine":"pizza","name":"Boca Pizza","name:en":"Boca Pizza","name:es":"Boca Pizza","name:fi":"Boca Pizza","name:sv":"Boca Pizza","website":"https://www.bocapizza.se"}},"geometry":{"type":"Point","coordinates":[16.1867303,58.5876233]}},{"type":"Feature","properties":{"id":1313226966,"osm_type":"node","name":"Bagarstugan Brasserie & Bageri","category":"restaurant","tags":{"amenity":"restaurant","name":"Bagarstugan Brasserie & Bageri"}},"geometry":{"type":"Point","coordinates":[16.1848339,58.5896168]}},{"type":"Feature","properties":{"id":1313226969,"osm_type":"node","name":"Alchemisten","category":"restaurant","tags":{"amenity":"restaurant","cuisine":"spanish","name":"Alchemisten"}},"geometry":{"type":"Point","coordinates":[16.1871111,58.586449]}},{"type":"Feature","properties":{"id":1313226975,"osm_type":"node","name":"Soja Sushi","category":"restaurant","tags":{"amenity":"restaurant","cuisine":"sushi","name":"Soja Sushi"}},"geometry":{"type":"Point","coordinates":[16.1857915,58.5892673]}},{"type":"Feature","properties":{"id":1313256490,"osm_type":"node","name":"Restaurant Knäppingen","category":"restaurant","tags":{"amenity":"restaurant","cuisine":"international","name":"Restaurant Knäppingen","opening_hours":"Tu-Th 16:00-22:00+; Fr 16:00-24:00; Sa 12:00-24:00; Su,Mo off"}},"geometry":{"type":"Point","coordinates":[16.1802444,58.5898915]}},{"type":"Feature","properties":{"id":1313256493,"osm_type":"node","name":"Restaurant Mitropa","category":"restaurant","tags":{"addr:city":"Norrköping","addr:country":"SE","addr:housenumber":"15","addr:postcode":"602 21","addr:street":"Garvaregatan","amenity":"restaurant","cuisine":"international","name":"Restaurant Mitropa"}},"geometry":{"type":"Point","coordinates":[16.1818698,58.5912335]}},{"type":"Feature","properties":{"id":1313256504,"osm_type":"node","name":"Kyckling Kebaben","category":"restaurant","tags":{"amenity":"fast_food","cuisine":"kebab","name":"Kyckling Kebaben"}},"geometry":{"type":"Point","coordinates":[16.1778626,58.5912083]}},{"type":"Feature","properties":{"id":1313256529,"osm_type":"node","name":"Världens Bar","category":"restaurant","tags":{"amenity":"restaurant","cuisine":"international","name":"Världens Bar"}},"geometry":{"type":"Point","coordinates":[16.1806327,58.5897728]}},{"type":"Feature","properties":{"id":1313266551,"osm_type":"node","name":"Espresso house","category":"restaurant","tags":{"amenity":"cafe","brand":"Espresso House","brand:wikidata":"Q10489162","brand:wikipedia":"sv:Espresso House","cuisine":"coffee_shop","diet:vegan":"yes","diet:vegetarian":"yes","name":"Espresso house","opening_hours":"Mo-Sa 10:00-17:00; Su 10:00-17:00","takeaway":"yes","wheelchair":"yes"}},"geometry":{"type":"Point","coordinates":[16.1802126,58.5890224]}},{"type":"Feature","properties":{"id":1313266555,"osm_type":"node","name":"Restaurang Vy","category":"restaurant","tags":{"amenity":"restaurant","name":"Restaurang Vy"}},"geometry":{"type":"Point","coordinates":[16.1798195,58.5891701]}},{"type":"Feature","properties":{"id":1313266556,"osm_type":"node","name":"Harrys","category":"restaurant","tags":{"addr:city":"Norrköping","addr:country":"SE","addr:housenumber":"1","addr:street":"Holmbrogränd","amenity":"restaurant","name":"Harrys","opening_hours":"Tu 16:00-22:00, We,Th 16:00-23:00, Fr 15:00-01:00, Sa 12:00-01:00","phone":"+46 11 10 00 34","website":"https://harrys.se/sv-se/norrkoeping/"}},"geometry":{"type":"Point","coordinates":[16.1806568,58.5895418]}},{"type":"Feature","properties":{"id":1313888435,"osm_type":"node","name":"Halvars Glass","category":"restaurant","tags":{"amenity":"cafe","cuisine":"ice_cream","name":"Halvars Glass"}},"geometry":{"type":"Point","coordinates":[16.1828705,58.5851318]}},{"type":"Feature","properties":{"id":1313912280,"osm_type":"node","name":"S:t George","category":"restaurant","tags":{"amenity":"restaurant","name":"S:t George","wheelchair":"limited"}},"geometry":{"type":"Point","coordinates":[16.1885386,58.5887792]}},{"type":"Feature","properties":{"id":1313912281,"osm_type":"node","name":"Restaurang China","category":"restaurant","tags":{"addr:city":"Norrköping","addr:country":"SE","addr:housenumber":"12","addr:street":"Kristinagatan","amenity":"restaurant","cuisine":"chinese","name":"Restaurang China","opening_hours":"Mo-Th 11:00-21:00; Fr 11:00-22:00; Sa 12:00-22:00; PH,Su 12:00-21:00"}},"geometry":{"type":"Point","coordinates":[16.1908645,58.5916158]}},{"type":"Feature","properties":{"id":1313912283,"osm_type":"node","name":"Star Bar","category":"restaurant","tags":{"addr:city":"Norrköping","addr:country":"SE","addr:housenumber":"42","addr:street":"Drottninggatan","amenity":"restaurant","name":"Star Bar"}},"geometry":{"type":"Point","coordinates":[16.1877357,58.5889341]}},{"type":"Feature","properties":{"id":1313914111,"osm_type":"node","name":"Oishi Sushi","category":"restaurant","tags":{"addr:city":"Norrköping","addr:country":"SE","addr:housenumber":"75","addr:postcode":"602 33","addr:street":"S:t Persgatan","amenity":"fast_food","cuisine":"sushi","name":"Oishi Sushi"}},"geometry":{"type":"Point","coordinates":[16.1844795,58.5866596]}},{"type":"Feature","properties":{"id":1313914112,"osm_type":"node","name":"Ölstugan Tullen","category":"restaurant","tags":{"addr:city":"Norrköping","addr:country":"SE","addr:housenumber":"80","addr:street":"S:t Persgatan","amenity":"pub","name":"Ölstugan Tullen","website":"https://www.saligamunken.se/"}},"geometry":{"type":"Point","coordinates":[16.1858153,58.5864052]}},{"type":"Feature","properties":{"id":1350189240,"osm_type":"node","name":"Il Cibo","category":"restaurant","tags":{"addr:city":"Norrköping","addr:country":"SE","addr:housenumber":"29","addr:postcode":"602 32","addr:street":"Olai Kyrkogata","amenity":"restaurant","cuisine":"italian","name":"Il Cibo","opening_hours":"Mo-Th 11:00-14:00,16:00-21:00; Fr 11:00-22:00; Sa 12:00-22:00; Su off","website":"https://www.ilcibo.se/"}},"geometry":{"type":"Point","coordinates":[16.1912544,58.5879916]}},{"type":"Feature","properties":{"id":1350195461,"osm_type":"node","name":"The Black Lion inn","category":"restaurant","tags":{"addr:city":"Norrköping","addr:country":"SE","addr:housenumber":"11","addr:postcode":"602 24","addr:street":"Gamla Rådstugugatan","amenity":"pub","name":"The Black Lion inn","opening_hours":"Mo-Th 15:00-22:00, Fr 15:00-01:00, Sa 14:00-01:00, Su 13:00-20:00"}},"geometry":{"type":"Point","coordinates":[16.1856392,58.5912711]}},{"type":"Feature","properties":{"id":1366982203,"osm_type":"node","name":"Cafe och minigolf","category":"restaurant","tags":{"amenity":"cafe","name":"Cafe och minigolf"}},"geometry":{"type":"Point","coordinates":[16.1883325,58.5701614]}},{"type":"Feature","properties":{"id":1388313047,"osm_type":"node","name":"Ingelstorp","category":"restaurant","tags":{"amenity":"cafe","name":"Ingelstorp"}},"geometry":{"type":"Point","coordinates":[16.2295178,58.6856376]}},{"type":"Feature","properties":{"id":1626616167,"osm_type":"node","name":"Lingonfabriken","category":"restaurant","tags":{"addr:city":"Norrköping","addr:country":"SE","addr:housenumber":"37","addr:postcode":"602 32","addr:street":"Olai Kyrkogata","amenity":"restaurant","check_date":"2025-07-20","internet_access":"wlan","internet_access:fee":"no","name":"Lingonfabriken","opening_hours":"Mo-Fr 08:00-19:00; Sa 11:00-17:00; Su 11:00-16:00"}},"geometry":{"type":"Point","coordinates":[16.1914782,58.5875334]}},{"type":"Feature","properties":{"id":1658973645,"osm_type":"node","name":"Enoteket","category":"restaurant","tags":{"addr:city":"Norrköping","addr:country":"SE","addr:housenumber":"3","addr:postcode":"602 21","addr:street":"Laxholmstorget","amenity":"restaurant","cuisine":"italian","name":"Enoteket","website":"https://www.enoteket.se/"}},"geometry":{"type":"Point","coordinates":[16.1811751,58.5887606]}},{"type":"Feature","properties":{"id":1659015547,"osm_type":"node","name":"Pizzeria Viktoria","category":"restaurant","tags":{"addr:city":"Norrköping","addr:country":"SE","addr:housenumber":"47","addr:street":"Prästgatan","amenity":"fast_food","cuisine":"pizza","name":"Pizzeria Viktoria"}},"geometry":{"type":"Point","coordinates":[16.1951092,58.5889829]}},{"type":"Feature","properties":{"id":1675351778,"osm_type":"node","name":"Pizzeria Neptun","category":"restaurant","tags":{"amenity":"fast_food","check_date":"2023-08-07","cuisine":"kebab;pizza","name":"Pizzeria Neptun","opening_hours":"Mo-Sa 11:00-22:00, Su 12:00-22:00","payment:cash":"yes","payment:mastercard":"yes","payment:visa":"yes"}},"geometry":{"type":"Point","coordinates":[16.1888966,58.5918782]}},{"type":"Feature","properties":{"id":1681451134,"osm_type":"node","name":"Stormköket","category":"restaurant","tags":{"addr:city":"Norrköping","addr:country":"SE","addr:housename":"SMHI","addr:housenumber":"1","addr:postcode":"60176","addr:street":"Folkborgsvägen","amenity":"restaurant","name":"Stormköket","website":"https://www.nordrest.se/"}},"geometry":{"type":"Point","coordinates":[16.1471014,58.5811559]}},{"type":"Feature","properties":{"id":1785627489,"osm_type":"node","name":"Pizzeria Paradiso","category":"restaurant","tags":{"amenity":"restaurant","name":"Pizzeria Paradiso"}},"geometry":{"type":"Point","coordinates":[16.1576341,58.5773841]}},{"type":"Feature","properties":{"id":1806393574,"osm_type":"node","name":"Jannes Hembageri","category":"restaurant","tags":{"amenity":"cafe","indoor_seating":"yes","name":"Jannes Hembageri","opening_hours":"Mo-Fr 07:30-18:00; Sa 08:00-15:00; Su 10:00-16:00","outdoor_seating":"yes"}},"geometry":{"type":"Point","coordinates":[16.3226602,58.4807445]}},{"type":"Feature","properties":{"id":1855675844,"osm_type":"node","name":"Radhuset","category":"restaurant","tags":{"amenity":"restaurant","cuisine":"regional","name":"Radhuset"}},"geometry":{"type":"Point","coordinates":[16.3202384,58.4818104]}},{"type":"Feature","properties":{"id":1863251320,"osm_type":"node","name":"Babas Burger","category":"restaurant","tags":{"amenity":"restaurant","cuisine":"american","name":"Babas Burger","outdoor_seating":"yes","takeaway":"yes"}},"geometry":{"type":"Point","coordinates":[16.1784699,58.5913583]}},{"type":"Feature","properties":{"id":2034323292,"osm_type":"node","name":"Ljura Pizzeria","category":"restaurant","tags":{"addr:city":"Norrköping","addr:country":"SE","addr:housenumber":"13","addr:postcode":"603 49","addr:street":"Ljuragatan","amenity":"restaurant","cuisine":"pizza","name":"Ljura Pizzeria","opening_hours":"Mo-Fr 11:00-21:00; Sa-Su 12:00-21:00","phone":"+46 11 10 10 22","website":"https://ljurapizzeria.se/"}},"geometry":{"type":"Point","coordinates":[16.1977501,58.5805266]}},{"type":"Feature","properties":{"id":2096504863,"osm_type":"node","name":"Sushi Yama","category":"restaurant","tags":{"addr:city":"Norrköping","addr:country":"SE","addr:housenumber":"41","addr:postcode":"602 32","addr:street":"Drottninggatan","amenity":"restaurant","branch":"Dim Sum","brand":"Sushi Yama","brand:wikidata":"Q31897009","cuisine":"japanese","name":"Sushi Yama","opening_hours":"Mo-Fr 10:00-19:00; Sa 10:00-17:00; Su 11:00-17:00","phone":"+46 11 14 10 10","website":"https://www.sushiyama.se/"}},"geometry":{"type":"Point","coordinates":[16.188735,58.5876602]}},{"type":"Feature","properties":{"id":2341946611,"osm_type":"node","name":"Nelins konditori city","category":"restaurant","tags":{"amenity":"cafe","name":"Nelins konditori city","opening_hours":"Mo-Fr 07:30-18:00; Sa 09:00-17:00; Su 11:00-17:00"}},"geometry":{"type":"Point","coordinates":[16.1919155,58.5867985]}},{"type":"Feature","properties":{"id":2341946793,"osm_type":"node","name":"Waynes Coffee","category":"restaurant","tags":{"amenity":"cafe","brand":"Wayne's Coffee","brand:wikidata":"Q2637272","cuisine":"coffee_shop","name":"Waynes Coffee","opening_hours":"Mo-Th 08:30-19:30; Fr 08:30-19:00; Sa 10:00-17:30; Su 10:30-17:30","takeaway":"yes"}},"geometry":{"type":"Point","coordinates":[16.1891568,58.5870255]}},{"type":"Feature","properties":{"id":2341947296,"osm_type":"node","name":"Subway","category":"restaurant","tags":{"amenity":"fast_food","brand":"Subway","brand:wikidata":"Q244457","brand:wikipedia":"sv:Subway","check_date":"2025-07-20","cuisine":"sandwich","name":"Subway","opening_hours":"Mo-Fr 08:00-21:00; Sa 09:00-21:00; Su 10:00-21:00","takeaway":"yes"}},"geometry":{"type":"Point","coordinates":[16.189763,58.5872771]}},{"type":"Feature","properties":{"id":2341948553,"osm_type":"node","name":"Taco Bar","category":"restaurant","tags":{"amenity":"fast_food","brand":"Taco Bar","brand:wikidata":"Q10689652","cuisine":"tex-mex","name":"Taco Bar","opening_hours":"Su-Tu 11:00-22:00, We,Th 11:00-23:00, Fr,Sa 11:00-01:00","takeaway":"yes","wheelchair":"yes"}},"geometry":{"type":"Point","coordinates":[16.1888682,58.5868127]}},{"type":"Feature","properties":{"id":2341949683,"osm_type":"node","name":"Café Swartz","category":"restaurant","tags":{"amenity":"cafe","name":"Café Swartz","opening_hours":"Mo-Fr 09:00-16:00","phone":"+46 11 18 24 05","website":"https://www.nsb.norrkoping.se/web/norrkoping/ombiblioteket/cafeswartz"}},"geometry":{"type":"Point","coordinates":[16.191662,58.5847537]}},{"type":"Feature","properties":{"id":2342001007,"osm_type":"node","name":"Kimono Sushi","category":"restaurant","tags":{"amenity":"restaurant","cuisine":"sushi","indoor_seating":"yes","name":"Kimono Sushi","opening_hours":"Mo-Fr 11:00-21:00; Sa 12:00-20:00; Su,PH off","outdoor_seating":"no"}},"geometry":{"type":"Point","coordinates":[16.1897289,58.5910486]}},{"type":"Feature","properties":{"id":2342004146,"osm_type":"node","name":"Titans Sportsbar","category":"restaurant","tags":{"amenity":"restaurant","cuisine":"steak_house","name":"Titans Sportsbar","opening_hours":"Tu 16:00-22:00; We 12:00-15:00; Fr,Sa 16:00-18:00+"}},"geometry":{"type":"Point","coordinates":[16.1902297,58.5894747]}},{"type":"Feature","properties":{"id":2342004851,"osm_type":"node","name":"Spicy Hot City","category":"restaurant","tags":{"amenity":"restaurant","check_date":"2024-09-19","check_date:opening_hours":"2024-05-09","cuisine":"asian","name":"Spicy Hot City","opening_hours":"Mo-Fr 11:00-21:00; Sa,Su 12:00-21:00"}},"geometry":{"type":"Point","coordinates":[16.1906803,58.5890399]}},{"type":"Feature","properties":{"id":2342007391,"osm_type":"node","name":"Brödernas","category":"restaurant","tags":{"amenity":"cafe","name":"Brödernas","opening_hours":"Mo-Th 08:30-19:30; Fr 08:00-19:00; Sa 09:00-18:00; Su 10:00-18:00"}},"geometry":{"type":"Point","coordinates":[16.1899775,58.5863097]}},{"type":"Feature","properties":{"id":2342008324,"osm_type":"node","name":"Café Vetekornet","category":"restaurant","tags":{"amenity":"cafe","check_date:opening_hours":"2024-05-09","name":"Café Vetekornet","opening_hours":"Mo-Fr 10:00-16:00; Sa,Su off"}},"geometry":{"type":"Point","coordinates":[16.1916834,58.5866368]}},{"type":"Feature","properties":{"id":2342017940,"osm_type":"node","name":"Anno 1852","category":"restaurant","tags":{"amenity":"restaurant","name":"Anno 1852"}},"geometry":{"type":"Point","coordinates":[16.1743081,58.5874644]}},{"type":"Feature","properties":{"id":2342018009,"osm_type":"node","name":"Café Täppan","category":"restaurant","tags":{"amenity":"cafe","name":"Café Täppan"}},"geometry":{"type":"Point","coordinates":[16.1754239,58.5899919]}},{"type":"Feature","properties":{"id":2342034760,"osm_type":"node","name":"Kungs Kebab","category":"restaurant","tags":{"amenity":"fast_food","cuisine":"kebab","name":"Kungs Kebab"}},"geometry":{"type":"Point","coordinates":[16.1781971,58.5917556]}},{"type":"Feature","properties":{"id":2342034794,"osm_type":"node","name":"Athena","category":"restaurant","tags":{"amenity":"restaurant","cuisine":"greek","name":"Athena"}},"geometry":{"type":"Point","coordinates":[16.177709,58.5926869]}},{"type":"Feature","properties":{"id":2342035871,"osm_type":"node","name":"Meze","category":"restaurant","tags":{"amenity":"restaurant","name":"Meze"}},"geometry":{"type":"Point","coordinates":[16.1808659,58.5935787]}},{"type":"Feature","properties":{"id":2342037542,"osm_type":"node","name":"Side Bar","category":"restaurant","tags":{"amenity":"bar","name":"Side Bar"}},"geometry":{"type":"Point","coordinates":[16.1814668,58.5938526]}},{"type":"Feature","properties":{"id":2342038232,"osm_type":"node","name":"Vila","category":"restaurant","tags":{"addr:country":"SE","addr:housenumber":"9","addr:street":"Bråddgatan","amenity":"restaurant","cuisine":"international","name":"Vila","opening_hours":"Mo 11:30-14:00; Tu-Th 11:30-23:00; Fr 11:30-25:00, Sa 17:00-25:00","phone":"+46 11 18 18 49","website":"https://restaurangvila.se/"}},"geometry":{"type":"Point","coordinates":[16.1830171,58.593587]}},{"type":"Feature","properties":{"id":2342042877,"osm_type":"node","name":"Kitchen & Cocktails","category":"restaurant","tags":{"amenity":"restaurant","name":"Kitchen & Cocktails","name:sv":"Santorini"}},"geometry":{"type":"Point","coordinates":[16.1845298,58.5919056]}},{"type":"Feature","properties":{"id":2342042939,"osm_type":"node","name":"Avenyn","category":"restaurant","tags":{"amenity":"restaurant","name":"Avenyn","website":"https://www.instagram.com/avenynnorrkoping/"}},"geometry":{"type":"Point","coordinates":[16.1854606,58.5914051]}},{"type":"Feature","properties":{"id":2350619892,"osm_type":"node","name":"Ardor","category":"restaurant","tags":{"amenity":"restaurant","name":"Ardor"}},"geometry":{"type":"Point","coordinates":[16.1876917,58.5909758]}},{"type":"Feature","properties":{"id":2350621231,"osm_type":"node","name":"Asian Garden","category":"restaurant","tags":{"amenity":"restaurant","name":"Asian Garden","opening_hours":"Mo 11:00-21:00, Tu-Th 11:00-22:00, Fr 11:00-23:00, Sa 12:00-23:00, Su 12:00-21:00"}},"geometry":{"type":"Point","coordinates":[16.1918577,58.5913494]}},{"type":"Feature","properties":{"id":2350621549,"osm_type":"node","name":"Café 12:an","category":"restaurant","tags":{"amenity":"cafe","name":"Café 12:an","opening_hours":"Mo-Th 06:00-15:00, Fr 06:00-13:30, Sa 09:00-13:00"}},"geometry":{"type":"Point","coordinates":[16.1922596,58.5923569]}},{"type":"Feature","properties":{"id":2350621633,"osm_type":"node","name":"Oliver Twist","category":"restaurant","tags":{"amenity":"pub","name":"Oliver Twist"}},"geometry":{"type":"Point","coordinates":[16.1943221,58.5917222]}},{"type":"Feature","properties":{"id":2350621701,"osm_type":"node","name":"Babyl House","category":"restaurant","tags":{"amenity":"pub","name":"Babyl House"}},"geometry":{"type":"Point","coordinates":[16.1904222,58.5919766]}},{"type":"Feature","properties":{"id":2807568313,"osm_type":"node","name":"Djurönästet Thai Mat","category":"restaurant","tags":{"addr:city":"Norrköping","addr:country":"SE","addr:housenumber":"33","addr:postcode":"60591","addr:street":"Djurövägen","amenity":"fast_food","cuisine":"thai;asian","name":"Djurönästet Thai Mat","opening_hours":"Fr-Sa 11:00-19:00","operator":"Thai Hem- & Företagstjänster AB","takeaway":"yes"}},"geometry":{"type":"Point","coordinates":[16.3086852,58.5963984]}},{"type":"Feature","properties":{"id":2985098102,"osm_type":"node","name":"Café Villa Flora","category":"restaurant","tags":{"amenity":"cafe","check_date":"2024-07-19","drive_through":"no","email":"villaflora@billbacks.se","name":"Café Villa Flora","opening_hours":"Mo-Fr 10:00-17:00; Sa-Su 10:00-15:30","payment:cash":"no","payment:credit_cards":"yes","payment:debit_cards":"yes","phone":"+46 11 368 87 7","toilets":"yes","toilets:wheelchair":"yes","website":"https://www.billbacks.se","website:menu":"https://www.billbacks.se/restaurant-menu/","wheelchair":"yes"}},"geometry":{"type":"Point","coordinates":[16.0332761,58.6457805]}},{"type":"Feature","properties":{"id":3011428687,"osm_type":"node","name":"Paradis du Liban","category":"restaurant","tags":{"addr:city":"Norrköping","addr:country":"SE","addr:housenumber":"69","addr:street":"Kungsgatan","amenity":"restaurant","cuisine":"lebanese","name":"Paradis du Liban"}},"geometry":{"type":"Point","coordinates":[16.1769643,58.587358]}},{"type":"Feature","properties":{"id":3024464028,"osm_type":"node","name":"Fias smörgåsbod & Café","category":"restaurant","tags":{"addr:city":"Norrköping","addr:country":"SE","addr:housenumber":"65A","addr:postcode":"602 14","addr:street":"Hagagatan","amenity":"fast_food","cuisine":"sandwich","name":"Fias smörgåsbod & Café","opening_hours":"Mo-Fr 06:00-15:00; Sa 10:00-10:30"}},"geometry":{"type":"Point","coordinates":[16.1628075,58.6030617]}},{"type":"Feature","properties":{"id":3024896186,"osm_type":"node","name":"Levana","category":"restaurant","tags":{"addr:city":"Norrköping","addr:country":"SE","addr:housenumber":"20","addr:postcode":"602 13","addr:street":"Taborsbergsvägen","amenity":"restaurant","name":"Levana","opening_hours":"Mo-Th 11:00-22:00, Fr 11:00-01:00, Sa 12:00-01:00, Su 12:00-22:00"}},"geometry":{"type":"Point","coordinates":[16.1578323,58.600816]}},{"type":"Feature","properties":{"id":3026618163,"osm_type":"node","name":"","category":"restaurant","tags":{"amenity":"cafe"}},"geometry":{"type":"Point","coordinates":[16.3339001,58.4775378]}},{"type":"Feature","properties":{"id":3172475463,"osm_type":"node","name":"Hageby Grillen","category":"restaurant","tags":{"amenity":"restaurant","cuisine":"pizza","name":"Hageby Grillen"}},"geometry":{"type":"Point","coordinates":[16.2105653,58.5735929]}},{"type":"Feature","properties":{"id":3172475468,"osm_type":"node","name":"Stars & Stripes","category":"restaurant","tags":{"amenity":"restaurant","cuisine":"steak_house","name":"Stars & Stripes","opening_hours":"Mo 10:00-22:00; Tu-Th 10:00-23:00; Fr 10:00-24:00; Sa 00:00-01:00,10:00-24:00; Su 00:00-01:00,10:00-22:00"}},"geometry":{"type":"Point","coordinates":[16.2072987,58.5726088]}},{"type":"Feature","properties":{"id":3529139623,"osm_type":"node","name":"Rosa Pantern","category":"restaurant","tags":{"amenity":"restaurant","cuisine":"pizza","name":"Rosa Pantern","smoking":"no","takeaway":"yes"}},"geometry":{"type":"Point","coordinates":[16.1840239,58.581805]}},{"type":"Feature","properties":{"id":4100263193,"osm_type":"node","name":"King Pizzaria","category":"restaurant","tags":{"amenity":"fast_food","check_date":"2025-01-29","cuisine":"kebab;pizza","name":"King Pizzaria"}},"geometry":{"type":"Point","coordinates":[16.182059,58.5867517]}},{"type":"Feature","properties":{"id":4109810190,"osm_type":"node","name":"Ektorp","category":"restaurant","tags":{"amenity":"fast_food","cuisine":"pizza","name":"Ektorp"}},"geometry":{"type":"Point","coordinates":[16.1729361,58.5796884]}},{"type":"Feature","properties":{"id":4111201994,"osm_type":"node","name":"Yam Yam Pizzeria","category":"restaurant","tags":{"amenity":"fast_food","check_date:opening_hours":"2024-05-09","cuisine":"kebab;pizza","name":"Yam Yam Pizzeria","opening_hours":"Mo-Fr 11:00-22:00; Sa-Su 12:00-22:00"}},"geometry":{"type":"Point","coordinates":[16.1935488,58.5856175]}},{"type":"Feature","properties":{"id":4111219989,"osm_type":"node","name":"Yam Yam Pastabar","category":"restaurant","tags":{"amenity":"fast_food","check_date:opening_hours":"2024-05-09","cuisine":"pasta","name":"Yam Yam Pastabar","opening_hours":"Mo-Fr 11:00-22:00; Sa-Su 12:00-22:00"}},"geometry":{"type":"Point","coordinates":[16.1932899,58.5855831]}},{"type":"Feature","properties":{"id":4124176690,"osm_type":"node","name":"Mamma Mia","category":"restaurant","tags":{"amenity":"fast_food","cuisine":"kebab;pizza","name":"Mamma Mia","opening_hours":"Mo-Fr 11:00-21:00; Sa-Su 12:00-21:00"}},"geometry":{"type":"Point","coordinates":[16.1996161,58.5899224]}},{"type":"Feature","properties":{"id":4124243789,"osm_type":"node","name":"Linda","category":"restaurant","tags":{"amenity":"fast_food","cuisine":"kebab;pizza","name":"Linda","opening_hours":"Mo-Fr 10:00-22:00; Sa-Su 11:00-22:00"}},"geometry":{"type":"Point","coordinates":[16.2020956,58.5900083]}},{"type":"Feature","properties":{"id":4136463691,"osm_type":"node","name":"Espresso house","category":"restaurant","tags":{"amenity":"cafe","brand":"Espresso House","brand:wikidata":"Q10489162","brand:wikipedia":"sv:Espresso House","cuisine":"coffee_shop","diet:vegan":"yes","diet:vegetarian":"yes","internet_access":"wlan","name":"Espresso house","opening_hours":"Mo-Fr 07:00-20:00; Sa 08:00-20:00; Su 08:00-19:00","payment:cash":"yes","takeaway":"yes","wheelchair":"yes"}},"geometry":{"type":"Point","coordinates":[16.188445,58.5876242]}},{"type":"Feature","properties":{"id":4253107370,"osm_type":"node","name":"Chilli Grill & Pizzeria","category":"restaurant","tags":{"addr:city":"Norrköping","addr:country":"SE","addr:housenumber":"79","addr:postcode":"603 50","addr:street":"Albrektsvägen","amenity":"restaurant","cuisine":"pizza","name":"Chilli Grill & Pizzeria","opening_hours":"Mo-Su 11:00-22:00","phone":"+46 11 14 13 00","website":"https://chillipizzeria.se/"}},"geometry":{"type":"Point","coordinates":[16.1958116,58.5800188]}},{"type":"Feature","properties":{"id":4280117596,"osm_type":"node","name":"Sukiyaki","category":"restaurant","tags":{"amenity":"restaurant","cuisine":"japanese","name":"Sukiyaki","opening_hours":"Mo-Fr 11:00-21:00; Sa,Su 12:00-21:00","phone":"+46 11 23 88 22"}},"geometry":{"type":"Point","coordinates":[16.1763445,58.5954186]}},{"type":"Feature","properties":{"id":4280211293,"osm_type":"node","name":"Teaterbaren Skandia","category":"restaurant","tags":{"amenity":"cafe","name":"Teaterbaren Skandia","opening_hours":"Mo-Th 11:00-23:00; Fr-Sa 11:00-25:00"}},"geometry":{"type":"Point","coordinates":[16.1879983,58.5889484]}},{"type":"Feature","properties":{"id":4280234690,"osm_type":"node","name":"Nous Bistro","category":"restaurant","tags":{"amenity":"restaurant","cuisine":"pasta;italian","name":"Nous Bistro","opening_hours":"Mo-Th 11:30-21:00; Fr 11:30-22:00; Sa 12:00-22:00"}},"geometry":{"type":"Point","coordinates":[16.1872129,58.5905878]}},{"type":"Feature","properties":{"id":4280318289,"osm_type":"node","name":"Kyckling Kebaben","category":"restaurant","tags":{"amenity":"fast_food","cuisine":"chicken;kebab","name":"Kyckling Kebaben"}},"geometry":{"type":"Point","coordinates":[16.190218,58.5870589]}},{"type":"Feature","properties":{"id":4326293367,"osm_type":"node","name":"Max Falafel","category":"restaurant","tags":{"addr:city":"Norrköping","addr:street":"Timmermansgatan","amenity":"restaurant","cuisine":"falafel","diet:vegan":"only","fixme":"Is it realy here? Internet resaech says its on \"Bergslagsgatan 3\".","name":"Max Falafel","not:brand:wikidata":"Q1912172"}},"geometry":{"type":"Point","coordinates":[16.2119986,58.5727454]}},{"type":"Feature","properties":{"id":4570353691,"osm_type":"node","name":"Sawasdee","category":"restaurant","tags":{"amenity":"restaurant","cuisine":"thai","name":"Sawasdee","opening_hours":"Tu-Th 17:00-20:00; Fr 17:00-21:00; Sa 13:00-21:00"}},"geometry":{"type":"Point","coordinates":[16.319841,58.4822368]}},{"type":"Feature","properties":{"id":4570353692,"osm_type":"node","name":"Kaffebönan","category":"restaurant","tags":{"amenity":"cafe","name":"Kaffebönan","opening_hours":"Mo-Fr 10:00-18:00; Sa 10:00-14:00","website":"https://kroonshalsa.se/"}},"geometry":{"type":"Point","coordinates":[16.3199723,58.4821924]}},{"type":"Feature","properties":{"id":4972243523,"osm_type":"node","name":"Naay Café & Restaurang","category":"restaurant","tags":{"addr:city":"Norrköping","addr:country":"SE","addr:housenumber":"6","addr:postcode":"602 25","addr:street":"Olai Kyrkogata","amenity":"restaurant","cuisine":"barbecue;kebab;coffee_shop;seafood;sandwich;turkish","drink:coffee":"yes","drink:juice":"yes","name":"Naay Café & Restaurang","opening_hours":"Mo-Su 16:00-26:00"}},"geometry":{"type":"Point","coordinates":[16.1888455,58.5921063]}},{"type":"Feature","properties":{"id":5040470900,"osm_type":"node","name":"Aura","category":"restaurant","tags":{"amenity":"bar","check_date":"2025-01-29","name":"Aura"}},"geometry":{"type":"Point","coordinates":[16.1815592,58.5935081]}},{"type":"Feature","properties":{"id":5040838093,"osm_type":"node","name":"Österns-stjärna","category":"restaurant","tags":{"amenity":"restaurant","name":"Österns-stjärna","opening_hours":"Tu-Th 11:00-15:00, 17:00-21:30; Fr 11:00-15:00, 17:00-22:30; Sa 12:00-22:30; Su 13:00-20:00","phone":"+46 121 134 44"}},"geometry":{"type":"Point","coordinates":[16.3213273,58.4821452]}},{"type":"Feature","properties":{"id":5403263511,"osm_type":"node","name":"Tegelvalvet","category":"restaurant","tags":{"amenity":"pub","name":"Tegelvalvet"}},"geometry":{"type":"Point","coordinates":[16.1867038,58.5888487]}},{"type":"Feature","properties":{"id":5734940039,"osm_type":"node","name":"Spicy Hot","category":"restaurant","tags":{"addr:city":"Norrköping","addr:country":"SE","addr:housenumber":"6","addr:postcode":"602 23","addr:street":"Koppargatan","amenity":"fast_food","cuisine":"asian","name":"Spicy Hot","opening_hours":"Mo-Su 11:00-21:00","phone":"+46 11 10 20 66","takeaway":"yes","website":"https://www.spicyhot.se/restauranger/norrkoping-ingelsta/"}},"geometry":{"type":"Point","coordinates":[16.1583882,58.6126211]}},{"type":"Feature","properties":{"id":5778960872,"osm_type":"node","name":"Arbis Altan","category":"restaurant","tags":{"amenity":"bar","description":"Outdoor Bar/Cafe open only in summer","name":"Arbis Altan","opening_hours":"Tu-Sa 16:00-25:00","website":"https://www.arbis.se/altanen"}},"geometry":{"type":"Point","coordinates":[16.1747794,58.5897681]}},{"type":"Feature","properties":{"id":5909531628,"osm_type":"node","name":"Holy Greens","category":"restaurant","tags":{"addr:city":"Norrköping","addr:country":"SE","addr:housenumber":"30","addr:postcode":"602 31","addr:street":"Hantverkaregatan","amenity":"restaurant","brand":"Holy Greens","brand:wikidata":"Q124048681","check_date":"2024-09-19","cuisine":"salad","name":"Holy Greens","opening_hours":"Mo-Fr 10:00-18:00; Sa 11:00-14:00; Su off","takeaway":"yes"}},"geometry":{"type":"Point","coordinates":[16.1915983,58.5873731]}},{"type":"Feature","properties":{"id":6336207385,"osm_type":"node","name":"Restaurang Snäckan","category":"restaurant","tags":{"addr:country":"SE","addr:housenumber":"13","addr:postcode":"602 24","addr:street":"Drottninggatan","amenity":"restaurant","contact:phone":"+46 11 19 96 90","name":"Restaurang Snäckan"}},"geometry":{"type":"Point","coordinates":[16.1868763,58.5912472]}},{"type":"Feature","properties":{"id":6448323619,"osm_type":"node","name":"Bakfickan","category":"restaurant","tags":{"amenity":"restaurant","indoor_seating":"yes","name":"Bakfickan","opening_hours":"Tu 16:00-23:00; We-Sa 11:00-23:00; Su 11:30-15:30","outdoor_seating":"yes","phone":"+4612130098","website":"https://www.bakfickansoderkoping.se/"}},"geometry":{"type":"Point","coordinates":[16.3213796,58.4831984]}},{"type":"Feature","properties":{"id":6482141899,"osm_type":"node","name":"Of Course Pizza","category":"restaurant","tags":{"amenity":"restaurant","check_date":"2025-01-29","cuisine":"pizza","name":"Of Course Pizza","opening_hours":"Mo-Fr 11:00-22:00; Sa-Su 12:00-22:00"}},"geometry":{"type":"Point","coordinates":[16.1755174,58.592827]}},{"type":"Feature","properties":{"id":6482141900,"osm_type":"node","name":"Mannam","category":"restaurant","tags":{"amenity":"restaurant","cuisine":"korean","name":"Mannam","opening_hours":"Mo-Fr 11:00-22:00; Sa 12:00-22:00","website":"https://mannam.se/"}},"geometry":{"type":"Point","coordinates":[16.1831245,58.589662]}},{"type":"Feature","properties":{"id":6598057585,"osm_type":"node","name":"Pinchos","category":"restaurant","tags":{"addr:city":"Norrköping","addr:country":"SE","addr:housenumber":"30","addr:postcode":"602 20","addr:street":"Kungsgatan","amenity":"restaurant","name":"Pinchos","website":"https://pinchos.se/restaurant/se-norrkoping-kungs/"}},"geometry":{"type":"Point","coordinates":[16.1775947,58.5917183]}},{"type":"Feature","properties":{"id":6651375347,"osm_type":"node","name":"Naay Restaurang & Café","category":"restaurant","tags":{"addr:city":"Norrköping","addr:country":"SE","addr:housenumber":"6","addr:postcode":"602 25","addr:street":"Olai Kyrkogata","amenity":"restaurant","cuisine":"burger;sandwich;kebab;chicken;fish_and_chips","name":"Naay Restaurang & Café","phone":"+46 76 606 60 60"}},"geometry":{"type":"Point","coordinates":[16.1888038,58.5922353]}},{"type":"Feature","properties":{"id":6813927405,"osm_type":"node","name":"Myxtic","category":"restaurant","tags":{"addr:city":"Norrköping","addr:country":"SE","addr:housenumber":"6","addr:postcode":"602 26","addr:street":"Nya torget","amenity":"restaurant","cuisine":"mexican","name":"Myxtic"}},"geometry":{"type":"Point","coordinates":[16.1923144,58.5916379]}},{"type":"Feature","properties":{"id":6813927406,"osm_type":"node","name":"Grekiska Grill & Bar","category":"restaurant","tags":{"addr:city":"Norrköping","addr:country":"SE","addr:housenumber":"3","addr:postcode":"602 26","addr:street":"Nya torget","amenity":"restaurant","cuisine":"greek","name":"Grekiska Grill & Bar","opening_hours":"Mo-Th 11:00-22:00; Fr 11:00-22:30; Sa 12:00-22:30; Su 14:00-21:00"}},"geometry":{"type":"Point","coordinates":[16.1921449,58.5919465]}},{"type":"Feature","properties":{"id":6813927407,"osm_type":"node","name":"Vicino","category":"restaurant","tags":{"addr:city":"Norrköping","addr:country":"SE","addr:housenumber":"1","addr:postcode":"602 26","addr:street":"Nya torget","amenity":"restaurant","cuisine":"italian","name":"Vicino"}},"geometry":{"type":"Point","coordinates":[16.1920517,58.5920847]}},{"type":"Feature","properties":{"id":6813943856,"osm_type":"node","name":"Shotluckan","category":"restaurant","tags":{"addr:city":"Norrköping","addr:country":"SE","addr:housenumber":"3","addr:postcode":"602 24","addr:street":"Gamla torget","amenity":"bar","name":"Shotluckan"}},"geometry":{"type":"Point","coordinates":[16.1861374,58.5887003]}},{"type":"Feature","properties":{"id":6813943857,"osm_type":"node","name":"Pigeon Street","category":"restaurant","tags":{"addr:city":"Norrköping","addr:country":"SE","addr:housenumber":"1","addr:postcode":"602 25","addr:street":"Skolgatan","amenity":"restaurant","name":"Pigeon Street"}},"geometry":{"type":"Point","coordinates":[16.1854241,58.5891534]}},{"type":"Feature","properties":{"id":6813943858,"osm_type":"node","name":"Tinas Café å Sånt","category":"restaurant","tags":{"addr:city":"Norrköping","addr:country":"SE","addr:housenumber":"1","addr:postcode":"602 25","addr:street":"Skolgatan","amenity":"cafe","check_date":"2024-07-20","email":"info@tinascafe.se","internet_access":"wlan","level":"0;1","name":"Tinas Café å Sånt","opening_hours":"Mo-Fr 10:00-19:30; Sa 10:00-17:00; Su 11:00-16:00","payment:cash":"yes","payment:credit_cards":"yes","payment:debit_cards":"yes","phone":"+46 11 131 61 3","website":"https://www.tinascafe.se","wheelchair":"limited"}},"geometry":{"type":"Point","coordinates":[16.1861135,58.589247]}},{"type":"Feature","properties":{"id":6813943859,"osm_type":"node","name":"Mocca Deli","category":"restaurant","tags":{"addr:city":"Norrköping","addr:country":"SE","addr:housenumber":"3","addr:postcode":"602 21","addr:street":"Tunnbindaregatan","amenity":"restaurant","check_date:opening_hours":"2026-01-07","cuisine":"deli","diet:vegan":"yes","diet:vegetarian":"yes","name":"Mocca Deli","opening_hours":"Mo-Th 11:00-22:00; Fr 11:00-23:00; Sa 12:00-23:00; Su 12:00-20:00","phone":"+46 11 102288"}},"geometry":{"type":"Point","coordinates":[16.1804993,58.590035]}},{"type":"Feature","properties":{"id":6813959914,"osm_type":"node","name":"Bastard Burgers","category":"restaurant","tags":{"addr:city":"Norrköping","addr:country":"SE","addr:housenumber":"12","addr:postcode":"602 32","addr:street":"Repslagaregatan","amenity":"restaurant","brand":"Bastard Burgers","brand:wikidata":"Q76873807","cuisine":"burger","diet:vegetarian":"yes","name":"Bastard Burgers","opening_hours":"Mo-Th 11:00-20:00; Fr 11:00-21:00; Sa 12:00-21:00; Su 12:00-19:00","takeaway":"yes"}},"geometry":{"type":"Point","coordinates":[16.1884433,58.5884803]}},{"type":"Feature","properties":{"id":6966942846,"osm_type":"node","name":"Norrköpings Pizzeria","category":"restaurant","tags":{"amenity":"restaurant","cuisine":"pizza","name":"Norrköpings Pizzeria","wheelchair":"no"}},"geometry":{"type":"Point","coordinates":[16.1873446,58.5902886]}},{"type":"Feature","properties":{"id":6966942850,"osm_type":"node","name":"Burgers & Bangers","category":"restaurant","tags":{"addr:city":"Norrköping","addr:country":"SE","addr:housenumber":"6","addr:postcode":"60242","addr:street":"Trädgårdsgatan","amenity":"restaurant","cuisine":"burger","name":"Burgers & Bangers","opening_hours":"Mo off; Tu-Fr 16:00-24:00; Sa 12:00-24:00; Su 12:00-18:30","website":"https://burgersandbangers.se/"}},"geometry":{"type":"Point","coordinates":[16.1871529,58.5914579]}},{"type":"Feature","properties":{"id":7087872143,"osm_type":"node","name":"Pappa Grappa","category":"restaurant","tags":{"amenity":"restaurant","cuisine":"pizza;italian;cafe;lounge","name":"Pappa Grappa"}},"geometry":{"type":"Point","coordinates":[16.1858637,58.5900375]}},{"type":"Feature","properties":{"id":7087872779,"osm_type":"node","name":"Restaurang & Café C","category":"restaurant","tags":{"amenity":"cafe","cuisine":"lunch;cafe","name":"Restaurang & Café C"}},"geometry":{"type":"Point","coordinates":[16.1775844,58.5891816]}},{"type":"Feature","properties":{"id":7087872895,"osm_type":"node","name":"Kafé Tassen","category":"restaurant","tags":{"addr:housenumber":"22","addr:street":"Skolgatan","amenity":"cafe","cuisine":"cafe","name":"Kafé Tassen","website":"https://www.kafetassen.se"}},"geometry":{"type":"Point","coordinates":[16.1916605,58.5897496]}},{"type":"Feature","properties":{"id":7087873262,"osm_type":"node","name":"Ato Sushi","category":"restaurant","tags":{"addr:country":"SE","addr:housenumber":"20","addr:street":"Skolgatan","amenity":"fast_food","cuisine":"sushi","name":"Ato Sushi","website":"https://atosushi.se/"}},"geometry":{"type":"Point","coordinates":[16.1913216,58.5897031]}},{"type":"Feature","properties":{"id":7087876751,"osm_type":"node","name":"Grazie","category":"restaurant","tags":{"addr:country":"SE","addr:housenumber":"8","addr:street":"Hospitalsgatan","amenity":"restaurant","cuisine":"wine;beer;drinks;breakfast;italian","name":"Grazie"}},"geometry":{"type":"Point","coordinates":[16.187634,58.5907757]}},{"type":"Feature","properties":{"id":7087877040,"osm_type":"node","name":"Hej! Take away","category":"restaurant","tags":{"amenity":"cafe","cuisine":"take_away;lunch;coffee","name":"Hej! Take away"}},"geometry":{"type":"Point","coordinates":[16.1872317,58.5905257]}},{"type":"Feature","properties":{"id":7087877347,"osm_type":"node","name":"Campino City","category":"restaurant","tags":{"amenity":"restaurant","cuisine":"burger;regional;pub","name":"Campino City"}},"geometry":{"type":"Point","coordinates":[16.1753448,58.5852211]}},{"type":"Feature","properties":{"id":7087883791,"osm_type":"node","name":"Husman & Kök","category":"restaurant","tags":{"addr:country":"SE","addr:housenumber":"21","addr:street":"Trädgårdsgatan","amenity":"restaurant","cuisine":"lunch;regional","name":"Husman & Kök","opening_hours":"Mo-Fr 11:00-14:00","smoking":"no"}},"geometry":{"type":"Point","coordinates":[16.1896859,58.592026]}},{"type":"Feature","properties":{"id":7087894195,"osm_type":"node","name":"Gamla Bryggeriet","category":"restaurant","tags":{"amenity":"restaurant","cuisine":"regional","name":"Gamla Bryggeriet","opening_hours":"Mo-Th 16:00-22:00; Fr,Sa 16:00-18:00+"}},"geometry":{"type":"Point","coordinates":[16.1825244,58.5916467]}},{"type":"Feature","properties":{"id":7087898469,"osm_type":"node","name":"Café Väster","category":"restaurant","tags":{"amenity":"cafe","cuisine":"cafe;lunch","name":"Café Väster"}},"geometry":{"type":"Point","coordinates":[16.1756183,58.5872636]}},{"type":"Feature","properties":{"id":7087901219,"osm_type":"node","name":"Marikas Café","category":"restaurant","tags":{"amenity":"cafe","cuisine":"cafe;bread","name":"Marikas Café"}},"geometry":{"type":"Point","coordinates":[16.1750524,58.5834358]}},{"type":"Feature","properties":{"id":7087919147,"osm_type":"node","name":"Ölstugan Gull-Olle","category":"restaurant","tags":{"addr:country":"SE","addr:housenumber":"15","addr:street":"Trädgårdsgatan","amenity":"pub","name":"Ölstugan Gull-Olle"}},"geometry":{"type":"Point","coordinates":[16.1881444,58.5918103]}},{"type":"Feature","properties":{"id":7087922821,"osm_type":"node","name":"Lilla caféet","category":"restaurant","tags":{"amenity":"cafe","cuisine":"cafe","name":"Lilla caféet"}},"geometry":{"type":"Point","coordinates":[16.1855033,58.5920603]}},{"type":"Feature","properties":{"id":7087925822,"osm_type":"node","name":"Puck 'n' roll","category":"restaurant","tags":{"amenity":"restaurant","cuisine":"lunch","diet:vegan":"yes","diet:vegetarian":"yes","name":"Puck 'n' roll"}},"geometry":{"type":"Point","coordinates":[16.1774808,58.5933603]}},{"type":"Feature","properties":{"id":7087938370,"osm_type":"node","name":"L.A. Café","category":"restaurant","tags":{"amenity":"restaurant","cuisine":"thai;lunch","name":"L.A. Café"}},"geometry":{"type":"Point","coordinates":[16.1746896,58.5942521]}},{"type":"Feature","properties":{"id":7087942929,"osm_type":"node","name":"Stadsvakten","category":"restaurant","tags":{"amenity":"restaurant","cuisine":"regional;fine_dining","name":"Stadsvakten"}},"geometry":{"type":"Point","coordinates":[16.1883214,58.5924114]}},{"type":"Feature","properties":{"id":7087964777,"osm_type":"node","name":"Nelins smedby","category":"restaurant","tags":{"amenity":"cafe","cuisine":"cafe;bread","name":"Nelins smedby"}},"geometry":{"type":"Point","coordinates":[16.229172,58.5804538]}},{"type":"Feature","properties":{"id":7201381798,"osm_type":"node","name":"Sushi Yama","category":"restaurant","tags":{"addr:city":"Norrköping","addr:country":"SE","addr:housenumber":"60","addr:postcode":"602 32","addr:street":"Drottninggatan","amenity":"restaurant","brand":"Sushi Yama","brand:wikidata":"Q31897009","cuisine":"japanese","name":"Sushi Yama","opening_hours":"Mo-Su 11:00-21:00","phone":"+46 11 10 12 10","website":"https://www.sushiyama.se/"}},"geometry":{"type":"Point","coordinates":[16.1889105,58.5867463]}},{"type":"Feature","properties":{"id":7554461908,"osm_type":"node","name":"Miami","category":"restaurant","tags":{"addr:country":"SE","addr:housenumber":"28","addr:street":"Lindövägen","amenity":"fast_food","cuisine":"pizza","drive_through":"no","name":"Miami"}},"geometry":{"type":"Point","coordinates":[16.2068103,58.5901768]}},{"type":"Feature","properties":{"id":7658891926,"osm_type":"node","name":"Kina Thai","category":"restaurant","tags":{"addr:city":"Norrköping","addr:country":"SE","addr:housenumber":"48","addr:postcode":"60223","addr:street":"Ståthögavägen","amenity":"restaurant","cuisine":"asian","name":"Kina Thai","opening_hours":"Mo 11:00-15:00; Tu-Th 11:00-14:30,17:00-20:00; Fr 11:00-14:30,17:00-21:00; Sa 12:00-20:00; Su 12:00-19:00","outdoor_seating":"yes","phone":"+46 11 18 49 49","takeaway":"yes","website":"https://kinathai.se","wheelchair":"yes"}},"geometry":{"type":"Point","coordinates":[16.1681025,58.609577]}},{"type":"Feature","properties":{"id":7826314285,"osm_type":"node","name":"Östgöta Kök, Nya Torget","category":"restaurant","tags":{"addr:city":"Norrköping","addr:housenumber":"30","addr:postcode":"602 26","addr:street":"Hospitalsgatan","amenity":"restaurant","cuisine":"local","name":"Östgöta Kök, Nya Torget"}},"geometry":{"type":"Point","coordinates":[16.1926401,58.5914742]}},{"type":"Feature","properties":{"id":7886965365,"osm_type":"node","name":"Piccolo Mondo","category":"restaurant","tags":{"addr:country":"SE","addr:housenumber":"9","addr:street":"Norralundsgatan","amenity":"restaurant","cuisine":"pizza","name":"Piccolo Mondo"}},"geometry":{"type":"Point","coordinates":[16.1558144,58.5988342]}},{"type":"Feature","properties":{"id":7889961232,"osm_type":"node","name":"Lingon Food & Friends","category":"restaurant","tags":{"addr:city":"Norrköping","addr:country":"SE","addr:housenumber":"54","addr:postcode":"602 32","addr:street":"Drottninggatan","amenity":"fast_food","cuisine":"burger;pasta","name":"Lingon Food & Friends","opening_hours":"Mo-Sa 11:00-20:00; Su 11:00-19:00","phone":"+46 11 18 00 81","website":"https://lingonfoodandfriends.se/"}},"geometry":{"type":"Point","coordinates":[16.1885747,58.5872834]}},{"type":"Feature","properties":{"id":7912439169,"osm_type":"node","name":"Stockholmsvägens","category":"restaurant","tags":{"amenity":"fast_food","cuisine":"pizza;kebab;salad","name":"Stockholmsvägens"}},"geometry":{"type":"Point","coordinates":[16.1729838,58.5963714]}},{"type":"Feature","properties":{"id":7912439170,"osm_type":"node","name":"Erbil","category":"restaurant","tags":{"addr:country":"SE","addr:housenumber":"44","addr:street":"Stockholmsvägen","amenity":"restaurant","name":"Erbil","opening_hours":"Mo-Su,PH 11:00-21:00"}},"geometry":{"type":"Point","coordinates":[16.1689288,58.5993485]}},{"type":"Feature","properties":{"id":7920347390,"osm_type":"node","name":"Kockens","category":"restaurant","tags":{"amenity":"restaurant","name":"Kockens","opening_hours":"Mo-Fr 06:00-14:00"}},"geometry":{"type":"Point","coordinates":[16.1706586,58.597817]}},{"type":"Feature","properties":{"id":7936651919,"osm_type":"node","name":"Lebanon","category":"restaurant","tags":{"addr:city":"Norrköping","addr:country":"SE","addr:housenumber":"20","addr:postcode":"602 17","addr:street":"Stockholmsvägen","amenity":"restaurant","name":"Lebanon","opening_hours":"Mo-Su 11:30-22:00"}},"geometry":{"type":"Point","coordinates":[16.1708383,58.5976924]}},{"type":"Feature","properties":{"id":7936651921,"osm_type":"node","name":"Ali Baba","category":"restaurant","tags":{"addr:city":"Norrköping","addr:country":"SE","addr:housenumber":"17","addr:postcode":"602 17","addr:street":"Stockholmsvägen","amenity":"restaurant","cuisine":"pizza","name":"Ali Baba","opening_hours":"Tu-Su 09:00-21:00"}},"geometry":{"type":"Point","coordinates":[16.1711018,58.5974848]}},{"type":"Feature","properties":{"id":8000508703,"osm_type":"node","name":"Pølsemannen","category":"restaurant","tags":{"amenity":"fast_food","cuisine":"hot_dog","name":"Pølsemannen"}},"geometry":{"type":"Point","coordinates":[16.1650889,58.6098375]}},{"type":"Feature","properties":{"id":8024946217,"osm_type":"node","name":"Osaka Sushi & Poke","category":"restaurant","tags":{"amenity":"restaurant","cuisine":"sushi","indoor_seating":"yes","name":"Osaka Sushi & Poke","outdoor_seating":"no"}},"geometry":{"type":"Point","coordinates":[16.1906929,58.5919964]}},{"type":"Feature","properties":{"id":8050080780,"osm_type":"node","name":"Sham","category":"restaurant","tags":{"amenity":"restaurant","name":"Sham"}},"geometry":{"type":"Point","coordinates":[16.194362,58.5893508]}},{"type":"Feature","properties":{"id":8050091589,"osm_type":"node","name":"Pizza Bistro","category":"restaurant","tags":{"amenity":"restaurant","name":"Pizza Bistro"}},"geometry":{"type":"Point","coordinates":[16.1886713,58.5887976]}},{"type":"Feature","properties":{"id":8960432191,"osm_type":"node","name":"Hållbar och kök","category":"restaurant","tags":{"addr:city":"Söderköping","addr:country":"SE","addr:housenumber":"3","addr:street":"kanalhamnen","amenity":"restaurant","name":"Hållbar och kök","phone":"+46 73 707 19 76","website":"https://hallbarkok.se/"}},"geometry":{"type":"Point","coordinates":[16.3230548,58.4825173]}},{"type":"Feature","properties":{"id":9110591147,"osm_type":"node","name":"","category":"restaurant","tags":{"amenity":"food_court","name:signed":"no"}},"geometry":{"type":"Point","coordinates":[16.1574438,58.6189672]}},{"type":"Feature","properties":{"id":9128660434,"osm_type":"node","name":"Max Falafel","category":"restaurant","tags":{"amenity":"restaurant","name":"Max Falafel","opening_hours":"Mo-Fr 09:00-20:00; Sa 10:00-20:00; Su 11:00-20:00"}},"geometry":{"type":"Point","coordinates":[16.1716528,58.5962078]}},{"type":"Feature","properties":{"id":9720025491,"osm_type":"node","name":"Glokala Haket","category":"restaurant","tags":{"addr:country":"SE","addr:housenumber":"76","addr:street":"Kungsgatan","amenity":"cafe","name":"Glokala Haket","phone":"+46739591459","website":"https://www.glokalahaket.se/"}},"geometry":{"type":"Point","coordinates":[16.1762403,58.5868593]}},{"type":"Feature","properties":{"id":10809061169,"osm_type":"node","name":"Frasses","category":"restaurant","tags":{"amenity":"fast_food","brand":"Frasses","brand:wikidata":"Q3374476","cuisine":"burger","name":"Frasses","takeaway":"yes"}},"geometry":{"type":"Point","coordinates":[16.3356173,58.4752534]}},{"type":"Feature","properties":{"id":10905994713,"osm_type":"node","name":"Espresso House","category":"restaurant","tags":{"amenity":"cafe","brand":"Espresso House","brand:wikidata":"Q10489162","check_date":"2026-01-02","check_date:diet:vegan":"2026-01-02","check_date:diet:vegetarian":"2026-01-02","cuisine":"coffee_shop","diet:vegan":"yes","diet:vegetarian":"yes","name":"Espresso House","opening_hours":"Mo-Fr 05:30-20:30; Sa 07:00-19:00; Su 08:00-20:00","takeaway":"yes","wheelchair":"yes"}},"geometry":{"type":"Point","coordinates":[16.183214,58.5963869]}},{"type":"Feature","properties":{"id":11003293252,"osm_type":"node","name":"Grekiska håll och bar","category":"restaurant","tags":{"addr:city":"Söderköping","addr:country":"SE","addr:housenumber":"3A","addr:postcode":"61434","addr:street":"Rådhustorget","amenity":"restaurant","cuisine":"greek","name":"Grekiska håll och bar","phone":"+46 121 102 22","website":"https://grekiska.se/restaurang/soderkoping/"}},"geometry":{"type":"Point","coordinates":[16.3198257,58.4820585]}},{"type":"Feature","properties":{"id":11003293944,"osm_type":"node","name":"","category":"restaurant","tags":{"amenity":"restaurant","cuisine":"pizza"}},"geometry":{"type":"Point","coordinates":[16.3341566,58.4754356]}},{"type":"Feature","properties":{"id":11189038266,"osm_type":"node","name":"Golden Royale Chocolate Café","category":"restaurant","tags":{"amenity":"cafe","cuisine":"waffle;pancake","name":"Golden Royale Chocolate Café","website":"https://www.goldenroyale.se/"}},"geometry":{"type":"Point","coordinates":[16.1783627,58.5914698]}},{"type":"Feature","properties":{"id":12061960633,"osm_type":"node","name":"Jolla Chokladmakarna","category":"restaurant","tags":{"addr:housenumber":"1","addr:postcode":"61492","addr:street":"Vänneberga bro","amenity":"cafe","check_date":"2024-07-18","email":"info@jolla.se","internet_access":"no","name":"Jolla Chokladmakarna","opening_hours":"10:00-18:00","outdoor_seating":"yes","payment:cash":"yes","payment:credit_cards":"yes","payment:debit_cards":"yes","phone":"+46 70 816 59 33","smoking":"no","source":"survey","website":"https://jolla.se"}},"geometry":{"type":"Point","coordinates":[16.2614829,58.4984386]}},{"type":"Feature","properties":{"id":12110064143,"osm_type":"node","name":"Massimo","category":"restaurant","tags":{"amenity":"restaurant","cuisine":"italian","name":"Massimo"}},"geometry":{"type":"Point","coordinates":[16.1869951,58.5812927]}},{"type":"Feature","properties":{"id":12349110902,"osm_type":"node","name":"Lilla Vän kaffebar","category":"restaurant","tags":{"addr:city":"Norrköping","addr:housenumber":"1","addr:postcode":"602 25","addr:street":"Skolgatan","addr:unit":"B","amenity":"cafe","cuisine":"coffee_shop","name":"Lilla Vän kaffebar","outdoor_seating":"no","website":"https://www.qvarsebokaffe.se/"}},"geometry":{"type":"Point","coordinates":[16.1853287,58.5889782]}},{"type":"Feature","properties":{"id":12356310632,"osm_type":"node","name":"fräcka frõken","category":"restaurant","tags":{"amenity":"restaurant","check_date":"2025-01-29","name":"fräcka frõken","opening_hours":"Mo-Th 11:00-22:00; Fr 11:00-24:00; Sa 12:00-24:00; Su 12:00-22:00","website":"https://bistrolebon.se/"}},"geometry":{"type":"Point","coordinates":[16.1790834,58.5905382]}},{"type":"Feature","properties":{"id":12533728523,"osm_type":"node","name":"V bar","category":"restaurant","tags":{"amenity":"bar","name":"V bar"}},"geometry":{"type":"Point","coordinates":[16.1855314,58.5906337]}},{"type":"Feature","properties":{"id":12533769965,"osm_type":"node","name":"Kassett","category":"restaurant","tags":{"amenity":"bar","name":"Kassett"}},"geometry":{"type":"Point","coordinates":[16.1864922,58.5875914]}},{"type":"Feature","properties":{"id":12533786794,"osm_type":"node","name":"Sushi Nara","category":"restaurant","tags":{"addr:city":"Norrköping","addr:housenumber":"98","addr:postcode":"603 52","addr:street":"S:t Persgatan","amenity":"restaurant","cuisine":"asian","name":"Sushi Nara"}},"geometry":{"type":"Point","coordinates":[16.1888294,58.5861578]}},{"type":"Feature","properties":{"id":12536335626,"osm_type":"node","name":"Koi Sushi","category":"restaurant","tags":{"amenity":"restaurant","cuisine":"sushi","name":"Koi Sushi","opening_hours":"Mo-Su 11:00-21:00"}},"geometry":{"type":"Point","coordinates":[16.1879824,58.589032]}},{"type":"Feature","properties":{"id":12536335770,"osm_type":"node","name":"Yemek","category":"restaurant","tags":{"addr:city":"Norrköping","addr:housenumber":"36","addr:postcode":"602 32","addr:street":"Olai Kyrkogata","amenity":"restaurant","cuisine":"turkish","name":"Yemek"}},"geometry":{"type":"Point","coordinates":[16.1913795,58.5870722]}},{"type":"Feature","properties":{"id":12542064451,"osm_type":"node","name":"Tapas Tapas","category":"restaurant","tags":{"amenity":"restaurant","cuisine":"tapas","name":"Tapas Tapas"}},"geometry":{"type":"Point","coordinates":[16.176695,58.5877367]}},{"type":"Feature","properties":{"id":12542064452,"osm_type":"node","name":"Mexicali","category":"restaurant","tags":{"amenity":"restaurant","cuisine":"mexican","name":"Mexicali"}},"geometry":{"type":"Point","coordinates":[16.1763297,58.5877957]}},{"type":"Feature","properties":{"id":12542064453,"osm_type":"node","name":"Pizza Kitchen","category":"restaurant","tags":{"amenity":"restaurant","cuisine":"pizza","name":"Pizza Kitchen"}},"geometry":{"type":"Point","coordinates":[16.1760296,58.5878503]}},{"type":"Feature","properties":{"id":12542064552,"osm_type":"node","name":"Tokio Sushi","category":"restaurant","tags":{"amenity":"restaurant","cuisine":"sushi","name":"Tokio Sushi"}},"geometry":{"type":"Point","coordinates":[16.1763241,58.5871936]}},{"type":"Feature","properties":{"id":12542064553,"osm_type":"node","name":"Rumpan Bar","category":"restaurant","tags":{"amenity":"bar","name":"Rumpan Bar"}},"geometry":{"type":"Point","coordinates":[16.1762589,58.5869722]}},{"type":"Feature","properties":{"id":12542096653,"osm_type":"node","name":"Stopet","category":"restaurant","tags":{"amenity":"bar","name":"Stopet"}},"geometry":{"type":"Point","coordinates":[16.1856586,58.5882227]}},{"type":"Feature","properties":{"id":12542144158,"osm_type":"node","name":"Cafe Smedian","category":"restaurant","tags":{"amenity":"cafe","check_date":"2025-01-29","cuisine":"regional;thai","name":"Cafe Smedian"}},"geometry":{"type":"Point","coordinates":[16.1745939,58.592887]}},{"type":"Feature","properties":{"id":12542144170,"osm_type":"node","name":"Subway","category":"restaurant","tags":{"amenity":"fast_food","brand":"Subway","brand:wikidata":"Q244457","check_date":"2025-01-29","cuisine":"sandwich","name":"Subway","takeaway":"yes"}},"geometry":{"type":"Point","coordinates":[16.1786146,58.590953]}},{"type":"Feature","properties":{"id":12542144172,"osm_type":"node","name":"Spicy Hot","category":"restaurant","tags":{"amenity":"fast_food","check_date":"2025-01-29","name":"Spicy Hot"}},"geometry":{"type":"Point","coordinates":[16.1780526,58.5921213]}},{"type":"Feature","properties":{"id":12542144173,"osm_type":"node","name":"Grill House","category":"restaurant","tags":{"amenity":"fast_food","check_date":"2025-01-29","cuisine":"kebab;pizza","name":"Grill House"}},"geometry":{"type":"Point","coordinates":[16.1769102,58.5930403]}},{"type":"Feature","properties":{"id":12542144195,"osm_type":"node","name":"Indian Garden","category":"restaurant","tags":{"amenity":"restaurant","check_date":"2025-01-29","name":"Indian Garden"}},"geometry":{"type":"Point","coordinates":[16.1809537,58.5934292]}},{"type":"Feature","properties":{"id":12874965898,"osm_type":"node","name":"Hagatorget","category":"restaurant","tags":{"amenity":"fast_food","cuisine":"pizza","name":"Hagatorget"}},"geometry":{"type":"Point","coordinates":[16.3220739,58.4804563]}},{"type":"Feature","properties":{"id":12912555558,"osm_type":"node","name":"Lennarts bistro","category":"restaurant","tags":{"amenity":"restaurant","check_date":"2025-09-06","name":"Lennarts bistro"}},"geometry":{"type":"Point","coordinates":[16.1624073,58.6158218]}},{"type":"Feature","properties":{"id":13086400755,"osm_type":"node","name":"Bistro Belle","category":"restaurant","tags":{"amenity":"restaurant","indoor_seating":"yes","name":"Bistro Belle","outdoor_seating":"yes"}},"geometry":{"type":"Point","coordinates":[16.3252026,58.4799799]}},{"type":"Feature","properties":{"id":13086427360,"osm_type":"node","name":"Sushi Sörping","category":"restaurant","tags":{"amenity":"restaurant","cuisine":"sushi","indoor_seating":"yes","name":"Sushi Sörping","outdoor_seating":"yes","payment:credit_cards":"yes","payment:debit_cards":"yes","wheelchair":"no"}},"geometry":{"type":"Point","coordinates":[16.3259803,58.4798478]}},{"type":"Feature","properties":{"id":13110781536,"osm_type":"node","name":"Kebab House","category":"restaurant","tags":{"addr:city":"Norrköping","addr:country":"SE","addr:housenumber":"103","addr:postcode":"603 53","addr:street":"Albrektsvägen","amenity":"restaurant","check_date":"2025-12-21","cuisine":"kebab;burger","diet:chicken":"yes","diet:meat":"yes","diet:non-vegetarian":"yes","diet:vegan":"yes","diet:vegetarian":"yes","internet_access":"no","name":"Kebab House","opening_hours":"Tu-Su 11:00-20:00","payment:cash":"yes","payment:credit_cards":"yes","payment:debit_cards":"yes","phone":"+46 72 868 08 59","wheelchair":"no"}},"geometry":{"type":"Point","coordinates":[16.1892304,58.5794186]}},{"type":"Feature","properties":{"id":13110831148,"osm_type":"node","name":"Sosa Deli","category":"restaurant","tags":{"addr:city":"Norrköping","addr:country":"SE","addr:housenumber":"22","addr:postcode":"603 74","addr:street":"Ektorpsgatan","amenity":"restaurant","cuisine":"pizza","name":"Sosa Deli","phone":"+46 11 300 20 88","website":"https://www.sosadeli.se/"}},"geometry":{"type":"Point","coordinates":[16.1724544,58.5811647]}},{"type":"Feature","properties":{"id":13314319109,"osm_type":"node","name":"Bagel Bay","category":"restaurant","tags":{"amenity":"cafe","name":"Bagel Bay"}},"geometry":{"type":"Point","coordinates":[16.200407,58.5961918]}},{"type":"Feature","properties":{"id":13656982560,"osm_type":"node","name":"Åby Krog och Pizzeria","category":"restaurant","tags":{"addr:city":"Åby","addr:housenumber":"19","addr:postcode":"61630","addr:street":"Nyköpingsvägen","amenity":"restaurant","cuisine":"pizza;burger","name":"Åby Krog och Pizzeria","phone":"+46 11 67051","website":"https://www.abykrog.com/"}},"geometry":{"type":"Point","coordinates":[16.1810753,58.6649197]}},{"type":"Feature","properties":{"id":13687006158,"osm_type":"node","name":"Iko Sushi","category":"restaurant","tags":{"addr:city":"Norrköping","addr:country":"SE","addr:housenumber":"6","addr:postcode":"602 23","addr:street":"Koppargatan","amenity":"fast_food","cuisine":"sushi","name":"Iko Sushi","opening_hours":"Mo-Su 11:00-21:00","phone":"+46 11 10 75 66","website":"https://www.ikosushi.se"}},"geometry":{"type":"Point","coordinates":[16.1583805,58.6126929]}},{"type":"Feature","properties":{"id":13827723310,"osm_type":"node","name":"Leons","category":"restaurant","tags":{"amenity":"fast_food","building":"yes","cuisine":"sausage","indoor_seating":"no","name":"Leons","outdoor_seating":"yes","payment:credit_cards":"yes","payment:debit_cards":"yes","wheelchair":"yes"}},"geometry":{"type":"Point","coordinates":[16.1727971,58.6172898]}},{"type":"Feature","properties":{"id":93316925,"osm_type":"way","name":"Sista supen","category":"restaurant","tags":{"addr:city":"Norrköping","addr:country":"SE","addr:housenumber":"30","addr:postcode":"602 21","addr:street":"Västgötegatan","amenity":"cafe","building":"yes","cuisine":"ice_cream","name":"Sista supen"}},"geometry":{"type":"Point","coordinates":[16.179491,58.5902794]}},{"type":"Feature","properties":{"id":96272591,"osm_type":"way","name":"McDonald's","category":"restaurant","tags":{"addr:country":"SE","addr:housenumber":"22","addr:street":"Koppargatan","amenity":"fast_food","brand":"McDonald's","brand:wikidata":"Q38076","brand:wikipedia":"sv:McDonald's","building":"yes","cuisine":"burger","name":"McDonald's","opening_hours":"Mo-Su 07:00-24:00","operator":"McDonald's","takeaway":"yes","wheelchair":"limited"}},"geometry":{"type":"Point","coordinates":[16.1546981,58.6202071]}},{"type":"Feature","properties":{"id":96648054,"osm_type":"way","name":"Wallmans gatukök","category":"restaurant","tags":{"amenity":"fast_food","building":"yes","contact:phone":"+46 11 13 23 84","name":"Wallmans gatukök"}},"geometry":{"type":"Point","coordinates":[16.1685904,58.5934009]}},{"type":"Feature","properties":{"id":96791241,"osm_type":"way","name":"Café Färgargården","category":"restaurant","tags":{"addr:city":"Norrköping","addr:country":"SE","addr:housenumber":"8","addr:street":"Värdshusgatan","amenity":"cafe","building":"yes","name":"Café Färgargården","opening_hours":"Mo-Su 10:00-19:00","phone":"+46 11 107641"}},"geometry":{"type":"Point","coordinates":[16.167477,58.5877842]}},{"type":"Feature","properties":{"id":97870894,"osm_type":"way","name":"Max","category":"restaurant","tags":{"addr:city":"Norrköping","addr:country":"SE","addr:housenumber":"90","addr:postcode":"602 22","addr:street":"Norra Promenaden","amenity":"fast_food","brand":"Max","brand:wikidata":"Q1912172","building":"commercial","cuisine":"burger","drive_through":"yes","name":"Max","opening_hours":"Su-Th 10:00-02:00, Fr,Sa 10:00-05:00","operator":"Max","outdoor_seating":"yes","phone":"+46 11 12 64 10","source":"Max Resturanger AB","takeaway":"yes"}},"geometry":{"type":"Point","coordinates":[16.1907268,58.5973349]}},{"type":"Feature","properties":{"id":100066397,"osm_type":"way","name":"Pizzeria F13","category":"restaurant","tags":{"addr:city":"Norrköping","addr:country":"SE","addr:housenumber":"111","addr:street":"De Geersgatan","amenity":"fast_food","building":"yes","cuisine":"pizza","name":"Pizzeria F13"}},"geometry":{"type":"Point","coordinates":[16.1397314,58.6062712]}},{"type":"Feature","properties":{"id":127171546,"osm_type":"way","name":"McDonald's","category":"restaurant","tags":{"amenity":"fast_food","brand":"McDonald's","brand:wikidata":"Q38076","brand:wikipedia":"sv:McDonald's","building":"yes","cuisine":"burger","name":"McDonald's","operator":"McDonald's","takeaway":"yes"}},"geometry":{"type":"Point","coordinates":[16.2116285,58.5739011]}},{"type":"Feature","properties":{"id":196958126,"osm_type":"way","name":"Brådtom Sluss","category":"restaurant","tags":{"amenity":"cafe","building":"yes","name":"Brådtom Sluss"}},"geometry":{"type":"Point","coordinates":[16.032859,58.5080172]}},{"type":"Feature","properties":{"id":225426514,"osm_type":"way","name":"Café Carl Johan","category":"restaurant","tags":{"amenity":"cafe","building":"yes","building:levels":"1","building:material":"glass","check_date":"2024-05-09","name":"Café Carl Johan","opening_hours":"Jun-Aug","roof:colour":"black"}},"geometry":{"type":"Point","coordinates":[16.1848953,58.5940032]}},{"type":"Feature","properties":{"id":270851515,"osm_type":"way","name":"Haga Pizzeria","category":"restaurant","tags":{"addr:city":"Norrköping","addr:country":"SE","addr:housenumber":"28","addr:postcode":"602 14","addr:street":"Breda vägen","amenity":"restaurant","building":"yes","cuisine":"pizza","name":"Haga Pizzeria","opening_hours":"Mo-Th 11:00-21:00; Fr 11:00-22:00; Sa 12:00-22:00; Su 12:00-21:00"}},"geometry":{"type":"Point","coordinates":[16.1583721,58.6041241]}},{"type":"Feature","properties":{"id":270851527,"osm_type":"way","name":"Glass- och våffeloasen","category":"restaurant","tags":{"amenity":"ice_cream","building":"yes","name":"Glass- och våffeloasen","opening_hours":"Mo-Su 10:00-19:00"}},"geometry":{"type":"Point","coordinates":[16.1586634,58.604069]}},{"type":"Feature","properties":{"id":287685610,"osm_type":"way","name":"McDonald's","category":"restaurant","tags":{"addr:country":"SE","addr:housenumber":"4","addr:street":"Skärblackavägen","amenity":"fast_food","brand":"McDonald's","brand:wikidata":"Q38076","brand:wikipedia":"sv:McDonald's","building":"yes","cuisine":"burger","drive_through":"yes","name":"McDonald's","opening_hours":"Mo-Su 06:00-24:00","operator":"McDonald's","takeaway":"yes"}},"geometry":{"type":"Point","coordinates":[16.0793063,58.5689094]}},{"type":"Feature","properties":{"id":313681327,"osm_type":"way","name":"Pizza Hut","category":"restaurant","tags":{"addr:city":"Norrköping","addr:country":"SE","addr:housenumber":"2","addr:street":"Koppargatan","amenity":"fast_food","brand":"Pizza Hut","building":"yes","cuisine":"pizza","name":"Pizza Hut","opening_hours":"Mo-Th 10:00-22:00; Fr-Sa 10:00-23:00; Su 11:00-22:00","operator":"Pizza Hut"}},"geometry":{"type":"Point","coordinates":[16.1591892,58.6121992]}},{"type":"Feature","properties":{"id":313681328,"osm_type":"way","name":"Max","category":"restaurant","tags":{"addr:city":"Norrköping","addr:country":"SE","addr:housenumber":"2b","addr:street":"Koppargatan","amenity":"fast_food","branch":"Hamburgare","brand":"Max","brand:wikidata":"Q1912172","building":"yes","contact:phone":"+46 11 489 1100","cuisine":"burger","drive_through":"yes","name":"Max","operator":"Max","takeaway":"yes"}},"geometry":{"type":"Point","coordinates":[16.159238,58.6118451]}},{"type":"Feature","properties":{"id":415357945,"osm_type":"way","name":"Junkbox","category":"restaurant","tags":{"addr:city":"Norrköping","addr:country":"SE","addr:housenumber":"17","addr:postcode":"602 23","addr:street":"Koppargatan","amenity":"restaurant","building":"yes","cuisine":"burger","name":"Junkbox","opening_hours":"Mo-Su 11:00-20:00","website":"https://junk-box.se/"}},"geometry":{"type":"Point","coordinates":[16.1542059,58.6176168]}},{"type":"Feature","properties":{"id":449128245,"osm_type":"way","name":"Hamnkrogen Lindö","category":"restaurant","tags":{"amenity":"restaurant","building":"yes","cuisine":"pizza;seafood;ice_cream;steak_house","name":"Hamnkrogen Lindö","outdoor_seating":"yes","takeaway":"yes","website":"https://www.hamnkrogenlindo.com/","wheelchair":"yes"}},"geometry":{"type":"Point","coordinates":[16.2568003,58.6095345]}},{"type":"Feature","properties":{"id":527979495,"osm_type":"way","name":"Söderköpings Brunn","category":"restaurant","tags":{"addr:city":"Söderköping","addr:country":"SE","addr:housenumber":"35","addr:postcode":"614 30","addr:street":"Skönbergagatan","amenity":"restaurant","building":"yes","name":"Söderköpings Brunn","phone":"+46 121 10900","tourism":"hotel","website":"http://soderkopingsbrunn.se","wikidata":"Q111875494"}},"geometry":{"type":"Point","coordinates":[16.3306652,58.4793937]}},{"type":"Feature","properties":{"id":620164189,"osm_type":"way","name":"Sörsjöns camping","category":"restaurant","tags":{"amenity":"cafe","building":"yes","name":"Sörsjöns camping"}},"geometry":{"type":"Point","coordinates":[16.0852268,58.7219055]}},{"type":"Feature","properties":{"id":823097126,"osm_type":"way","name":"Å-Cafeet","category":"restaurant","tags":{"addr:city":"Söderköping","addr:country":"SE","addr:housenumber":"27","addr:postcode":"614 34","addr:street":"Ågatan","amenity":"restaurant","building":"yes","cuisine":"regional","indoor_seating":"yes","name":"Å-Cafeet","outdoor_seating":"yes"}},"geometry":{"type":"Point","coordinates":[16.3230245,58.4816924]}},{"type":"Feature","properties":{"id":968526556,"osm_type":"way","name":"Strömmingsboden","category":"restaurant","tags":{"amenity":"fast_food","building":"shed","cuisine":"fish","name":"Strömmingsboden"}},"geometry":{"type":"Point","coordinates":[16.3226667,58.4826396]}},{"type":"Feature","properties":{"id":982397284,"osm_type":"way","name":"Falafel Stugan","category":"restaurant","tags":{"amenity":"restaurant","building":"yes","name":"Falafel Stugan","name:ar":"فلافل ستوگان","name:en":"Falafel rasturant","name:sv":"Falafel Stugan"}},"geometry":{"type":"Point","coordinates":[16.1635136,58.5850162]}},{"type":"Feature","properties":{"id":989064181,"osm_type":"way","name":"","category":"restaurant","tags":{"addr:city":"Söderköping","addr:country":"SE","addr:housenumber":"17D","addr:street":"Brobyvägen","amenity":"fast_food","building":"yes","fast_food":"cafeteria"}},"geometry":{"type":"Point","coordinates":[16.3045812,58.4775047]}},{"type":"Feature","properties":{"id":1235650524,"osm_type":"way","name":"Max","category":"restaurant","tags":{"amenity":"fast_food","brand":"Max","brand:wikidata":"Q1912172","building":"yes","check_date":"2025-09-07","cuisine":"burger","drive_through":"yes","internet_access":"wlan","internet_access:fee":"no","name":"Max","opening_hours":"10:00-24:00","outdoor_seating":"yes","takeaway":"yes"}},"geometry":{"type":"Point","coordinates":[16.169436,58.6475615]}},{"type":"Feature","properties":{"id":1354205861,"osm_type":"way","name":"Matstugan Fyrkanten","category":"restaurant","tags":{"addr:city":"Norrköping","addr:housenumber":"241","addr:postcode":"603 62","addr:street":"Hagebygatan","amenity":"restaurant","building":"yes","name":"Matstugan Fyrkanten"}},"geometry":{"type":"Point","coordinates":[16.2161585,58.5671339]}},{"type":"Feature","properties":{"id":1354687604,"osm_type":"way","name":"","category":"restaurant","tags":{"amenity":"biergarten","layer":"1","man_made":"bridge","material":"wood","outdoor_seating":"veranda"}},"geometry":{"type":"Point","coordinates":[16.1806224,58.5893809]}},{"type":"Feature","properties":{"id":1355196898,"osm_type":"way","name":"","category":"restaurant","tags":{"amenity":"fast_food","building":"yes"}},"geometry":{"type":"Point","coordinates":[16.158088,58.5807969]}},{"type":"Feature","properties":{"id":1426263458,"osm_type":"way","name":"Café Jägmästargården","category":"restaurant","tags":{"amenity":"cafe","building":"yes","name":"Café Jägmästargården","outdoor_seating":"yes","website":"https://www.cafejagmastargarden.se"}},"geometry":{"type":"Point","coordinates":[16.2589466,58.4583719]}},{"type":"Feature","properties":{"id":1443570426,"osm_type":"way","name":"Sushi Yama","category":"restaurant","tags":{"amenity":"restaurant","brand":"Sushi Yama","brand:wikidata":"Q31897009","cuisine":"japanese","level":"0","name":"Sushi Yama","outdoor_seating":"no","smoking":"no","takeaway":"yes"}},"geometry":{"type":"Point","coordinates":[16.1561298,58.6181991]}},{"type":"Feature","properties":{"id":1443570427,"osm_type":"way","name":"Lindahls","category":"restaurant","tags":{"amenity":"cafe","level":"0","name":"Lindahls"}},"geometry":{"type":"Point","coordinates":[16.156271,58.6185186]}},{"type":"Feature","properties":{"id":1443570428,"osm_type":"way","name":"Lindahls","category":"restaurant","tags":{"amenity":"cafe","level":"0","name":"Lindahls"}},"geometry":{"type":"Point","coordinates":[16.1560017,58.6184122]}},{"type":"Feature","properties":{"id":1443570442,"osm_type":"way","name":"Chili & Wook","category":"restaurant","tags":{"amenity":"fast_food","level":"0","name":"Chili & Wook"}},"geometry":{"type":"Point","coordinates":[16.1574752,58.6187505]}},{"type":"Feature","properties":{"id":1443570443,"osm_type":"way","name":"Fiori","category":"restaurant","tags":{"amenity":"fast_food","level":"0","name":"Fiori"}},"geometry":{"type":"Point","coordinates":[16.1575536,58.6188224]}},{"type":"Feature","properties":{"id":1443570444,"osm_type":"way","name":"Delicious Kebab","category":"restaurant","tags":{"amenity":"fast_food","level":"0","name":"Delicious Kebab"}},"geometry":{"type":"Point","coordinates":[16.1577052,58.6188399]}},{"type":"Feature","properties":{"id":1443570445,"osm_type":"way","name":"","category":"restaurant","tags":{"amenity":"food_court","level":"0"}},"geometry":{"type":"Point","coordinates":[16.1575973,58.6188823]}},{"type":"Feature","properties":{"id":1443570449,"osm_type":"way","name":"Espresso House","category":"restaurant","tags":{"amenity":"cafe","brand":"Espresso House","brand:wikidata":"Q10489162","cuisine":"coffee_shop","level":"0","name":"Espresso House","takeaway":"yes"}},"geometry":{"type":"Point","coordinates":[16.1576915,58.6192465]}}]}