{"type":"FeatureCollection","features":[{"type":"Feature","properties":{"id":4161774209,"osm_type":"node","name":"Himmelstalundsgymnasiet","category":"school_high","tags":{"amenity":"school","name":"Himmelstalundsgymnasiet","operator":"Landstinget i Östergötland"}},"geometry":{"type":"Point","coordinates":[16.1454224,58.5851175]}},{"type":"Feature","properties":{"id":9776362682,"osm_type":"node","name":"Bråvalla gymnasium","category":"school_high","tags":{"amenity":"school","name":"Bråvalla gymnasium"}},"geometry":{"type":"Point","coordinates":[16.1241531,58.6105494]}},{"type":"Feature","properties":{"id":91904918,"osm_type":"way","name":"Ebersteinska gymnasiet","category":"school_high","tags":{"addr:city":"Norrköping","addr:country":"SE","addr:housenumber":"6","addr:street":"Linköpingsvägen","amenity":"school","building":"yes","name":"Ebersteinska gymnasiet","source":"Bing"}},"geometry":{"type":"Point","coordinates":[16.1668498,58.5865402]}},{"type":"Feature","properties":{"id":91905654,"osm_type":"way","name":"Ebersteinska gymnasiet","category":"school_high","tags":{"addr:city":"Norrköping","addr:country":"SE","addr:housenumber":"6","addr:street":"Värdshusgatan","amenity":"school","building":"yes","name":"Ebersteinska gymnasiet","source":"Bing"}},"geometry":{"type":"Point","coordinates":[16.1697773,58.5874048]}},{"type":"Feature","properties":{"id":92017184,"osm_type":"way","name":"Marielundsgymnasiet","category":"school_high","tags":{"amenity":"school","building":"school","name":"Marielundsgymnasiet"}},"geometry":{"type":"Point","coordinates":[16.1686299,58.598255]}},{"type":"Feature","properties":{"id":92464660,"osm_type":"way","name":"Kungsgårdsgymnasiet","category":"school_high","tags":{"addr:city":"Norrköping","addr:country":"SE","addr:housenumber":"86","addr:street":"Nygatan","amenity":"school","building":"yes","building:levels":"2","name":"Kungsgårdsgymnasiet","roof:shape":"hipped","wikidata":"Q10550296"}},"geometry":{"type":"Point","coordinates":[16.1884842,58.584945]}},{"type":"Feature","properties":{"id":92851224,"osm_type":"way","name":"Hagagymnasiet","category":"school_high","tags":{"addr:city":"Norrköping","addr:country":"SE","addr:housenumber":"36","addr:postcode":"602 15","addr:street":"Hagagatan","amenity":"school","name":"Hagagymnasiet","source":"Bing","wikidata":"Q16912357"}},"geometry":{"type":"Point","coordinates":[16.1619175,58.5999051]}},{"type":"Feature","properties":{"id":100850608,"osm_type":"way","name":"Kungsgårdsgymnasiet","category":"school_high","tags":{"amenity":"school","building":"yes","name":"Kungsgårdsgymnasiet"}},"geometry":{"type":"Point","coordinates":[16.1853464,58.5852745]}},{"type":"Feature","properties":{"id":1343498,"osm_type":"relation","name":"De Geergymnasiet","category":"school_high","tags":{"addr:city":"Norrköping","addr:country":"SE","addr:housenumber":"68","addr:street":"Nygatan","amenity":"school","building":"yes","name":"De Geergymnasiet","old_name":"Elementarskolan","type":"multipolygon"}},"geometry":{"type":"Point","coordinates":[16.1842398,58.5851722]}},{"type":"Feature","properties":{"id":14660375,"osm_type":"relation","name":"Kunskapsgymnasiet","category":"school_high","tags":{"addr:city":"Norrköping","addr:country":"SE","addr:housenumber":"10","addr:street":"Holmentorget","amenity":"school","building":"school","height":"0","name":"Kunskapsgymnasiet","old_name":"Bomullsspinneriet","source":"Bing","type":"multipolygon","website":"https://www.kunskapsgymnasiet.se/skolor/norrkoping"}},"geometry":{"type":"Point","coordinates":[16.1822052,58.5883776]}}]}