{"type":"FeatureCollection","features":[{"type":"Feature","properties":{"id":1354702,"osm_type":"relation","name":"Ljuraskolan","category":"school_primary","tags":{"addr:city":"Norrköping","addr:country":"SE","addr:housenumber":"29-31","addr:postcode":"603 50","addr:street":"Albrektsvägen","amenity":"school","building":"school","isced:level":"0;1","name":"Ljuraskolan","operator":"Norrköpings kommun","operator:type":"government","operator:wikidata":"Q504676","type":"multipolygon","website":"https://norrkoping.se/skola-och-forskola/grundskola/kommunala-grundskolor/ljuraskolan"}},"geometry":{"type":"Point","coordinates":[16.2002395,58.5830425]}}]}