{"type":"FeatureCollection","features":[{"type":"Feature","properties":{"id":296375510,"osm_type":"node","name":"","category":"sports_centre","tags":{"leisure":"sports_centre"}},"geometry":{"type":"Point","coordinates":[16.3169187,58.490269]}},{"type":"Feature","properties":{"id":469088758,"osm_type":"node","name":"SOK-stugan","category":"sports_centre","tags":{"leisure":"sports_centre","name":"SOK-stugan"}},"geometry":{"type":"Point","coordinates":[16.331546,58.4681084]}},{"type":"Feature","properties":{"id":1659410607,"osm_type":"node","name":"","category":"sports_centre","tags":{"leisure":"sports_centre"}},"geometry":{"type":"Point","coordinates":[16.1994401,58.5708366]}},{"type":"Feature","properties":{"id":2034326343,"osm_type":"node","name":"Saltängen BK","category":"sports_centre","tags":{"addr:city":"Norrköping","addr:country":"SE","addr:housenumber":"78","addr:postcode":"60138","addr:street":"Norra Promenaden","building":"office","leisure":"sports_centre","name":"Saltängen BK","sport":"soccer"}},"geometry":{"type":"Point","coordinates":[16.2008454,58.5994648]}},{"type":"Feature","properties":{"id":2164197881,"osm_type":"node","name":"Norrköpings Squashcenter","category":"sports_centre","tags":{"addr:city":"Norrköping","addr:country":"SE","addr:housename":"Norrköpings Squashcenter","addr:housenumber":"44","addr:postcode":"602 23","addr:street":"Fredriksdalsgatan","leisure":"sports_centre","name":"Norrköpings Squashcenter","sport":"squash","website":"https://www.squashcenter.net/"}},"geometry":{"type":"Point","coordinates":[16.177115,58.5997622]}},{"type":"Feature","properties":{"id":4253112341,"osm_type":"node","name":"Fitness24Seven","category":"sports_centre","tags":{"brand":"Fitness24Seven","brand:wikidata":"Q61112447","leisure":"fitness_centre","name":"Fitness24Seven","opening_hours":"24/7","website":"https://www.fitness24seven.com/"}},"geometry":{"type":"Point","coordinates":[16.1949337,58.5798335]}},{"type":"Feature","properties":{"id":4279960891,"osm_type":"node","name":"WorldClass","category":"sports_centre","tags":{"check_date:opening_hours":"2024-05-09","leisure":"fitness_centre","name":"WorldClass","opening_hours":"Mo-Th 06:00-21:00; Fr 06:00-20:00; Sa 08:00-17:00; Su 09:00-18:00"}},"geometry":{"type":"Point","coordinates":[16.19103,58.5877443]}},{"type":"Feature","properties":{"id":4280018089,"osm_type":"node","name":"Friskis & Svettis","category":"sports_centre","tags":{"brand":"Friskis & Svettis","brand:wikidata":"Q1796631","leisure":"fitness_centre","name":"Friskis & Svettis","opening_hours":"Mo-Su 04:00-23:00"}},"geometry":{"type":"Point","coordinates":[16.1686256,58.6085637]}},{"type":"Feature","properties":{"id":5403260571,"osm_type":"node","name":"","category":"sports_centre","tags":{"leisure":"fitness_station","sport":"fitness","wikidata":"Q107718129"}},"geometry":{"type":"Point","coordinates":[16.1943177,58.5819161]}},{"type":"Feature","properties":{"id":5673269239,"osm_type":"node","name":"","category":"sports_centre","tags":{"leisure":"fitness_station","sport":"fitness","wikidata":"Q107419999"}},"geometry":{"type":"Point","coordinates":[16.3316726,58.4677583]}},{"type":"Feature","properties":{"id":6628771865,"osm_type":"node","name":"Vilbergen Bowling Center","category":"sports_centre","tags":{"leisure":"sports_centre","name":"Vilbergen Bowling Center","sport":"10pin"}},"geometry":{"type":"Point","coordinates":[16.1699558,58.5708186]}},{"type":"Feature","properties":{"id":7809455773,"osm_type":"node","name":"Vrinnevi utegym","category":"sports_centre","tags":{"leisure":"fitness_station","name":"Vrinnevi utegym","sport":"fitness","website":"https://www.naturkartan.se/sv/ostergotlands-lan/vrinnevi-hinderbana","wikidata":"Q107407416"}},"geometry":{"type":"Point","coordinates":[16.1899596,58.5675724]}},{"type":"Feature","properties":{"id":7886965360,"osm_type":"node","name":"My reformer pilates","category":"sports_centre","tags":{"leisure":"sports_centre","name":"My reformer pilates"}},"geometry":{"type":"Point","coordinates":[16.1615619,58.6034245]}},{"type":"Feature","properties":{"id":7886965363,"osm_type":"node","name":"Comet Gym","category":"sports_centre","tags":{"addr:country":"SE","addr:housenumber":"24","addr:street":"Norralundsgatan","leisure":"fitness_centre","name":"Comet Gym","website":"https://cometgym.se/"}},"geometry":{"type":"Point","coordinates":[16.1584406,58.6002399]}},{"type":"Feature","properties":{"id":8024946214,"osm_type":"node","name":"SATS","category":"sports_centre","tags":{"branch":"Norrköping","brand":"Sats","brand:wikidata":"Q4411496","brand:wikipedia":"sv:Sats (företag)","leisure":"fitness_centre","name":"SATS","opening_hours":"Mo-Su 05:00-21:00","ref:sats":"594","website":"https://www.sats.se/gym/ovriga-sverige/sats-norrkoping/","wheelchair":"yes"}},"geometry":{"type":"Point","coordinates":[16.190792,58.5918002]}},{"type":"Feature","properties":{"id":9238063656,"osm_type":"node","name":"Friskis & Svettis","category":"sports_centre","tags":{"addr:city":"Norrköping","addr:country":"SE","addr:housenumber":"110","addr:street":"S:t Persgatan","brand":"Friskis & Svettis","brand:wikidata":"Q1796631","leisure":"fitness_centre","name":"Friskis & Svettis","opening_hours":"Mo-Th 06:00-21:00; Fr 06:00-19:00; Sa 09:00-15:00; Su 15:00-20:00","sport":"fitness","website":"https://www.friskissvettis.se/norrkoping/"}},"geometry":{"type":"Point","coordinates":[16.1914245,58.5863571]}},{"type":"Feature","properties":{"id":10578799556,"osm_type":"node","name":"STC","category":"sports_centre","tags":{"brand":"STC","brand:wikidata":"Q124061743","leisure":"fitness_centre","name":"STC","opening_hours":"24/7"}},"geometry":{"type":"Point","coordinates":[16.1876835,58.5875811]}},{"type":"Feature","properties":{"id":13013513730,"osm_type":"node","name":"Fitness24Seven","category":"sports_centre","tags":{"brand":"Fitness24Seven","brand:wikidata":"Q61112447","check_date":"2025-07-20","leisure":"fitness_centre","name":"Fitness24Seven"}},"geometry":{"type":"Point","coordinates":[16.189035,58.5879669]}},{"type":"Feature","properties":{"id":13050192970,"osm_type":"node","name":"","category":"sports_centre","tags":{"leisure":"fitness_station","sport":"fitness"}},"geometry":{"type":"Point","coordinates":[16.1679626,58.5913607]}},{"type":"Feature","properties":{"id":13065446515,"osm_type":"node","name":"","category":"sports_centre","tags":{"leisure":"sports_centre","sport":"climbing_adventure"}},"geometry":{"type":"Point","coordinates":[16.1568575,58.6078025]}},{"type":"Feature","properties":{"id":13263794315,"osm_type":"node","name":"Norrköping Cirkus och Varieté","category":"sports_centre","tags":{"leisure":"sports_centre","name":"Norrköping Cirkus och Varieté"}},"geometry":{"type":"Point","coordinates":[16.1507532,58.6151854]}},{"type":"Feature","properties":{"id":13263794316,"osm_type":"node","name":"Norrköpings Skatehall","category":"sports_centre","tags":{"leisure":"sports_centre","name":"Norrköpings Skatehall","operator":"Aktiv Ungdom Norrköping"}},"geometry":{"type":"Point","coordinates":[16.1506895,58.6149016]}},{"type":"Feature","properties":{"id":13335447635,"osm_type":"node","name":"","category":"sports_centre","tags":{"leisure":"fitness_station","sport":"fitness"}},"geometry":{"type":"Point","coordinates":[16.1634309,58.6063531]}},{"type":"Feature","properties":{"id":13686969111,"osm_type":"node","name":"Nordic Wellness","category":"sports_centre","tags":{"addr:city":"Norrköping","addr:country":"SE","addr:housenumber":"30","addr:postcode":"602 23","addr:street":"Koppargatan","brand":"Nordic Wellness","brand:wikidata":"Q60970249","leisure":"fitness_centre","name":"Nordic Wellness","opening_hours":"Mo-Fr 05:00-22:00; Sa-Su 05:00-20:00","website":"https://nordicwellness.se/klubbar/gym-i-norrkoping/norrkoping-ingelsta/"}},"geometry":{"type":"Point","coordinates":[16.1565809,58.6228871]}},{"type":"Feature","properties":{"id":24676852,"osm_type":"way","name":"Bollspelaren","category":"sports_centre","tags":{"leisure":"sports_centre","name":"Bollspelaren","sport":"soccer","wikidata":"Q10432609"}},"geometry":{"type":"Point","coordinates":[16.1776952,58.6006362]}},{"type":"Feature","properties":{"id":40925437,"osm_type":"way","name":"Vikingavallen","category":"sports_centre","tags":{"leisure":"sports_centre","name":"Vikingavallen"}},"geometry":{"type":"Point","coordinates":[16.3255308,58.4759569]}},{"type":"Feature","properties":{"id":60002615,"osm_type":"way","name":"Loddby idrottsplats","category":"sports_centre","tags":{"leisure":"sports_centre","name":"Loddby idrottsplats","short_name":"Loddby IP","sport":"soccer"}},"geometry":{"type":"Point","coordinates":[16.1731413,58.6386658]}},{"type":"Feature","properties":{"id":61000374,"osm_type":"way","name":"Åby Tennisklubb","category":"sports_centre","tags":{"leisure":"sports_centre","name":"Åby Tennisklubb","sport":"tennis"}},"geometry":{"type":"Point","coordinates":[16.1713721,58.6584252]}},{"type":"Feature","properties":{"id":69559243,"osm_type":"way","name":"","category":"sports_centre","tags":{"leisure":"swimming_pool","source":"survey"}},"geometry":{"type":"Point","coordinates":[16.2924747,58.6666746]}},{"type":"Feature","properties":{"id":87398826,"osm_type":"way","name":"Medley Centralbadet","category":"sports_centre","tags":{"addr:city":"Norrköping","addr:country":"SE","addr:housenumber":"19","addr:postcode":"603 50","addr:street":"Albrektsvägen","building":"yes","leisure":"sports_centre","name":"Medley Centralbadet","source":"Bing","sport":"swimming"}},"geometry":{"type":"Point","coordinates":[16.2026214,58.5843313]}},{"type":"Feature","properties":{"id":87399495,"osm_type":"way","name":"Racketstadion","category":"sports_centre","tags":{"building":"yes","leisure":"sports_centre","name":"Racketstadion","source":"Bing","sport":"tennis"}},"geometry":{"type":"Point","coordinates":[16.1364088,58.5888941]}},{"type":"Feature","properties":{"id":88598844,"osm_type":"way","name":"plaskdamm","category":"sports_centre","tags":{"leisure":"swimming_pool","name":"plaskdamm","source:lake":"Review using LM Topographic Map"}},"geometry":{"type":"Point","coordinates":[16.1949598,58.5837016]}},{"type":"Feature","properties":{"id":88741174,"osm_type":"way","name":"Linghallen","category":"sports_centre","tags":{"addr:city":"Norrköping","addr:country":"SE","addr:housenumber":"74","addr:street":"Södra Promenaden","building":"yes","leisure":"sports_centre","name":"Linghallen"}},"geometry":{"type":"Point","coordinates":[16.184024,58.5844907]}},{"type":"Feature","properties":{"id":90106172,"osm_type":"way","name":"Himmelstalundshallen","category":"sports_centre","tags":{"addr:street":"Vattenverksvägen","building":"yes","leisure":"sports_centre","name":"Himmelstalundshallen","source":"Bing","sport":"ice_skating","wikidata":"Q3308214"}},"geometry":{"type":"Point","coordinates":[16.1401093,58.5877368]}},{"type":"Feature","properties":{"id":90110656,"osm_type":"way","name":"Curlinghallen","category":"sports_centre","tags":{"building":"yes","leisure":"sports_centre","name":"Curlinghallen"}},"geometry":{"type":"Point","coordinates":[16.1386405,58.5878941]}},{"type":"Feature","properties":{"id":90113990,"osm_type":"way","name":"Himmelstalundsbadet","category":"sports_centre","tags":{"leisure":"swimming_pool","name":"Himmelstalundsbadet","phone":"+46 11 15 29 59","source":"Bing","sport":"swimming"}},"geometry":{"type":"Point","coordinates":[16.151143,58.5893715]}},{"type":"Feature","properties":{"id":91356681,"osm_type":"way","name":"","category":"sports_centre","tags":{"intermittent":"no","leisure":"swimming_pool"}},"geometry":{"type":"Point","coordinates":[16.2029134,58.5836429]}},{"type":"Feature","properties":{"id":91356682,"osm_type":"way","name":"","category":"sports_centre","tags":{"intermittent":"no","leisure":"swimming_pool"}},"geometry":{"type":"Point","coordinates":[16.2036873,58.5837437]}},{"type":"Feature","properties":{"id":91644267,"osm_type":"way","name":"Ektorpshallen","category":"sports_centre","tags":{"leisure":"sports_centre","name":"Ektorpshallen"}},"geometry":{"type":"Point","coordinates":[16.1696434,58.5759103]}},{"type":"Feature","properties":{"id":91908192,"osm_type":"way","name":"Teknikhallen","category":"sports_centre","tags":{"building":"yes","height":"15","leisure":"sports_centre","name":"Teknikhallen","roof:height":"2","roof:shape":"skillion","sport":"soccer"}},"geometry":{"type":"Point","coordinates":[16.1732794,58.5852711]}},{"type":"Feature","properties":{"id":91908705,"osm_type":"way","name":"Gamla tennishallen","category":"sports_centre","tags":{"building":"yes","leisure":"sports_centre","name":"Gamla tennishallen","sport":"tennis"}},"geometry":{"type":"Point","coordinates":[16.1720105,58.5854045]}},{"type":"Feature","properties":{"id":92197513,"osm_type":"way","name":"Borgsmo idrottsplats","category":"sports_centre","tags":{"leisure":"sports_centre","name":"Borgsmo idrottsplats","short_name":"Borgsmo IP","sport":"athletics"}},"geometry":{"type":"Point","coordinates":[16.1404609,58.5724553]}},{"type":"Feature","properties":{"id":92483630,"osm_type":"way","name":"Källvindsskolans gymnastikhall","category":"sports_centre","tags":{"addr:city":"Norrköping","addr:country":"SE","addr:housenumber":"38","addr:street":"Nygatan","building":"yes","leisure":"sports_centre","name":"Källvindsskolans gymnastikhall"}},"geometry":{"type":"Point","coordinates":[16.1764269,58.5859681]}},{"type":"Feature","properties":{"id":92968800,"osm_type":"way","name":"Gamla gymnastikhuset","category":"sports_centre","tags":{"addr:city":"Norrköping","addr:country":"SE","addr:housenumber":"63","addr:street":"Nygatan","building":"yes","leisure":"sports_centre","name":"Gamla gymnastikhuset"}},"geometry":{"type":"Point","coordinates":[16.1833431,58.5860067]}},{"type":"Feature","properties":{"id":95506887,"osm_type":"way","name":"Norco-hallen","category":"sports_centre","tags":{"addr:city":"Norrköping","addr:country":"SE","addr:housenumber":"26","addr:street":"Moa Martinsons gata","building":"yes","leisure":"sports_centre","name":"Norco-hallen","sport":"table_tennis"}},"geometry":{"type":"Point","coordinates":[16.1237574,58.578902]}},{"type":"Feature","properties":{"id":173465878,"osm_type":"way","name":"Himmelstalundsbadet unvervisningsbasängen","category":"sports_centre","tags":{"leisure":"swimming_pool","name":"Himmelstalundsbadet unvervisningsbasängen","phone":"+46 11 15 29 59","source":"Bing","sport":"swimming"}},"geometry":{"type":"Point","coordinates":[16.1509035,58.5891174]}},{"type":"Feature","properties":{"id":255828218,"osm_type":"way","name":"City Gross Arena","category":"sports_centre","tags":{"addr:city":"Norrköping","addr:country":"SE","addr:housenumber":"3","addr:postcode":"600 07","addr:street":"Slörgatan","building":"yes","leisure":"sports_centre","name":"City Gross Arena","source":"Bing","sport":"soccer"}},"geometry":{"type":"Point","coordinates":[16.2567387,58.5994589]}},{"type":"Feature","properties":{"id":262563277,"osm_type":"way","name":"Åby Arena","category":"sports_centre","tags":{"building":"yes","leisure":"sports_centre","name":"Åby Arena"}},"geometry":{"type":"Point","coordinates":[16.1757495,58.6622598]}},{"type":"Feature","properties":{"id":285081603,"osm_type":"way","name":"","category":"sports_centre","tags":{"leisure":"sports_centre"}},"geometry":{"type":"Point","coordinates":[16.1728561,58.5837006]}},{"type":"Feature","properties":{"id":312134950,"osm_type":"way","name":"PreZero Arena","category":"sports_centre","tags":{"leisure":"sports_centre","name":"PreZero Arena","operator":"Smedby AIS","sport":"soccer"}},"geometry":{"type":"Point","coordinates":[16.2321547,58.5779757]}},{"type":"Feature","properties":{"id":431521917,"osm_type":"way","name":"","category":"sports_centre","tags":{"building":"yes","leisure":"sports_centre","sport":"equestrian"}},"geometry":{"type":"Point","coordinates":[16.2084872,58.4970732]}},{"type":"Feature","properties":{"id":454967483,"osm_type":"way","name":"Yxbacken","category":"sports_centre","tags":{"landuse":"winter_sports","leisure":"sports_centre","name":"Yxbacken","site":"winter_sports"}},"geometry":{"type":"Point","coordinates":[16.1361877,58.6690045]}},{"type":"Feature","properties":{"id":456681749,"osm_type":"way","name":"","category":"sports_centre","tags":{"access":"private","leisure":"swimming_pool"}},"geometry":{"type":"Point","coordinates":[16.2764513,58.5043168]}},{"type":"Feature","properties":{"id":456821371,"osm_type":"way","name":"","category":"sports_centre","tags":{"access":"private","leisure":"swimming_pool"}},"geometry":{"type":"Point","coordinates":[16.2736386,58.5398196]}},{"type":"Feature","properties":{"id":456978208,"osm_type":"way","name":"","category":"sports_centre","tags":{"access":"private","leisure":"swimming_pool"}},"geometry":{"type":"Point","coordinates":[16.2790424,58.5349226]}},{"type":"Feature","properties":{"id":461964744,"osm_type":"way","name":"","category":"sports_centre","tags":{"access":"private","leisure":"swimming_pool"}},"geometry":{"type":"Point","coordinates":[16.2115955,58.5212504]}},{"type":"Feature","properties":{"id":462215147,"osm_type":"way","name":"","category":"sports_centre","tags":{"access":"private","leisure":"swimming_pool"}},"geometry":{"type":"Point","coordinates":[16.1860817,58.518261]}},{"type":"Feature","properties":{"id":462643340,"osm_type":"way","name":"","category":"sports_centre","tags":{"access":"private","leisure":"swimming_pool"}},"geometry":{"type":"Point","coordinates":[16.2825266,58.5159534]}},{"type":"Feature","properties":{"id":462645249,"osm_type":"way","name":"","category":"sports_centre","tags":{"access":"private","leisure":"swimming_pool"}},"geometry":{"type":"Point","coordinates":[16.2852703,58.52093]}},{"type":"Feature","properties":{"id":464769425,"osm_type":"way","name":"","category":"sports_centre","tags":{"access":"private","leisure":"swimming_pool"}},"geometry":{"type":"Point","coordinates":[16.1873838,58.5377788]}},{"type":"Feature","properties":{"id":467443640,"osm_type":"way","name":"","category":"sports_centre","tags":{"access":"private","leisure":"swimming_pool"}},"geometry":{"type":"Point","coordinates":[16.2434404,58.5432375]}},{"type":"Feature","properties":{"id":530899487,"osm_type":"way","name":"Maxihallen","category":"sports_centre","tags":{"building":"yes","leisure":"sports_centre","name":"Maxihallen","sport":"soccer"}},"geometry":{"type":"Point","coordinates":[16.1240247,58.6136089]}},{"type":"Feature","properties":{"id":544762557,"osm_type":"way","name":"","category":"sports_centre","tags":{"leisure":"swimming_pool"}},"geometry":{"type":"Point","coordinates":[16.3278151,58.4735022]}},{"type":"Feature","properties":{"id":544762558,"osm_type":"way","name":"","category":"sports_centre","tags":{"leisure":"swimming_pool"}},"geometry":{"type":"Point","coordinates":[16.3286144,58.473386]}},{"type":"Feature","properties":{"id":544762559,"osm_type":"way","name":"","category":"sports_centre","tags":{"leisure":"swimming_pool"}},"geometry":{"type":"Point","coordinates":[16.3284104,58.4732579]}},{"type":"Feature","properties":{"id":697609619,"osm_type":"way","name":"","category":"sports_centre","tags":{"intermittent":"no","leisure":"swimming_pool"}},"geometry":{"type":"Point","coordinates":[16.2041333,58.5839608]}},{"type":"Feature","properties":{"id":804923714,"osm_type":"way","name":"","category":"sports_centre","tags":{"leisure":"sports_centre"}},"geometry":{"type":"Point","coordinates":[16.1373353,58.5856037]}},{"type":"Feature","properties":{"id":846387635,"osm_type":"way","name":"Sandbyhovshallen","category":"sports_centre","tags":{"building":"yes","leisure":"sports_centre","name":"Sandbyhovshallen"}},"geometry":{"type":"Point","coordinates":[16.1643143,58.6056762]}},{"type":"Feature","properties":{"id":886572281,"osm_type":"way","name":"","category":"sports_centre","tags":{"access":"private","leisure":"swimming_pool"}},"geometry":{"type":"Point","coordinates":[16.1720446,58.4960164]}},{"type":"Feature","properties":{"id":928160353,"osm_type":"way","name":"Actic","category":"sports_centre","tags":{"addr:city":"Norrköping","addr:country":"SE","addr:housenumber":"7","addr:postcode":"602 32","addr:street":"Dalsgatan","building":"yes","leisure":"fitness_centre","name":"Actic","sport":"fitness","website":"https://www.actic.se/hitta-gym/gym-i-norrkoping/norrkoping-city/"}},"geometry":{"type":"Point","coordinates":[16.1843576,58.5870675]}},{"type":"Feature","properties":{"id":1000806498,"osm_type":"way","name":"","category":"sports_centre","tags":{"fitness_station":"yes","leisure":"fitness_station","lit":"yes","sport":"fitness"}},"geometry":{"type":"Point","coordinates":[16.1831454,58.5838716]}},{"type":"Feature","properties":{"id":1086052320,"osm_type":"way","name":"","category":"sports_centre","tags":{"leisure":"swimming_pool"}},"geometry":{"type":"Point","coordinates":[16.2446946,58.6022229]}},{"type":"Feature","properties":{"id":1086052965,"osm_type":"way","name":"","category":"sports_centre","tags":{"leisure":"swimming_pool"}},"geometry":{"type":"Point","coordinates":[16.2398951,58.6058242]}},{"type":"Feature","properties":{"id":1086054615,"osm_type":"way","name":"","category":"sports_centre","tags":{"leisure":"swimming_pool"}},"geometry":{"type":"Point","coordinates":[16.2625157,58.6033365]}},{"type":"Feature","properties":{"id":1086237482,"osm_type":"way","name":"","category":"sports_centre","tags":{"leisure":"swimming_pool"}},"geometry":{"type":"Point","coordinates":[16.2495934,58.6066128]}},{"type":"Feature","properties":{"id":1086237483,"osm_type":"way","name":"","category":"sports_centre","tags":{"leisure":"swimming_pool"}},"geometry":{"type":"Point","coordinates":[16.2502804,58.6066617]}},{"type":"Feature","properties":{"id":1086237484,"osm_type":"way","name":"","category":"sports_centre","tags":{"leisure":"swimming_pool"}},"geometry":{"type":"Point","coordinates":[16.2500081,58.6064338]}},{"type":"Feature","properties":{"id":1100724743,"osm_type":"way","name":"","category":"sports_centre","tags":{"leisure":"swimming_pool"}},"geometry":{"type":"Point","coordinates":[16.202318,58.5838851]}},{"type":"Feature","properties":{"id":1105376238,"osm_type":"way","name":"","category":"sports_centre","tags":{"fitness_station":"fitness_station","leisure":"fitness_station","sport":"fitness"}},"geometry":{"type":"Point","coordinates":[16.1491496,58.5873358]}},{"type":"Feature","properties":{"id":1105376692,"osm_type":"way","name":"","category":"sports_centre","tags":{"fitness_station":"yes","leisure":"fitness_station","sport":"parkour"}},"geometry":{"type":"Point","coordinates":[16.1494446,58.5866594]}},{"type":"Feature","properties":{"id":1123969902,"osm_type":"way","name":"Monnes idrottsplats","category":"sports_centre","tags":{"leisure":"sports_centre","name":"Monnes idrottsplats","short_name":"Monnes IP","sport":"soccer"}},"geometry":{"type":"Point","coordinates":[16.1255799,58.6108635]}},{"type":"Feature","properties":{"id":1198265203,"osm_type":"way","name":"","category":"sports_centre","tags":{"leisure":"ice_rink","sport":"ice_skating;ice_hockey"}},"geometry":{"type":"Point","coordinates":[16.3120058,58.5850451]}},{"type":"Feature","properties":{"id":1200593370,"osm_type":"way","name":"","category":"sports_centre","tags":{"access":"yes","leisure":"swimming_pool","location":"outdoor","swimming_pool":"outdoor"}},"geometry":{"type":"Point","coordinates":[16.20059,58.5947336]}},{"type":"Feature","properties":{"id":1216510710,"osm_type":"way","name":"Eneby B-hall","category":"sports_centre","tags":{"building":"yes","leisure":"sports_centre","name":"Eneby B-hall"}},"geometry":{"type":"Point","coordinates":[16.1456741,58.6051163]}},{"type":"Feature","properties":{"id":1361973891,"osm_type":"way","name":"","category":"sports_centre","tags":{"leisure":"swimming_pool"}},"geometry":{"type":"Point","coordinates":[16.3394582,58.474737]}},{"type":"Feature","properties":{"id":1361973893,"osm_type":"way","name":"","category":"sports_centre","tags":{"leisure":"swimming_pool"}},"geometry":{"type":"Point","coordinates":[16.339539,58.4748971]}},{"type":"Feature","properties":{"id":1432003519,"osm_type":"way","name":"","category":"sports_centre","tags":{"leisure":"fitness_station","lit":"yes","sport":"fitness"}},"geometry":{"type":"Point","coordinates":[16.2660013,58.6085451]}},{"type":"Feature","properties":{"id":1451332534,"osm_type":"way","name":"","category":"sports_centre","tags":{"leisure":"swimming_pool","swimming_pool":"personal"}},"geometry":{"type":"Point","coordinates":[16.1586496,58.6022763]}},{"type":"Feature","properties":{"id":1451332535,"osm_type":"way","name":"","category":"sports_centre","tags":{"leisure":"swimming_pool","swimming_pool":"personal"}},"geometry":{"type":"Point","coordinates":[16.1582007,58.6023975]}},{"type":"Feature","properties":{"id":1451740967,"osm_type":"way","name":"Rasphusplan","category":"sports_centre","tags":{"leisure":"sports_centre","name":"Rasphusplan","sport":"climbing_adventure"}},"geometry":{"type":"Point","coordinates":[16.1999555,58.5957236]}},{"type":"Feature","properties":{"id":1491637849,"osm_type":"way","name":"","category":"sports_centre","tags":{"leisure":"fitness_station","sport":"fitness"}},"geometry":{"type":"Point","coordinates":[16.2612164,58.6699606]}},{"type":"Feature","properties":{"id":1525504469,"osm_type":"way","name":"","category":"sports_centre","tags":{"access":"private","leisure":"swimming_pool"}},"geometry":{"type":"Point","coordinates":[16.0921087,58.5873645]}},{"type":"Feature","properties":{"id":1526468304,"osm_type":"way","name":"","category":"sports_centre","tags":{"leisure":"swimming_pool"}},"geometry":{"type":"Point","coordinates":[16.1249291,58.6156255]}},{"type":"Feature","properties":{"id":1526468305,"osm_type":"way","name":"","category":"sports_centre","tags":{"leisure":"swimming_pool"}},"geometry":{"type":"Point","coordinates":[16.1247095,58.6158995]}},{"type":"Feature","properties":{"id":1526468307,"osm_type":"way","name":"","category":"sports_centre","tags":{"leisure":"swimming_pool"}},"geometry":{"type":"Point","coordinates":[16.1250544,58.6154303]}},{"type":"Feature","properties":{"id":915915,"osm_type":"relation","name":"Åby Idrottsplats","category":"sports_centre","tags":{"leisure":"sports_centre","name":"Åby Idrottsplats","type":"multipolygon"}},"geometry":{"type":"Point","coordinates":[16.1692059,58.6684111]}},{"type":"Feature","properties":{"id":6728061,"osm_type":"relation","name":"Yxbacken","category":"sports_centre","tags":{"landuse":"winter_sports","leisure":"sports_centre","name":"Yxbacken","type":"multipolygon"}},"geometry":{"type":"Point","coordinates":[16.1387855,58.6681337]}}]}