{"type":"FeatureCollection","features":[{"type":"Feature","properties":{"id":40439771,"osm_type":"way","name":"Raceland Gokart","category":"stadium","tags":{"leisure":"stadium","name":"Raceland Gokart","sport":"karting"}},"geometry":{"type":"Point","coordinates":[16.235464,58.5928072]}},{"type":"Feature","properties":{"id":94087574,"osm_type":"way","name":"Stadium Arena","category":"stadium","tags":{"addr:city":"Norrköping","addr:country":"SE","addr:housenumber":"11","addr:postcode":"602 36","addr:street":"Utställningsvägen","building":"yes","leisure":"stadium","name":"Stadium Arena","sport":"multi","website":"http://www.stadiumarena.se/","wikidata":"Q10677127"}},"geometry":{"type":"Point","coordinates":[16.1435749,58.5871491]}},{"type":"Feature","properties":{"id":94135379,"osm_type":"way","name":"Kråkvilan","category":"stadium","tags":{"leisure":"stadium","name":"Kråkvilan","sport":"motor","surface":"gravel"}},"geometry":{"type":"Point","coordinates":[16.243423,58.5939397]}},{"type":"Feature","properties":{"id":1250293709,"osm_type":"way","name":"","category":"stadium","tags":{"leisure":"stadium","sport":"karting"}},"geometry":{"type":"Point","coordinates":[16.1358127,58.5926614]}},{"type":"Feature","properties":{"id":1440621,"osm_type":"relation","name":"PlatinumCars Arena","category":"stadium","tags":{"building":"yes","height":"1;12","leisure":"stadium","name":"PlatinumCars Arena","old_name":"Idrottsparken","roof:colour":"grey","roof:height":"11","roof:material":"concrete","roof:shape":"skillion","sport":"soccer","type":"multipolygon","wikidata":"Q571624","wikipedia":"sv:Platinumcars Arena"}},"geometry":{"type":"Point","coordinates":[16.1729591,58.5843132]}}]}