{"type":"FeatureCollection","features":[{"type":"Feature","properties":{"id":289051351,"osm_type":"node","name":"Stora teatern","category":"theatre","tags":{"amenity":"theatre","check_date":"2024-06-04","name":"Stora teatern","operator":"Östgötateatern","wikidata":"Q18332964"}},"geometry":{"type":"Point","coordinates":[16.1820996,58.5941011]}},{"type":"Feature","properties":{"id":423815857,"osm_type":"node","name":"X-Scenen","category":"theatre","tags":{"addr:city":"Norrköping","addr:country":"SE","addr:housenumber":"11","addr:street":"Repslagaregatan","amenity":"theatre","name":"X-Scenen","operator":"Östgötateatern"}},"geometry":{"type":"Point","coordinates":[16.1894549,58.5888975]}},{"type":"Feature","properties":{"id":441305612,"osm_type":"node","name":"Filmstaden","category":"theatre","tags":{"addr:city":"Norrköping","addr:country":"SE","addr:housenumber":"56","addr:postcode":"602 32","addr:street":"Drottninggatan","amenity":"cinema","name":"Filmstaden","opening_hours":"Mo-Th 14:00-21:00; Fr 14:00-22:30; Sa 11:30-22:30; Su 11:30-21:00","wikidata":"Q93773123"}},"geometry":{"type":"Point","coordinates":[16.1883239,58.5870659]}},{"type":"Feature","properties":{"id":441305651,"osm_type":"node","name":"Harlekinen","category":"theatre","tags":{"amenity":"cinema","name":"Harlekinen"}},"geometry":{"type":"Point","coordinates":[16.1904901,58.5828108]}},{"type":"Feature","properties":{"id":498412105,"osm_type":"node","name":"Salong Ramunder","category":"theatre","tags":{"amenity":"cinema","name":"Salong Ramunder","wikidata":"Q108693186"}},"geometry":{"type":"Point","coordinates":[16.3276015,58.4751408]}},{"type":"Feature","properties":{"id":1313266553,"osm_type":"node","name":"VR Dome Theatre","category":"theatre","tags":{"amenity":"cinema","name":"VR Dome Theatre"}},"geometry":{"type":"Point","coordinates":[16.17672,58.5890109]}},{"type":"Feature","properties":{"id":1631483813,"osm_type":"node","name":"Cnema","category":"theatre","tags":{"amenity":"cinema","name":"Cnema","wikidata":"Q108681428"}},"geometry":{"type":"Point","coordinates":[16.177331,58.588878]}},{"type":"Feature","properties":{"id":2350619084,"osm_type":"node","name":"Dynamo","category":"theatre","tags":{"addr:city":"Norrköping","addr:country":"SE","amenity":"theatre","check_date":"2024-08-17","name":"Dynamo"}},"geometry":{"type":"Point","coordinates":[16.1778534,58.5933017]}},{"type":"Feature","properties":{"id":7920347388,"osm_type":"node","name":"Lilla teatern","category":"theatre","tags":{"addr:country":"SE","addr:housenumber":"108","addr:street":"Norra Promenaden","amenity":"theatre","name":"Lilla teatern","website":"http://www.lillateatern.se/"}},"geometry":{"type":"Point","coordinates":[16.1723863,58.5946763]}},{"type":"Feature","properties":{"id":11189038263,"osm_type":"node","name":"Teater Bråddgatan 34","category":"theatre","tags":{"addr:country":"SE","addr:housenumber":"34","addr:street":"Bråddgatan","amenity":"theatre","name":"Teater Bråddgatan 34","operator":"Kulturkvarteret Hallarna"}},"geometry":{"type":"Point","coordinates":[16.1782256,58.5932142]}},{"type":"Feature","properties":{"id":13247389180,"osm_type":"node","name":"Norrköpings symfoniorkester","category":"theatre","tags":{"amenity":"theatre","name":"Norrköpings symfoniorkester","operator":"Scenkonst Öst"}},"geometry":{"type":"Point","coordinates":[16.1840505,58.5880405]}},{"type":"Feature","properties":{"id":88598847,"osm_type":"way","name":"Norrköpings konstmuseum","category":"theatre","tags":{"addr:city":"Norrköping","addr:country":"SE","addr:housenumber":"6","addr:postcode":"602 34","addr:street":"Kristinaplatsen","amenity":"arts_centre","building":"yes","name":"Norrköpings konstmuseum","wikidata":"Q10602801","wikipedia":"sv:Norrköpings konstmuseum"}},"geometry":{"type":"Point","coordinates":[16.1908471,58.5828998]}},{"type":"Feature","properties":{"id":104666504,"osm_type":"way","name":"Louis De Geer Konsert & Kongress","category":"theatre","tags":{"addr:city":"Norrköping","addr:country":"SE","addr:housenumber":"15","addr:street":"Dalsgatan","amenity":"theatre","building":"yes","name":"Louis De Geer Konsert & Kongress","source":"Bing","theatre:type":"concert_hall","website":"https://louisdegeer.se/","wikidata":"Q6688438","wikipedia":"sv:Louis De Geer (konserthus)"}},"geometry":{"type":"Point","coordinates":[16.1838168,58.5881716]}},{"type":"Feature","properties":{"id":467193513,"osm_type":"way","name":"","category":"theatre","tags":{"amenity":"theatre","building":"yes"}},"geometry":{"type":"Point","coordinates":[16.1999084,58.5319157]}},{"type":"Feature","properties":{"id":1207571359,"osm_type":"way","name":"Kulturkvarteret Hallarna","category":"theatre","tags":{"addr:city":"Norrköping","addr:housenumber":"37","addr:postcode":"602 21","addr:street":"Tunnbindaregatan","amenity":"arts_centre","email":"info@kulturkvarterethallarna.se","mobile":"076 871 14 74","name":"Kulturkvarteret Hallarna","phone":"011-102694","website":"https://www.kulturkvarterethallarna.se/","wikidata":"Q107189478","wikipedia":"sv:Hallarna, Norrköping"}},"geometry":{"type":"Point","coordinates":[16.1780047,58.5935043]}}]}