{"type":"FeatureCollection","features":[{"type":"Feature","properties":{"id":2578318491,"osm_type":"node","name":"Demola East Sweden","category":"university","tags":{"amenity":"university","name":"Demola East Sweden"}},"geometry":{"type":"Point","coordinates":[16.1811143,58.5887451]}},{"type":"Feature","properties":{"id":93324301,"osm_type":"way","name":"","category":"university","tags":{"alt_name":"Kopparhammaren 7","amenity":"university","building":"yes","building:levels":"3","source":"Bing"}},"geometry":{"type":"Point","coordinates":[16.1772009,58.5886971]}},{"type":"Feature","properties":{"id":98012740,"osm_type":"way","name":"Campus Norrköping, Spetsen","category":"university","tags":{"amenity":"university","building":"yes","height":"0","name":"Campus Norrköping, Spetsen","old_name":"Spetsen"}},"geometry":{"type":"Point","coordinates":[16.1775907,58.5903688]}},{"type":"Feature","properties":{"id":285472245,"osm_type":"way","name":"Campus Norrköping, Kopparhammaren","category":"university","tags":{"alt_name":"Kopparhammaren 2","amenity":"university","building":"yes","name":"Campus Norrköping, Kopparhammaren"}},"geometry":{"type":"Point","coordinates":[16.1763835,58.588736]}},{"type":"Feature","properties":{"id":285472247,"osm_type":"way","name":"Norra Grytsgatan","category":"university","tags":{"alt_name":"Kopparhammaren 2","amenity":"university","building":"yes","height":"0","name":"Norra Grytsgatan"}},"geometry":{"type":"Point","coordinates":[16.1757454,58.5887654]}},{"type":"Feature","properties":{"id":285480330,"osm_type":"way","name":"","category":"university","tags":{"addr:city":"Norrköping","addr:country":"SE","addr:housenumber":"54","addr:street":"Kungsgatan","alt_name":"Kopparhammaren 6","amenity":"university","building":"yes"}},"geometry":{"type":"Point","coordinates":[16.1774142,58.5891474]}},{"type":"Feature","properties":{"id":285555288,"osm_type":"way","name":"Campus Norrköping, Kåkenhus","category":"university","tags":{"alt_name":"Kåkenhus","amenity":"university","building":"yes","height":"0","name":"Campus Norrköping, Kåkenhus","old_name":"Kåkenhus"}},"geometry":{"type":"Point","coordinates":[16.1768714,58.5899085]}},{"type":"Feature","properties":{"id":1405741,"osm_type":"relation","name":"Campus Norrköping, Täppan","category":"university","tags":{"amenity":"university","building":"yes","name":"Campus Norrköping, Täppan","old_name":"Täppan","type":"multipolygon"}},"geometry":{"type":"Point","coordinates":[16.1761522,58.5904531]}}]}