{"type":"FeatureCollection","features":[{"type":"Feature","properties":{"id":2681952403,"osm_type":"node","name":"Bengt Rökens Veterinärmottagning","category":"veterinary","tags":{"amenity":"veterinary","name":"Bengt Rökens Veterinärmottagning"}},"geometry":{"type":"Point","coordinates":[16.1423597,58.5843388]}},{"type":"Feature","properties":{"id":4125680291,"osm_type":"node","name":"Distriktsveterinärerna","category":"veterinary","tags":{"addr:country":"SE","addr:housenumber":"43","addr:street":"Importgatan","amenity":"veterinary","name":"Distriktsveterinärerna","opening_hours":"Mo-Fr 08:00-16:00","phone":"+46 10-122 90 60","website":"https://distriktsveterinarerna.se/"}},"geometry":{"type":"Point","coordinates":[16.224105,58.591666]}}]}