{"type":"FeatureCollection","features":[{"type":"Feature","properties":{"id":961316392,"osm_type":"way","name":"Grimskärs skans","category":"castle","tags":{"building":"yes","castle_type":"defensive","historic":"castle","historic:civilization":"modern","name":"Grimskärs skans"}},"geometry":{"type":"Point","coordinates":[16.3703011,56.6521944]}},{"type":"Feature","properties":{"id":1331955,"osm_type":"relation","name":"Kalmar slott","category":"castle","tags":{"building":"castle","historic":"castle","name":"Kalmar slott","name:cs":"Kalmarský hrad","name:is":"Kalmarhöll","name:ru":"Кальмарский замок","tourism":"yes","type":"multipolygon","website":"https://www.kalmarslott.se/","wikidata":"Q648226","wikipedia":"sv:Kalmar slott"}},"geometry":{"type":"Point","coordinates":[16.3554951,56.6580138]}}]}