{"type":"FeatureCollection","features":[{"type":"Feature","properties":{"id":24455361,"osm_type":"way","name":"","category":"cemetery","tags":{"landuse":"cemetery","religion":"christian","wikidata":"Q20926431"}},"geometry":{"type":"Point","coordinates":[16.3507932,56.6579732]}},{"type":"Feature","properties":{"id":40196556,"osm_type":"way","name":"","category":"cemetery","tags":{"amenity":"grave_yard","denomination":"lutheran","religion":"christian"}},"geometry":{"type":"Point","coordinates":[16.5147838,56.6340189]}},{"type":"Feature","properties":{"id":71939531,"osm_type":"way","name":"","category":"cemetery","tags":{"amenity":"grave_yard","denomination":"lutheran","religion":"christian","wikidata":"Q115302437"}},"geometry":{"type":"Point","coordinates":[16.2867784,56.7811768]}},{"type":"Feature","properties":{"id":76508417,"osm_type":"way","name":"","category":"cemetery","tags":{"amenity":"grave_yard","denomination":"lutheran","religion":"christian","wikidata":"Q47496757"}},"geometry":{"type":"Point","coordinates":[16.4596275,56.5771347]}},{"type":"Feature","properties":{"id":95697518,"osm_type":"way","name":"","category":"cemetery","tags":{"amenity":"grave_yard","denomination":"lutheran","religion":"christian"}},"geometry":{"type":"Point","coordinates":[16.287408,56.7079106]}},{"type":"Feature","properties":{"id":149032114,"osm_type":"way","name":"Gamla Kyrkogården","category":"cemetery","tags":{"landuse":"cemetery","name":"Gamla Kyrkogården","wikidata":"Q18291123"}},"geometry":{"type":"Point","coordinates":[16.3522887,56.6606376]}},{"type":"Feature","properties":{"id":193544760,"osm_type":"way","name":"","category":"cemetery","tags":{"amenity":"grave_yard","denomination":"lutheran","religion":"christian","wikidata":"Q115302349"}},"geometry":{"type":"Point","coordinates":[16.2326873,56.6718637]}},{"type":"Feature","properties":{"id":209678571,"osm_type":"way","name":"","category":"cemetery","tags":{"amenity":"grave_yard","denomination":"lutheran","religion":"christian","wikidata":"Q47092264"}},"geometry":{"type":"Point","coordinates":[16.3518958,56.8021592]}},{"type":"Feature","properties":{"id":279612552,"osm_type":"way","name":"","category":"cemetery","tags":{"amenity":"grave_yard","denomination":"lutheran","religion":"christian"}},"geometry":{"type":"Point","coordinates":[16.4438312,56.5417354]}},{"type":"Feature","properties":{"id":487143149,"osm_type":"way","name":"Nådens kapell","category":"cemetery","tags":{"denomination":"lutheran","landuse":"cemetery","name":"Nådens kapell","religion":"christian"}},"geometry":{"type":"Point","coordinates":[16.4720065,56.6481042]}},{"type":"Feature","properties":{"id":651234880,"osm_type":"way","name":"","category":"cemetery","tags":{"amenity":"grave_yard","denomination":"lutheran","religion":"christian","wikidata":"Q115302352"}},"geometry":{"type":"Point","coordinates":[16.2246664,56.6370668]}},{"type":"Feature","properties":{"id":10181757,"osm_type":"relation","name":"","category":"cemetery","tags":{"amenity":"grave_yard","denomination":"lutheran","religion":"christian","type":"multipolygon"}},"geometry":{"type":"Point","coordinates":[16.3978469,56.5197411]}},{"type":"Feature","properties":{"id":12913949,"osm_type":"relation","name":"Norra kyrkogården","category":"cemetery","tags":{"amenity":"grave_yard","landuse":"cemetery","name":"Norra kyrkogården","religion":"christian","type":"multipolygon","wikidata":"Q115302378"}},"geometry":{"type":"Point","coordinates":[16.3450413,56.6758016]}}]}