{"type":"FeatureCollection","features":[{"type":"Feature","properties":{"id":12348878251,"osm_type":"node","name":"Sanna","category":"community_centre","tags":{"amenity":"community_centre","name":"Sanna"}},"geometry":{"type":"Point","coordinates":[16.458209,56.7769971]}},{"type":"Feature","properties":{"id":12358203319,"osm_type":"node","name":"Skansen","category":"community_centre","tags":{"amenity":"community_centre","community_centre":"village_hall","email":"mg.e.enarsson@gmail.com","name":"Skansen","operator":"Ryssby Hembygdsförening","phone":"+46706935631","website":"https://www.hembygd.se/ryssby-kalmar"}},"geometry":{"type":"Point","coordinates":[16.3516645,56.7982932]}},{"type":"Feature","properties":{"id":95424598,"osm_type":"way","name":"Lindsdals Fritidsgård","category":"community_centre","tags":{"amenity":"community_centre","building":"public","name":"Lindsdals Fritidsgård"}},"geometry":{"type":"Point","coordinates":[16.2953164,56.735468]}},{"type":"Feature","properties":{"id":307287055,"osm_type":"way","name":"Folkets hus","category":"community_centre","tags":{"amenity":"community_centre","building":"yes","community_centre":"village_hall","name":"Folkets hus"}},"geometry":{"type":"Point","coordinates":[16.3882148,56.5245353]}},{"type":"Feature","properties":{"id":435106055,"osm_type":"way","name":"Förlösa Folkets Hus","category":"community_centre","tags":{"amenity":"community_centre","building":"yes","name":"Förlösa Folkets Hus"}},"geometry":{"type":"Point","coordinates":[16.2873286,56.7345844]}},{"type":"Feature","properties":{"id":532825240,"osm_type":"way","name":"","category":"community_centre","tags":{"amenity":"community_centre","building":"yes","community_centre":"parish_hall","description":"Församlingshem"}},"geometry":{"type":"Point","coordinates":[16.514441,56.6338243]}},{"type":"Feature","properties":{"id":912542328,"osm_type":"way","name":"Läckeby Bygdegård","category":"community_centre","tags":{"addr:city":"Läckeby","addr:postcode":"39597","amenity":"community_centre","building":"yes","name":"Läckeby Bygdegård","opening_hours":"\"Available for rentals only.\""}},"geometry":{"type":"Point","coordinates":[16.2998397,56.7871821]}},{"type":"Feature","properties":{"id":912542504,"osm_type":"way","name":"Åbygården","category":"community_centre","tags":{"addr:street":"Läckebyvägen","amenity":"community_centre","building":"yes","denomination":"lutheran","name":"Åbygården","opening_hours":"\"church affilliated; open for events and activities\"","operator":"Ryssby-Åby pastorat","operator:type":"religious"}},"geometry":{"type":"Point","coordinates":[16.2854165,56.7810554]}}]}