{"type":"FeatureCollection","features":[{"type":"Feature","properties":{"id":443318083,"osm_type":"node","name":"Folktandvården Berga Centrum Kalmar","category":"dentistry","tags":{"addr:city":"Kalmar","addr:housenumber":"15B","addr:postcode":"393 52","addr:street":"Rimsmedsvägen","amenity":"dentist","branch":"Berga","brand":"Folktandvården","brand:wikidata":"Q10497476","brand:wikipedia":"sv:Folktandvården","healthcare":"dentist","name":"Folktandvården Berga Centrum Kalmar"}},"geometry":{"type":"Point","coordinates":[16.3398006,56.6916369]}},{"type":"Feature","properties":{"id":1058848738,"osm_type":"node","name":"Folktandvården Lindsdal Kalmar","category":"dentistry","tags":{"addr:city":"Kalmar","addr:housenumber":"4","addr:postcode":"393 65","addr:street":"Förlösavägen","amenity":"dentist","healthcare":"dentist","name":"Folktandvården Lindsdal Kalmar"}},"geometry":{"type":"Point","coordinates":[16.2951967,56.7343087]}},{"type":"Feature","properties":{"id":4792925106,"osm_type":"node","name":"Folktandvården","category":"dentistry","tags":{"amenity":"dentist","brand":"Folktandvården","brand:wikidata":"Q10497476","brand:wikipedia":"sv:Folktandvården","name":"Folktandvården","opening_hours":"Mo-Th 07:15-17:00; Fr 07:15-16:00"}},"geometry":{"type":"Point","coordinates":[16.473674,56.6498798]}},{"type":"Feature","properties":{"id":4794035333,"osm_type":"node","name":"Södra Ölands Tandvård","category":"dentistry","tags":{"amenity":"dentist","name":"Södra Ölands Tandvård"}},"geometry":{"type":"Point","coordinates":[16.4674794,56.6499031]}},{"type":"Feature","properties":{"id":9022252417,"osm_type":"node","name":"Tandläkare Sköldenklint","category":"dentistry","tags":{"addr:city":"Kalmar","addr:housenumber":"34","addr:postcode":"392 32","addr:street":"Larmgatan","amenity":"dentist","check_date":"2023-04-22","healthcare":"dentist","name":"Tandläkare Sköldenklint"}},"geometry":{"type":"Point","coordinates":[16.3605585,56.6639149]}},{"type":"Feature","properties":{"id":9022333717,"osm_type":"node","name":"Fosnes & Smide","category":"dentistry","tags":{"amenity":"dentist","check_date":"2023-04-17","healthcare":"dentist","name":"Fosnes & Smide"}},"geometry":{"type":"Point","coordinates":[16.3647127,56.6637378]}},{"type":"Feature","properties":{"id":9022732618,"osm_type":"node","name":"Tandläkarna Holm AB","category":"dentistry","tags":{"addr:city":"Kalmar","addr:housenumber":"8","addr:postcode":"392 32","addr:street":"Södra Långgatan","amenity":"dentist","healthcare":"dentist","name":"Tandläkarna Holm AB"}},"geometry":{"type":"Point","coordinates":[16.3626505,56.6624006]}},{"type":"Feature","properties":{"id":12992381818,"osm_type":"node","name":"Ölandskajens Tandvård","category":"dentistry","tags":{"addr:city":"Kalmar","addr:housenumber":"11","addr:postcode":"392 31","addr:street":"Ölandskajen","amenity":"dentist","healthcare":"dentist","name":"Ölandskajens Tandvård"}},"geometry":{"type":"Point","coordinates":[16.360909,56.6597507]}},{"type":"Feature","properties":{"id":12992381819,"osm_type":"node","name":"Käldström och Co - Tandvård i Centrum","category":"dentistry","tags":{"addr:city":"Kalmar","addr:housenumber":"2","addr:postcode":"392 32","addr:street":"Larmgatan","amenity":"dentist","healthcare":"dentist","name":"Käldström och Co - Tandvård i Centrum"}},"geometry":{"type":"Point","coordinates":[16.3628174,56.6615922]}},{"type":"Feature","properties":{"id":12992381820,"osm_type":"node","name":"Folktandvården Smålandsgatan Kalmar","category":"dentistry","tags":{"addr:city":"Kalmar","addr:housenumber":"12","addr:postcode":"392 53","addr:street":"Smålandsgatan","amenity":"dentist","name":"Folktandvården Smålandsgatan Kalmar"}},"geometry":{"type":"Point","coordinates":[16.3522777,56.6647765]}},{"type":"Feature","properties":{"id":12992381821,"osm_type":"node","name":"Tandläkarhuset Kalmar Tandläkare Marcin Machaj & Katarzyna Machaj","category":"dentistry","tags":{"addr:city":"Kalmar","addr:housenumber":"14A","addr:postcode":"392 53","addr:street":"Esplanaden","amenity":"dentist","healthcare":"dentist","name":"Tandläkarhuset Kalmar Tandläkare Marcin Machaj & Katarzyna Machaj"}},"geometry":{"type":"Point","coordinates":[16.3528597,56.6648767]}}]}