{"type":"FeatureCollection","features":[{"type":"Feature","properties":{"id":306972882,"osm_type":"way","name":"","category":"fire_station","tags":{"amenity":"fire_station","building":"yes"}},"geometry":{"type":"Point","coordinates":[16.3724211,56.527245]}},{"type":"Feature","properties":{"id":497857742,"osm_type":"way","name":"Kalmar brandstation","category":"fire_station","tags":{"addr:city":"Kalmar","addr:country":"SE","addr:housenumber":"11","addr:street":"Scheelegatan","amenity":"fire_station","building":"fire_station","name":"Kalmar brandstation"}},"geometry":{"type":"Point","coordinates":[16.3274964,56.6744574]}},{"type":"Feature","properties":{"id":810506207,"osm_type":"way","name":"Räddningstjänsten Sydost - Brandstation Rockneby","category":"fire_station","tags":{"addr:city":"Rockneby","addr:housenumber":"16","addr:postcode":"380 30","addr:street":"Ryssbyvägen","amenity":"fire_station","building":"yes","fire_station:type":"local_station","name":"Räddningstjänsten Sydost - Brandstation Rockneby"}},"geometry":{"type":"Point","coordinates":[16.3523129,56.7995144]}}]}