{"type":"FeatureCollection","features":[{"type":"Feature","properties":{"id":417812435,"osm_type":"node","name":"Matöppet Lindsdal","category":"grocery","tags":{"addr:city":"Kalmar","addr:housenumber":"1","addr:postcode":"393 64","addr:province":"Kalmar kommun","addr:street":"Husmorsvägen","name":"Matöppet Lindsdal","opening_hours":"Mo-Su 07:00-21:00","payment:credit_cards":"yes","payment:debit_cards":"yes","post_office":"post_partner","post_office:brand":"Bring;DHL;DB_Schenker","shop":"convenience","wheelchair":"yes"}},"geometry":{"type":"Point","coordinates":[16.3019341,56.7240895]}},{"type":"Feature","properties":{"id":443318072,"osm_type":"node","name":"ICA Supermarket Berga Centrum","category":"grocery","tags":{"addr:city":"Kalmar","addr:housenumber":"19","addr:postcode":"393 52","addr:province":"Kalmar kommun","addr:street":"Rimsmedsvägen","alt_name":"ICA Rimsmeden","brand":"ICA Supermarket","brand:wikidata":"Q1663776","brand:wikipedia":"sv:Ica","cash_withdrawal":"yes","name":"ICA Supermarket Berga Centrum","opening_hours":"Mo-Su 07:00-22:00","operator":"ICA","payment:cash":"yes","post_office":"post_partner","post_office:brand":"Bring;DHL;Postnord;DB_Schenker","shop":"supermarket","website":"https://www.ica.se/butiker/supermarket/kalmar/ica-supermarket-berga-centrum-16255/start/","wheelchair":"yes"}},"geometry":{"type":"Point","coordinates":[16.3386335,56.6916459]}},{"type":"Feature","properties":{"id":508081267,"osm_type":"node","name":"ICA Kvantum","category":"grocery","tags":{"brand":"ICA Kvantum","brand:wikidata":"Q1663776","brand:wikipedia":"sv:Ica","name":"ICA Kvantum","opening_hours":"Mo-Su 07:00-22:00","payment:cash":"yes","shop":"supermarket"}},"geometry":{"type":"Point","coordinates":[16.4702415,56.6522829]}},{"type":"Feature","properties":{"id":508081269,"osm_type":"node","name":"Coop Färjestaden","category":"grocery","tags":{"addr:city":"Färjestaden","addr:country":"SE","addr:housenumber":"24","addr:postcode":"386 30","addr:street":"Storgatan","brand":"Coop (Sweden)","brand:wikidata":"Q15229319","check_date:opening_hours":"2025-07-06","name":"Coop Färjestaden","opening_hours":"Mo-Su 06:00-22:00","phone":"010-7450790","shop":"supermarket","website":"https://www.coop.se/butiker-erbjudanden/coop/farjestaden/"}},"geometry":{"type":"Point","coordinates":[16.4727872,56.6494863]}},{"type":"Feature","properties":{"id":1623556438,"osm_type":"node","name":"Coop Norrliden","category":"grocery","tags":{"addr:city":"Kalmar","addr:country":"SE","addr:housenumber":"1","addr:street":"Lille Bullens Väg G","brand":"Coop (Sweden)","brand:wikidata":"Q15229319","brand:wikipedia":"sv:Coop Butiker & Stormarknader","int_name":"Konsum","name":"Coop Norrliden","phone":"010-7450780","post_office":"post_partner","post_office:brand":"Postnord","shop":"supermarket","website":"https://www.coop.se/butiker-erbjudanden/coop/coop-norrliden/"}},"geometry":{"type":"Point","coordinates":[16.3581489,56.7029692]}},{"type":"Feature","properties":{"id":1674642129,"osm_type":"node","name":"City Gross","category":"grocery","tags":{"brand":"City Gross","brand:wikidata":"Q10453555","brand:wikipedia":"sv:City Gross","cash_withdrawal":"yes","check_date:opening_hours":"2024-08-19","name":"City Gross","opening_hours":"Mo-Su 07:00-22:00","post_office":"post_partner","post_office:brand":"Bring;Postnord","shop":"supermarket","wheelchair":"yes"}},"geometry":{"type":"Point","coordinates":[16.3161601,56.6837145]}},{"type":"Feature","properties":{"id":1844283629,"osm_type":"node","name":"NILSSON & LINDBLOM","category":"grocery","tags":{"addr:city":"Kalmar","addr:housenumber":"13","addr:postcode":"392 35","addr:province":"Kalmar kommun","addr:street":"Borgmästaregatan","name":"NILSSON & LINDBLOM","post_office":"post_partner","post_office:brand":"UPS","shop":"greengrocer"}},"geometry":{"type":"Point","coordinates":[16.3511431,56.6731221]}},{"type":"Feature","properties":{"id":4376946363,"osm_type":"node","name":"Coop Funkabo","category":"grocery","tags":{"addr:city":"Kalmar","addr:country":"SE","addr:housenumber":"7","addr:postcode":"393 50","addr:province":"Kalmar kommun","addr:street":"Ledungsvägen","brand":"Coop (Sweden)","brand:wikidata":"Q15229319","cash_withdrawal":"yes","name":"Coop Funkabo","opening_hours":"Mo-Fr 08:00-21:00, Sa 08:00-20:00, Su 10:00-20:00","operator":"Coop","phone":"010-7463990","shop":"supermarket","website":"https://www.coop.se/butiker-erbjudanden/coop-butiker/coop-funkabo/"}},"geometry":{"type":"Point","coordinates":[16.3422582,56.685138]}},{"type":"Feature","properties":{"id":4972585222,"osm_type":"node","name":"Coop Baronen Kalmar","category":"grocery","tags":{"addr:city":"Kalmar","addr:country":"SE","addr:housenumber":"12","addr:postcode":"392 31","addr:street":"Skeppsbrogatan","brand":"Coop","brand:wikidata":"Q106684510","brand:wikipedia":"sv:Coop Butiker & Stormarknader","name":"Coop Baronen Kalmar","opening_hours":"Mo-Fr 07:00-21:00; Sa,Su 09:00-19:00","phone":"010-7450800","shop":"supermarket","website":"https://www.coop.se/butiker-erbjudanden/coop/coop-baronen-kalmar/"}},"geometry":{"type":"Point","coordinates":[16.3645498,56.6610199]}},{"type":"Feature","properties":{"id":5318043925,"osm_type":"node","name":"Hemköp 4207 Kvarnholmen","category":"grocery","tags":{"addr:city":"Kalmar","addr:country":"SE","addr:housenumber":"8B","addr:postcode":"392 32","addr:province":"Kalmar kommun","addr:street":"Fiskaregatan","brand":"Hemköp","brand:wikidata":"Q10521746","name":"Hemköp 4207 Kvarnholmen","opening_hours":"PH,Mo-Su 07:00-22:00","operator":"Hemköp","phone":"0480-334630","shop":"supermarket","website":"https://www.hemkop.se/butik/4207"}},"geometry":{"type":"Point","coordinates":[16.36378,56.6651106]}},{"type":"Feature","properties":{"id":9001944723,"osm_type":"node","name":"OKQ8 Kalmar","category":"grocery","tags":{"addr:city":"Kalmar","addr:housenumber":"7","addr:postcode":"393 56","addr:province":"Kalmar kommun","addr:street":"Ölandsleden","check_date":"2025-05-26","name":"OKQ8 Kalmar","opening_hours":"Mo-Fr 06:00-22:00; Sa,Su 08:00-22:00","operator":"OKQ8","shop":"convenience","wheelchair":"yes"}},"geometry":{"type":"Point","coordinates":[16.3223382,56.6833506]}},{"type":"Feature","properties":{"id":9066385117,"osm_type":"node","name":"","category":"grocery","tags":{"shop":"convenience"}},"geometry":{"type":"Point","coordinates":[16.3635546,56.6625049]}},{"type":"Feature","properties":{"id":9934215187,"osm_type":"node","name":"First Camp Stensö Kalmar","category":"grocery","tags":{"addr:city":"Kalmar","addr:housenumber":"100","addr:postcode":"392 57","addr:province":"Kalmar kommun","addr:street":"Stensövägen","name":"First Camp Stensö Kalmar","shop":"convenience"}},"geometry":{"type":"Point","coordinates":[16.3269493,56.6497586]}},{"type":"Feature","properties":{"id":9964954092,"osm_type":"node","name":"Välkommen In-Kalmar","category":"grocery","tags":{"addr:city":"Kalmar","addr:housenumber":"7","addr:postcode":"392 38","addr:province":"Kalmar kommun","addr:street":"Dahléngatan","brand":"7-Eleven","brand:wikidata":"Q259340","name":"Välkommen In-Kalmar","shop":"convenience"}},"geometry":{"type":"Point","coordinates":[16.3335693,56.6732973]}},{"type":"Feature","properties":{"id":9987787811,"osm_type":"node","name":"Micro Livs","category":"grocery","tags":{"addr:city":"Kalmar","addr:country":"SE","addr:housenumber":"3","addr:postcode":"392 53","addr:province":"Kalmar kommun","addr:street":"Smålandsgatan","name":"Micro Livs","opening_hours":"09:00-21:00","phone":"0480-103 82","shop":"supermarket"}},"geometry":{"type":"Point","coordinates":[16.3523241,56.6640686]}},{"type":"Feature","properties":{"id":10763789617,"osm_type":"node","name":"Willys Kalmar Hansa City","category":"grocery","tags":{"addr:city":"Kalmar","addr:country":"SE","addr:housenumber":"14","addr:street":"Bilbyggarvägen","brand":"Willys","brand:wikidata":"Q10720214","name":"Willys Kalmar Hansa City","opening_hours":"Mo-Su 08:00-21:00","payment:cash":"yes","phone":"0480-334570","shop":"supermarket","website":"https://www.willys.se/butik/2285"}},"geometry":{"type":"Point","coordinates":[16.3157097,56.6869398]}},{"type":"Feature","properties":{"id":11873584450,"osm_type":"node","name":"Maxims Livs","category":"grocery","tags":{"addr:city":"Kalmar","addr:housenumber":"25","addr:postcode":"392 53","addr:province":"Kalmar kommun","addr:street":"Tullslätten","name":"Maxims Livs","payment:credit_cards":"yes","payment:debit_cards":"yes","shop":"supermarket","wheelchair":"limited"}},"geometry":{"type":"Point","coordinates":[16.3548851,56.6638158]}},{"type":"Feature","properties":{"id":12998676637,"osm_type":"node","name":"Kalmar Trångsundsvägen (Tanka)","category":"grocery","tags":{"addr:city":"Kalmar","addr:housenumber":"20","addr:postcode":"393 56","addr:province":"Kalmar kommun","addr:street":"Trångsundsvägen","name":"Kalmar Trångsundsvägen (Tanka)","shop":"convenience"}},"geometry":{"type":"Point","coordinates":[16.3148314,56.68888]}},{"type":"Feature","properties":{"id":12998676649,"osm_type":"node","name":"OKQ8 Kalmar Borgmästaregatan","category":"grocery","tags":{"addr:city":"Kalmar","addr:housenumber":"15","addr:postcode":"392 35","addr:province":"Kalmar kommun","addr:street":"Borgmästaregatan","name":"OKQ8 Kalmar Borgmästaregatan","operator":"OKQ8","post_office":"post_partner","post_office:brand":"Postnord;Db_Schenker","shop":"convenience"}},"geometry":{"type":"Point","coordinates":[16.3505128,56.6734653]}},{"type":"Feature","properties":{"id":12998676652,"osm_type":"node","name":"Valfiskens Livs","category":"grocery","tags":{"addr:city":"Kalmar","addr:housenumber":"18","addr:postcode":"392 49","addr:province":"Kalmar kommun","addr:street":"Trädgårdsgatan","name":"Valfiskens Livs","shop":"supermarket"}},"geometry":{"type":"Point","coordinates":[16.3548741,56.6677641]}},{"type":"Feature","properties":{"id":12998676656,"osm_type":"node","name":"Circle K Kalmar Dragonvägen","category":"grocery","tags":{"addr:city":"Kalmar","addr:housenumber":"7","addr:postcode":"392 39","addr:province":"Kalmar kommun","addr:street":"Dragonvägen","name":"Circle K Kalmar Dragonvägen","operator":"Circle K","shop":"convenience"}},"geometry":{"type":"Point","coordinates":[16.320747,56.673917]}},{"type":"Feature","properties":{"id":12998676679,"osm_type":"node","name":"Preem","category":"grocery","tags":{"addr:city":"Kalmar","addr:housenumber":"15","addr:postcode":"39477","addr:province":"Kalmar kommun","addr:street":"Furulidsvägen","name":"Preem","operator":"Preem","post_office":"post_partner","post_office:brand":"Bring;DHL;DB_Schenker;Postnord","shop":"convenience"}},"geometry":{"type":"Point","coordinates":[16.2554204,56.6506082]}},{"type":"Feature","properties":{"id":12998676682,"osm_type":"node","name":"Direkten Tobaksboden Kalmar","category":"grocery","tags":{"addr:city":"Kalmar","addr:housenumber":"16","addr:postcode":"392 35","addr:province":"Kalmar kommun","addr:street":"Trädgårdsgatan","name":"Direkten Tobaksboden Kalmar","post_office":"post_partner","post_office:brand":"Bring;DHL","shop":"convenience"}},"geometry":{"type":"Point","coordinates":[16.3554306,56.6675718]}},{"type":"Feature","properties":{"id":12998676685,"osm_type":"node","name":"Handlar'n Margaretaplans","category":"grocery","tags":{"addr:city":"Kalmar","addr:housenumber":"2","addr:postcode":"392 47","addr:province":"Kalmar kommun","addr:street":"Margaretaplan","name":"Handlar'n Margaretaplans","operator":"Handlar'n","shop":"supermarket"}},"geometry":{"type":"Point","coordinates":[16.3425413,56.6585765]}},{"type":"Feature","properties":{"id":12998676686,"osm_type":"node","name":"Norrgårds Livs","category":"grocery","tags":{"addr:city":"Kalmar","addr:housenumber":"67A","addr:postcode":"392 42","addr:province":"Kalmar kommun","addr:street":"Norra Vägen","name":"Norrgårds Livs","shop":"convenience"}},"geometry":{"type":"Point","coordinates":[16.3511042,56.6707633]}},{"type":"Feature","properties":{"id":12998710911,"osm_type":"node","name":"Direkten Spelbaronen","category":"grocery","tags":{"addr:city":"Kalmar","addr:housenumber":"12","addr:postcode":"392 31","addr:province":"Kalmar kommun","addr:street":"Skeppsbrogatan","cash_withdrawal":"yes","name":"Direkten Spelbaronen","post_office":"post_partner","post_office:brand":"Bring;DHL;UPS","shop":"convenience"}},"geometry":{"type":"Point","coordinates":[16.3649015,56.6608688]}},{"type":"Feature","properties":{"id":12998710913,"osm_type":"node","name":"Lidl","category":"grocery","tags":{"addr:city":"Kalmar","addr:housenumber":"1","addr:postcode":"392 39","addr:province":"Kalmar kommun","addr:street":"Polhemsgatan","amenity":"Dagligvaror","brand":"Lidl","brand:wikidata":"Q151954","name":"Lidl","operator":"Lidl","shop":"supermarket"}},"geometry":{"type":"Point","coordinates":[16.3394219,56.6709755]}},{"type":"Feature","properties":{"id":12998710916,"osm_type":"node","name":"Macken I Rockneby","category":"grocery","tags":{"addr:city":"Rockneby","addr:housenumber":"1200","addr:postcode":"395 94","addr:province":"Kalmar kommun","addr:street":"Revsuddevägen","name":"Macken I Rockneby","operator":"Preem;EMAB","post_office":"post_partner","post_office:brand":"Bring;DHL;DB_Schenker","shop":"convenience"}},"geometry":{"type":"Point","coordinates":[16.3553703,56.7960983]}},{"type":"Feature","properties":{"id":12998710922,"osm_type":"node","name":"Bremerlyckans Livs","category":"grocery","tags":{"addr:city":"Kalmar","addr:housenumber":"15","addr:postcode":"392 33","addr:province":"Kalmar kommun","addr:street":"Bremergatan","name":"Bremerlyckans Livs","post_office":"post_partner","post_office:brand":"DB_Schenker;Bring;UPS","shop":"convenience"}},"geometry":{"type":"Point","coordinates":[16.3495137,56.6625021]}},{"type":"Feature","properties":{"id":45263104,"osm_type":"way","name":"ICA Supermarket","category":"grocery","tags":{"addr:city":"Kalmar","addr:country":"SE","addr:housenumber":"115","addr:postcode":"393 65","addr:street":"Kalmarvägen","brand":"ICA Supermarket","brand:wikidata":"Q1663776","brand:wikipedia":"sv:Ica","building":"retail","cash_withdrawal":"yes","check_date:opening_hours":"2025-06-20","name":"ICA Supermarket","opening_hours":"Mo-Su 07:00-22:00","payment:cash":"yes","post_office":"post_partner","post_office:brand":"Bring;DHL;Postnord;DB_Schenker","shop":"supermarket","wheelchair":"yes"}},"geometry":{"type":"Point","coordinates":[16.2962021,56.7353211]}},{"type":"Feature","properties":{"id":77996202,"osm_type":"way","name":"ICA Nära Rockneby","category":"grocery","tags":{"addr:city":"Rockneby","addr:country":"SE","addr:housenumber":"33","addr:street":"Ryssbyvägen","brand":"ICA Nära","brand:wikidata":"Q1663776","brand:wikipedia":"sv:Ica","building":"retail","cash_withdrawal":"yes","name":"ICA Nära Rockneby","opening_hours":"Mo-Fr 08:00-21:00; Sa,Su 08:00-20:00","operator":"ICA","post_office":"post_partner","post_office:brand":"Postnord;Apoteksombud","shop":"supermarket","website":"https://www.ica.se/butiker/nara/kalmar/ica-nara-rockneby-2600/start/"}},"geometry":{"type":"Point","coordinates":[16.3480923,56.8042097]}},{"type":"Feature","properties":{"id":91846941,"osm_type":"way","name":"ICA Supermarket Södercentrum","category":"grocery","tags":{"addr:city":"Kalmar","addr:country":"SE","addr:housenumber":"25","addr:postcode":"392 46","addr:street":"Drottning Margaretas väg","brand":"ICA Supermarket","brand:wikidata":"Q1663776","brand:wikipedia":"sv:Ica","building":"yes","cash_withdrawal":"yes","name":"ICA Supermarket Södercentrum","shop":"convenience"}},"geometry":{"type":"Point","coordinates":[16.3389489,56.660103]}},{"type":"Feature","properties":{"id":149864320,"osm_type":"way","name":"Coop 13-4001 Kalmar Sandåsgatan","category":"grocery","tags":{"addr:city":"Kalmar","addr:country":"SE","addr:housenumber":"4","addr:postcode":"392 45","addr:province":"Kalmar kommun","addr:street":"Sandåsgatan","brand":"Coop","brand:wikidata":"Q106684510","building":"yes","name":"Coop 13-4001 Kalmar Sandåsgatan","operator":"Coop","phone":"010-7464000","shop":"supermarket","website":"https://www.coop.se/butiker-erbjudanden/coop-butiker/coop-kalmar-sandasgatan/"}},"geometry":{"type":"Point","coordinates":[16.3407227,56.6628679]}},{"type":"Feature","properties":{"id":167178856,"osm_type":"way","name":"Coop Brofästet Färjestaden","category":"grocery","tags":{"addr:city":"Färjestaden","addr:country":"SE","addr:housenumber":"2","addr:postcode":"386 33","addr:street":"Brofästet","brand":"Coop","brand:wikidata":"Q15229319","building":"commercial","check_date:opening_hours":"2025-07-09","name":"Coop Brofästet Färjestaden","opening_hours":"Mo-Su,PH 06:00-22:00","shop":"supermarket"}},"geometry":{"type":"Point","coordinates":[16.4884748,56.6646576]}},{"type":"Feature","properties":{"id":169018581,"osm_type":"way","name":"ICA Nära Skansen","category":"grocery","tags":{"addr:city":"Mörbylånga","addr:housenumber":"21C","addr:postcode":"386 50","addr:street":"Köpmangatan","brand":"ICA Nära","brand:wikidata":"Q1663776","brand:wikipedia":"sv:Ica","building":"yes","building:levels":"1","name":"ICA Nära Skansen","opening_hours":"Mo-Fr 07:00-21:00; Sa 07:00-21:00; Su 07:00-21:00","shop":"supermarket","website":"https://www.ica.se/butiker/nara/morbylanga/ica-nara-skansen-1004441/"}},"geometry":{"type":"Point","coordinates":[16.3856012,56.5256073]}},{"type":"Feature","properties":{"id":170361844,"osm_type":"way","name":"24SJU-Saxnäs","category":"grocery","tags":{"building":"yes","name":"24SJU-Saxnäs","opening_hours":"24/7","payment:credit_cards":"yes","payment:swish":"yes","shop":"convenience","website":"https://www.kcsaxnas.se/mat/24sju"}},"geometry":{"type":"Point","coordinates":[16.4823254,56.6871665]}},{"type":"Feature","properties":{"id":638324900,"osm_type":"way","name":"Ica Rinkabyholm","category":"grocery","tags":{"addr:city":"Kalmar","addr:housenumber":"17A","addr:postcode":"394 77","addr:province":"Kalmar kommun","addr:street":"Rinkabyholmsvägen","brand":"ICA Nära","brand:wikidata":"Q1663776","brand:wikipedia":"sv:Ica","building":"retail","cash_withdrawal":"yes","name":"Ica Rinkabyholm","shop":"supermarket"}},"geometry":{"type":"Point","coordinates":[16.2612132,56.655237]}},{"type":"Feature","properties":{"id":853808151,"osm_type":"way","name":"Maxi ICA Stormarknad Kalmar","category":"grocery","tags":{"addr:city":"Kalmar","addr:country":"SE","addr:housenumber":"6","addr:postcode":"392 39","addr:province":"Kalmar kommun","addr:street":"Verkstadsgatan","brand":"Maxi ICA Stormarknad","brand:wikidata":"Q1663776","brand:wikipedia":"sv:Ica","cash_withdrawal":"yes","indoor":"room","level":"0","name":"Maxi ICA Stormarknad Kalmar","opening_hours":"Mo-Su 06:00-23:00","operator":"ICA","post_office":"post_partner","post_office:brand":"Postnord;Db_Schenker","room":"shop","shop":"supermarket","short_name":"ICA Maxi","website":"https://www.ica.se/butiker/maxi/kalmar/maxi-ica-stormarknad-kalmar-2597/start/"}},"geometry":{"type":"Point","coordinates":[16.3389041,56.669827]}},{"type":"Feature","properties":{"id":853808176,"osm_type":"way","name":"Life","category":"grocery","tags":{"check_date":"2023-04-27","indoor":"room","level":"0","name":"Life","organic":"only","room":"shop","shop":"supermarket"}},"geometry":{"type":"Point","coordinates":[16.3391375,56.6702978]}},{"type":"Feature","properties":{"id":853808181,"osm_type":"way","name":"Lidl","category":"grocery","tags":{"addr:city":"Kalmar","addr:country":"SE","addr:housenumber":"1","addr:postcode":"39239","addr:street":"Polhemsgatan","brand":"Lidl","brand:wikidata":"Q151954","brand:wikipedia":"sv:Lidl","indoor":"room","level":"0","name":"Lidl","opening_hours":"Mo-Fr 08:00-20:00; Sa 08:00-19:00; Su 09:00-19:00","room":"shop","shop":"supermarket","website":"https://www.lidl.se/"}},"geometry":{"type":"Point","coordinates":[16.3392001,56.6705861]}},{"type":"Feature","properties":{"id":924839985,"osm_type":"way","name":"ICA Supermarket Smedby","category":"grocery","tags":{"addr:city":"Kalmar","addr:country":"SE","addr:housenumber":"3","addr:postcode":"394 70","addr:province":"Kalmar kommun","addr:street":"Dörbyvägen","brand":"ICA Supermarket","brand:wikidata":"Q1663776","brand:wikipedia":"sv:Ica","building":"retail","cash_withdrawal":"yes","name":"ICA Supermarket Smedby","post_office":"post_partner","post_office:brand":"Postnord;Db_Schenker","shop":"supermarket","website":"https://www.ica.se/butiker/supermarket/kalmar/ica-supermarket-smedby-kalmar-2592/start/"}},"geometry":{"type":"Point","coordinates":[16.2434813,56.6749787]}},{"type":"Feature","properties":{"id":930491241,"osm_type":"way","name":"Läckeby Livs","category":"grocery","tags":{"addr:city":"Läckeby","addr:country":"SE","addr:housenumber":"2","addr:postcode":"395 97","addr:province":"Kalmar kommun","addr:street":"Skyttekullsvägen","building":"retail","building:colour":"white","building:levels":"2","defibrillator":"yes","name":"Läckeby Livs","opening_hours":"Mo-Fr 09:00-19:00; Sa 10:00-18:00; Su 10:00-17:00","post_office":"post_partner","post_office:brand":"Bring;DHL;Postnord;Apoteksombud","roof:shape":"many","shop":"convenience"}},"geometry":{"type":"Point","coordinates":[16.2944538,56.7824513]}},{"type":"Feature","properties":{"id":11619131,"osm_type":"relation","name":"","category":"grocery","tags":{"amenity":"marketplace","landuse":"grass","seasonal":"yes","type":"multipolygon"}},"geometry":{"type":"Point","coordinates":[16.3408214,56.8032713]}}]}