{"type":"FeatureCollection","features":[{"type":"Feature","properties":{"id":418125699,"osm_type":"node","name":"Lindsdals hälsocentral","category":"healthcare_center","tags":{"addr:city":"Kalmar","addr:housenumber":"4","addr:postcode":"393 65","addr:street":"Förlösavägen","amenity":"clinic","healthcare":"clinic","name":"Lindsdals hälsocentral"}},"geometry":{"type":"Point","coordinates":[16.2952174,56.7341046]}},{"type":"Feature","properties":{"id":443318084,"osm_type":"node","name":"Berga hälsocentral","category":"healthcare_center","tags":{"addr:city":"Kalmar","addr:housenumber":"21","addr:postcode":"392 52","addr:street":"Rimsmedsvägen","amenity":"clinic","name":"Berga hälsocentral"}},"geometry":{"type":"Point","coordinates":[16.3383541,56.6919299]}},{"type":"Feature","properties":{"id":1577076233,"osm_type":"node","name":"Norrlidens hälsocentral","category":"healthcare_center","tags":{"addr:city":"Kalmar","addr:housenumber":"1","addr:postcode":"393 58","addr:street":"Två Bröders väg","amenity":"clinic","healthcare":"doctor","name":"Norrlidens hälsocentral"}},"geometry":{"type":"Point","coordinates":[16.354164,56.706504]}},{"type":"Feature","properties":{"id":4793066607,"osm_type":"node","name":"Färjestadens hälsocentral","category":"healthcare_center","tags":{"amenity":"clinic","name":"Färjestadens hälsocentral","opening_hours":"Mo-Th 08:00-16:30; Fr 08:00-15:00"}},"geometry":{"type":"Point","coordinates":[16.475578,56.6409842]}},{"type":"Feature","properties":{"id":9001385782,"osm_type":"node","name":"Stensö hälsocentral","category":"healthcare_center","tags":{"addr:city":"Kalmar","addr:housenumber":"41","addr:postcode":"392 56","addr:street":"Lasarettsvägen","amenity":"clinic","healthcare":"clinic","name":"Stensö hälsocentral"}},"geometry":{"type":"Point","coordinates":[16.3244755,56.659122]}},{"type":"Feature","properties":{"id":9001422937,"osm_type":"node","name":"Kvarnholmens hälsocentral","category":"healthcare_center","tags":{"addr:city":"Kalmar","addr:housenumber":"15","addr:postcode":"393 48","addr:street":"Strömgatan","amenity":"clinic","healthcare":"clinic","name":"Kvarnholmens hälsocentral"}},"geometry":{"type":"Point","coordinates":[16.363064,56.6656433]}},{"type":"Feature","properties":{"id":9066385118,"osm_type":"node","name":"CareClinic","category":"healthcare_center","tags":{"amenity":"clinic","check_date":"2023-04-17","healthcare":"clinic","name":"CareClinic"}},"geometry":{"type":"Point","coordinates":[16.3640115,56.6623185]}},{"type":"Feature","properties":{"id":12647070801,"osm_type":"node","name":"Hansakliniken Kalmar","category":"healthcare_center","tags":{"addr:city":"Kalmar","addr:housenumber":"20Q","addr:postcode":"393 56","addr:street":"Trångsundsvägen","amenity":"clinic","healthcare":"clinic","name":"Hansakliniken Kalmar"}},"geometry":{"type":"Point","coordinates":[16.3164063,56.6894054]}},{"type":"Feature","properties":{"id":12992381815,"osm_type":"node","name":"Kry Vårdcentral Kalmar","category":"healthcare_center","tags":{"addr:city":"Kalmar","addr:housenumber":"27","addr:postcode":"392 34","addr:street":"Esplanaden","amenity":"clinic","healthcare":"clinic","name":"Kry Vårdcentral Kalmar"}},"geometry":{"type":"Point","coordinates":[16.3542344,56.6655842]}},{"type":"Feature","properties":{"id":12993632945,"osm_type":"node","name":"Smedby hälsocentral","category":"healthcare_center","tags":{"addr:city":"Kalmar","addr:housenumber":"1","addr:postcode":"394 71","addr:street":"Ingelstorpsvägen","amenity":"clinic","name":"Smedby hälsocentral"}},"geometry":{"type":"Point","coordinates":[16.2306932,56.6815996]}},{"type":"Feature","properties":{"id":12993632946,"osm_type":"node","name":"Slottsfjärdens läkarmottagning Kalmar","category":"healthcare_center","tags":{"addr:city":"Kalmar","addr:housenumber":"30","addr:postcode":"392 31","addr:street":"Ölandsgatan","amenity":"clinic","healthcare":"clinic","name":"Slottsfjärdens läkarmottagning Kalmar"}},"geometry":{"type":"Point","coordinates":[16.3686888,56.6633578]}},{"type":"Feature","properties":{"id":12993632947,"osm_type":"node","name":"Läkarhuset Kronan Kalmar","category":"healthcare_center","tags":{"addr:city":"Kalmar","addr:housenumber":"2","addr:postcode":"292 34","addr:street":"Esplanaden","amenity":"clinic","healthcare":"clinic","name":"Läkarhuset Kronan Kalmar"}},"geometry":{"type":"Point","coordinates":[16.3492307,56.6641899]}},{"type":"Feature","properties":{"id":12993632948,"osm_type":"node","name":"Husläkarcentrum Kalmar","category":"healthcare_center","tags":{"addr:city":"Kalmar","addr:housenumber":"42","addr:postcode":"392 48","addr:street":"Kaggensgatan","amenity":"clinic","healthcare":"clinic","name":"Husläkarcentrum Kalmar"}},"geometry":{"type":"Point","coordinates":[16.3611867,56.6654191]}},{"type":"Feature","properties":{"id":10272747,"osm_type":"relation","name":"Mörbylånga hälsocentral","category":"healthcare_center","tags":{"amenity":"clinic","healthcare":"clinic","name":"Mörbylånga hälsocentral","neighborhood":"Alvan","type":"multipolygon"}},"geometry":{"type":"Point","coordinates":[16.3947961,56.5223699]}}]}