{"type":"FeatureCollection","features":[{"type":"Feature","properties":{"id":534866931,"osm_type":"node","name":"Mysinge Hög","category":"historic_landmark","tags":{"name":"Mysinge Hög","tourism":"attraction"}},"geometry":{"type":"Point","coordinates":[16.440436,56.5282674]}},{"type":"Feature","properties":{"id":2392953569,"osm_type":"node","name":"A World of Dinosaurs","category":"historic_landmark","tags":{"contact:website":"http://www.aworldofdinosaurs.se/","name":"A World of Dinosaurs","tourism":"attraction"}},"geometry":{"type":"Point","coordinates":[16.2170125,56.6772591]}},{"type":"Feature","properties":{"id":3540528338,"osm_type":"node","name":"Blå Påfågel","category":"historic_landmark","tags":{"attraction":"animal","name":"Blå Påfågel","tourism":"attraction"}},"geometry":{"type":"Point","coordinates":[16.4898758,56.6716948]}},{"type":"Feature","properties":{"id":3540528339,"osm_type":"node","name":"Blågul ara","category":"historic_landmark","tags":{"attraction":"animal","name":"Blågul ara","tourism":"attraction"}},"geometry":{"type":"Point","coordinates":[16.4928853,56.6704754]}},{"type":"Feature","properties":{"id":3540528340,"osm_type":"node","name":"Dvärgget","category":"historic_landmark","tags":{"attraction":"animal","name":"Dvärgget","name:de":"Zwergziege","tourism":"attraction"}},"geometry":{"type":"Point","coordinates":[16.4936349,56.6697046]}},{"type":"Feature","properties":{"id":3540528341,"osm_type":"node","name":"Dvärgsebu","category":"historic_landmark","tags":{"attraction":"animal","name":"Dvärgsebu","tourism":"attraction"}},"geometry":{"type":"Point","coordinates":[16.4924228,56.6708567]}},{"type":"Feature","properties":{"id":3540528342,"osm_type":"node","name":"Gråhuvad Dödskalleapa","category":"historic_landmark","tags":{"attraction":"animal","name":"Gråhuvad Dödskalleapa","tourism":"attraction"}},"geometry":{"type":"Point","coordinates":[16.4909293,56.6716457]}},{"type":"Feature","properties":{"id":3540528343,"osm_type":"node","name":"Grön markatta","category":"historic_landmark","tags":{"attraction":"animal","name":"Grön markatta","tourism":"attraction"}},"geometry":{"type":"Point","coordinates":[16.4893433,56.6718248]}},{"type":"Feature","properties":{"id":3540528344,"osm_type":"node","name":"Japansk Makak","category":"historic_landmark","tags":{"attraction":"animal","name":"Japansk Makak","tourism":"attraction"}},"geometry":{"type":"Point","coordinates":[16.4936331,56.6722984]}},{"type":"Feature","properties":{"id":3540528345,"osm_type":"node","name":"Kragbjörn","category":"historic_landmark","tags":{"attraction":"animal","name":"Kragbjörn","name:de":"Kragenbär","tourism":"attraction"}},"geometry":{"type":"Point","coordinates":[16.4931944,56.6701169]}},{"type":"Feature","properties":{"id":3540528346,"osm_type":"node","name":"Lejon","category":"historic_landmark","tags":{"attraction":"animal","name":"Lejon","name:de":"Löwe","tourism":"attraction"}},"geometry":{"type":"Point","coordinates":[16.4933994,56.6719404]}},{"type":"Feature","properties":{"id":3540528347,"osm_type":"node","name":"Lodjur","category":"historic_landmark","tags":{"attraction":"animal","name":"Lodjur","tourism":"attraction"}},"geometry":{"type":"Point","coordinates":[16.4908539,56.6717544]}},{"type":"Feature","properties":{"id":3540528348,"osm_type":"node","name":"Låglandstapir","category":"historic_landmark","tags":{"attraction":"animal","name":"Låglandstapir","name:de":"Flachlandtapir","tourism":"attraction"}},"geometry":{"type":"Point","coordinates":[16.4929313,56.6706271]}},{"type":"Feature","properties":{"id":3540528349,"osm_type":"node","name":"Mantelbabian","category":"historic_landmark","tags":{"attraction":"animal","name":"Mantelbabian","tourism":"attraction"}},"geometry":{"type":"Point","coordinates":[16.4899284,56.6721752]}},{"type":"Feature","properties":{"id":3540528350,"osm_type":"node","name":"Mösskapucin","category":"historic_landmark","tags":{"attraction":"animal","name":"Mösskapucin","tourism":"attraction"}},"geometry":{"type":"Point","coordinates":[16.4913316,56.6715936]}},{"type":"Feature","properties":{"id":3540528351,"osm_type":"node","name":"Schimpans","category":"historic_landmark","tags":{"attraction":"animal","name":"Schimpans","tourism":"attraction"}},"geometry":{"type":"Point","coordinates":[16.4920449,56.6693746]}},{"type":"Feature","properties":{"id":3540528352,"osm_type":"node","name":"Sibirisk Tiger","category":"historic_landmark","tags":{"attraction":"animal","name":"Sibirisk Tiger","tourism":"attraction"}},"geometry":{"type":"Point","coordinates":[16.4913746,56.6711421]}},{"type":"Feature","properties":{"id":3540528353,"osm_type":"node","name":"Soldatara","category":"historic_landmark","tags":{"attraction":"animal","name":"Soldatara","tourism":"attraction"}},"geometry":{"type":"Point","coordinates":[16.490027,56.6716189]}},{"type":"Feature","properties":{"id":3540528354,"osm_type":"node","name":"Struts","category":"historic_landmark","tags":{"attraction":"animal","name":"Struts","tourism":"attraction"}},"geometry":{"type":"Point","coordinates":[16.4921503,56.6722907]}},{"type":"Feature","properties":{"id":3540528355,"osm_type":"node","name":"Större Flamingo","category":"historic_landmark","tags":{"attraction":"animal","name":"Större Flamingo","tourism":"attraction"}},"geometry":{"type":"Point","coordinates":[16.493321,56.669222]}},{"type":"Feature","properties":{"id":3540528356,"osm_type":"node","name":"Svartapa","category":"historic_landmark","tags":{"attraction":"animal","name":"Svartapa","tourism":"attraction"}},"geometry":{"type":"Point","coordinates":[16.4925806,56.6693144]}},{"type":"Feature","properties":{"id":3540528357,"osm_type":"node","name":"Vanlig Eland","category":"historic_landmark","tags":{"attraction":"animal","name":"Vanlig Eland","tourism":"attraction"}},"geometry":{"type":"Point","coordinates":[16.4927025,56.6723774]}},{"type":"Feature","properties":{"id":3540528358,"osm_type":"node","name":"Vanlig Zebra","category":"historic_landmark","tags":{"attraction":"animal","name":"Vanlig Zebra","tourism":"attraction"}},"geometry":{"type":"Point","coordinates":[16.4934322,56.6724569]}},{"type":"Feature","properties":{"id":3540528359,"osm_type":"node","name":"Vithandad Gibbon","category":"historic_landmark","tags":{"attraction":"animal","name":"Vithandad Gibbon","tourism":"attraction"}},"geometry":{"type":"Point","coordinates":[16.491276,56.6717164]}},{"type":"Feature","properties":{"id":3546035336,"osm_type":"node","name":"Hängöronget","category":"historic_landmark","tags":{"attraction":"animal","name":"Hängöronget","tourism":"attraction"}},"geometry":{"type":"Point","coordinates":[16.4919041,56.6716676]}},{"type":"Feature","properties":{"id":4792899825,"osm_type":"node","name":"","category":"historic_landmark","tags":{"historic":"yes","man_made":"tower","tower:type":"bell_tower"}},"geometry":{"type":"Point","coordinates":[16.4721398,56.648271]}},{"type":"Feature","properties":{"id":4793087955,"osm_type":"node","name":"Ölandsfärja","category":"historic_landmark","tags":{"name":"Ölandsfärja","tourism":"attraction"}},"geometry":{"type":"Point","coordinates":[16.4637612,56.6501926]}},{"type":"Feature","properties":{"id":4795090105,"osm_type":"node","name":"Resta stenar","category":"historic_landmark","tags":{"name":"Resta stenar","tourism":"attraction"}},"geometry":{"type":"Point","coordinates":[16.4711641,56.6543608]}},{"type":"Feature","properties":{"id":90613967,"osm_type":"way","name":"","category":"historic_landmark","tags":{"building":"yes","building:levels":"3","building:material":"stone","historic":"yes"}},"geometry":{"type":"Point","coordinates":[16.3538971,56.6574977]}},{"type":"Feature","properties":{"id":90613973,"osm_type":"way","name":"","category":"historic_landmark","tags":{"building":"yes","building:levels":"3","building:material":"stone","historic":"yes"}},"geometry":{"type":"Point","coordinates":[16.3568065,56.6582615]}},{"type":"Feature","properties":{"id":90613977,"osm_type":"way","name":"","category":"historic_landmark","tags":{"building":"yes","building:levels":"3","building:material":"stone","historic":"yes"}},"geometry":{"type":"Point","coordinates":[16.3550093,56.6589166]}},{"type":"Feature","properties":{"id":90614026,"osm_type":"way","name":"","category":"historic_landmark","tags":{"building":"yes","building:levels":"3","building:material":"stone","historic":"yes"}},"geometry":{"type":"Point","coordinates":[16.3556977,56.6572302]}},{"type":"Feature","properties":{"id":91072716,"osm_type":"way","name":"Gamla vattentornet","category":"historic_landmark","tags":{"building":"residential","building:levels":"15","building:material":"brick","disused:man_made":"water_tower","height":"65","historic":"building","name":"Gamla vattentornet","start_date":"1887-1900","wikidata":"Q10542839"}},"geometry":{"type":"Point","coordinates":[16.3598996,56.6636818]}},{"type":"Feature","properties":{"id":323274625,"osm_type":"way","name":"Krokodiler","category":"historic_landmark","tags":{"attraction":"animal","building":"yes","name":"Krokodiler","name:de":"Krokodile","tourism":"attraction"}},"geometry":{"type":"Point","coordinates":[16.4937075,56.6692074]}},{"type":"Feature","properties":{"id":1083399152,"osm_type":"way","name":"","category":"historic_landmark","tags":{"building":"yes","description":"This tower, now disused, is a mock-up of a ship's bridge that was used to train ship's officers for the merchant fleet.","man_made":"tower","mimics":"ship","tourism":"attraction","tower:type":"monitoring","training":"maritime"}},"geometry":{"type":"Point","coordinates":[16.3448919,56.6688812]}}]}