{"type":"FeatureCollection","features":[{"type":"Feature","properties":{"id":91926309,"osm_type":"way","name":"","category":"hospital","tags":{"amenity":"hospital","building":"yes","healthcare":"hospital"}},"geometry":{"type":"Point","coordinates":[16.3669189,56.6649993]}},{"type":"Feature","properties":{"id":91926317,"osm_type":"way","name":"","category":"hospital","tags":{"amenity":"hospital","building":"yes","healthcare":"hospital"}},"geometry":{"type":"Point","coordinates":[16.3666703,56.6645488]}},{"type":"Feature","properties":{"id":91926352,"osm_type":"way","name":"","category":"hospital","tags":{"amenity":"hospital","building":"yes","healthcare":"hospital"}},"geometry":{"type":"Point","coordinates":[16.3673224,56.6647533]}},{"type":"Feature","properties":{"id":148061439,"osm_type":"way","name":"Länssjukhuset i Kalmar","category":"hospital","tags":{"amenity":"hospital","emergency":"yes","health_specialty:emergency_medicine":"yes","health_specialty:family_medicine":"yes","health_specialty:intensive_care_medicine":"yes","health_specialty:orthopaedics":"yes","health_specialty:paediatrics":"yes","health_specialty:surgery":"yes","health_specialty:vascular_surgery":"yes","healthcare":"hospital","name":"Länssjukhuset i Kalmar","opening_hours":"24/7"}},"geometry":{"type":"Point","coordinates":[16.3291743,56.6589395]}},{"type":"Feature","properties":{"id":1358981,"osm_type":"relation","name":"Stensbergshemmet","category":"hospital","tags":{"amenity":"hospital","building":"yes","name":"Stensbergshemmet","type":"multipolygon"}},"geometry":{"type":"Point","coordinates":[16.3355647,56.6595526]}}]}