{"type":"FeatureCollection","features":[{"type":"Feature","properties":{"id":282756160,"osm_type":"node","name":"Frimurarehotellet","category":"hotel","tags":{"name":"Frimurarehotellet","phone":"+46 480 15230","tourism":"hotel","website":"https://www.frimurarehotellet.se/"}},"geometry":{"type":"Point","coordinates":[16.360679,56.6624357]}},{"type":"Feature","properties":{"id":449776806,"osm_type":"node","name":"Best Western Hotell Kalmarsund","category":"hotel","tags":{"brand":"Best Western","brand:wikidata":"Q830334","name":"Best Western Hotell Kalmarsund","tourism":"hotel"}},"geometry":{"type":"Point","coordinates":[16.3607585,56.6642668]}},{"type":"Feature","properties":{"id":449776811,"osm_type":"node","name":"Home Hotel Tapto","category":"hotel","tags":{"brand":"Home Hotel","check_date":"2024-03-15","name":"Home Hotel Tapto","not:brand:wikidata":"Q135249100","operator":"Strawberry","tourism":"hotel"}},"geometry":{"type":"Point","coordinates":[16.3663256,56.661195]}},{"type":"Feature","properties":{"id":449776812,"osm_type":"node","name":"First Hotel Witt","category":"hotel","tags":{"brand":"First Hotels","brand:wikidata":"Q11969007","check_date":"2026-03-26","name":"First Hotel Witt","tourism":"hotel","website":"https://www.firsthotels.com/hotels/sweden/kalmar/first-hotel-witt/","website:da":"https://www.firsthotels.dk/hoteller/sverige/kalmar/first-hotel-witt/","website:en":"https://www.firsthotels.com/hotels/sweden/kalmar/first-hotel-witt/","website:no":"https://www.firsthotels.no/hoteller/sverige/kalmar/first-hotel-witt/","website:sv":"https://www.firsthotels.se/hotell/sverige/kalmar/first-hotel-witt/"}},"geometry":{"type":"Point","coordinates":[16.3672122,56.6636904]}},{"type":"Feature","properties":{"id":449776815,"osm_type":"node","name":"Calmar Stadshotell","category":"hotel","tags":{"addr:city":"Kalmar","addr:country":"SE","addr:housenumber":"14","addr:postcode":"392 32","addr:street":"Stortorget","brand":"ProfilHotels","check_date":"2026-03-26","email":"calmarstadshotell@profilhotels.se","internet_access":"wlan","internet_access:fee":"customers","name":"Calmar Stadshotell","operator":"Ligula Hospitality Group AB","phone":"+46 480 49 69 00","rooms":"132","smoking":"no","tourism":"hotel","website":"https://ligula.se/profilhotels/calmar-stadshotell-historik-kalmar/"}},"geometry":{"type":"Point","coordinates":[16.3667433,56.6642479]}},{"type":"Feature","properties":{"id":886823267,"osm_type":"node","name":"STF/HI Vandrarhem i Ölands Skogsby","category":"hotel","tags":{"brand":"STF","name":"STF/HI Vandrarhem i Ölands Skogsby","tourism":"hostel","website":"http://www.vandrarhskogsby.se/"}},"geometry":{"type":"Point","coordinates":[16.5087143,56.6248101]}},{"type":"Feature","properties":{"id":1683193152,"osm_type":"node","name":"Hotell Hilda","category":"hotel","tags":{"addr:city":"Kalmar","addr:country":"SE","addr:postcode":"39234","addr:street":"Esplanaden","name":"Hotell Hilda","tourism":"hotel"}},"geometry":{"type":"Point","coordinates":[16.3552507,56.6657585]}},{"type":"Feature","properties":{"id":2470208227,"osm_type":"node","name":"Hotell Magasin 1","category":"hotel","tags":{"name":"Hotell Magasin 1","tourism":"hotel"}},"geometry":{"type":"Point","coordinates":[16.3751669,56.5278855]}},{"type":"Feature","properties":{"id":4389197835,"osm_type":"node","name":"Hotell Skansen","category":"hotel","tags":{"addr:city":"Färjestaden","addr:country":"SE","addr:housenumber":"1","addr:postcode":"38630","addr:street":"Tingshusgatan","cuisine":"regional","internet_access":"wlan","internet_access:fee":"no","name":"Hotell Skansen","operator":"Laura Faghihi","rooms":"172","smoking":"outside","stars":"4","tourism":"hotel"}},"geometry":{"type":"Point","coordinates":[16.4672577,56.6488992]}},{"type":"Feature","properties":{"id":4793073502,"osm_type":"node","name":"skansen","category":"hotel","tags":{"check_date":"2024-12-04","name":"skansen","tourism":"hotel"}},"geometry":{"type":"Point","coordinates":[16.4667752,56.6494441]}},{"type":"Feature","properties":{"id":4795090089,"osm_type":"node","name":"","category":"hotel","tags":{"tourism":"hotel"}},"geometry":{"type":"Point","coordinates":[16.4669044,56.6488184]}},{"type":"Feature","properties":{"id":4795090090,"osm_type":"node","name":"","category":"hotel","tags":{"tourism":"hotel"}},"geometry":{"type":"Point","coordinates":[16.4671006,56.6484487]}},{"type":"Feature","properties":{"id":4795090091,"osm_type":"node","name":"","category":"hotel","tags":{"tourism":"hotel"}},"geometry":{"type":"Point","coordinates":[16.467759,56.6484949]}},{"type":"Feature","properties":{"id":4795090092,"osm_type":"node","name":"","category":"hotel","tags":{"tourism":"hotel"}},"geometry":{"type":"Point","coordinates":[16.4676189,56.6482638]}},{"type":"Feature","properties":{"id":4795090093,"osm_type":"node","name":"","category":"hotel","tags":{"tourism":"hotel"}},"geometry":{"type":"Point","coordinates":[16.4674508,56.648672]}},{"type":"Feature","properties":{"id":9001918028,"osm_type":"node","name":"Rasta Kalmar","category":"hotel","tags":{"addr:country":"SE","addr:housenumber":"7","addr:street":"Ölandsleden","check_date":"2025-05-26","name":"Rasta Kalmar","phone":"+46 480 280 50","tourism":"motel","website":"https://www.rasta.se/kalmar/","wheelchair":"yes"}},"geometry":{"type":"Point","coordinates":[16.3224942,56.6835928]}},{"type":"Feature","properties":{"id":9933930864,"osm_type":"node","name":"Rockneby Bed & Breakfast","category":"hotel","tags":{"name":"Rockneby Bed & Breakfast","tourism":"guest_house","website":"https://www.rocknebybedobreakfast.se"}},"geometry":{"type":"Point","coordinates":[16.3601419,56.7959433]}},{"type":"Feature","properties":{"id":93332243,"osm_type":"way","name":"Slottshotellet","category":"hotel","tags":{"addr:city":"Kalmar","addr:country":"SE","addr:housenumber":"7","addr:postcode":"39233","addr:street":"Slottsvägen","building":"yes","check_date":"2024-05-02","contact:facebook":"Slottshotellet","contact:instagram":"slottshotelletkalmar","internet_access":"yes","internet_access:fee":"no","name":"Slottshotellet","rooms":"45","tourism":"hotel","website":"https://www.slottshotellet.se/"}},"geometry":{"type":"Point","coordinates":[16.3544347,56.6613915]}},{"type":"Feature","properties":{"id":93457449,"osm_type":"way","name":"Svanen","category":"hotel","tags":{"addr:housenumber":"1","addr:street":"Rappegatan","building":"hotel","designation":"Hotell och Vandrarhem Svanen AB","email":"info@hotellsvanen.se","internet_access":"wlan","internet_access:fee":"no","name":"Svanen","phone":"+46 480 25560","source":"http://www.hotellsvanen.se/","tourism":"hotel","tourism:1":"hostel","website":"https://hotellsvanen.se/","wheelchair":"yes"}},"geometry":{"type":"Point","coordinates":[16.3678117,56.6725737]}},{"type":"Feature","properties":{"id":93536021,"osm_type":"way","name":"Scandic Kalmar Väst","category":"hotel","tags":{"addr:city":"Kalmar","addr:country":"SE","addr:housenumber":"7","addr:postcode":"392 39","addr:street":"Dragonvägen","building":"hotel","name":"Scandic Kalmar Väst","operator":"Scandic","phone":"+46 480 46 93 00","tourism":"hotel"}},"geometry":{"type":"Point","coordinates":[16.3199833,56.6728086]}},{"type":"Feature","properties":{"id":310741864,"osm_type":"way","name":"STF Stora Frögården","category":"hotel","tags":{"addr:city":"Mörbylånga","addr:country":"SE","addr:housename":"Stora Frögården","addr:housenumber":"12","addr:postcode":"386 60","addr:street":"Stora Frögårdsvägen","building":"yes","name":"STF Stora Frögården","phone":"+46 485 36333","tourism":"hotel","website":"https://www.storafrogarden.se/"}},"geometry":{"type":"Point","coordinates":[16.4069865,56.5749812]}}]}