{"type":"FeatureCollection","features":[{"type":"Feature","properties":{"id":4793048949,"osm_type":"node","name":"Barnhälsovårdsmottagningen familjecentralen Färjestaden","category":"kindergarten","tags":{"amenity":"childcare","name":"Barnhälsovårdsmottagningen familjecentralen Färjestaden","opening_hours":"Mo-Th 08:00-16:30; Fr 08:00-14:00"}},"geometry":{"type":"Point","coordinates":[16.4755863,56.6407749]}},{"type":"Feature","properties":{"id":11038739846,"osm_type":"node","name":"Undringens Förskola","category":"kindergarten","tags":{"amenity":"kindergarten","name":"Undringens Förskola","operator":"Undringen"}},"geometry":{"type":"Point","coordinates":[16.4954857,56.6948971]}},{"type":"Feature","properties":{"id":11150829425,"osm_type":"node","name":"Öppen förskola Lindsdal","category":"kindergarten","tags":{"amenity":"kindergarten","name":"Öppen förskola Lindsdal"}},"geometry":{"type":"Point","coordinates":[16.2960264,56.7347781]}},{"type":"Feature","properties":{"id":12358203642,"osm_type":"node","name":"Lyckans förskola","category":"kindergarten","tags":{"addr:city":"Rockneby","addr:housenumber":"8","addr:postcode":"395 93","addr:street":"Ryssbyvägen","amenity":"kindergarten","email":"lyckansforskola@gmail.com","name":"Lyckans förskola","phone":"+4648031155","website":"https://lyckansforskola.se/"}},"geometry":{"type":"Point","coordinates":[16.3531434,56.7982286]}},{"type":"Feature","properties":{"id":13006306072,"osm_type":"node","name":"Amanda Waldorfförskola","category":"kindergarten","tags":{"addr:city":"Kalmar","addr:housenumber":"30","addr:postcode":"394 70","addr:street":"Nybrovägen","amenity":"kindergarten","name":"Amanda Waldorfförskola"}},"geometry":{"type":"Point","coordinates":[16.2358081,56.6744386]}},{"type":"Feature","properties":{"id":13006306073,"osm_type":"node","name":"Förskolan Läckeby","category":"kindergarten","tags":{"addr:city":"Läckeby","addr:housenumber":"10","addr:postcode":"395 97","addr:street":"Åbyvallsvägen","amenity":"kindergarten","name":"Förskolan Läckeby"}},"geometry":{"type":"Point","coordinates":[16.2902623,56.7806144]}},{"type":"Feature","properties":{"id":13006306075,"osm_type":"node","name":"Förskolan Lindö","category":"kindergarten","tags":{"addr:city":"Kalmar","addr:housenumber":"3","addr:postcode":"392 35","addr:street":"Lindövägen","amenity":"kindergarten","main":"Förskolan Lindö","name":"Förskolan Lindö"}},"geometry":{"type":"Point","coordinates":[16.3571298,56.6739288]}},{"type":"Feature","properties":{"id":13006306084,"osm_type":"node","name":"Förskolan Djurängsbacken","category":"kindergarten","tags":{"addr:city":"Kalmar","addr:housenumber":"51","addr:postcode":"393 53","addr:street":"Kungsgårdsvägen","amenity":"kindergarten","name":"Förskolan Djurängsbacken"}},"geometry":{"type":"Point","coordinates":[16.3319868,56.689534]}},{"type":"Feature","properties":{"id":13006317105,"osm_type":"node","name":"Förskolan Rinkabyholm","category":"kindergarten","tags":{"addr:city":"Kalmar","addr:housenumber":"68","addr:postcode":"394 77","addr:street":"Rinkabyholmsvägen","amenity":"kindergarten","name":"Förskolan Rinkabyholm"}},"geometry":{"type":"Point","coordinates":[16.2478191,56.6517915]}},{"type":"Feature","properties":{"id":13006317106,"osm_type":"node","name":"Förskolan Kungsfågeln","category":"kindergarten","tags":{"addr:city":"Kalmar","addr:housenumber":"21","addr:postcode":"392 34","addr:street":"Nygatan","amenity":"kindergarten","main":"Förskolan Oxhagen-Malmen","name":"Förskolan Kungsfågeln"}},"geometry":{"type":"Point","coordinates":[16.3486312,56.666571]}},{"type":"Feature","properties":{"id":13006317107,"osm_type":"node","name":"Förskolan Smedby","category":"kindergarten","tags":{"addr:city":"Kalmar","addr:housenumber":"3","addr:postcode":"394 71","addr:street":"Odlingsvägen","amenity":"kindergarten","name":"Förskolan Smedby"}},"geometry":{"type":"Point","coordinates":[16.2301272,56.6840069]}},{"type":"Feature","properties":{"id":13006317108,"osm_type":"node","name":"Förskolan Skattkammaren","category":"kindergarten","tags":{"addr:city":"Kalmar","addr:housenumber":"23","addr:postcode":"392 46","addr:street":"Kungsgatan","amenity":"kindergarten","name":"Förskolan Skattkammaren"}},"geometry":{"type":"Point","coordinates":[16.3447487,56.6614127]}},{"type":"Feature","properties":{"id":13006317109,"osm_type":"node","name":"Förskolan Stinsen","category":"kindergarten","tags":{"addr:city":"Läckeby","addr:housenumber":"7F","addr:postcode":"395 97","addr:street":"Lundgatan","amenity":"kindergarten","name":"Förskolan Stinsen"}},"geometry":{"type":"Point","coordinates":[16.2788469,56.7804321]}},{"type":"Feature","properties":{"id":13006317110,"osm_type":"node","name":"Förskolan Stora Hjärtat","category":"kindergarten","tags":{"addr:city":"Ljungbyholm","addr:housenumber":"5","addr:postcode":"388 92","addr:street":"Hossmo kyrkväg","amenity":"kindergarten","name":"Förskolan Stora Hjärtat"}},"geometry":{"type":"Point","coordinates":[16.2249774,56.6378138]}},{"type":"Feature","properties":{"id":13006317113,"osm_type":"node","name":"Avdelningarna Fyren och Kajaken","category":"kindergarten","tags":{"addr:city":"Kalmar","addr:housenumber":"25","addr:postcode":"393 58","addr:street":"Granvägen","amenity":"kindergarten","main":"Förskolan Ögonstenen","name":"Avdelningarna Fyren och Kajaken"}},"geometry":{"type":"Point","coordinates":[16.3568133,56.699823]}},{"type":"Feature","properties":{"id":13006317114,"osm_type":"node","name":"Förskolan Funkabotorget","category":"kindergarten","tags":{"addr:city":"Kalmar","addr:housenumber":"3","addr:postcode":"393 52","addr:street":"Funkabotorget","amenity":"kindergarten","name":"Förskolan Funkabotorget"}},"geometry":{"type":"Point","coordinates":[16.339847,56.6892689]}},{"type":"Feature","properties":{"id":13006317115,"osm_type":"node","name":"Förskolan Vallmon","category":"kindergarten","tags":{"addr:city":"Kalmar","addr:housenumber":"2","addr:postcode":"392 44","addr:street":"Sturckvägen","amenity":"kindergarten","name":"Förskolan Vallmon"}},"geometry":{"type":"Point","coordinates":[16.3250238,56.6632303]}},{"type":"Feature","properties":{"id":13006317121,"osm_type":"node","name":"Luftballongens förskola","category":"kindergarten","tags":{"addr:city":"Kalmar","addr:housenumber":"56","addr:postcode":"393 65","addr:street":"Förlösavägen","amenity":"kindergarten","name":"Luftballongens förskola"}},"geometry":{"type":"Point","coordinates":[16.2794638,56.7364737]}},{"type":"Feature","properties":{"id":13006317122,"osm_type":"node","name":"Rackarungarnas förskola","category":"kindergarten","tags":{"addr:city":"Kalmar","addr:housenumber":"3C","addr:postcode":"392 43","addr:street":"Nyslottsgatan","amenity":"kindergarten","name":"Rackarungarnas förskola"}},"geometry":{"type":"Point","coordinates":[16.3184497,56.6670545]}},{"type":"Feature","properties":{"id":13006317123,"osm_type":"node","name":"Solkattens förskola","category":"kindergarten","tags":{"addr:city":"Kalmar","addr:housenumber":"7A","addr:postcode":"392 49","addr:street":"Erik Dahlbergsväg","amenity":"kindergarten","name":"Solkattens förskola"}},"geometry":{"type":"Point","coordinates":[16.3542169,56.6694413]}},{"type":"Feature","properties":{"id":91222224,"osm_type":"way","name":"Förskolan Sjöängen","category":"kindergarten","tags":{"addr:city":"Kalmar","addr:housenumber":"17","addr:postcode":"393 63","addr:street":"Önnemovägen","amenity":"kindergarten","building":"kindergarten","main":"Förskolan Lindeberga Sjöängen","name":"Förskolan Sjöängen","website":"https://kalmar.se/utbildning-och-barnomsorg/forskola-1-5-ar-och-fritidshem/forskolor-i-kalmar/forskolan--lindeberga-sjoangen.html"}},"geometry":{"type":"Point","coordinates":[16.3060035,56.7316042]}},{"type":"Feature","properties":{"id":94101618,"osm_type":"way","name":"Förskolan Kotten","category":"kindergarten","tags":{"addr:city":"Kalmar","addr:country":"SE","addr:housenumber":"8","addr:postcode":"392 44","addr:street":"Johannesborgsgatan","amenity":"kindergarten","building":"yes","name":"Förskolan Kotten"}},"geometry":{"type":"Point","coordinates":[16.3246713,56.6665136]}},{"type":"Feature","properties":{"id":94501413,"osm_type":"way","name":"Förskolan Svärdsliljan","category":"kindergarten","tags":{"addr:city":"Kalmar","addr:housenumber":"29","addr:postcode":"392 45","addr:street":"Drottning Margaretas väg","amenity":"kindergarten","building":"kindergarten","name":"Förskolan Svärdsliljan"}},"geometry":{"type":"Point","coordinates":[16.3374005,56.6614562]}},{"type":"Feature","properties":{"id":94710436,"osm_type":"way","name":"Förskolan Barnens Gård","category":"kindergarten","tags":{"addr:city":"Kalmar","addr:housenumber":"7","addr:postcode":"392 35","addr:street":"Fogdegatan","amenity":"kindergarten","building":"kindergarten","main":"Förskolan Lindö","name":"Förskolan Barnens Gård"}},"geometry":{"type":"Point","coordinates":[16.3530807,56.6723379]}},{"type":"Feature","properties":{"id":128265648,"osm_type":"way","name":"Förskolan Lindeberga","category":"kindergarten","tags":{"addr:city":"Kalmar","addr:housenumber":"17","addr:postcode":"393 64","addr:street":"Skaffarevägen","amenity":"kindergarten","check_date":"2024-05-03","main":"Förskolan Lindeberga Sjöängen","name":"Förskolan Lindeberga"}},"geometry":{"type":"Point","coordinates":[16.2957664,56.72735]}},{"type":"Feature","properties":{"id":143414075,"osm_type":"way","name":"Förskolan Loket","category":"kindergarten","tags":{"addr:city":"Kalmar","addr:country":"SE","addr:housenumber":"3","addr:postcode":"39352","addr:street":"Drottning Blankas väg","amenity":"kindergarten","building":"yes","name":"Förskolan Loket"}},"geometry":{"type":"Point","coordinates":[16.3362125,56.6929274]}},{"type":"Feature","properties":{"id":143414076,"osm_type":"way","name":"Förskolan Trollet","category":"kindergarten","tags":{"addr:city":"Kalmar","addr:housenumber":"10","addr:postcode":"393 52","addr:street":"Klunkens backe","amenity":"kindergarten","building":"kindergarten","floor":"1","name":"Förskolan Trollet","preschool":"yes"}},"geometry":{"type":"Point","coordinates":[16.3398882,56.6959229]}},{"type":"Feature","properties":{"id":143414122,"osm_type":"way","name":"","category":"kindergarten","tags":{"amenity":"kindergarten"}},"geometry":{"type":"Point","coordinates":[16.3362526,56.6928308]}},{"type":"Feature","properties":{"id":143414123,"osm_type":"way","name":"","category":"kindergarten","tags":{"amenity":"kindergarten"}},"geometry":{"type":"Point","coordinates":[16.3396412,56.6957908]}},{"type":"Feature","properties":{"id":145097004,"osm_type":"way","name":"Förskolan Ljusstaden","category":"kindergarten","tags":{"addr:city":"Kalmar","addr:country":"SE","addr:housenumber":"33","addr:postcode":"393 60","addr:street":"Vänskapens Väg","amenity":"kindergarten","building":"kindergarten","main":"Förskolan Björkenäs-Ljusstaden","name":"Förskolan Ljusstaden","preschool":"yes"}},"geometry":{"type":"Point","coordinates":[16.3387556,56.7082335]}},{"type":"Feature","properties":{"id":145119811,"osm_type":"way","name":"Förskolan Björkenäs","category":"kindergarten","tags":{"addr:city":"Kalmar","addr:housenumber":"10-12","addr:postcode":"393 59","addr:street":"Björkenäsvägen","amenity":"kindergarten","main":"Förskolan Björkenäs-Ljusstaden","name":"Förskolan Björkenäs"}},"geometry":{"type":"Point","coordinates":[16.3482332,56.709299]}},{"type":"Feature","properties":{"id":147060133,"osm_type":"way","name":"","category":"kindergarten","tags":{"amenity":"kindergarten"}},"geometry":{"type":"Point","coordinates":[16.3484013,56.6856653]}},{"type":"Feature","properties":{"id":149885319,"osm_type":"way","name":"Förskolan kotten","category":"kindergarten","tags":{"amenity":"kindergarten","name":"Förskolan kotten"}},"geometry":{"type":"Point","coordinates":[16.3247128,56.6665278]}},{"type":"Feature","properties":{"id":155790414,"osm_type":"way","name":"Förskolan Sunnanvind","category":"kindergarten","tags":{"addr:city":"Kalmar","addr:housenumber":"21","addr:postcode":"392 34","addr:street":"Fabriksgatan","amenity":"kindergarten","name":"Förskolan Sunnanvind"}},"geometry":{"type":"Point","coordinates":[16.3502357,56.6658962]}},{"type":"Feature","properties":{"id":304915878,"osm_type":"way","name":"Snäckstrands förskola","category":"kindergarten","tags":{"amenity":"kindergarten","name":"Snäckstrands förskola"}},"geometry":{"type":"Point","coordinates":[16.4848653,56.6591208]}},{"type":"Feature","properties":{"id":311106210,"osm_type":"way","name":"Förskolan Smedjan","category":"kindergarten","tags":{"addr:city":"Kalmar","addr:housenumber":"11","addr:postcode":"393 63","addr:street":"Spelarvägen","amenity":"kindergarten","main":"Förskolan Pulpeten Smedjan","name":"Förskolan Smedjan"}},"geometry":{"type":"Point","coordinates":[16.3088843,56.7214465]}},{"type":"Feature","properties":{"id":413112489,"osm_type":"way","name":"Förskolan Pulpeten","category":"kindergarten","tags":{"addr:city":"Kalmar","addr:housenumber":"4","addr:postcode":"393 65","addr:street":"Slätmossevägen","amenity":"kindergarten","check_date":"2025-06-24","main":"Förskolan Pulpeten Smedjan","name":"Förskolan Pulpeten"}},"geometry":{"type":"Point","coordinates":[16.289805,56.7347576]}},{"type":"Feature","properties":{"id":500920905,"osm_type":"way","name":"Förskolan Ögonstenen","category":"kindergarten","tags":{"addr:city":"Kalmar","addr:country":"SE","addr:housenumber":"15","addr:postcode":"39359","addr:street":"Koltrastvägen","amenity":"kindergarten","building":"yes","name":"Förskolan Ögonstenen"}},"geometry":{"type":"Point","coordinates":[16.355568,56.7017079]}},{"type":"Feature","properties":{"id":553278290,"osm_type":"way","name":"Förskolan Snurrom","category":"kindergarten","tags":{"addr:city":"Kalmar","addr:country":"SE","addr:housenumber":"17","addr:postcode":"393 61","addr:street":"Skvattramsvägen","amenity":"kindergarten","building":"yes","name":"Förskolan Snurrom"}},"geometry":{"type":"Point","coordinates":[16.3241596,56.7127206]}},{"type":"Feature","properties":{"id":638324901,"osm_type":"way","name":"","category":"kindergarten","tags":{"amenity":"childcare","building":"yes"}},"geometry":{"type":"Point","coordinates":[16.2611234,56.654816]}},{"type":"Feature","properties":{"id":649738962,"osm_type":"way","name":"","category":"kindergarten","tags":{"amenity":"kindergarten"}},"geometry":{"type":"Point","coordinates":[16.2610664,56.6547018]}},{"type":"Feature","properties":{"id":732984021,"osm_type":"way","name":"","category":"kindergarten","tags":{"amenity":"kindergarten"}},"geometry":{"type":"Point","coordinates":[16.3392349,56.7078528]}},{"type":"Feature","properties":{"id":732984022,"osm_type":"way","name":"","category":"kindergarten","tags":{"amenity":"kindergarten"}},"geometry":{"type":"Point","coordinates":[16.3395225,56.7077563]}},{"type":"Feature","properties":{"id":929413015,"osm_type":"way","name":"Förskolan Kapten Karlsson","category":"kindergarten","tags":{"addr:city":"Kalmar","addr:country":"SE","addr:housenumber":"3","addr:postcode":"39355","addr:street":"Ostindevägen","amenity":"kindergarten","building:levels":"2","name":"Förskolan Kapten Karlsson","preschool":"yes"}},"geometry":{"type":"Point","coordinates":[16.3340086,56.6981437]}},{"type":"Feature","properties":{"id":1206223950,"osm_type":"way","name":"Förskolan Milstenen","category":"kindergarten","tags":{"addr:city":"Kalmar","addr:housenumber":"9","addr:postcode":"393 65","addr:street":"Östra Gösbäcksvägen","amenity":"kindergarten","main":"Förskolan Lindeberga Sjöängen","name":"Förskolan Milstenen","note":"Added without imagery, size and position is not correct."}},"geometry":{"type":"Point","coordinates":[16.2952904,56.736787]}},{"type":"Feature","properties":{"id":1303594009,"osm_type":"way","name":"Förskolan Topasen","category":"kindergarten","tags":{"addr:city":"Kalmar","addr:housenumber":"13","addr:postcode":"392 38","addr:street":"Skälby Allén","amenity":"kindergarten","main":"Förskolan Oxhagen-Malmen","name":"Förskolan Topasen"}},"geometry":{"type":"Point","coordinates":[16.333645,56.6797686]}},{"type":"Feature","properties":{"id":1334823318,"osm_type":"way","name":"Förskolan Kullen","category":"kindergarten","tags":{"addr:city":"Rockneby","addr:housenumber":"17A-17B","addr:postcode":"395 93","addr:street":"Ryssbyvägen","amenity":"kindergarten","main":"Förskolan Rockneby","name":"Förskolan Kullen"}},"geometry":{"type":"Point","coordinates":[16.3500396,56.8007219]}},{"type":"Feature","properties":{"id":1334828300,"osm_type":"way","name":"Förskolan Torsbäcken","category":"kindergarten","tags":{"addr:city":"Rockneby","addr:housenumber":"13","addr:postcode":"395 93","addr:street":"Östra Dampegatan","amenity":"kindergarten","main":"Förskolan Rockneby","name":"Förskolan Torsbäcken"}},"geometry":{"type":"Point","coordinates":[16.346786,56.8016453]}},{"type":"Feature","properties":{"id":1374483,"osm_type":"relation","name":"Ringdansen","category":"kindergarten","tags":{"amenity":"kindergarten","building":"yes","name":"Ringdansen","type":"multipolygon"}},"geometry":{"type":"Point","coordinates":[16.3480757,56.6857662]}},{"type":"Feature","properties":{"id":10181759,"osm_type":"relation","name":"","category":"kindergarten","tags":{"amenity":"kindergarten","type":"multipolygon"}},"geometry":{"type":"Point","coordinates":[16.3917074,56.5234014]}},{"type":"Feature","properties":{"id":10812345,"osm_type":"relation","name":"","category":"kindergarten","tags":{"amenity":"kindergarten","type":"multipolygon"}},"geometry":{"type":"Point","coordinates":[16.4843436,56.6419304]}},{"type":"Feature","properties":{"id":13395340,"osm_type":"relation","name":"Förskolan Tallen","category":"kindergarten","tags":{"addr:city":"Kalmar","addr:housenumber":"17","addr:postcode":"392 36","addr:street":"Gröndalsvägen","amenity":"kindergarten","main":"Förskolan Lindö","name":"Förskolan Tallen","type":"multipolygon"}},"geometry":{"type":"Point","coordinates":[16.3557297,56.6772256]}}]}