{"type":"FeatureCollection","features":[{"type":"Feature","properties":{"id":418125696,"osm_type":"node","name":"Lindsdalsbiblioteket","category":"library","tags":{"amenity":"library","name":"Lindsdalsbiblioteket","opening_hours":"Mo,Th 15:00-19:00; Tu 09:00-17:00; We 09:00-13:00; Fr 13:00-17:00","wheelchair":"yes"}},"geometry":{"type":"Point","coordinates":[16.2959656,56.7346026]}},{"type":"Feature","properties":{"id":1597684549,"osm_type":"node","name":"","category":"library","tags":{"amenity":"library","description":"Skolbibliotek"}},"geometry":{"type":"Point","coordinates":[16.3439264,56.6693238]}},{"type":"Feature","properties":{"id":2476480984,"osm_type":"node","name":"Mörbylånga bibliotek","category":"library","tags":{"amenity":"library","name":"Mörbylånga bibliotek","operator":"Mörbylånga kommun"}},"geometry":{"type":"Point","coordinates":[16.3751899,56.5274913]}},{"type":"Feature","properties":{"id":4792927468,"osm_type":"node","name":"Färjestadens Bibliotek","category":"library","tags":{"amenity":"library","check_date":"2023-04-15","name":"Färjestadens Bibliotek","opening_hours":"Mo 13:00-18:00; Tu 10:00-18:00; We-Fr 10:00-16:00; Sa 10:00-13:00"}},"geometry":{"type":"Point","coordinates":[16.468374,56.6517466]}},{"type":"Feature","properties":{"id":9070947117,"osm_type":"node","name":"Färjestadens Bibliotek","category":"library","tags":{"amenity":"library","name":"Färjestadens Bibliotek","opening_hours":"Mo 13:00-18:00; Tu 10:00-18:00; We-Fr 10:00-16:00; Sa 10:00-13:00"}},"geometry":{"type":"Point","coordinates":[16.4686967,56.6516313]}},{"type":"Feature","properties":{"id":91265006,"osm_type":"way","name":"Stadsbiblioteket","category":"library","tags":{"amenity":"library","building":"public","check_date:opening_hours":"2024-05-08","name":"Stadsbiblioteket","opening_hours":"Mo-Th 10:00-19:00; Fr 10:00-18:00; Sa,Su 12:00-16:00; PH off","wheelchair":"yes"}},"geometry":{"type":"Point","coordinates":[16.3571144,56.6653041]}},{"type":"Feature","properties":{"id":776733721,"osm_type":"way","name":"Stella","category":"library","tags":{"amenity":"library","building":"yes","name":"Stella","operator":"Linnéuniversitetet"}},"geometry":{"type":"Point","coordinates":[16.3634109,56.6594618]}}]}