{"type":"FeatureCollection","features":[{"type":"Feature","properties":{"id":37800334,"osm_type":"way","name":"Giraffen Köpcentrum","category":"mall","tags":{"building":"retail","check_date:opening_hours":"2025-08-15","name":"Giraffen Köpcentrum","opening_hours":"Mo-Fr 10:00-19:00; Sa,Su 10:00-17:00","shop":"mall","toilets":"yes"}},"geometry":{"type":"Point","coordinates":[16.3368882,56.6702932]}},{"type":"Feature","properties":{"id":38033725,"osm_type":"way","name":"Baronens köpcentrum","category":"mall","tags":{"building":"retail","name":"Baronens köpcentrum","shop":"mall"}},"geometry":{"type":"Point","coordinates":[16.3651222,56.6608242]}},{"type":"Feature","properties":{"id":44015384,"osm_type":"way","name":"Ölands Köpstad","category":"mall","tags":{"addr:city":"Färjestaden","addr:country":"SE","addr:housenumber":"1","addr:postcode":"38631","addr:street":"Brovägen","building":"commercial","name":"Ölands Köpstad","opening_hours":"Mo-Fr 10:00-19:00; Sa 10:00-16:00; Su 11:00-16:00","opening_hours:url":"http://www.olandskopstad.se/oppettider-pa-olands-kopstad/","roof:shape":"flat","shop":"mall","toilets":"yes","website":"https://www.olandskopstad.se/"}},"geometry":{"type":"Point","coordinates":[16.4697705,56.6520201]}},{"type":"Feature","properties":{"id":48534537,"osm_type":"way","name":"Modehuset","category":"mall","tags":{"building":"retail","name":"Modehuset","opening_hours":"Mo-Fr 10:00-19:00; Sa,Su 10:00-17:00","shop":"mall","toilets":"yes","toilets:wheelchair":"yes","wheelchair":"limited"}},"geometry":{"type":"Point","coordinates":[16.3203801,56.6872618]}},{"type":"Feature","properties":{"id":91265011,"osm_type":"way","name":"Kvasten","category":"mall","tags":{"building":"commercial","name":"Kvasten","shop":"mall","wheelchair":"yes"}},"geometry":{"type":"Point","coordinates":[16.3631546,56.6637239]}},{"type":"Feature","properties":{"id":92204159,"osm_type":"way","name":"Gallerian","category":"mall","tags":{"building":"commercial","name":"Gallerian","shop":"mall"}},"geometry":{"type":"Point","coordinates":[16.3619909,56.663403]}}]}