{"type":"FeatureCollection","features":[{"type":"Feature","properties":{"id":9933903182,"osm_type":"node","name":"Tjorven Café","category":"museum","tags":{"name":"Tjorven Café","tourism":"museum"}},"geometry":{"type":"Point","coordinates":[16.3407657,56.8089844]}},{"type":"Feature","properties":{"id":91285833,"osm_type":"way","name":"Kalmar läns museum","category":"museum","tags":{"addr:city":"Kalmar","addr:country":"SE","addr:housenumber":"51","addr:postcode":"392 31","addr:street":"Skeppsbrogatan","building":"yes","level":"0","name":"Kalmar läns museum","toilets:wheelchair":"yes","tourism":"museum","website":"https://www.kalmarlansmuseum.se/","wheelchair":"yes"}},"geometry":{"type":"Point","coordinates":[16.3704667,56.6643971]}}]}