{"type":"FeatureCollection","features":[{"type":"Feature","properties":{"id":4389179311,"osm_type":"node","name":"Lindöparken","category":"park","tags":{"leisure":"park","name":"Lindöparken"}},"geometry":{"type":"Point","coordinates":[16.3607496,56.6721284]}},{"type":"Feature","properties":{"id":35773127,"osm_type":"way","name":"Skeppsbrovallen","category":"park","tags":{"leisure":"park","name":"Skeppsbrovallen"}},"geometry":{"type":"Point","coordinates":[16.36534,56.6621176]}},{"type":"Feature","properties":{"id":35773130,"osm_type":"way","name":"Unionsparken","category":"park","tags":{"leisure":"park","name":"Unionsparken"}},"geometry":{"type":"Point","coordinates":[16.3598153,56.6621822]}},{"type":"Feature","properties":{"id":35801613,"osm_type":"way","name":"Ravelinen","category":"park","tags":{"leisure":"park","name":"Ravelinen"}},"geometry":{"type":"Point","coordinates":[16.3564653,56.663102]}},{"type":"Feature","properties":{"id":35801614,"osm_type":"way","name":"Dryaden","category":"park","tags":{"leisure":"park","name":"Dryaden"}},"geometry":{"type":"Point","coordinates":[16.356689,56.6624792]}},{"type":"Feature","properties":{"id":36194480,"osm_type":"way","name":"Sylvanderparken","category":"park","tags":{"leisure":"park","name":"Sylvanderparken"}},"geometry":{"type":"Point","coordinates":[16.3585652,56.6595975]}},{"type":"Feature","properties":{"id":38177096,"osm_type":"way","name":"Malmtorget","category":"park","tags":{"leisure":"park","name":"Malmtorget"}},"geometry":{"type":"Point","coordinates":[16.3478588,56.6664112]}},{"type":"Feature","properties":{"id":38177098,"osm_type":"way","name":"Carlbergsparken","category":"park","tags":{"leisure":"park","name":"Carlbergsparken"}},"geometry":{"type":"Point","coordinates":[16.3475927,56.6676506]}},{"type":"Feature","properties":{"id":38188689,"osm_type":"way","name":"Ängöplan","category":"park","tags":{"leisure":"park","name":"Ängöplan"}},"geometry":{"type":"Point","coordinates":[16.3701579,56.6716925]}},{"type":"Feature","properties":{"id":38523906,"osm_type":"way","name":"","category":"park","tags":{"leisure":"park"}},"geometry":{"type":"Point","coordinates":[16.2705494,56.6615957]}},{"type":"Feature","properties":{"id":39832946,"osm_type":"way","name":"","category":"park","tags":{"leisure":"park"}},"geometry":{"type":"Point","coordinates":[16.3324459,56.6642004]}},{"type":"Feature","properties":{"id":41503227,"osm_type":"way","name":"Ståthållareparken","category":"park","tags":{"leisure":"park","name":"Ståthållareparken"}},"geometry":{"type":"Point","coordinates":[16.3325554,56.6602141]}},{"type":"Feature","properties":{"id":44015391,"osm_type":"way","name":"","category":"park","tags":{"leisure":"park"}},"geometry":{"type":"Point","coordinates":[16.4670796,56.6486255]}},{"type":"Feature","properties":{"id":128278527,"osm_type":"way","name":"Floras kulle","category":"park","tags":{"leisure":"park","name":"Floras kulle"}},"geometry":{"type":"Point","coordinates":[16.3622115,56.661538]}},{"type":"Feature","properties":{"id":128489223,"osm_type":"way","name":"Knarröparken","category":"park","tags":{"leisure":"park","name":"Knarröparken"}},"geometry":{"type":"Point","coordinates":[16.3754818,56.6691979]}},{"type":"Feature","properties":{"id":143399518,"osm_type":"way","name":"","category":"park","tags":{"leisure":"park"}},"geometry":{"type":"Point","coordinates":[16.3427285,56.69087]}},{"type":"Feature","properties":{"id":143854839,"osm_type":"way","name":"Kungstorget","category":"park","tags":{"leisure":"park","name":"Kungstorget"}},"geometry":{"type":"Point","coordinates":[16.3444105,56.6620591]}},{"type":"Feature","properties":{"id":148951700,"osm_type":"way","name":"Hantverksplan","category":"park","tags":{"leisure":"park","name":"Hantverksplan"}},"geometry":{"type":"Point","coordinates":[16.3543733,56.6680231]}},{"type":"Feature","properties":{"id":149032133,"osm_type":"way","name":"Margaretaplan","category":"park","tags":{"leisure":"park","name":"Margaretaplan"}},"geometry":{"type":"Point","coordinates":[16.342849,56.6590493]}},{"type":"Feature","properties":{"id":149032153,"osm_type":"way","name":"Stensbergsparken","category":"park","tags":{"leisure":"park","name":"Stensbergsparken"}},"geometry":{"type":"Point","coordinates":[16.3356563,56.6591253]}},{"type":"Feature","properties":{"id":191110394,"osm_type":"way","name":"Rävspelet","category":"park","tags":{"leisure":"park","name":"Rävspelet","name:sv":"Rävspelet"}},"geometry":{"type":"Point","coordinates":[16.3632699,56.6671034]}},{"type":"Feature","properties":{"id":306972817,"osm_type":"way","name":"","category":"park","tags":{"leisure":"park"}},"geometry":{"type":"Point","coordinates":[16.3744426,56.526869]}},{"type":"Feature","properties":{"id":322217556,"osm_type":"way","name":"","category":"park","tags":{"leisure":"park"}},"geometry":{"type":"Point","coordinates":[16.4693038,56.6533773]}},{"type":"Feature","properties":{"id":440369743,"osm_type":"way","name":"Vänortsparken","category":"park","tags":{"leisure":"park","name":"Vänortsparken"}},"geometry":{"type":"Point","coordinates":[16.3531939,56.6625809]}},{"type":"Feature","properties":{"id":468652765,"osm_type":"way","name":"Färjeparken","category":"park","tags":{"leisure":"park","name":"Färjeparken"}},"geometry":{"type":"Point","coordinates":[16.4779744,56.6400089]}},{"type":"Feature","properties":{"id":486717041,"osm_type":"way","name":"","category":"park","tags":{"description":"Liten park. Ett par parkbänkar","leisure":"park"}},"geometry":{"type":"Point","coordinates":[16.4727251,56.648892]}},{"type":"Feature","properties":{"id":486719037,"osm_type":"way","name":"","category":"park","tags":{"description":"Ek allé. Naturminnen","leisure":"park"}},"geometry":{"type":"Point","coordinates":[16.4708442,56.6474826]}},{"type":"Feature","properties":{"id":547695195,"osm_type":"way","name":"","category":"park","tags":{"leisure":"park"}},"geometry":{"type":"Point","coordinates":[16.3384212,56.6810148]}},{"type":"Feature","properties":{"id":563102834,"osm_type":"way","name":"Sinnenas Park","category":"park","tags":{"description:en":"Park Near the hospital!","leisure":"park","name":"Sinnenas Park"}},"geometry":{"type":"Point","coordinates":[16.3287974,56.6583819]}},{"type":"Feature","properties":{"id":740153751,"osm_type":"way","name":"","category":"park","tags":{"leisure":"park"}},"geometry":{"type":"Point","coordinates":[16.2707537,56.6623515]}},{"type":"Feature","properties":{"id":748887373,"osm_type":"way","name":"Segelparken","category":"park","tags":{"leisure":"park","name":"Segelparken"}},"geometry":{"type":"Point","coordinates":[16.374505,56.5286734]}},{"type":"Feature","properties":{"id":786360508,"osm_type":"way","name":"","category":"park","tags":{"description":"F.d. Hästhoppningen","leisure":"park"}},"geometry":{"type":"Point","coordinates":[16.3808873,56.5266785]}},{"type":"Feature","properties":{"id":786360515,"osm_type":"way","name":"Bruksrasten","category":"park","tags":{"leisure":"park","name":"Bruksrasten"}},"geometry":{"type":"Point","coordinates":[16.3790805,56.529716]}},{"type":"Feature","properties":{"id":847212428,"osm_type":"way","name":"","category":"park","tags":{"leisure":"park"}},"geometry":{"type":"Point","coordinates":[16.3391493,56.7041555]}},{"type":"Feature","properties":{"id":974377432,"osm_type":"way","name":"","category":"park","tags":{"leisure":"park"}},"geometry":{"type":"Point","coordinates":[16.2994097,56.7822531]}},{"type":"Feature","properties":{"id":974629547,"osm_type":"way","name":"","category":"park","tags":{"leisure":"park"}},"geometry":{"type":"Point","coordinates":[16.2930481,56.7837584]}},{"type":"Feature","properties":{"id":974945754,"osm_type":"way","name":"","category":"park","tags":{"leisure":"park"}},"geometry":{"type":"Point","coordinates":[16.3029743,56.7807444]}},{"type":"Feature","properties":{"id":1355660,"osm_type":"relation","name":"Krusenstjernska trädgården","category":"park","tags":{"leisure":"park","name":"Krusenstjernska trädgården","type":"multipolygon"}},"geometry":{"type":"Point","coordinates":[16.3483428,56.6599574]}},{"type":"Feature","properties":{"id":10181761,"osm_type":"relation","name":"","category":"park","tags":{"leisure":"park","type":"multipolygon"}},"geometry":{"type":"Point","coordinates":[16.3861511,56.5246826]}},{"type":"Feature","properties":{"id":10272775,"osm_type":"relation","name":"Mörbylångaparken","category":"park","tags":{"leisure":"park","name":"Mörbylångaparken","type":"multipolygon"}},"geometry":{"type":"Point","coordinates":[16.3766047,56.5285255]}},{"type":"Feature","properties":{"id":10844314,"osm_type":"relation","name":"","category":"park","tags":{"landuse":"village_green","leisure":"park","type":"multipolygon"}},"geometry":{"type":"Point","coordinates":[16.3703429,56.6663569]}},{"type":"Feature","properties":{"id":11913284,"osm_type":"relation","name":"Stadsparken","category":"park","tags":{"leisure":"park","name":"Stadsparken","type":"multipolygon"}},"geometry":{"type":"Point","coordinates":[16.3548834,56.6603823]}},{"type":"Feature","properties":{"id":12902627,"osm_type":"relation","name":"Ola Magnells park","category":"park","tags":{"leisure":"park","name":"Ola Magnells park","type":"multipolygon"}},"geometry":{"type":"Point","coordinates":[16.3407921,56.6735981]}}]}