{"type":"FeatureCollection","features":[{"type":"Feature","properties":{"id":418125698,"osm_type":"node","name":"Apoteket Solvändan","category":"pharmacy","tags":{"addr:city":"Kalmar","addr:housenumber":"4","addr:postcode":"393 65","addr:province":"Kalmar kommun","addr:street":"Förlösavägen","amenity":"pharmacy","branch":"Solvändan","brand":"Apoteket","brand:wikidata":"Q1785637","contact:phone":"+46771450450","dispensing":"yes","healthcare":"pharmacy","name":"Apoteket Solvändan","opening_hours":"Mo-Fr 08:00-18:00; Sa 09:00-14:00","operator":"Apoteket","wheelchair":"yes"}},"geometry":{"type":"Point","coordinates":[16.2955449,56.7342702]}},{"type":"Feature","properties":{"id":449813140,"osm_type":"node","name":"Apotek","category":"pharmacy","tags":{"addr:city":"Kalmar","addr:housenumber":"22","addr:postcode":"392 32","addr:province":"Kalmar kommun","addr:street":"Västra Sjögatan","amenity":"pharmacy","brand":"Apoteksgruppen","brand:wikidata":"Q10416129","brand:wikipedia":"sv:Apoteksgruppen","check_date":"2023-04-17","dispensing":"yes","healthcare":"pharmacy","name":"Apotek","opening_hours":"Mo-Fr 09:00-18:00; Sa 09:30-15:00","operator":"Apoteksgruppen","payment:cash":"yes","website":"https://www.apoteksgruppen.se","website:stock":"https://www.fass.se/"}},"geometry":{"type":"Point","coordinates":[16.3642632,56.6650384]}},{"type":"Feature","properties":{"id":452382260,"osm_type":"node","name":"Apoteket Sundet","category":"pharmacy","tags":{"addr:city":"Kalmar","addr:postcode":"392 44","addr:province":"Kalmar kommun","addr:street":"Lasarettsvägen, Länssjukhuset","amenity":"pharmacy","dispensing":"yes","drive_through":"no","healthcare":"pharmacy","name":"Apoteket Sundet","operator":"Apoteket","website:stock":"https://www.fass.se/"}},"geometry":{"type":"Point","coordinates":[16.3295094,56.6575621]}},{"type":"Feature","properties":{"id":1674642136,"osm_type":"node","name":"DOZ Apotek","category":"pharmacy","tags":{"amenity":"pharmacy","brand":"DOZ Apotek","brand:wikidata":"Q10475311","healthcare":"pharmacy","name":"DOZ Apotek"}},"geometry":{"type":"Point","coordinates":[16.3202353,56.6872737]}},{"type":"Feature","properties":{"id":4376946362,"osm_type":"node","name":"Apoteket Hinden","category":"pharmacy","tags":{"addr:city":"Kalmar","addr:housenumber":"23","addr:postcode":"393 52","addr:province":"Kalmar kommun","addr:street":"Rimsmedsvägen","amenity":"pharmacy","brand":"Apoteket","contact:phone":"+46771450450","healthcare":"pharmacy","name":"Apoteket Hinden","opening_hours":"Mo-Fr 08:30-18:00; Sa 09:00-14:00","operator":"Apoteket AB (publ)"}},"geometry":{"type":"Point","coordinates":[16.3393632,56.6922198]}},{"type":"Feature","properties":{"id":4792969340,"osm_type":"node","name":"Apoteksgruppen","category":"pharmacy","tags":{"amenity":"pharmacy","branch":"Färjestaden","brand":"Apoteksgruppen","brand:wikidata":"Q10416129","brand:wikipedia":"sv:Apoteksgruppen","drive_through":"no","healthcare":"pharmacy","name":"Apoteksgruppen","opening_hours":"Mo-Fr 09:00-18:00; Sa 10:00-16:00; Su 11:00-16:00","ownership":"national"}},"geometry":{"type":"Point","coordinates":[16.4708881,56.6519803]}},{"type":"Feature","properties":{"id":7567033081,"osm_type":"node","name":"Apoteket Baronen","category":"pharmacy","tags":{"addr:city":"Kalmar","addr:country":"SE","addr:housenumber":"12","addr:postcode":"392 31","addr:province":"Kalmar kommun","addr:street":"Baronen Köpcentrum,","amenity":"pharmacy","branch":"Baronen","brand":"Apoteket","brand:wikidata":"Q1785637","dispensing":"yes","drive_through":"no","healthcare":"pharmacy","name":"Apoteket Baronen","opening_hours":"Mo-Fr 10:00-19:00; Sa 10:00-17:00; Su 12:00-16:00","operator":"Apoteket","website":"https://www.apoteket.se/"}},"geometry":{"type":"Point","coordinates":[16.3650389,56.6609601]}},{"type":"Feature","properties":{"id":9001419641,"osm_type":"node","name":"Apotek Hjärtat Länssjukhuset Kalmar","category":"pharmacy","tags":{"addr:city":"Kalmar","addr:postcode":"392 44","addr:province":"Kalmar kommun","addr:street":"Huvudentrén, hus","amenity":"pharmacy","brand":"Apotek Hjärtat","brand:wikidata":"Q10416114","brand:wikipedia":"sv:Apotek Hjärtat","dispensing":"yes","drive_through":"no","healthcare":"pharmacy","name":"Apotek Hjärtat Länssjukhuset Kalmar","operator":"Apotek Hjärtat"}},"geometry":{"type":"Point","coordinates":[16.3327364,56.6576934]}},{"type":"Feature","properties":{"id":12998676681,"osm_type":"node","name":"Kronans Apotek Giraffen","category":"pharmacy","tags":{"addr:city":"Kalmar","addr:housenumber":"13","addr:postcode":"392 39","addr:province":"Kalmar kommun","addr:street":"Polhemsgatan","amenity":"pharmacy","name":"Kronans Apotek Giraffen","opening_hours":"Mo-Fr 09:00-19:00; Sa 09:00-17:00; Su 10:00-17:00","operator":"Kronans Apotek"}},"geometry":{"type":"Point","coordinates":[16.3362958,56.6707029]}},{"type":"Feature","properties":{"id":12998676690,"osm_type":"node","name":"Apoteket","category":"pharmacy","tags":{"addr:city":"Kalmar","addr:housenumber":"18","addr:postcode":"393 56","addr:province":"Kalmar kommun","addr:street":"Trångsundsvägen","amenity":"pharmacy","branch":"Trångsundsvägen Kalmar","brand":"Apoteket","brand:wikidata":"Q1785637","healthcare":"pharmacy","name":"Apoteket","operator":"Apoteket"}},"geometry":{"type":"Point","coordinates":[16.3160089,56.6831524]}},{"type":"Feature","properties":{"id":12998710921,"osm_type":"node","name":"Apotek Hjärtat ICA Maxi Kalmar","category":"pharmacy","tags":{"addr:city":"Kalmar","addr:housenumber":"5","addr:postcode":"592 39","addr:province":"Kalmar kommun","addr:street":"Verkstadsgatan","amenity":"pharmacy","name":"Apotek Hjärtat ICA Maxi Kalmar","operator":"Apotek Hjärtat"}},"geometry":{"type":"Point","coordinates":[16.3396177,56.6699115]}},{"type":"Feature","properties":{"id":853808146,"osm_type":"way","name":"Kronans Apotek","category":"pharmacy","tags":{"amenity":"pharmacy","brand":"Kronans Apotek","brand:wikidata":"Q10549422","check_date":"2025-08-15","dispensing":"yes","healthcare":"pharmacy","indoor":"room","level":"0","name":"Kronans Apotek","opening_hours":"Mo-Fr 09:00-19:00; Sa 09:00-17:00; Su 10:00-17:00","room":"shop","shop":"medical_supply"}},"geometry":{"type":"Point","coordinates":[16.335865,56.6708393]}},{"type":"Feature","properties":{"id":853808180,"osm_type":"way","name":"DOZ Apotek","category":"pharmacy","tags":{"addr:city":"Kalmar","addr:housenumber":"6D","addr:postcode":"392 39","addr:province":"Kalmar kommun","addr:street":"Verkstadsgatan","amenity":"pharmacy","brand":"DOZ Apotek","brand:wikidata":"Q10475311","healthcare":"pharmacy","indoor":"room","level":"0","name":"DOZ Apotek","opening_hours":"Mo-Fr 09:00-19:00; Sa 09:00-17:00; Su 10:00-17:00","room":"shop"}},"geometry":{"type":"Point","coordinates":[16.3387313,56.6704155]}}]}