{"type":"FeatureCollection","features":[{"type":"Feature","properties":{"id":5930131056,"osm_type":"node","name":"Kalmar slottskyrka","category":"place_of_worship","tags":{"amenity":"place_of_worship","check_date":"2024-05-02","denomination":"lutheran","name":"Kalmar slottskyrka","operator":"Svenska kyrkan","religion":"christian","wikidata":"Q10542830","wikipedia":"sv:Kalmar slottskyrka"}},"geometry":{"type":"Point","coordinates":[16.3551103,56.657786]}},{"type":"Feature","properties":{"id":38319501,"osm_type":"way","name":"Kalmar domkyrka","category":"place_of_worship","tags":{"addr:city":"Kalmar","addr:country":"SE","addr:postcode":"392 31","addr:street":"Storgatan","amenity":"place_of_worship","architect":"Nicodemus Tessin den äldre","architect:wikidata":"Q61188","building":"cathedral","building:architecture":"baroque","denomination":"lutheran","diocese":"Växjö stift","heritage":"2","heritage:operator":"raa","heritage:website":"https://bebyggelseregistret.raa.se/bbr2/anlaggning/visaHistorik.raa?page=historik&visaHistorik=true&anlaggningId=21300000002956","loc_name":"Domkyrkan","name":"Kalmar domkyrka","old_name":"Karls domkyrka","operator":"Svenska kyrkan","parish":"Kalmar domkyrkoförsamling","ref:SE:raa":"21300000002956","religion":"christian","start_date":"1682","wikidata":"Q1236665","wikipedia":"sv:Kalmar domkyrka","year_of_construction":"1660 - 1682 / 1703"}},"geometry":{"type":"Point","coordinates":[16.3654054,56.6645161]}},{"type":"Feature","properties":{"id":50443509,"osm_type":"way","name":"Två Systrars kapell","category":"place_of_worship","tags":{"amenity":"place_of_worship","denomination":"lutheran","name":"Två Systrars kapell","operator":"Svenska kyrkan","religion":"christian","wikidata":"Q10706821","wikipedia":"sv:Två Systrars kapell"}},"geometry":{"type":"Point","coordinates":[16.3582637,56.7034441]}},{"type":"Feature","properties":{"id":77996163,"osm_type":"way","name":"Ryssby kyrka","category":"place_of_worship","tags":{"amenity":"place_of_worship","building":"church","denomination":"lutheran","name":"Ryssby kyrka","operator":"Svenska kyrkan","religion":"christian","wikidata":"Q10658313"}},"geometry":{"type":"Point","coordinates":[16.3513008,56.8020025]}},{"type":"Feature","properties":{"id":91234087,"osm_type":"way","name":"Sankt Johannes kyrka","category":"place_of_worship","tags":{"addr:city":"Kalmar","addr:country":"SE","addr:housenumber":"5","addr:postcode":"39244","addr:street":"Hanellsgatan","amenity":"place_of_worship","building":"yes","denomination":"lutheran","name":"Sankt Johannes kyrka","religion":"christian","short_name":"S:t Johannes kyrka","wikidata":"Q10661372","wikipedia":"sv:Sankt Johannes kyrka, Kalmar"}},"geometry":{"type":"Point","coordinates":[16.3287349,56.6635531]}},{"type":"Feature","properties":{"id":91285808,"osm_type":"way","name":"Sankta Birgitta kyrka","category":"place_of_worship","tags":{"amenity":"place_of_worship","building":"church","denomination":"lutheran","name":"Sankta Birgitta kyrka","operator":"Svenska kyrkan","religion":"christian","wikidata":"Q10661515","wikipedia":"sv:Sankta Birgitta kyrka, Kalmar"}},"geometry":{"type":"Point","coordinates":[16.3422185,56.6912226]}},{"type":"Feature","properties":{"id":91660605,"osm_type":"way","name":"Norra Kapellet","category":"place_of_worship","tags":{"amenity":"place_of_worship","building":"chapel","denomination":"lutheran","name":"Norra Kapellet","religion":"christian"}},"geometry":{"type":"Point","coordinates":[16.3465097,56.6746254]}},{"type":"Feature","properties":{"id":93457662,"osm_type":"way","name":"Sankt Kristoffers katolska församling","category":"place_of_worship","tags":{"addr:city":"Kalmar","addr:country":"SE","addr:housenumber":"3","addr:postcode":"39235","addr:street":"Malmbrogatan","alt_name":"Saint Kristoffer Parish","amenity":"place_of_worship","building":"church","contact:email":"kalmar@katolskakyrkan.se","contact:phone":"+46 480 105 63","denomination":"catholic","name":"Sankt Kristoffers katolska församling","name:en":"Saint Kristoffer Catholic Church","religion":"christian"}},"geometry":{"type":"Point","coordinates":[16.3565287,56.6662667]}},{"type":"Feature","properties":{"id":93477796,"osm_type":"way","name":"","category":"place_of_worship","tags":{"amenity":"place_of_worship","denomination":"lutheran","religion":"christian"}},"geometry":{"type":"Point","coordinates":[16.3513155,56.6578538]}},{"type":"Feature","properties":{"id":93477815,"osm_type":"way","name":"Vasakyrkan","category":"place_of_worship","tags":{"amenity":"place_of_worship","building":"church","denomination":"lutheran","name":"Vasakyrkan","operator":"Svenska kyrkan","religion":"christian","wikidata":"Q10713260","wikipedia":"sv:Vasakyrkan, Kalmar"}},"geometry":{"type":"Point","coordinates":[16.3449387,56.6613204]}},{"type":"Feature","properties":{"id":94566301,"osm_type":"way","name":"Garvaregården","category":"place_of_worship","tags":{"amenity":"place_of_worship","building:part":"industrial","denomination":"lutheran","name":"Garvaregården","religion":"christian","wheelchair":"yes"}},"geometry":{"type":"Point","coordinates":[16.2965856,56.7330212]}},{"type":"Feature","properties":{"id":95697526,"osm_type":"way","name":"Kläckeberga kyrka","category":"place_of_worship","tags":{"amenity":"place_of_worship","building":"church","denomination":"lutheran","name":"Kläckeberga kyrka","operator":"Svenska kyrkan","religion":"christian","wikidata":"Q10546505","wikipedia":"sv:Kläckeberga kyrka"}},"geometry":{"type":"Point","coordinates":[16.2873353,56.7076243]}},{"type":"Feature","properties":{"id":193544734,"osm_type":"way","name":"Dörby kyrka","category":"place_of_worship","tags":{"amenity":"place_of_worship","building":"church","denomination":"lutheran","name":"Dörby kyrka","operator":"Svenska kyrkan","religion":"christian","wikidata":"Q10478703"}},"geometry":{"type":"Point","coordinates":[16.2331806,56.6716252]}},{"type":"Feature","properties":{"id":237698223,"osm_type":"way","name":"Lorensbergskyrkan","category":"place_of_worship","tags":{"addr:city":"Kalmar","addr:country":"SE","addr:housenumber":"8","addr:street":"Lorensbergsleden","amenity":"place_of_worship","building":"yes","check_date":"2024-07-24","denomination":"pentecostal","name":"Lorensbergskyrkan","religion":"christian","website":"https://www.lorensbergskyrkan.se/"}},"geometry":{"type":"Point","coordinates":[16.3431559,56.6668149]}},{"type":"Feature","properties":{"id":283268939,"osm_type":"way","name":"Torslunda kyrka","category":"place_of_worship","tags":{"amenity":"place_of_worship","building":"church","check_date":"2024-06-02","denomination":"lutheran","name":"Torslunda kyrka","religion":"christian"}},"geometry":{"type":"Point","coordinates":[16.5152889,56.6333072]}},{"type":"Feature","properties":{"id":303189882,"osm_type":"way","name":"Resmo kyrka","category":"place_of_worship","tags":{"amenity":"place_of_worship","building":"church","denomination":"lutheran","name":"Resmo kyrka","religion":"christian"}},"geometry":{"type":"Point","coordinates":[16.4438813,56.5413838]}},{"type":"Feature","properties":{"id":306411655,"osm_type":"way","name":"Nådens kapell","category":"place_of_worship","tags":{"amenity":"place_of_worship","building":"chapel","check_date":"2024-01-01","denomination":"lutheran","name":"Nådens kapell","religion":"christian"}},"geometry":{"type":"Point","coordinates":[16.4720078,56.6479889]}},{"type":"Feature","properties":{"id":306479533,"osm_type":"way","name":"Mörbylånga kyrka","category":"place_of_worship","tags":{"amenity":"place_of_worship","building":"church","denomination":"lutheran","name":"Mörbylånga kyrka","operator":"Svenska kyrkan","religion":"christian"}},"geometry":{"type":"Point","coordinates":[16.3985933,56.5196098]}},{"type":"Feature","properties":{"id":307754420,"osm_type":"way","name":"","category":"place_of_worship","tags":{"addr:city":"Mörbylånga","addr:country":"SE","addr:housenumber":"106","addr:postcode":"38651","addr:street":"Kyrkbyn","amenity":"place_of_worship","building":"yes","religion":"christian"}},"geometry":{"type":"Point","coordinates":[16.3989131,56.5231634]}},{"type":"Feature","properties":{"id":311070011,"osm_type":"way","name":"Vickleby kyrka","category":"place_of_worship","tags":{"amenity":"place_of_worship","building":"church","denomination":"lutheran","name":"Vickleby kyrka","religion":"christian","wikidata":"Q10715005","wikipedia":"sv:Vickleby kyrka"}},"geometry":{"type":"Point","coordinates":[16.4600633,56.5771722]}},{"type":"Feature","properties":{"id":523945963,"osm_type":"way","name":"Åby kyrka","category":"place_of_worship","tags":{"amenity":"place_of_worship","building":"church","denomination":"lutheran","name":"Åby kyrka","operator":"Svenska kyrkan","religion":"christian","wikidata":"Q10726181","wikipedia":"sv:Åby kyrka"}},"geometry":{"type":"Point","coordinates":[16.2869693,56.7811627]}},{"type":"Feature","properties":{"id":640670643,"osm_type":"way","name":"Rinkabyholms kapell","category":"place_of_worship","tags":{"addr:postcode":"394 77","addr:street":"Rinkabyholmsvägen 17C","amenity":"place_of_worship","building":"chapel","denomination":"lutheran","hearing_loop":"no","name":"Rinkabyholms kapell","religion":"christian","toilets":"yes","toilets:wheelchair":"yes"}},"geometry":{"type":"Point","coordinates":[16.2602812,56.6549859]}},{"type":"Feature","properties":{"id":651230782,"osm_type":"way","name":"Hossmo kyrka","category":"place_of_worship","tags":{"amenity":"place_of_worship","building":"church","denomination":"lutheran","name":"Hossmo kyrka","operator":"Svenska kyrkan","religion":"christian","wikidata":"Q10526513"}},"geometry":{"type":"Point","coordinates":[16.2251804,56.6371858]}},{"type":"Feature","properties":{"id":813363099,"osm_type":"way","name":"Församlingen Klippan","category":"place_of_worship","tags":{"addr:city":"Rockneby","addr:country":"SE","addr:housenumber":"20","addr:postcode":"395 93","addr:street":"Ryssbylundsvägen","alt_name":"Klippan","amenity":"place_of_worship","building":"yes","denomination":"new_frontiers","name":"Församlingen Klippan","operator":"Församlingen Klippan","religion":"christian","source":"local_knowledge","website":"https://www.klippan-rockneby.se/","wifi":"no"}},"geometry":{"type":"Point","coordinates":[16.3550132,56.8037517]}},{"type":"Feature","properties":{"id":893957215,"osm_type":"way","name":"","category":"place_of_worship","tags":{"amenity":"place_of_worship","religion":"christian"}},"geometry":{"type":"Point","coordinates":[16.4466532,56.5596521]}},{"type":"Feature","properties":{"id":994072302,"osm_type":"way","name":"Förlösa kyrka","category":"place_of_worship","tags":{"amenity":"place_of_worship","building":"church","denomination":"lutheran","name":"Förlösa kyrka","religion":"christian","wikidata":"Q10501386","wikipedia":"sv:Förlösa kyrka"}},"geometry":{"type":"Point","coordinates":[16.2531702,56.7478125]}}]}