{"type":"FeatureCollection","features":[{"type":"Feature","properties":{"id":1098250351,"osm_type":"node","name":"","category":"playground","tags":{"access":"yes","leisure":"playground"}},"geometry":{"type":"Point","coordinates":[16.2973772,56.7252487]}},{"type":"Feature","properties":{"id":1102407262,"osm_type":"node","name":"","category":"playground","tags":{"access":"yes","leisure":"playground"}},"geometry":{"type":"Point","coordinates":[16.3093655,56.7284078]}},{"type":"Feature","properties":{"id":1106469684,"osm_type":"node","name":"","category":"playground","tags":{"access":"yes","leisure":"playground"}},"geometry":{"type":"Point","coordinates":[16.2883577,56.7371]}},{"type":"Feature","properties":{"id":1598805430,"osm_type":"node","name":"","category":"playground","tags":{"access":"yes","leisure":"playground"}},"geometry":{"type":"Point","coordinates":[16.302514,56.7324271]}},{"type":"Feature","properties":{"id":1625669465,"osm_type":"node","name":"","category":"playground","tags":{"access":"yes","leisure":"playground"}},"geometry":{"type":"Point","coordinates":[16.2872818,56.7406688]}},{"type":"Feature","properties":{"id":1809167428,"osm_type":"node","name":"","category":"playground","tags":{"leisure":"playground"}},"geometry":{"type":"Point","coordinates":[16.4782952,56.6879588]}},{"type":"Feature","properties":{"id":3093017186,"osm_type":"node","name":"","category":"playground","tags":{"leisure":"playground"}},"geometry":{"type":"Point","coordinates":[16.4896595,56.6625813]}},{"type":"Feature","properties":{"id":3094859031,"osm_type":"node","name":"","category":"playground","tags":{"access":"yes","leisure":"playground"}},"geometry":{"type":"Point","coordinates":[16.4867375,56.6574884]}},{"type":"Feature","properties":{"id":3094859777,"osm_type":"node","name":"","category":"playground","tags":{"access":"yes","leisure":"playground"}},"geometry":{"type":"Point","coordinates":[16.484616,56.6606442]}},{"type":"Feature","properties":{"id":3094859916,"osm_type":"node","name":"","category":"playground","tags":{"leisure":"playground"}},"geometry":{"type":"Point","coordinates":[16.4863861,56.6621005]}},{"type":"Feature","properties":{"id":3104015796,"osm_type":"node","name":"","category":"playground","tags":{"leisure":"playground"}},"geometry":{"type":"Point","coordinates":[16.4826471,56.6474544]}},{"type":"Feature","properties":{"id":3114247680,"osm_type":"node","name":"","category":"playground","tags":{"access":"yes","leisure":"playground"}},"geometry":{"type":"Point","coordinates":[16.4737225,56.6412201]}},{"type":"Feature","properties":{"id":3285651393,"osm_type":"node","name":"","category":"playground","tags":{"access":"yes","leisure":"playground"}},"geometry":{"type":"Point","coordinates":[16.4827954,56.6537386]}},{"type":"Feature","properties":{"id":4144435165,"osm_type":"node","name":"","category":"playground","tags":{"access":"yes","leisure":"playground"}},"geometry":{"type":"Point","coordinates":[16.3075874,56.7349823]}},{"type":"Feature","properties":{"id":4144435675,"osm_type":"node","name":"","category":"playground","tags":{"access":"yes","leisure":"playground"}},"geometry":{"type":"Point","coordinates":[16.3086331,56.7329745]}},{"type":"Feature","properties":{"id":4144435676,"osm_type":"node","name":"","category":"playground","tags":{"access":"yes","leisure":"playground"}},"geometry":{"type":"Point","coordinates":[16.3067475,56.7333541]}},{"type":"Feature","properties":{"id":4150560157,"osm_type":"node","name":"","category":"playground","tags":{"leisure":"playground"}},"geometry":{"type":"Point","coordinates":[16.3017786,56.7372836]}},{"type":"Feature","properties":{"id":4150561670,"osm_type":"node","name":"","category":"playground","tags":{"leisure":"playground"}},"geometry":{"type":"Point","coordinates":[16.3014165,56.7384899]}},{"type":"Feature","properties":{"id":4631486478,"osm_type":"node","name":"","category":"playground","tags":{"access":"yes","leisure":"playground"}},"geometry":{"type":"Point","coordinates":[16.4611481,56.647047]}},{"type":"Feature","properties":{"id":4631486479,"osm_type":"node","name":"","category":"playground","tags":{"access":"yes","leisure":"playground"}},"geometry":{"type":"Point","coordinates":[16.4628378,56.6482444]}},{"type":"Feature","properties":{"id":4794034214,"osm_type":"node","name":"","category":"playground","tags":{"access":"yes","leisure":"playground"}},"geometry":{"type":"Point","coordinates":[16.468229,56.6480009]}},{"type":"Feature","properties":{"id":4794034215,"osm_type":"node","name":"","category":"playground","tags":{"access":"private","leisure":"playground"}},"geometry":{"type":"Point","coordinates":[16.4692268,56.6474965]}},{"type":"Feature","properties":{"id":4794035322,"osm_type":"node","name":"","category":"playground","tags":{"leisure":"playground"}},"geometry":{"type":"Point","coordinates":[16.464376,56.6463946]}},{"type":"Feature","properties":{"id":5114676283,"osm_type":"node","name":"","category":"playground","tags":{"leisure":"playground"}},"geometry":{"type":"Point","coordinates":[16.2615137,56.6546207]}},{"type":"Feature","properties":{"id":5866621775,"osm_type":"node","name":"","category":"playground","tags":{"leisure":"playground"}},"geometry":{"type":"Point","coordinates":[16.4447173,56.5362428]}},{"type":"Feature","properties":{"id":6025491508,"osm_type":"node","name":"","category":"playground","tags":{"leisure":"playground"}},"geometry":{"type":"Point","coordinates":[16.2691795,56.6386824]}},{"type":"Feature","properties":{"id":8992019834,"osm_type":"node","name":"","category":"playground","tags":{"leisure":"playground"}},"geometry":{"type":"Point","coordinates":[16.2157908,56.6851921]}},{"type":"Feature","properties":{"id":9063973017,"osm_type":"node","name":"","category":"playground","tags":{"leisure":"playground"}},"geometry":{"type":"Point","coordinates":[16.3146736,56.6682432]}},{"type":"Feature","properties":{"id":9910953936,"osm_type":"node","name":"","category":"playground","tags":{"leisure":"playground"}},"geometry":{"type":"Point","coordinates":[16.454612,56.7878022]}},{"type":"Feature","properties":{"id":10913736203,"osm_type":"node","name":"","category":"playground","tags":{"access":"yes","leisure":"playground"}},"geometry":{"type":"Point","coordinates":[16.3714288,56.6661184]}},{"type":"Feature","properties":{"id":12985725757,"osm_type":"node","name":"","category":"playground","tags":{"access":"customers","leisure":"playground","operator":"Saxnäs Camping"}},"geometry":{"type":"Point","coordinates":[16.481293,56.6850826]}},{"type":"Feature","properties":{"id":12986276437,"osm_type":"node","name":"","category":"playground","tags":{"access":"customers","leisure":"playground"}},"geometry":{"type":"Point","coordinates":[16.4822094,56.6884541]}},{"type":"Feature","properties":{"id":93238236,"osm_type":"way","name":"","category":"playground","tags":{"leisure":"playground"}},"geometry":{"type":"Point","coordinates":[16.34688,56.6597547]}},{"type":"Feature","properties":{"id":93361251,"osm_type":"way","name":"","category":"playground","tags":{"leisure":"playground"}},"geometry":{"type":"Point","coordinates":[16.3424525,56.660167]}},{"type":"Feature","properties":{"id":93705400,"osm_type":"way","name":"","category":"playground","tags":{"leisure":"playground"}},"geometry":{"type":"Point","coordinates":[16.3268808,56.6540997]}},{"type":"Feature","properties":{"id":93705501,"osm_type":"way","name":"","category":"playground","tags":{"leisure":"playground"}},"geometry":{"type":"Point","coordinates":[16.3280496,56.6545737]}},{"type":"Feature","properties":{"id":94109980,"osm_type":"way","name":"","category":"playground","tags":{"leisure":"playground"}},"geometry":{"type":"Point","coordinates":[16.3311634,56.6631048]}},{"type":"Feature","properties":{"id":94164782,"osm_type":"way","name":"","category":"playground","tags":{"access":"private","leisure":"playground"}},"geometry":{"type":"Point","coordinates":[16.324834,56.6628445]}},{"type":"Feature","properties":{"id":94164928,"osm_type":"way","name":"","category":"playground","tags":{"access":"private","leisure":"playground"}},"geometry":{"type":"Point","coordinates":[16.3253549,56.6632338]}},{"type":"Feature","properties":{"id":94514138,"osm_type":"way","name":"","category":"playground","tags":{"leisure":"playground"}},"geometry":{"type":"Point","coordinates":[16.3356352,56.6627779]}},{"type":"Feature","properties":{"id":94517933,"osm_type":"way","name":"","category":"playground","tags":{"leisure":"playground"}},"geometry":{"type":"Point","coordinates":[16.3321809,56.6619577]}},{"type":"Feature","properties":{"id":94710340,"osm_type":"way","name":"","category":"playground","tags":{"leisure":"playground"}},"geometry":{"type":"Point","coordinates":[16.3530996,56.6721809]}},{"type":"Feature","properties":{"id":94710360,"osm_type":"way","name":"","category":"playground","tags":{"leisure":"playground"}},"geometry":{"type":"Point","coordinates":[16.3527198,56.6722047]}},{"type":"Feature","properties":{"id":94718328,"osm_type":"way","name":"","category":"playground","tags":{"access":"customers","leisure":"playground"}},"geometry":{"type":"Point","coordinates":[16.3585467,56.6793265]}},{"type":"Feature","properties":{"id":94859987,"osm_type":"way","name":"","category":"playground","tags":{"leisure":"playground"}},"geometry":{"type":"Point","coordinates":[16.3460823,56.6712335]}},{"type":"Feature","properties":{"id":94906238,"osm_type":"way","name":"","category":"playground","tags":{"leisure":"playground"}},"geometry":{"type":"Point","coordinates":[16.3321948,56.6751447]}},{"type":"Feature","properties":{"id":94906265,"osm_type":"way","name":"","category":"playground","tags":{"leisure":"playground"}},"geometry":{"type":"Point","coordinates":[16.330453,56.6763257]}},{"type":"Feature","properties":{"id":94906301,"osm_type":"way","name":"","category":"playground","tags":{"leisure":"playground"}},"geometry":{"type":"Point","coordinates":[16.3309445,56.6763534]}},{"type":"Feature","properties":{"id":94906381,"osm_type":"way","name":"","category":"playground","tags":{"leisure":"playground"}},"geometry":{"type":"Point","coordinates":[16.3309488,56.6750607]}},{"type":"Feature","properties":{"id":94906387,"osm_type":"way","name":"","category":"playground","tags":{"leisure":"playground"}},"geometry":{"type":"Point","coordinates":[16.3311281,56.6750225]}},{"type":"Feature","properties":{"id":94906406,"osm_type":"way","name":"","category":"playground","tags":{"leisure":"playground"}},"geometry":{"type":"Point","coordinates":[16.3321415,56.6757791]}},{"type":"Feature","properties":{"id":94906408,"osm_type":"way","name":"","category":"playground","tags":{"leisure":"playground"}},"geometry":{"type":"Point","coordinates":[16.3293228,56.675584]}},{"type":"Feature","properties":{"id":94906414,"osm_type":"way","name":"","category":"playground","tags":{"leisure":"playground"}},"geometry":{"type":"Point","coordinates":[16.3311732,56.6765022]}},{"type":"Feature","properties":{"id":94914531,"osm_type":"way","name":"","category":"playground","tags":{"leisure":"playground"}},"geometry":{"type":"Point","coordinates":[16.3428178,56.6801052]}},{"type":"Feature","properties":{"id":95002571,"osm_type":"way","name":"","category":"playground","tags":{"access":"yes","leisure":"playground"}},"geometry":{"type":"Point","coordinates":[16.2941051,56.7314463]}},{"type":"Feature","properties":{"id":95002617,"osm_type":"way","name":"","category":"playground","tags":{"access":"yes","leisure":"playground"}},"geometry":{"type":"Point","coordinates":[16.2945103,56.732909]}},{"type":"Feature","properties":{"id":95198142,"osm_type":"way","name":"","category":"playground","tags":{"leisure":"playground"}},"geometry":{"type":"Point","coordinates":[16.3484417,56.6780346]}},{"type":"Feature","properties":{"id":131711514,"osm_type":"way","name":"","category":"playground","tags":{"access":"yes","leisure":"playground"}},"geometry":{"type":"Point","coordinates":[16.3474717,56.6893046]}},{"type":"Feature","properties":{"id":143399515,"osm_type":"way","name":"","category":"playground","tags":{"leisure":"playground"}},"geometry":{"type":"Point","coordinates":[16.3407046,56.6927661]}},{"type":"Feature","properties":{"id":143399517,"osm_type":"way","name":"","category":"playground","tags":{"leisure":"playground"}},"geometry":{"type":"Point","coordinates":[16.3418973,56.6931631]}},{"type":"Feature","properties":{"id":143399551,"osm_type":"way","name":"","category":"playground","tags":{"leisure":"playground"}},"geometry":{"type":"Point","coordinates":[16.3425102,56.6923155]}},{"type":"Feature","properties":{"id":153846748,"osm_type":"way","name":"","category":"playground","tags":{"leisure":"playground"}},"geometry":{"type":"Point","coordinates":[16.3352498,56.694647]}},{"type":"Feature","properties":{"id":169251953,"osm_type":"way","name":"","category":"playground","tags":{"access":"yes","leisure":"playground"}},"geometry":{"type":"Point","coordinates":[16.3550028,56.6604148]}},{"type":"Feature","properties":{"id":170361873,"osm_type":"way","name":"","category":"playground","tags":{"leisure":"playground"}},"geometry":{"type":"Point","coordinates":[16.4796709,56.688632]}},{"type":"Feature","properties":{"id":274952765,"osm_type":"way","name":"","category":"playground","tags":{"leisure":"playground"}},"geometry":{"type":"Point","coordinates":[16.3301408,56.6550921]}},{"type":"Feature","properties":{"id":274952819,"osm_type":"way","name":"","category":"playground","tags":{"leisure":"playground"}},"geometry":{"type":"Point","coordinates":[16.3363926,56.654827]}},{"type":"Feature","properties":{"id":275946130,"osm_type":"way","name":"","category":"playground","tags":{"leisure":"playground"}},"geometry":{"type":"Point","coordinates":[16.3549279,56.6927237]}},{"type":"Feature","properties":{"id":306478712,"osm_type":"way","name":"","category":"playground","tags":{"access":"yes","leisure":"playground"}},"geometry":{"type":"Point","coordinates":[16.477118,56.6422334]}},{"type":"Feature","properties":{"id":321988018,"osm_type":"way","name":"","category":"playground","tags":{"access":"customers","leisure":"playground"}},"geometry":{"type":"Point","coordinates":[16.4801769,56.6865701]}},{"type":"Feature","properties":{"id":322819679,"osm_type":"way","name":"","category":"playground","tags":{"leisure":"playground"}},"geometry":{"type":"Point","coordinates":[16.4897863,56.6892337]}},{"type":"Feature","properties":{"id":413927097,"osm_type":"way","name":"Gösbäcks lekpark","category":"playground","tags":{"access":"yes","leisure":"playground","name":"Gösbäcks lekpark","operator":"Kalmar kommun","website":"https://kalmar.se/uppleva-och-gora/natur-friluftsliv-och-parker/parker-lek-och-odling/lekplatser/lekparker-i-kalmar/gosbacks-lekpark---norra-lindsdal.html"}},"geometry":{"type":"Point","coordinates":[16.3012918,56.7411485]}},{"type":"Feature","properties":{"id":433226938,"osm_type":"way","name":"Skälby lekplats","category":"playground","tags":{"access":"yes","leisure":"playground","name":"Skälby lekplats"}},"geometry":{"type":"Point","coordinates":[16.3370226,56.6810814]}},{"type":"Feature","properties":{"id":548360655,"osm_type":"way","name":"","category":"playground","tags":{"leisure":"playground"}},"geometry":{"type":"Point","coordinates":[16.2362403,56.6826542]}},{"type":"Feature","properties":{"id":553490968,"osm_type":"way","name":"","category":"playground","tags":{"leisure":"playground"}},"geometry":{"type":"Point","coordinates":[16.3289597,56.7036407]}},{"type":"Feature","properties":{"id":553491004,"osm_type":"way","name":"","category":"playground","tags":{"leisure":"playground"}},"geometry":{"type":"Point","coordinates":[16.3343109,56.7034285]}},{"type":"Feature","properties":{"id":553775124,"osm_type":"way","name":"","category":"playground","tags":{"leisure":"playground"}},"geometry":{"type":"Point","coordinates":[16.3296091,56.7016798]}},{"type":"Feature","properties":{"id":554030994,"osm_type":"way","name":"","category":"playground","tags":{"leisure":"playground"}},"geometry":{"type":"Point","coordinates":[16.3176658,56.7064783]}},{"type":"Feature","properties":{"id":554205578,"osm_type":"way","name":"","category":"playground","tags":{"leisure":"playground"}},"geometry":{"type":"Point","coordinates":[16.3240963,56.7061468]}},{"type":"Feature","properties":{"id":564958331,"osm_type":"way","name":"","category":"playground","tags":{"access":"yes","leisure":"playground"}},"geometry":{"type":"Point","coordinates":[16.3590939,56.6644854]}},{"type":"Feature","properties":{"id":583425619,"osm_type":"way","name":"","category":"playground","tags":{"area":"yes","leisure":"playground"}},"geometry":{"type":"Point","coordinates":[16.5091126,56.6280325]}},{"type":"Feature","properties":{"id":628043011,"osm_type":"way","name":"","category":"playground","tags":{"leisure":"playground"}},"geometry":{"type":"Point","coordinates":[16.331115,56.6521046]}},{"type":"Feature","properties":{"id":634604618,"osm_type":"way","name":"","category":"playground","tags":{"leisure":"playground"}},"geometry":{"type":"Point","coordinates":[16.478044,56.6398469]}},{"type":"Feature","properties":{"id":677537114,"osm_type":"way","name":"","category":"playground","tags":{"leisure":"playground"}},"geometry":{"type":"Point","coordinates":[16.3958606,56.5259067]}},{"type":"Feature","properties":{"id":677540343,"osm_type":"way","name":"","category":"playground","tags":{"access":"yes","leisure":"playground"}},"geometry":{"type":"Point","coordinates":[16.3721874,56.5271336]}},{"type":"Feature","properties":{"id":697464408,"osm_type":"way","name":"","category":"playground","tags":{"access":"yes","leisure":"playground"}},"geometry":{"type":"Point","coordinates":[16.3799602,56.5249855]}},{"type":"Feature","properties":{"id":697464409,"osm_type":"way","name":"","category":"playground","tags":{"leisure":"playground"}},"geometry":{"type":"Point","coordinates":[16.3927598,56.5208235]}},{"type":"Feature","properties":{"id":735112624,"osm_type":"way","name":"","category":"playground","tags":{"leisure":"playground"}},"geometry":{"type":"Point","coordinates":[16.3936021,56.5239634]}},{"type":"Feature","properties":{"id":780253515,"osm_type":"way","name":"","category":"playground","tags":{"leisure":"playground"}},"geometry":{"type":"Point","coordinates":[16.3869062,56.5204593]}},{"type":"Feature","properties":{"id":781745820,"osm_type":"way","name":"","category":"playground","tags":{"leisure":"playground"}},"geometry":{"type":"Point","coordinates":[16.3935409,56.5256652]}},{"type":"Feature","properties":{"id":785434778,"osm_type":"way","name":"","category":"playground","tags":{"access":"yes","leisure":"playground","surface":"sand"}},"geometry":{"type":"Point","coordinates":[16.4916727,56.6428921]}},{"type":"Feature","properties":{"id":789688063,"osm_type":"way","name":"","category":"playground","tags":{"leisure":"playground"}},"geometry":{"type":"Point","coordinates":[16.3828387,56.5239395]}},{"type":"Feature","properties":{"id":875528223,"osm_type":"way","name":"","category":"playground","tags":{"access":"yes","leisure":"playground"}},"geometry":{"type":"Point","coordinates":[16.3476031,56.6675556]}},{"type":"Feature","properties":{"id":875528224,"osm_type":"way","name":"","category":"playground","tags":{"access":"yes","leisure":"playground"}},"geometry":{"type":"Point","coordinates":[16.3473765,56.6675794]}},{"type":"Feature","properties":{"id":921853418,"osm_type":"way","name":"","category":"playground","tags":{"leisure":"playground"}},"geometry":{"type":"Point","coordinates":[16.2377218,56.6817098]}},{"type":"Feature","properties":{"id":921853419,"osm_type":"way","name":"","category":"playground","tags":{"leisure":"playground"}},"geometry":{"type":"Point","coordinates":[16.2396272,56.6825856]}},{"type":"Feature","properties":{"id":921853457,"osm_type":"way","name":"","category":"playground","tags":{"leisure":"playground"}},"geometry":{"type":"Point","coordinates":[16.2289482,56.6802553]}},{"type":"Feature","properties":{"id":921853459,"osm_type":"way","name":"","category":"playground","tags":{"leisure":"playground"}},"geometry":{"type":"Point","coordinates":[16.2357728,56.6808652]}},{"type":"Feature","properties":{"id":922254596,"osm_type":"way","name":"","category":"playground","tags":{"leisure":"playground"}},"geometry":{"type":"Point","coordinates":[16.2389548,56.6812376]}},{"type":"Feature","properties":{"id":922254605,"osm_type":"way","name":"","category":"playground","tags":{"leisure":"playground"}},"geometry":{"type":"Point","coordinates":[16.2385856,56.6821529]}},{"type":"Feature","properties":{"id":923090707,"osm_type":"way","name":"","category":"playground","tags":{"leisure":"playground"}},"geometry":{"type":"Point","coordinates":[16.2437491,56.6847254]}},{"type":"Feature","properties":{"id":923090708,"osm_type":"way","name":"","category":"playground","tags":{"leisure":"playground"}},"geometry":{"type":"Point","coordinates":[16.2434871,56.6847634]}},{"type":"Feature","properties":{"id":923176688,"osm_type":"way","name":"","category":"playground","tags":{"leisure":"playground"}},"geometry":{"type":"Point","coordinates":[16.2426473,56.6841842]}},{"type":"Feature","properties":{"id":969891148,"osm_type":"way","name":"","category":"playground","tags":{"leisure":"playground"}},"geometry":{"type":"Point","coordinates":[16.31931,56.7033837]}},{"type":"Feature","properties":{"id":973145749,"osm_type":"way","name":"","category":"playground","tags":{"access":"yes","leisure":"playground","surface":"ground"}},"geometry":{"type":"Point","coordinates":[16.4576525,56.7770491]}},{"type":"Feature","properties":{"id":973620250,"osm_type":"way","name":"","category":"playground","tags":{"access":"yes","leisure":"playground","operator":"Kalmar kommun","surface":"sand"}},"geometry":{"type":"Point","coordinates":[16.2997244,56.7824227]}},{"type":"Feature","properties":{"id":973627357,"osm_type":"way","name":"","category":"playground","tags":{"access":"yes","leisure":"playground","surface":"sand"}},"geometry":{"type":"Point","coordinates":[16.29864,56.7841827]}},{"type":"Feature","properties":{"id":974629546,"osm_type":"way","name":"","category":"playground","tags":{"access":"yes","leisure":"playground","surface":"sand"}},"geometry":{"type":"Point","coordinates":[16.2928608,56.78362]}},{"type":"Feature","properties":{"id":975039195,"osm_type":"way","name":"","category":"playground","tags":{"access":"yes","leisure":"playground"}},"geometry":{"type":"Point","coordinates":[16.3030086,56.7808299]}},{"type":"Feature","properties":{"id":1058918659,"osm_type":"way","name":"","category":"playground","tags":{"leisure":"playground"}},"geometry":{"type":"Point","coordinates":[16.3333503,56.6922653]}},{"type":"Feature","properties":{"id":1084071488,"osm_type":"way","name":"","category":"playground","tags":{"access":"customers","leisure":"playground"}},"geometry":{"type":"Point","coordinates":[16.3246986,56.6473368]}},{"type":"Feature","properties":{"id":1086244424,"osm_type":"way","name":"","category":"playground","tags":{"access":"yes","leisure":"playground"}},"geometry":{"type":"Point","coordinates":[16.3780815,56.756521]}},{"type":"Feature","properties":{"id":1111866445,"osm_type":"way","name":"Kapten Karlssons Lekpark","category":"playground","tags":{"leisure":"playground","name":"Kapten Karlssons Lekpark","opening_hours":"24/7","operator":"Kalmar kommun"}},"geometry":{"type":"Point","coordinates":[16.335593,56.6987885]}},{"type":"Feature","properties":{"id":1217591643,"osm_type":"way","name":"","category":"playground","tags":{"leisure":"playground"}},"geometry":{"type":"Point","coordinates":[16.2312509,56.6876534]}},{"type":"Feature","properties":{"id":1303593087,"osm_type":"way","name":"","category":"playground","tags":{"leisure":"playground"}},"geometry":{"type":"Point","coordinates":[16.3471243,56.6865091]}},{"type":"Feature","properties":{"id":1303593088,"osm_type":"way","name":"","category":"playground","tags":{"leisure":"playground"}},"geometry":{"type":"Point","coordinates":[16.3439074,56.6852976]}},{"type":"Feature","properties":{"id":1363827669,"osm_type":"way","name":"","category":"playground","tags":{"leisure":"playground"}},"geometry":{"type":"Point","coordinates":[16.2232772,56.5515222]}},{"type":"Feature","properties":{"id":1415205939,"osm_type":"way","name":"","category":"playground","tags":{"leisure":"playground"}},"geometry":{"type":"Point","coordinates":[16.2536522,56.6518001]}},{"type":"Feature","properties":{"id":1421292121,"osm_type":"way","name":"","category":"playground","tags":{"access":"yes","leisure":"playground"}},"geometry":{"type":"Point","coordinates":[16.3048892,56.7313007]}},{"type":"Feature","properties":{"id":1421292126,"osm_type":"way","name":"","category":"playground","tags":{"access":"yes","leisure":"playground"}},"geometry":{"type":"Point","coordinates":[16.3051392,56.7311366]}},{"type":"Feature","properties":{"id":1421292127,"osm_type":"way","name":"","category":"playground","tags":{"access":"yes","leisure":"playground"}},"geometry":{"type":"Point","coordinates":[16.3046686,56.73124]}},{"type":"Feature","properties":{"id":1421409253,"osm_type":"way","name":"","category":"playground","tags":{"access":"yes","leisure":"playground"}},"geometry":{"type":"Point","coordinates":[16.2914191,56.7315141]}},{"type":"Feature","properties":{"id":10233480,"osm_type":"relation","name":"","category":"playground","tags":{"leisure":"playground","type":"multipolygon"}},"geometry":{"type":"Point","coordinates":[16.2701147,56.661408]}},{"type":"Feature","properties":{"id":12483874,"osm_type":"relation","name":"","category":"playground","tags":{"access":"yes","leisure":"playground","type":"multipolygon"}},"geometry":{"type":"Point","coordinates":[16.3407691,56.6733086]}}]}