{"type":"FeatureCollection","features":[{"type":"Feature","properties":{"id":290007578,"osm_type":"node","name":"Rinkabyholms gatukök och pizzeria","category":"restaurant","tags":{"amenity":"fast_food","name":"Rinkabyholms gatukök och pizzeria"}},"geometry":{"type":"Point","coordinates":[16.2547931,56.6504604]}},{"type":"Feature","properties":{"id":417812437,"osm_type":"node","name":"Restaurang Krysset","category":"restaurant","tags":{"amenity":"restaurant","cuisine":"pizza","name":"Restaurang Krysset","opening_hours":"Mo-Th 11:00-21:00; Fr 11:00-22:00; Sa 12:00-22:00; Su 12:00-21:00","payment:credit_cards":"yes","payment:debit_cards":"yes","wheelchair":"no"}},"geometry":{"type":"Point","coordinates":[16.302368,56.7238688]}},{"type":"Feature","properties":{"id":418125697,"osm_type":"node","name":"Pizzeria Bella","category":"restaurant","tags":{"amenity":"restaurant","check_date:opening_hours":"2025-05-29","cuisine":"pizza","name":"Pizzeria Bella","opening_hours":"Mo-Fr 11:00-21:00; Sa,Su 12:00-21:00","payment:credit_cards":"yes","payment:debit_cards":"yes","wheelchair":"yes"}},"geometry":{"type":"Point","coordinates":[16.2962668,56.7349783]}},{"type":"Feature","properties":{"id":418125700,"osm_type":"node","name":"Pizzeria Saloniki","category":"restaurant","tags":{"amenity":"fast_food","check_date:opening_hours":"2025-08-20","cuisine":"pizza","name":"Pizzeria Saloniki","opening_hours":"Mo-Fr 15:00-21:00; Sa,Su 12:00-21:00","payment:credit_cards":"yes","payment:debit_cards":"yes","wheelchair":"no"}},"geometry":{"type":"Point","coordinates":[16.2974953,56.7330217]}},{"type":"Feature","properties":{"id":418222836,"osm_type":"node","name":"DK","category":"restaurant","tags":{"amenity":"restaurant","name":"DK","wheelchair":"limited"}},"geometry":{"type":"Point","coordinates":[16.3603429,56.66336]}},{"type":"Feature","properties":{"id":428234888,"osm_type":"node","name":"Kalmar Kött & Bar","category":"restaurant","tags":{"amenity":"restaurant","name":"Kalmar Kött & Bar"}},"geometry":{"type":"Point","coordinates":[16.3606531,56.6625619]}},{"type":"Feature","properties":{"id":449776742,"osm_type":"node","name":"Krögers","category":"restaurant","tags":{"addr:housenumber":"7","addr:postcode":"392 32","addr:street":"Larmtorget","amenity":"pub","check_date":"2023-04-22","email":"hej@krogers.se","name":"Krögers","website":"https://www.krogers.se/","wheelchair":"no"}},"geometry":{"type":"Point","coordinates":[16.3610571,56.6631134]}},{"type":"Feature","properties":{"id":449776745,"osm_type":"node","name":"Lilla Puben","category":"restaurant","tags":{"amenity":"pub","check_date":"2023-04-22","name":"Lilla Puben","opening_hours":"Tu-Sa 17:00-01:00"}},"geometry":{"type":"Point","coordinates":[16.3612471,56.6631892]}},{"type":"Feature","properties":{"id":449776747,"osm_type":"node","name":"Hjalmars bar","category":"restaurant","tags":{"addr:city":"Kalmar","addr:country":"SE","addr:housenumber":"6","addr:postcode":"392 32","addr:street":"Larmgatan","amenity":"pub","name":"Hjalmars bar","website":"https://www.hjalmarsbar.se/"}},"geometry":{"type":"Point","coordinates":[16.3624296,56.6619905]}},{"type":"Feature","properties":{"id":449776750,"osm_type":"node","name":"Gröna Stugan","category":"restaurant","tags":{"addr:city":"Kalmar","addr:country":"SE","addr:housenumber":"1","addr:postcode":"392 32","addr:street":"Larmgatan","amenity":"restaurant","name":"Gröna Stugan","opening_hours":"Tu-Sa 17:00+","website":"https://www.gronastuganikalmar.se/"}},"geometry":{"type":"Point","coordinates":[16.3631393,56.6612984]}},{"type":"Feature","properties":{"id":449776752,"osm_type":"node","name":"Mister York Kalmar Baronen","category":"restaurant","tags":{"amenity":"fast_food","brand":"Mister York","cuisine":"burger","name":"Mister York Kalmar Baronen","opening_hours":"Mo-Su 10:00-23:00","takeaway":"yes","website":"https://www.misteryork.se/ort/kalmar-baronen","wheelchair":"yes"}},"geometry":{"type":"Point","coordinates":[16.3638357,56.6607774]}},{"type":"Feature","properties":{"id":449776758,"osm_type":"node","name":"Stekhuset","category":"restaurant","tags":{"amenity":"restaurant","check_date":"2023-04-17","name":"Stekhuset","wheelchair":"limited"}},"geometry":{"type":"Point","coordinates":[16.3667354,56.6617044]}},{"type":"Feature","properties":{"id":449776760,"osm_type":"node","name":"Hamnkaféet","category":"restaurant","tags":{"amenity":"cafe","check_date":"2023-04-17","name":"Hamnkaféet","opening_hours":"Mo-Fr 06:30-16:00; Sa 09:00-15:00; Su off"}},"geometry":{"type":"Point","coordinates":[16.368,56.6622861]}},{"type":"Feature","properties":{"id":449776763,"osm_type":"node","name":"Kama Sushi","category":"restaurant","tags":{"amenity":"fast_food","check_date":"2023-04-17","cuisine":"japanese","name":"Kama Sushi","opening_hours":"Mo-Fr 11:00-14:00; Sa,Su off"}},"geometry":{"type":"Point","coordinates":[16.3652475,56.6636836]}},{"type":"Feature","properties":{"id":449776767,"osm_type":"node","name":"Café König","category":"restaurant","tags":{"amenity":"cafe","check_date":"2023-04-17","indoor_seating":"yes","name":"Café König","opening_hours":"Mo-Fr 09:00-17:00; Sa 10:00-15:00","outdoor_seating":"yes"}},"geometry":{"type":"Point","coordinates":[16.3650627,56.6638415]}},{"type":"Feature","properties":{"id":449776783,"osm_type":"node","name":"Kullzénska Caféet","category":"restaurant","tags":{"amenity":"cafe","cuisine":"coffee_shop","diet:vegan":"yes","indoor_seating":"yes","name":"Kullzénska Caféet","opening_hours":"Mo-Fr 10:00-18:30; Sa 10:00-17:00; Su 12:00-16:30","outdoor_seating":"yes","phone":"+46 0480-28882","survey:date":"2022-04-10","website":"https://www.kullzenska.se/","wheelchair":"no"}},"geometry":{"type":"Point","coordinates":[16.3626253,56.6638118]}},{"type":"Feature","properties":{"id":449776785,"osm_type":"node","name":"Holmgrens Konditori","category":"restaurant","tags":{"amenity":"cafe","check_date":"2023-04-17","name":"Holmgrens Konditori","opening_hours":"Mo-Fr 09:00-18:00; Sa 09:30-16:00"}},"geometry":{"type":"Point","coordinates":[16.3636454,56.6623805]}},{"type":"Feature","properties":{"id":449776788,"osm_type":"node","name":"McCool's Bar","category":"restaurant","tags":{"amenity":"restaurant","beer":"yes","check_date":"2025-08-18","name":"McCool's Bar"}},"geometry":{"type":"Point","coordinates":[16.3613545,56.6636791]}},{"type":"Feature","properties":{"id":449776795,"osm_type":"node","name":"Athena","category":"restaurant","tags":{"amenity":"restaurant","check_date":"2024-03-15","name":"Athena"}},"geometry":{"type":"Point","coordinates":[16.3613827,56.663495]}},{"type":"Feature","properties":{"id":449776797,"osm_type":"node","name":"Restaurang Larmgatan 10","category":"restaurant","tags":{"addr:city":"Kalmar","addr:country":"SE","addr:housenumber":"6","addr:postcode":"392 32","addr:street":"Södra Långgatan","amenity":"restaurant","name":"Restaurang Larmgatan 10","website":"https://www.larmgatan10.se/"}},"geometry":{"type":"Point","coordinates":[16.3621604,56.6622762]}},{"type":"Feature","properties":{"id":449776799,"osm_type":"node","name":"Ming Palace","category":"restaurant","tags":{"amenity":"restaurant","check_date":"2023-04-22","cuisine":"chinese","name":"Ming Palace"}},"geometry":{"type":"Point","coordinates":[16.3609653,56.6642815]}},{"type":"Feature","properties":{"id":449776803,"osm_type":"node","name":"Thai Silk","category":"restaurant","tags":{"amenity":"restaurant","check_date":"2023-04-22","cuisine":"asian","name":"Thai Silk","wheelchair":"limited"}},"geometry":{"type":"Point","coordinates":[16.3613098,56.664075]}},{"type":"Feature","properties":{"id":450151733,"osm_type":"node","name":"Söderport","category":"restaurant","tags":{"amenity":"restaurant","check_date":"2023-04-24","indoor_seating":"yes","name":"Söderport","opening_hours":"Th-Sa 18:00-01:00","outdoor_seating":"yes"}},"geometry":{"type":"Point","coordinates":[16.3525994,56.6593938]}},{"type":"Feature","properties":{"id":470197871,"osm_type":"node","name":"Pizzeria Oxen","category":"restaurant","tags":{"amenity":"fast_food","name":"Pizzeria Oxen"}},"geometry":{"type":"Point","coordinates":[16.3339666,56.6743743]}},{"type":"Feature","properties":{"id":508081268,"osm_type":"node","name":"Hamngrillen i Färjestaden AB","category":"restaurant","tags":{"addr:city":"Färjestaden","addr:country":"SE","addr:postcode":"386 31","addr:street":"Södra Hamnplan","amenity":"fast_food","name":"Hamngrillen i Färjestaden AB"}},"geometry":{"type":"Point","coordinates":[16.4640385,56.6492804]}},{"type":"Feature","properties":{"id":601587908,"osm_type":"node","name":"Pizzeria Linda","category":"restaurant","tags":{"addr:street":"Torget","amenity":"restaurant","cuisine":"italian","name":"Pizzeria Linda","phone":"+46-485 - 41079"}},"geometry":{"type":"Point","coordinates":[16.3746176,56.5274514]}},{"type":"Feature","properties":{"id":662990843,"osm_type":"node","name":"Ängö pizzeria","category":"restaurant","tags":{"amenity":"fast_food","cuisine":"pizza","indoor_seating":"yes","name":"Ängö pizzeria","opening_hours":"Mo-Fr 11:30-21:00; Sa,Su 12:00-21:00","outdoor_seating":"no"}},"geometry":{"type":"Point","coordinates":[16.3689286,56.6720468]}},{"type":"Feature","properties":{"id":1063847215,"osm_type":"node","name":"Burger King","category":"restaurant","tags":{"amenity":"fast_food","brand":"Burger King","brand:wikidata":"Q177054","brand:wikipedia":"sv:Burger King","check_date":"2025-05-26","cuisine":"burger","drive_through":"yes","name":"Burger King","opening_hours":"PH,Mo-Su 10:00-22:00","takeaway":"yes","wheelchair":"yes"}},"geometry":{"type":"Point","coordinates":[16.322376,56.683822]}},{"type":"Feature","properties":{"id":1068170093,"osm_type":"node","name":"Park Hermina","category":"restaurant","tags":{"amenity":"restaurant","email":"info@parkhermina.se","indoor_seating":"yes","name":"Park Hermina","outdoor_seating":"yes","phone":"+46 480-163 60","website":"https://www.parkhermina.se/"}},"geometry":{"type":"Point","coordinates":[16.3557619,56.6606331]}},{"type":"Feature","properties":{"id":1070480884,"osm_type":"node","name":"Taco Bar","category":"restaurant","tags":{"addr:city":"Kalmar","addr:country":"SE","addr:housenumber":"23","addr:postcode":"392 32","addr:street":"Kaggensgatan","amenity":"fast_food","brand":"Taco Bar","brand:wikidata":"Q10689652","check_date":"2024-03-15","cuisine":"tex-mex","indoor_seating":"yes","name":"Taco Bar","outdoor_seating":"yes","takeaway":"yes","website":"https://tacobar.se/restaurang/taco-bar-kalmar/"}},"geometry":{"type":"Point","coordinates":[16.3623249,56.6637443]}},{"type":"Feature","properties":{"id":1080919753,"osm_type":"node","name":"Venezia Pizzeria","category":"restaurant","tags":{"addr:city":"Kalmar","addr:country":"SE","addr:housenumber":"26","addr:postcode":"392 33","addr:street":"Esplanaden","amenity":"restaurant","cuisine":"pizza","name":"Venezia Pizzeria","opening_hours":"Mo-Su 11:00-22:00","phone":"+46 480 29 880","website":"https://veneziakalmar.se/"}},"geometry":{"type":"Point","coordinates":[16.355915,56.6654721]}},{"type":"Feature","properties":{"id":1080920221,"osm_type":"node","name":"Cafe systrarströmmen","category":"restaurant","tags":{"amenity":"cafe","name":"Cafe systrarströmmen","opening_hours":"Mo-Th 10:00-17:00; Fr 10:00-16:00"}},"geometry":{"type":"Point","coordinates":[16.3569866,56.6652804]}},{"type":"Feature","properties":{"id":1080920422,"osm_type":"node","name":"Postgatan","category":"restaurant","tags":{"addr:country":"SE","addr:housenumber":"5","addr:street":"Postgatan","amenity":"restaurant","name":"Postgatan","phone":"+46 480 408690","website":"https://postgatan.nu/"}},"geometry":{"type":"Point","coordinates":[16.3564774,56.6655061]}},{"type":"Feature","properties":{"id":1508874964,"osm_type":"node","name":"Da Ernesto","category":"restaurant","tags":{"addr:city":"Kalmar","addr:country":"SE","addr:housenumber":"5","addr:postcode":"392 32","addr:street":"Södra Långgatan","amenity":"restaurant","cuisine":"italian","name":"Da Ernesto","website":"https://www.ernestokalmar.se/"}},"geometry":{"type":"Point","coordinates":[16.361763,56.6623472]}},{"type":"Feature","properties":{"id":1620035030,"osm_type":"node","name":"sparta","category":"restaurant","tags":{"amenity":"fast_food","cuisine":"pizza","name":"sparta"}},"geometry":{"type":"Point","coordinates":[16.3575643,56.7033663]}},{"type":"Feature","properties":{"id":1620038594,"osm_type":"node","name":"Panorama","category":"restaurant","tags":{"amenity":"restaurant","name":"Panorama"}},"geometry":{"type":"Point","coordinates":[16.3508322,56.6713951]}},{"type":"Feature","properties":{"id":1620042692,"osm_type":"node","name":"Pizzapalatset","category":"restaurant","tags":{"amenity":"fast_food","cuisine":"pizza","name":"Pizzapalatset"}},"geometry":{"type":"Point","coordinates":[16.353999,56.6674106]}},{"type":"Feature","properties":{"id":1620119355,"osm_type":"node","name":"Ben & Jerry's","category":"restaurant","tags":{"amenity":"ice_cream","brand":"Ben & Jerry's","brand:wikidata":"Q816412","brand:wikipedia":"en:Ben & Jerry's","check_date":"2023-04-22","cuisine":"ice_cream","name":"Ben & Jerry's"}},"geometry":{"type":"Point","coordinates":[16.361529,56.6629718]}},{"type":"Feature","properties":{"id":1620119385,"osm_type":"node","name":"Fiesta","category":"restaurant","tags":{"amenity":"cafe","check_date":"2023-04-22","contact:phone":"+46 480 86042","name":"Fiesta"}},"geometry":{"type":"Point","coordinates":[16.3610467,56.6634061]}},{"type":"Feature","properties":{"id":1620119389,"osm_type":"node","name":"Kallskänken","category":"restaurant","tags":{"amenity":"fast_food","cuisine":"sandwich;pizza","indoor_seating":"yes","name":"Kallskänken","outdoor_seating":"yes"}},"geometry":{"type":"Point","coordinates":[16.3554616,56.6657116]}},{"type":"Feature","properties":{"id":1620119416,"osm_type":"node","name":"Max","category":"restaurant","tags":{"amenity":"fast_food","branch":"Kalmar Gamla Polishuset","brand":"Max","brand:wikidata":"Q1912172","brand:wikipedia":"sv:Max Hamburgerrestauranger","cuisine":"burger","name":"Max","operator":"Max","takeaway":"yes","website":"http://www.max.se/sv/Hitta-Max/Restauranger/Kalmar-Polishuset/","wheelchair":"yes"}},"geometry":{"type":"Point","coordinates":[16.3541862,56.6675808]}},{"type":"Feature","properties":{"id":1620119419,"osm_type":"node","name":"Pizzeria Italia","category":"restaurant","tags":{"amenity":"fast_food","cuisine":"pizza","name":"Pizzeria Italia","opening_hours":"Mo-Th 15:00-21:00; Fr 15:00-22:00; Su 12:00-22:00,12:00-21:00"}},"geometry":{"type":"Point","coordinates":[16.3567572,56.6678402]}},{"type":"Feature","properties":{"id":1620119421,"osm_type":"node","name":"Subway","category":"restaurant","tags":{"amenity":"fast_food","brand":"Subway","brand:wikidata":"Q244457","brand:wikipedia":"sv:Subway","cuisine":"sandwich","name":"Subway","takeaway":"yes","wheelchair":"yes"}},"geometry":{"type":"Point","coordinates":[16.353875,56.6672878]}},{"type":"Feature","properties":{"id":1620150541,"osm_type":"node","name":"Kvarnholmens Pizza","category":"restaurant","tags":{"amenity":"restaurant","check_date":"2023-04-17","name":"Kvarnholmens Pizza"}},"geometry":{"type":"Point","coordinates":[16.3651524,56.6658869]}},{"type":"Feature","properties":{"id":1620150542,"osm_type":"node","name":"Citygrillen","category":"restaurant","tags":{"amenity":"fast_food","name":"Citygrillen"}},"geometry":{"type":"Point","coordinates":[16.3651527,56.6658868]}},{"type":"Feature","properties":{"id":1620151252,"osm_type":"node","name":"Berga Centrums Pizzeria & gatukök","category":"restaurant","tags":{"amenity":"restaurant","cuisine":"pizza","name":"Berga Centrums Pizzeria & gatukök"}},"geometry":{"type":"Point","coordinates":[16.3395298,56.6923362]}},{"type":"Feature","properties":{"id":1620151797,"osm_type":"node","name":"Pipes of Scotland","category":"restaurant","tags":{"amenity":"pub","check_date":"2023-04-17","designation":"Scotland","indoor_seating":"yes","name":"Pipes of Scotland","outdoor_seating":"no","wifi":"no"}},"geometry":{"type":"Point","coordinates":[16.3665715,56.6642978]}},{"type":"Feature","properties":{"id":1620154532,"osm_type":"node","name":"2 Krögare","category":"restaurant","tags":{"addr:country":"SE","addr:housenumber":"22A","addr:street":"Stagneliusgatan","amenity":"restaurant","cuisine":"pizza","name":"2 Krögare","phone":"+4648017606"}},"geometry":{"type":"Point","coordinates":[16.3451997,56.6717983]}},{"type":"Feature","properties":{"id":1623556363,"osm_type":"node","name":"Zappa","category":"restaurant","tags":{"amenity":"fast_food","check_date":"2024-08-03","cuisine":"kebab","designation":"Gör mat som kebab, gyros och hamburgare.","name":"Zappa"}},"geometry":{"type":"Point","coordinates":[16.3613753,56.661634]}},{"type":"Feature","properties":{"id":1625390755,"osm_type":"node","name":"kungsgrillen kalmar","category":"restaurant","tags":{"addr:city":"Kalmar","addr:country":"SE","addr:housenumber":"49","addr:postcode":"39244","addr:street":"Södra vägen","amenity":"restaurant","cuisine":"pizza;kebab;burger;international;chicken","diet:gluten_free":"yes","diet:halal":"yes","diet:lactose_free":"yes","diet:vegan":"yes","diet:vegetarian":"yes","name":"kungsgrillen kalmar","opening_hours":"Mo-Su 10:00-21:00","website":"https://kungsgrillen.com/"}},"geometry":{"type":"Point","coordinates":[16.3296,56.6654]}},{"type":"Feature","properties":{"id":1628102210,"osm_type":"node","name":"Pizzeria Flamenco","category":"restaurant","tags":{"amenity":"fast_food","cuisine":"pizza","name":"Pizzeria Flamenco"}},"geometry":{"type":"Point","coordinates":[16.3385802,56.6606797]}},{"type":"Feature","properties":{"id":1628125893,"osm_type":"node","name":"O'Learys","category":"restaurant","tags":{"addr:city":"Kalmar","addr:country":"SE","addr:housenumber":"4","addr:postcode":"392 32","addr:street":"Larmtorget","amenity":"pub","indoor_seating":"yes","name":"O'Learys","outdoor_seating":"yes","website":"https://olearys.se/kalmar/"}},"geometry":{"type":"Point","coordinates":[16.3610828,56.6624527]}},{"type":"Feature","properties":{"id":1672353654,"osm_type":"node","name":"Ljusstadens pizzeria","category":"restaurant","tags":{"amenity":"fast_food","cuisine":"kebab;pizza","name":"Ljusstadens pizzeria","takeaway":"yes"}},"geometry":{"type":"Point","coordinates":[16.3409984,56.7002019]}},{"type":"Feature","properties":{"id":1675514944,"osm_type":"node","name":"Max i Kalmar, Hansa city/Guldfågeln Arena","category":"restaurant","tags":{"addr:city":"Kalmar","addr:country":"SE","addr:housenumber":"40","addr:postcode":"393 56","addr:street":"Trångsundsvägen","amenity":"fast_food","brand":"Max Hamburgerrestauranger","brand:wikidata":"Q1912172","brand:wikipedia":"sv:Max Hamburgerrestauranger","cuisine":"burger","drive_through":"yes","name":"Max i Kalmar, Hansa city/Guldfågeln Arena","opening_hours":"PH,Mo-Su 10:00-24:00","operator":"Max","website":"https://www.max.se/sv/Hitta-Max/Restauranger/Kalmar-Guldfageln-Arena/"}},"geometry":{"type":"Point","coordinates":[16.3154005,56.6907109]}},{"type":"Feature","properties":{"id":1681536165,"osm_type":"node","name":"Pizzabutiken Esplanaden","category":"restaurant","tags":{"addr:city":"Kalmar","addr:country":"SE","addr:housenumber":"21B","addr:postcode":"39234","addr:street":"Esplanaden","amenity":"restaurant","name":"Pizzabutiken Esplanaden"}},"geometry":{"type":"Point","coordinates":[16.3526842,56.6652846]}},{"type":"Feature","properties":{"id":1809118017,"osm_type":"node","name":"Saxtugget","category":"restaurant","tags":{"amenity":"restaurant","name":"Saxtugget"}},"geometry":{"type":"Point","coordinates":[16.4785071,56.688065]}},{"type":"Feature","properties":{"id":1844252627,"osm_type":"node","name":"Pinchos","category":"restaurant","tags":{"amenity":"restaurant","brand":"Pinchos","brand:wikidata":"Q42298558","check_date":"2023-04-17","cuisine":"tapas","name":"Pinchos"}},"geometry":{"type":"Point","coordinates":[16.3631407,56.663262]}},{"type":"Feature","properties":{"id":2019275501,"osm_type":"node","name":"Pizzeria Capri","category":"restaurant","tags":{"addr:country":"SE","addr:housenumber":"69","addr:postcode":"39470","addr:street":"Smedbyvägen","amenity":"fast_food","cuisine":"pizza","name":"Pizzeria Capri"}},"geometry":{"type":"Point","coordinates":[16.2422525,56.6753507]}},{"type":"Feature","properties":{"id":2141374960,"osm_type":"node","name":"Pizzapalatset","category":"restaurant","tags":{"amenity":"fast_food","cuisine":"italian","name":"Pizzapalatset"}},"geometry":{"type":"Point","coordinates":[16.3394485,56.6600489]}},{"type":"Feature","properties":{"id":2328327967,"osm_type":"node","name":"Udon Thai Restaurang","category":"restaurant","tags":{"addr:city":"Rockneby","addr:country":"SE","addr:housenumber":"4","addr:postcode":"39593","addr:street":"Ryssbylundsvägen","amenity":"restaurant","cuisine":"thai","name":"Udon Thai Restaurang"}},"geometry":{"type":"Point","coordinates":[16.3519558,56.801373]}},{"type":"Feature","properties":{"id":2455814710,"osm_type":"node","name":"","category":"restaurant","tags":{"amenity":"fast_food"}},"geometry":{"type":"Point","coordinates":[16.3403926,56.6687755]}},{"type":"Feature","properties":{"id":2461314894,"osm_type":"node","name":"Café Restaurang 22:an","category":"restaurant","tags":{"amenity":"restaurant","cuisine":"pizza","name":"Café Restaurang 22:an"}},"geometry":{"type":"Point","coordinates":[16.3552583,56.7961518]}},{"type":"Feature","properties":{"id":2461326594,"osm_type":"node","name":"Saxnäs Pizzeria","category":"restaurant","tags":{"amenity":"restaurant","name":"Saxnäs Pizzeria"}},"geometry":{"type":"Point","coordinates":[16.4826202,56.687068]}},{"type":"Feature","properties":{"id":3539243143,"osm_type":"node","name":"","category":"restaurant","tags":{"amenity":"fast_food"}},"geometry":{"type":"Point","coordinates":[16.4889716,56.6707946]}},{"type":"Feature","properties":{"id":3539243172,"osm_type":"node","name":"","category":"restaurant","tags":{"amenity":"fast_food"}},"geometry":{"type":"Point","coordinates":[16.491938,56.6719376]}},{"type":"Feature","properties":{"id":3557589696,"osm_type":"node","name":"","category":"restaurant","tags":{"amenity":"fast_food"}},"geometry":{"type":"Point","coordinates":[16.4882569,56.6692491]}},{"type":"Feature","properties":{"id":3557589784,"osm_type":"node","name":"","category":"restaurant","tags":{"amenity":"fast_food"}},"geometry":{"type":"Point","coordinates":[16.4888285,56.6699698]}},{"type":"Feature","properties":{"id":3563885816,"osm_type":"node","name":"Ölandschoklad","category":"restaurant","tags":{"amenity":"cafe","name":"Ölandschoklad","outdoor_seating":"yes"}},"geometry":{"type":"Point","coordinates":[16.4627548,56.6490826]}},{"type":"Feature","properties":{"id":3660283276,"osm_type":"node","name":"","category":"restaurant","tags":{"amenity":"fast_food","operator":"Vita Sands Camping"}},"geometry":{"type":"Point","coordinates":[16.2251186,56.5685333]}},{"type":"Feature","properties":{"id":4204385688,"osm_type":"node","name":"Cafe Mejeriet","category":"restaurant","tags":{"amenity":"cafe","name":"Cafe Mejeriet"}},"geometry":{"type":"Point","coordinates":[16.4617775,56.5841725]}},{"type":"Feature","properties":{"id":4204448237,"osm_type":"node","name":"Bo Pensionat","category":"restaurant","tags":{"amenity":"restaurant","name":"Bo Pensionat"}},"geometry":{"type":"Point","coordinates":[16.458912,56.5823636]}},{"type":"Feature","properties":{"id":4204459793,"osm_type":"node","name":"Alvarboden","category":"restaurant","tags":{"amenity":"cafe","name":"Alvarboden"}},"geometry":{"type":"Point","coordinates":[16.461372,56.5793526]}},{"type":"Feature","properties":{"id":4365887729,"osm_type":"node","name":"Espresso House","category":"restaurant","tags":{"amenity":"cafe","brand":"Espresso House","brand:wikidata":"Q10489162","brand:wikipedia":"sv:Espresso House","cuisine":"coffee_shop","name":"Espresso House","takeaway":"yes"}},"geometry":{"type":"Point","coordinates":[16.3617975,56.6630625]}},{"type":"Feature","properties":{"id":4365887731,"osm_type":"node","name":"Brisjet & Friends","category":"restaurant","tags":{"amenity":"restaurant","cuisine":"barbecue","name":"Brisjet & Friends"}},"geometry":{"type":"Point","coordinates":[16.3628677,56.6632128]}},{"type":"Feature","properties":{"id":4365887737,"osm_type":"node","name":"Döner kebab","category":"restaurant","tags":{"amenity":"restaurant","check_date:opening_hours":"2025-07-16","cuisine":"kebab;pizza","name":"Döner kebab","opening_hours":"Mo-Fr 11:00-20:00; Sa,Su 12:00-20:00","phone":"+46 72 299 90 13","website":"https://www.donerkalmar.se/"}},"geometry":{"type":"Point","coordinates":[16.3643606,56.6643745]}},{"type":"Feature","properties":{"id":4365887746,"osm_type":"node","name":"Restaurang Peking","category":"restaurant","tags":{"amenity":"restaurant","check_date":"2024-08-03","cuisine":"chinese","name":"Restaurang Peking","opening_hours":"Mo-Fr 11:00-20:00; Sa,Su 12:00-20:00"}},"geometry":{"type":"Point","coordinates":[16.3604289,56.6615425]}},{"type":"Feature","properties":{"id":4365887747,"osm_type":"node","name":"Loccos","category":"restaurant","tags":{"addr:city":"Kalmar","addr:housenumber":"1","addr:postcode":"39232","addr:street":"Norra Långgatan","amenity":"pub","brewery":"various","check_date":"2025-09-29","cocktails":"yes","cuisine":"spanish;pizza;tapas","name":"Loccos","opening_hours":"Wed-Sat 16:00-02:00","outdoor_seating":"yes","phone":"+46708849603","smoking":"outside","website":"https://www.loccos.se/","website:menu":"https://loccos.se/meny/"}},"geometry":{"type":"Point","coordinates":[16.3606743,56.6634787]}},{"type":"Feature","properties":{"id":4631486791,"osm_type":"node","name":"Epok","category":"restaurant","tags":{"amenity":"restaurant","name":"Epok"}},"geometry":{"type":"Point","coordinates":[16.4625339,56.6495583]}},{"type":"Feature","properties":{"id":4792889409,"osm_type":"node","name":"Milla Pizzeria","category":"restaurant","tags":{"amenity":"fast_food","name":"Milla Pizzeria"}},"geometry":{"type":"Point","coordinates":[16.4709512,56.6498491]}},{"type":"Feature","properties":{"id":4792890074,"osm_type":"node","name":"Pizzeria Shiponja","category":"restaurant","tags":{"amenity":"restaurant","cuisine":"pizza","name":"Pizzeria Shiponja","opening_hours":"Mo-Fr 11:00-23:00; Sa,Su 12:00-23:00"}},"geometry":{"type":"Point","coordinates":[16.4687498,56.6499425]}},{"type":"Feature","properties":{"id":4792896520,"osm_type":"node","name":"Fiesta","category":"restaurant","tags":{"amenity":"cafe","name":"Fiesta","opening_hours":"Mo-Fr 08:00-18:00; Sa 08:00-16:00"}},"geometry":{"type":"Point","coordinates":[16.4690787,56.6496764]}},{"type":"Feature","properties":{"id":4792896655,"osm_type":"node","name":"Robertos","category":"restaurant","tags":{"amenity":"restaurant","cuisine":"pizza","name":"Robertos","opening_hours":"Su-Th 11:00-21:00; Fr,Sa 11:00-22:00"}},"geometry":{"type":"Point","coordinates":[16.4743017,56.6499152]}},{"type":"Feature","properties":{"id":4792946015,"osm_type":"node","name":"","category":"restaurant","tags":{"amenity":"ice_cream"}},"geometry":{"type":"Point","coordinates":[16.4640597,56.6494387]}},{"type":"Feature","properties":{"id":4792966251,"osm_type":"node","name":"","category":"restaurant","tags":{"amenity":"ice_cream"}},"geometry":{"type":"Point","coordinates":[16.4625955,56.6449412]}},{"type":"Feature","properties":{"id":4792972534,"osm_type":"node","name":"ICA","category":"restaurant","tags":{"amenity":"cafe","check_date":"2023-04-19","name":"ICA"}},"geometry":{"type":"Point","coordinates":[16.4698794,56.6520419]}},{"type":"Feature","properties":{"id":4792974734,"osm_type":"node","name":"","category":"restaurant","tags":{"amenity":"ice_cream"}},"geometry":{"type":"Point","coordinates":[16.4620681,56.6472118]}},{"type":"Feature","properties":{"id":4792974735,"osm_type":"node","name":"","category":"restaurant","tags":{"amenity":"ice_cream"}},"geometry":{"type":"Point","coordinates":[16.4645317,56.6471705]}},{"type":"Feature","properties":{"id":4792977194,"osm_type":"node","name":"Gubben I matlådan","category":"restaurant","tags":{"amenity":"restaurant","name":"Gubben I matlådan"}},"geometry":{"type":"Point","coordinates":[16.4688726,56.6517807]}},{"type":"Feature","properties":{"id":4793015505,"osm_type":"node","name":"Skansen","category":"restaurant","tags":{"amenity":"restaurant","name":"Skansen"}},"geometry":{"type":"Point","coordinates":[16.4673688,56.6490488]}},{"type":"Feature","properties":{"id":4793102110,"osm_type":"node","name":"bow wok vagnen","category":"restaurant","tags":{"amenity":"restaurant","cuisine":"thai","name":"bow wok vagnen","opening_hours":"Mo-Fr 11:30-19:30; Sa,Su 12:00-19:00"}},"geometry":{"type":"Point","coordinates":[16.4692418,56.6521957]}},{"type":"Feature","properties":{"id":4804431953,"osm_type":"node","name":"Roberto's","category":"restaurant","tags":{"amenity":"bar","name":"Roberto's","opening_hours":"Su-Th 11:00-21:00; Fr,Sa 11:00-22:00"}},"geometry":{"type":"Point","coordinates":[16.4743046,56.6498757]}},{"type":"Feature","properties":{"id":5858696976,"osm_type":"node","name":"Stars and stripes","category":"restaurant","tags":{"addr:city":"Kalmar","addr:country":"SE","addr:housenumber":"4","addr:postcode":"392 32","addr:street":"Larmtorget","amenity":"bar","cuisine":"american","name":"Stars and stripes","opening_hours":"Mo-Th 16:00-23:30+, Fr 15:00-02:00, Sa 12:00-02:00, Su 12:00-23:30+","website":"https://www.starsnstripes.se/kalmar/"}},"geometry":{"type":"Point","coordinates":[16.3615646,56.662587]}},{"type":"Feature","properties":{"id":5858714885,"osm_type":"node","name":"Triberg","category":"restaurant","tags":{"addr:country":"SE","addr:housenumber":"8","addr:street":"Storgatan","amenity":"cafe","name":"Triberg","opening_hours":"Tu-Sa 11:00-20:00; Mo, Su 11:00-17:00","phone":"+46 10 1839838","website":"https://triberg.se"}},"geometry":{"type":"Point","coordinates":[16.3620185,56.66297]}},{"type":"Feature","properties":{"id":5858716883,"osm_type":"node","name":"Bastard Burgers","category":"restaurant","tags":{"amenity":"restaurant","brand":"Bastard Burgers","brand:wikidata":"Q76873807","cuisine":"burger","name":"Bastard Burgers","opening_hours":"Mo-Fr 11:00-20:00; Sa 12:00-20:00; Su 12:00-19:00","takeaway":"yes"}},"geometry":{"type":"Point","coordinates":[16.3623532,56.6630654]}},{"type":"Feature","properties":{"id":5861381524,"osm_type":"node","name":"Hattmakarn","category":"restaurant","tags":{"amenity":"restaurant","name":"Hattmakarn"}},"geometry":{"type":"Point","coordinates":[16.3625792,56.6631271]}},{"type":"Feature","properties":{"id":5884596906,"osm_type":"node","name":"E.A.T.","category":"restaurant","tags":{"amenity":"restaurant","check_date":"2025-05-17","check_date:opening_hours":"2025-05-17","cuisine":"asian","name":"E.A.T.","opening_hours":"Mo-Su,PH 11:30-21:30"}},"geometry":{"type":"Point","coordinates":[16.3648495,56.6641094]}},{"type":"Feature","properties":{"id":6563028885,"osm_type":"node","name":"Seasalt Kitchen","category":"restaurant","tags":{"amenity":"restaurant","name":"Seasalt Kitchen"}},"geometry":{"type":"Point","coordinates":[16.4629459,56.6490715]}},{"type":"Feature","properties":{"id":6865935805,"osm_type":"node","name":"Slottsrestaurangen Kalmar","category":"restaurant","tags":{"amenity":"restaurant","check_date":"2023-04-24","email":"slottsrestaurangen@postgatan.nu","name":"Slottsrestaurangen Kalmar","opening_hours":"PH,We-Mo 11:00-15:00; Tu 11:00-19:00","payment:cash":"no","website":"https://kalmarslott.se/besok-restaurang/"}},"geometry":{"type":"Point","coordinates":[16.3552089,56.6581429]}},{"type":"Feature","properties":{"id":7567033082,"osm_type":"node","name":"Bryggan","category":"restaurant","tags":{"addr:city":"Kalmar","addr:country":"SE","addr:housenumber":"12","addr:postcode":"392 31","addr:street":"Skeppsbrogatan","amenity":"restaurant","name":"Bryggan","website":"https://www.bryggankalmar.se/"}},"geometry":{"type":"Point","coordinates":[16.3655451,56.6604717]}},{"type":"Feature","properties":{"id":7567061689,"osm_type":"node","name":"Kahls The & Kaffehandel","category":"restaurant","tags":{"addr:city":"Kalmar","addr:country":"SE","addr:housenumber":"12","addr:postcode":"392 31","addr:street":"Skeppsbrogatan","amenity":"cafe","name":"Kahls The & Kaffehandel","website":"https://kahlstkh.se/"}},"geometry":{"type":"Point","coordinates":[16.3649687,56.661021]}},{"type":"Feature","properties":{"id":7567061696,"osm_type":"node","name":"Wayne's Coffee","category":"restaurant","tags":{"addr:city":"Kalmar","addr:country":"SE","addr:housenumber":"12","addr:postcode":"392 31","addr:street":"Skeppsbrogatan","amenity":"cafe","brand":"Wayne's Coffee","brand:wikidata":"Q2637272","brand:wikipedia":"en:Wayne's Coffee","cuisine":"coffee_shop","name":"Wayne's Coffee","opening_hours":"Mo-Fr 10:00-19:00; Sa 10:00-17:00; Su 11:00-16:00","takeaway":"yes"}},"geometry":{"type":"Point","coordinates":[16.3651683,56.6609987]}},{"type":"Feature","properties":{"id":7847407012,"osm_type":"node","name":"Min Sallad","category":"restaurant","tags":{"addr:city":"Kalmar","addr:country":"SE","addr:housenumber":"11","addr:postcode":"392 32","addr:street":"Storgatan","amenity":"restaurant","contact:facebook":"https://www.facebook.com/Minsallad","cuisine":"salad;sallad","fixme":"Facebook link can't be opened","name":"Min Sallad","opening_hours":"Mo-Fr 10:00-19:00; Sa-Su 09:00-17:00","phone":"+46 76 027 72 05","takeaway":"yes"}},"geometry":{"type":"Point","coordinates":[16.3616165,56.6630007]}},{"type":"Feature","properties":{"id":8264713630,"osm_type":"node","name":"Kebabben","category":"restaurant","tags":{"amenity":"fast_food","check_date":"2023-04-22","name":"Kebabben"}},"geometry":{"type":"Point","coordinates":[16.360397,56.6637703]}},{"type":"Feature","properties":{"id":8269855616,"osm_type":"node","name":"Thai Taste","category":"restaurant","tags":{"amenity":"restaurant","name":"Thai Taste","website":"https://www.thaitaste.se"}},"geometry":{"type":"Point","coordinates":[16.3506964,56.6644915]}},{"type":"Feature","properties":{"id":8613110248,"osm_type":"node","name":"Blomlöfs i Kalmar","category":"restaurant","tags":{"addr:city":"Kalmar","addr:country":"SE","addr:housenumber":"12","addr:postcode":"392 31","addr:street":"Ölandskajen","amenity":"restaurant","name":"Blomlöfs i Kalmar","opening_hours":"Tu-Sa 11:00-15:00, Th 17:00-20:00, Fr,Sa 17:00-21:00; Su,Mo off"}},"geometry":{"type":"Point","coordinates":[16.3601942,56.660343]}},{"type":"Feature","properties":{"id":8627669949,"osm_type":"node","name":"Monaco Pizza","category":"restaurant","tags":{"addr:housenumber":"2","addr:street":"Skyttekullsvägen","amenity":"restaurant","cuisine":"pizza","name":"Monaco Pizza","opening_hours":"Mo-Fr 11:00-20:40; Sa, Su 12:00-20:40","website":"https://monacolackeby.se"}},"geometry":{"type":"Point","coordinates":[16.294566,56.7825312]}},{"type":"Feature","properties":{"id":8866127690,"osm_type":"node","name":"McDonald's","category":"restaurant","tags":{"amenity":"fast_food","brand":"McDonald's","brand:wikidata":"Q38076","cuisine":"burger","name":"McDonald's","opening_hours":"Mo-Su,PH 07:00-24:00","takeaway":"yes"}},"geometry":{"type":"Point","coordinates":[16.3223283,56.6841748]}},{"type":"Feature","properties":{"id":8964147509,"osm_type":"node","name":"ChopChop","category":"restaurant","tags":{"amenity":"fast_food","brand":"ChopChop","brand:wikidata":"Q104631081","brand:wikipedia":"sv:ChopChop","check_date":"2025-05-26","cuisine":"asian","drive_through":"yes","name":"ChopChop","opening_hours":"Mo-Th 10:30-21:00; Fr 10:30-22:00; Sa,Su 11:00-22:00","payment:cash":"no","takeaway":"yes","wheelchair":"yes"}},"geometry":{"type":"Point","coordinates":[16.3229668,56.684317]}},{"type":"Feature","properties":{"id":9001809017,"osm_type":"node","name":"Rosenlundska Restaurant Pub","category":"restaurant","tags":{"addr:country":"SE","addr:housenumber":"3","addr:street":"Östra Sjögatan","amenity":"restaurant","check_date:opening_hours":"2025-07-09","diet:vegan":"yes","name":"Rosenlundska Restaurant Pub","opening_hours":"Tu-Sa 17:00+","phone":"869-35"}},"geometry":{"type":"Point","coordinates":[16.366738,56.6634854]}},{"type":"Feature","properties":{"id":9022183518,"osm_type":"node","name":"Gangnam","category":"restaurant","tags":{"amenity":"restaurant","check_date":"2023-04-22","name":"Gangnam"}},"geometry":{"type":"Point","coordinates":[16.3629679,56.6648562]}},{"type":"Feature","properties":{"id":9022208423,"osm_type":"node","name":"Västerport Bar & Bistro","category":"restaurant","tags":{"amenity":"restaurant","check_date":"2023-04-22","name":"Västerport Bar & Bistro"}},"geometry":{"type":"Point","coordinates":[16.3602647,56.6639785]}},{"type":"Feature","properties":{"id":9022237318,"osm_type":"node","name":"FF:s Bar & Ett litet kök","category":"restaurant","tags":{"amenity":"bar","check_date":"2023-04-22","name":"FF:s Bar & Ett litet kök","opening_hours":"We-Sa 16:00-23:00"}},"geometry":{"type":"Point","coordinates":[16.3601155,56.6635143]}},{"type":"Feature","properties":{"id":9022245217,"osm_type":"node","name":"Korvkiosk","category":"restaurant","tags":{"amenity":"fast_food","check_date":"2023-04-22","name":"Korvkiosk"}},"geometry":{"type":"Point","coordinates":[16.360349,56.6638449]}},{"type":"Feature","properties":{"id":9022254017,"osm_type":"node","name":"Shady Burgers","category":"restaurant","tags":{"amenity":"restaurant","check_date":"2023-04-22","name":"Shady Burgers"}},"geometry":{"type":"Point","coordinates":[16.3605557,56.6636183]}},{"type":"Feature","properties":{"id":9022273456,"osm_type":"node","name":"Glasskulan","category":"restaurant","tags":{"amenity":"ice_cream","name":"Glasskulan","survey:date":"2022-04-10","website":"https://www.kullzenska.se/"}},"geometry":{"type":"Point","coordinates":[16.362904,56.6639325]}},{"type":"Feature","properties":{"id":9022288017,"osm_type":"node","name":"Cayenne","category":"restaurant","tags":{"amenity":"restaurant","name":"Cayenne","toilets:wheelchair":"no","wheelchair":"yes"}},"geometry":{"type":"Point","coordinates":[16.3618663,56.6633709]}},{"type":"Feature","properties":{"id":9022435623,"osm_type":"node","name":"Le Croissant","category":"restaurant","tags":{"amenity":"cafe","check_date":"2023-04-22","name":"Le Croissant"}},"geometry":{"type":"Point","coordinates":[16.3614635,56.6629589]}},{"type":"Feature","properties":{"id":9022708719,"osm_type":"node","name":"Stars And Stripes Steakhouse","category":"restaurant","tags":{"amenity":"restaurant","check_date":"2024-03-15","name":"Stars And Stripes Steakhouse"}},"geometry":{"type":"Point","coordinates":[16.3615185,56.662557]}},{"type":"Feature","properties":{"id":9022722818,"osm_type":"node","name":"","category":"restaurant","tags":{"amenity":"restaurant"}},"geometry":{"type":"Point","coordinates":[16.3621848,56.6624434]}},{"type":"Feature","properties":{"id":9066399617,"osm_type":"node","name":"Källaren Kronan","category":"restaurant","tags":{"amenity":"restaurant","check_date":"2023-04-17","name":"Källaren Kronan"}},"geometry":{"type":"Point","coordinates":[16.3640995,56.6622675]}},{"type":"Feature","properties":{"id":9066426517,"osm_type":"node","name":"Johannas Choklad","category":"restaurant","tags":{"amenity":"cafe","check_date":"2023-04-17","diet:vegan":"yes","name":"Johannas Choklad","opening_hours":"Mo-Fr 11:00-18:00; Sa,Su 11:00-16:00"}},"geometry":{"type":"Point","coordinates":[16.364068,56.6619498]}},{"type":"Feature","properties":{"id":9081607517,"osm_type":"node","name":"Barista","category":"restaurant","tags":{"amenity":"cafe","check_date":"2024-10-15","check_date:opening_hours":"2024-10-15","indoor_seating":"yes","name":"Barista","opening_hours":"Mo-Su 06:10-19:00","outdoor_seating":"yes"}},"geometry":{"type":"Point","coordinates":[16.3600947,56.6614903]}},{"type":"Feature","properties":{"id":9654482095,"osm_type":"node","name":"Kroppkakan","category":"restaurant","tags":{"addr:city":"Kalmar","addr:street":"Arvid Västgötes gata","amenity":"restaurant","cuisine":"kroppkakor","name":"Kroppkakan","opening_hours":"Mo-Fr 09:30-17:00"}},"geometry":{"type":"Point","coordinates":[16.344101,56.6800018]}},{"type":"Feature","properties":{"id":9737785024,"osm_type":"node","name":"Arontorps Restaurang och Drive-thru","category":"restaurant","tags":{"amenity":"restaurant","name:en":"Arontorps Restaurang och Drive-thru"}},"geometry":{"type":"Point","coordinates":[16.5148529,56.6454226]}},{"type":"Feature","properties":{"id":9933903181,"osm_type":"node","name":"Tjorven Museum","category":"restaurant","tags":{"amenity":"cafe","name":"Tjorven Museum"}},"geometry":{"type":"Point","coordinates":[16.3407201,56.8087347]}},{"type":"Feature","properties":{"id":9942218728,"osm_type":"node","name":"Hossmo Gård lantcafé","category":"restaurant","tags":{"amenity":"cafe","contact:email":"info@hossmogard.se","contact:phone":"+46 70 7797334","name":"Hossmo Gård lantcafé","opening_hours":"Sa-Su 11:00-16:00","website":"https://www.hossmogard.se/"}},"geometry":{"type":"Point","coordinates":[16.2228107,56.6387737]}},{"type":"Feature","properties":{"id":9953082240,"osm_type":"node","name":"","category":"restaurant","tags":{"amenity":"cafe","name:signed":"no","opening_hours":"Mo-We 09:00-17:00; Th-Sa 08:00-20:00; Su 08:00-19:00","payment:credit_cards":"yes","payment:debit_cards":"yes","wheelchair":"yes"}},"geometry":{"type":"Point","coordinates":[16.3799182,56.7569429]}},{"type":"Feature","properties":{"id":11176376674,"osm_type":"node","name":"Skogsby Pizzeria","category":"restaurant","tags":{"amenity":"restaurant","cuisine":"pizza","name":"Skogsby Pizzeria"}},"geometry":{"type":"Point","coordinates":[16.5130005,56.6293915]}},{"type":"Feature","properties":{"id":11494816089,"osm_type":"node","name":"Ölandschoklad","category":"restaurant","tags":{"amenity":"restaurant","name":"Ölandschoklad"}},"geometry":{"type":"Point","coordinates":[16.462753,56.649058]}},{"type":"Feature","properties":{"id":11873584448,"osm_type":"node","name":"Henrys","category":"restaurant","tags":{"amenity":"restaurant","name":"Henrys"}},"geometry":{"type":"Point","coordinates":[16.3548486,56.6642797]}},{"type":"Feature","properties":{"id":11960816578,"osm_type":"node","name":"","category":"restaurant","tags":{"amenity":"cafe","outdoor_seating":"yes"}},"geometry":{"type":"Point","coordinates":[16.348124,56.6603277]}},{"type":"Feature","properties":{"id":12017232232,"osm_type":"node","name":"Station Linné Café","category":"restaurant","tags":{"addr:housenumber":"93","addr:street":"Färjestaden","amenity":"cafe","description":"longer opening hours from July 1st","diet:vegetarian":"yes","garden:style":"nature","indoor_seating":"yes","name":"Station Linné Café","opening_hours":"Mo-Sa 10:00-16:00","outdoor_seating":"yes","website":"https://www.stationlinne.se/sv/butik-caf-e-butik/"}},"geometry":{"type":"Point","coordinates":[16.4980318,56.6192881]}},{"type":"Feature","properties":{"id":12072568193,"osm_type":"node","name":"L:a Manilla","category":"restaurant","tags":{"amenity":"cafe","name":"L:a Manilla","opening_hours":"Tu-Fr 07:30-17:00; Sa 07:30-16:00","website":"https://www.lillamanilla.se/"}},"geometry":{"type":"Point","coordinates":[16.3411725,56.6634167]}},{"type":"Feature","properties":{"id":12090344244,"osm_type":"node","name":"Pizza House","category":"restaurant","tags":{"amenity":"fast_food","check_date":"2024-08-03","cuisine":"pizza;kebab","name":"Pizza House","payment:cash":"yes","payment:credit_cards":"yes","payment:debit_cards":"yes","wheelchair":"limited"}},"geometry":{"type":"Point","coordinates":[16.3612928,56.6612956]}},{"type":"Feature","properties":{"id":12170168035,"osm_type":"node","name":"Popup Cafè","category":"restaurant","tags":{"amenity":"cafe","description":"Open only in sommer","name":"Popup Cafè","takeaway":"yes","wheelchair":"yes"}},"geometry":{"type":"Point","coordinates":[16.4790327,56.7764708]}},{"type":"Feature","properties":{"id":12174763201,"osm_type":"node","name":"Café Lotsutkiken","category":"restaurant","tags":{"addr:housenumber":"8","addr:postcode":"392 31","addr:street":"Tjärhovsgatan","amenity":"cafe","name":"Café Lotsutkiken","opening_hours":"Mo-Su 09:00-17:00","outdoor_seating":"yes","website":"https://www.cafelotsutkiken.se/","website:menu":"https://www.cafelotsutkiken.se/meny"}},"geometry":{"type":"Point","coordinates":[16.3663452,56.6551549]}},{"type":"Feature","properties":{"id":12656091471,"osm_type":"node","name":"Café Söderbönor","category":"restaurant","tags":{"amenity":"cafe","name":"Café Söderbönor","opening_hours":"Tu-Fr 09:00-16:00; Sa 10:00-16:00; Su 11:00-16:00","wheelchair":"limited"}},"geometry":{"type":"Point","coordinates":[16.3737087,56.5270528]}},{"type":"Feature","properties":{"id":13056507228,"osm_type":"node","name":"Stora Frögarden","category":"restaurant","tags":{"amenity":"restaurant","cuisine":"pizza","dog":"yes","indoor_seating":"yes","kids_area":"no","name":"Stora Frögarden","outdoor_seating":"yes","payment:cards":"yes","payment:cash":"yes","payment:qr_code":"no","reservation":"recommended","takeaway":"yes","wheelchair":"limited"}},"geometry":{"type":"Point","coordinates":[16.4070643,56.5751388]}},{"type":"Feature","properties":{"id":13062393970,"osm_type":"node","name":"Mister York Kalmar Hansa","category":"restaurant","tags":{"amenity":"fast_food","brand":"Mister York","cuisine":"burger","name":"Mister York Kalmar Hansa","opening_hours":"Su-Th 10:00-21:00; Fr-Sa 10:00-22:00","website":"https://www.misteryork.se/ort/kalmar"}},"geometry":{"type":"Point","coordinates":[16.3147616,56.6897226]}},{"type":"Feature","properties":{"id":13516582960,"osm_type":"node","name":"Koppala's","category":"restaurant","tags":{"addr:city":"Kalmar","addr:housenumber":"20","addr:postcode":"393 56","addr:street":"Trångsundsvägen","amenity":"restaurant","cuisine":"thai;husmanskost","email":"koppalas@hotmail.se","name":"Koppala's","phone":"0480-47 96 96","website":"http://koppalas.se/"}},"geometry":{"type":"Point","coordinates":[16.3191877,56.6889232]}},{"type":"Feature","properties":{"id":13784347901,"osm_type":"node","name":"Pizzeria stensö","category":"restaurant","tags":{"addr:housenumber":"2B","addr:street":"Vegagatan","amenity":"restaurant","cuisine":"pizza","name":"Pizzeria stensö","website:menu":"https://www.vasapizzeriakalmar.se/"}},"geometry":{"type":"Point","coordinates":[16.347436,56.6620805]}},{"type":"Feature","properties":{"id":53625524,"osm_type":"way","name":"Kalmargrillen","category":"restaurant","tags":{"amenity":"fast_food","building":"yes","cuisine":"kebab","name":"Kalmargrillen","opening_hours":"Mo-Fr 11:00-20:00; Sa 12:00-20:00; Su 12:00-20:00","wheelchair":"limited"}},"geometry":{"type":"Point","coordinates":[16.3548347,56.6695082]}},{"type":"Feature","properties":{"id":93252857,"osm_type":"way","name":"Mister York Kalmar Sveaplan","category":"restaurant","tags":{"amenity":"fast_food","brand":"Mister York","building":"yes","cuisine":"burger","name":"Mister York Kalmar Sveaplan","opening_hours":"Su-Th 10:00-22:00; Fr-Sa 10:00-28:00","website":"https://www.misteryork.se/ort/kalmar-sveaplan"}},"geometry":{"type":"Point","coordinates":[16.3577201,56.6659631]}},{"type":"Feature","properties":{"id":93309088,"osm_type":"way","name":"Frasses","category":"restaurant","tags":{"amenity":"fast_food","brand":"Frasses","brand:wikidata":"Q3374476","brand:wikipedia":"sv:Frasses (hamburgerkedja)","building":"yes","cuisine":"burger","name":"Frasses","takeaway":"yes"}},"geometry":{"type":"Point","coordinates":[16.352457,56.6628442]}},{"type":"Feature","properties":{"id":93536061,"osm_type":"way","name":"McDonald's","category":"restaurant","tags":{"addr:city":"Kalmar","addr:country":"SE","addr:housenumber":"6","addr:postcode":"39239","addr:street":"Polhemsgatan","amenity":"fast_food","brand":"McDonald's","brand:wikidata":"Q38076","brand:wikipedia":"sv:McDonald's","building":"yes","cuisine":"burger","name":"McDonald's","opening_hours":"Su-Th 07:00-02:00, Sa,Su 07:00-04:00","takeaway":"yes","wheelchair":"yes"}},"geometry":{"type":"Point","coordinates":[16.3343664,56.6717961]}},{"type":"Feature","properties":{"id":153846405,"osm_type":"way","name":"Pizzeria Matstugan","category":"restaurant","tags":{"addr:city":"Kalmar","addr:country":"SE","addr:housenumber":"23","addr:postcode":"39354","addr:street":"Djurängsvägen","amenity":"restaurant","building":"yes","cuisine":"pizza","name":"Pizzeria Matstugan"}},"geometry":{"type":"Point","coordinates":[16.3280822,56.6910529]}},{"type":"Feature","properties":{"id":306972865,"osm_type":"way","name":"Restaurant Mätt Mörbylanga","category":"restaurant","tags":{"addr:city":"Mörbylanga","addr:housenumber":"2b","addr:postcode":"38650","addr:street":"Storgatan","amenity":"restaurant","building":"retail","cuisine":"regional;asian;western","name":"Restaurant Mätt Mörbylanga","opening_hours":"Mo-Su 11:30-21:00","phone":"+46 76 013 3999"}},"geometry":{"type":"Point","coordinates":[16.3749976,56.5271592]}},{"type":"Feature","properties":{"id":322025125,"osm_type":"way","name":"","category":"restaurant","tags":{"amenity":"restaurant","building":"yes"}},"geometry":{"type":"Point","coordinates":[16.4911639,56.6934968]}},{"type":"Feature","properties":{"id":416897474,"osm_type":"way","name":"Tallhagens Pizzeria","category":"restaurant","tags":{"addr:city":"Kalmar","addr:country":"SE","addr:housenumber":"74","addr:postcode":"39351","addr:street":"Tallhagsvägen","amenity":"fast_food","building":"residential","cuisine":"pizza","name":"Tallhagens Pizzeria","takeaway":"only"}},"geometry":{"type":"Point","coordinates":[16.356708,56.6938797]}},{"type":"Feature","properties":{"id":853808145,"osm_type":"way","name":"Ginger","category":"restaurant","tags":{"amenity":"restaurant","check_date":"2023-04-27","cuisine":"asian","indoor":"room","level":"0","name":"Ginger","room":"shop","shop":"no","wheelchair":"yes"}},"geometry":{"type":"Point","coordinates":[16.3359682,56.670459]}},{"type":"Feature","properties":{"id":853808153,"osm_type":"way","name":"Baked & Grilled","category":"restaurant","tags":{"amenity":"restaurant","check_date":"2023-04-22","cuisine":"italian;husman","indoor":"room","level":"0","name":"Baked & Grilled","room":"shop","shop":"no"}},"geometry":{"type":"Point","coordinates":[16.336099,56.67054]}},{"type":"Feature","properties":{"id":853808161,"osm_type":"way","name":"Bastard Burgers","category":"restaurant","tags":{"addr:housenumber":"7","addr:street":"Polhemsgatan","amenity":"restaurant","brand":"Bastard Burgers","brand:wikidata":"Q76873807","check_date":"2025-08-15","check_date:opening_hours":"2025-08-15","cuisine":"burger","indoor":"room","level":"0","name":"Bastard Burgers","opening_hours":"Mo-Su 11:00-21:00","opening_hours:signed":"no","room":"shop","takeaway":"yes","website":"https://bastardburgers.com/se/restaurants/kalmar/"}},"geometry":{"type":"Point","coordinates":[16.336784,56.6706966]}},{"type":"Feature","properties":{"id":853808166,"osm_type":"way","name":"Kama Sushi","category":"restaurant","tags":{"amenity":"restaurant","check_date":"2023-04-27","cuisine":"sushi","indoor":"room","level":"0","name":"Kama Sushi","room":"shop"}},"geometry":{"type":"Point","coordinates":[16.3376911,56.6706525]}},{"type":"Feature","properties":{"id":853808173,"osm_type":"way","name":"Espresso House","category":"restaurant","tags":{"amenity":"cafe","brand":"Espresso House","brand:wikidata":"Q10489162","brand:wikipedia":"sv:Espresso House","cuisine":"coffee_shop","indoor":"room","level":"0","name":"Espresso House","opening_hours":"Mo-Fr 09:00-19:00; Sa,Su 09:00-18:00","room":"shop","takeaway":"yes","wheelchair":"yes"}},"geometry":{"type":"Point","coordinates":[16.3378931,56.6705057]}}]}