{"type":"FeatureCollection","features":[{"type":"Feature","properties":{"id":903681811,"osm_type":"node","name":"","category":"school_primary","tags":{"amenity":"school"}},"geometry":{"type":"Point","coordinates":[16.5179448,56.6359287]}},{"type":"Feature","properties":{"id":1602057273,"osm_type":"node","name":"Montessoriskolan Regnbågen","category":"school_primary","tags":{"addr:city":"Kalmar","addr:country":"SE","addr:housenumber":"33","addr:postcode":"393 54","addr:street":"Djurängsvägen","amenity":"school","name":"Montessoriskolan Regnbågen"}},"geometry":{"type":"Point","coordinates":[16.3310568,56.6915458]}},{"type":"Feature","properties":{"id":2019254231,"osm_type":"node","name":"Silvergärdsskolan","category":"school_primary","tags":{"amenity":"school","name":"Silvergärdsskolan","old_name":"Silverbacksskolan"}},"geometry":{"type":"Point","coordinates":[16.239125,56.6792127]}},{"type":"Feature","properties":{"id":4793062267,"osm_type":"node","name":"Ölands friskola","category":"school_primary","tags":{"amenity":"school","name":"Ölands friskola"}},"geometry":{"type":"Point","coordinates":[16.4751972,56.6468553]}},{"type":"Feature","properties":{"id":12998912040,"osm_type":"node","name":"Västra skolan","category":"school_primary","tags":{"addr:city":"Kalmar","addr:housenumber":"18A","addr:postcode":"392 34","addr:street":"Nygatan","amenity":"school","name":"Västra skolan"}},"geometry":{"type":"Point","coordinates":[16.3480546,56.6653646]}},{"type":"Feature","properties":{"id":12998912041,"osm_type":"node","name":"Calmare Internationella Skola","category":"school_primary","tags":{"addr:city":"Kalmar","addr:housenumber":"18 A","addr:postcode":"39234","addr:street":"Nygatan","amenity":"school","grades":"10-12","name":"Calmare Internationella Skola","operator:type":"private","short_name":"CIS","website":"https://cis.se/","wheelchair":"yes"}},"geometry":{"type":"Point","coordinates":[16.3479754,56.6659837]}},{"type":"Feature","properties":{"id":13006061657,"osm_type":"node","name":"Gröndalsskolan","category":"school_primary","tags":{"addr:city":"Kalmar","addr:housenumber":"19A","addr:postcode":"392 36","addr:street":"Tallhagskolan","amenity":"school","name":"Gröndalsskolan"}},"geometry":{"type":"Point","coordinates":[16.3578165,56.6786381]}},{"type":"Feature","properties":{"id":13006061658,"osm_type":"node","name":"Gröndalsskolan","category":"school_primary","tags":{"addr:city":"Kalmar","addr:housenumber":"19A","addr:postcode":"392 36","addr:street":"Gröndalsvägen","amenity":"school","name":"Gröndalsskolan"}},"geometry":{"type":"Point","coordinates":[16.3560998,56.6780812]}},{"type":"Feature","properties":{"id":13006061659,"osm_type":"node","name":"Nordic international school","category":"school_primary","tags":{"addr:city":"Kalmar","addr:housenumber":"18B","addr:postcode":"392 34","addr:street":"Nygatan","amenity":"school","name":"Nordic international school"}},"geometry":{"type":"Point","coordinates":[16.3487211,56.6659203]}},{"type":"Feature","properties":{"id":13006061660,"osm_type":"node","name":"Smedbyskolan","category":"school_primary","tags":{"addr:city":"Kalmar","addr:housenumber":"3","addr:postcode":"394 71","addr:street":"Odlingsvägen","amenity":"school","name":"Smedbyskolan"}},"geometry":{"type":"Point","coordinates":[16.2302184,56.6856481]}},{"type":"Feature","properties":{"id":13006061661,"osm_type":"node","name":"Bågskytteskolan","category":"school_primary","tags":{"addr:city":"Kalmar","addr:housenumber":"5","addr:postcode":"394 74","addr:street":"Robin Hoods väg","amenity":"school","name":"Bågskytteskolan"}},"geometry":{"type":"Point","coordinates":[16.2586123,56.6496122]}},{"type":"Feature","properties":{"id":13006306074,"osm_type":"node","name":"Åbyskolan","category":"school_primary","tags":{"addr:country":"SE","addr:housenumber":"10","addr:street":"Läckebyvägen","amenity":"school","grades":"0-6","name":"Åbyskolan","operator":"Kalmar kommun","operator:type":"public"}},"geometry":{"type":"Point","coordinates":[16.2896132,56.7811727]}},{"type":"Feature","properties":{"id":13006306076,"osm_type":"node","name":"Tallhagsskolan","category":"school_primary","tags":{"addr:city":"Kalmar","addr:housenumber":"19A","addr:postcode":"392 36","addr:street":"Gröndalsvägen","amenity":"school","name":"Tallhagsskolan"}},"geometry":{"type":"Point","coordinates":[16.3570118,56.6746213]}},{"type":"Feature","properties":{"id":13006306085,"osm_type":"node","name":"Djurängsskolan","category":"school_primary","tags":{"addr:city":"Kalmar","addr:housenumber":"51","addr:postcode":"393 53","addr:street":"Kungsgårdsvägen","amenity":"school","name":"Djurängsskolan"}},"geometry":{"type":"Point","coordinates":[16.3318795,56.690462]}},{"type":"Feature","properties":{"id":45263106,"osm_type":"way","name":"Sjöängsskolan","category":"school_primary","tags":{"addr:city":"Kalmar","addr:housenumber":"17","addr:postcode":"393 63","addr:street":"Önnemovägen","amenity":"school","building":"kindergarten","name":"Sjöängsskolan"}},"geometry":{"type":"Point","coordinates":[16.3060314,56.7307641]}},{"type":"Feature","properties":{"id":45484847,"osm_type":"way","name":"","category":"school_primary","tags":{"amenity":"school","building":"yes"}},"geometry":{"type":"Point","coordinates":[16.3275817,56.663193]}},{"type":"Feature","properties":{"id":69073320,"osm_type":"way","name":"Rinkabyholmsskolan","category":"school_primary","tags":{"addr:city":"Kalmar","addr:housenumber":"68","addr:postcode":"394 77","addr:street":"Rinkabyholmsvägen","amenity":"school","building":"school","name":"Rinkabyholmsskolan"}},"geometry":{"type":"Point","coordinates":[16.2478678,56.6511258]}},{"type":"Feature","properties":{"id":91222156,"osm_type":"way","name":"Komvux","category":"school_primary","tags":{"amenity":"school","building":"yes","check_date":"2025-06-19","name":"Komvux","wheelchair":"yes"}},"geometry":{"type":"Point","coordinates":[16.3519949,56.6681611]}},{"type":"Feature","properties":{"id":91222160,"osm_type":"way","name":"","category":"school_primary","tags":{"amenity":"school","building":"yes"}},"geometry":{"type":"Point","coordinates":[16.3453156,56.6702755]}},{"type":"Feature","properties":{"id":91222178,"osm_type":"way","name":"Tullbroskolan","category":"school_primary","tags":{"amenity":"school","building":"yes","name":"Tullbroskolan"}},"geometry":{"type":"Point","coordinates":[16.3559507,56.6639342]}},{"type":"Feature","properties":{"id":91222188,"osm_type":"way","name":"Lars kaggskolan","category":"school_primary","tags":{"amenity":"school","building":"yes","name":"Lars kaggskolan"}},"geometry":{"type":"Point","coordinates":[16.3431304,56.6701657]}},{"type":"Feature","properties":{"id":91222218,"osm_type":"way","name":"Stagneliusskolan","category":"school_primary","tags":{"amenity":"school","building":"yes","name":"Stagneliusskolan"}},"geometry":{"type":"Point","coordinates":[16.3598529,56.6672023]}},{"type":"Feature","properties":{"id":93457557,"osm_type":"way","name":"Centrumskola","category":"school_primary","tags":{"addr:city":"Kalmar","addr:housenumber":"18","addr:postcode":"392 49","addr:street":"Norra Vägen","amenity":"school","building":"school","name":"Centrumskola"}},"geometry":{"type":"Point","coordinates":[16.3545035,56.6661371]}},{"type":"Feature","properties":{"id":94131728,"osm_type":"way","name":"John Bauergymnasiet","category":"school_primary","tags":{"amenity":"school","building":"yes","name":"John Bauergymnasiet"}},"geometry":{"type":"Point","coordinates":[16.351954,56.6664022]}},{"type":"Feature","properties":{"id":94131778,"osm_type":"way","name":"","category":"school_primary","tags":{"amenity":"school","building":"yes"}},"geometry":{"type":"Point","coordinates":[16.3527223,56.6665705]}},{"type":"Feature","properties":{"id":94131878,"osm_type":"way","name":"","category":"school_primary","tags":{"amenity":"school","building":"yes"}},"geometry":{"type":"Point","coordinates":[16.3527827,56.6663414]}},{"type":"Feature","properties":{"id":94164769,"osm_type":"way","name":"Falkenbergsskolan","category":"school_primary","tags":{"addr:city":"Kalmar","addr:housenumber":"12","addr:postcode":"392 44","addr:street":"Falkenbergsvägen","amenity":"school","name":"Falkenbergsskolan"}},"geometry":{"type":"Point","coordinates":[16.3269431,56.6629725]}},{"type":"Feature","properties":{"id":128270926,"osm_type":"way","name":"Lindsdalsskolan","category":"school_primary","tags":{"addr:city":"Kalmar","addr:housenumber":"2","addr:postcode":"393 65","addr:street":"Slätmossevägen","amenity":"school","check_date":"2024-08-19","name":"Lindsdalsskolan"}},"geometry":{"type":"Point","coordinates":[16.2919568,56.7345649]}},{"type":"Feature","properties":{"id":128278554,"osm_type":"way","name":"Stagneliusskolan","category":"school_primary","tags":{"amenity":"school","name":"Stagneliusskolan"}},"geometry":{"type":"Point","coordinates":[16.359655,56.6670813]}},{"type":"Feature","properties":{"id":131676644,"osm_type":"way","name":"Kalmarsundsskolan","category":"school_primary","tags":{"addr:city":"Kalmar","addr:housenumber":"1","addr:postcode":"393 58","addr:street":"Norrlidstorget","amenity":"school","name":"Kalmarsundsskolan"}},"geometry":{"type":"Point","coordinates":[16.357002,56.7010025]}},{"type":"Feature","properties":{"id":143854840,"osm_type":"way","name":"Lars Kaggskolan","category":"school_primary","tags":{"alt_name":"Larskagg skolan","amenity":"school","name":"Lars Kaggskolan"}},"geometry":{"type":"Point","coordinates":[16.3438975,56.6696446]}},{"type":"Feature","properties":{"id":143854847,"osm_type":"way","name":"Vasaskolan","category":"school_primary","tags":{"addr:city":"Kalmar","addr:housenumber":"7-9","addr:postcode":"392 45","addr:street":"Germundsgatan","amenity":"school","name":"Vasaskolan"}},"geometry":{"type":"Point","coordinates":[16.3429164,56.6614264]}},{"type":"Feature","properties":{"id":143854853,"osm_type":"way","name":"Jenny Nyströmskolan","category":"school_primary","tags":{"amenity":"school","check_date":"2025-06-19","name":"Jenny Nyströmskolan"}},"geometry":{"type":"Point","coordinates":[16.3477261,56.6695817]}},{"type":"Feature","properties":{"id":147235298,"osm_type":"way","name":"Oxhagsskolan","category":"school_primary","tags":{"addr:city":"Kalmar","addr:housenumber":"16","addr:postcode":"392 38","addr:street":"Daléngatan","amenity":"school","name":"Oxhagsskolan"}},"geometry":{"type":"Point","coordinates":[16.3361742,56.6762375]}},{"type":"Feature","properties":{"id":148951715,"osm_type":"way","name":"Södra Skolan","category":"school_primary","tags":{"addr:city":"Kalmar","addr:housenumber":"2","addr:postcode":"392 33","addr:street":"Esplanaden","amenity":"school","name":"Södra Skolan"}},"geometry":{"type":"Point","coordinates":[16.3493276,56.663707]}},{"type":"Feature","properties":{"id":148951717,"osm_type":"way","name":"Nisbethska","category":"school_primary","tags":{"amenity":"school","name":"Nisbethska"}},"geometry":{"type":"Point","coordinates":[16.3486993,56.6652965]}},{"type":"Feature","properties":{"id":149053154,"osm_type":"way","name":"Waldorfskola","category":"school_primary","tags":{"addr:city":"Kalmar","addr:housenumber":"50A","addr:postcode":"392 56","addr:street":"Ståthållaregatan","amenity":"school","name":"Waldorfskola"}},"geometry":{"type":"Point","coordinates":[16.3270177,56.6601762]}},{"type":"Feature","properties":{"id":307287039,"osm_type":"way","name":"Skansenskolan","category":"school_primary","tags":{"alt_name":"Ugglan","amenity":"school","name":"Skansenskolan"}},"geometry":{"type":"Point","coordinates":[16.3859815,56.5237245]}},{"type":"Feature","properties":{"id":468652767,"osm_type":"way","name":"Smaragdskolan","category":"school_primary","tags":{"addr:city":"Färjestaden","addr:country":"SE","addr:housenumber":"4","addr:street":"Stengatan","amenity":"school","check_date":"2024-06-02","name":"Smaragdskolan"}},"geometry":{"type":"Point","coordinates":[16.4774092,56.6384953]}},{"type":"Feature","properties":{"id":954244379,"osm_type":"way","name":"Östra Skolan","category":"school_primary","tags":{"amenity":"school","grades":"0-9","name":"Östra Skolan"}},"geometry":{"type":"Point","coordinates":[16.4902691,56.6582062]}},{"type":"Feature","properties":{"id":1144169030,"osm_type":"way","name":"SYAB Transportgymnasium / SYAB Trafikcenter","category":"school_primary","tags":{"addr:country":"SE","addr:housenumber":"9","addr:street":"Elverslösavägen","amenity":"school","name":"SYAB Transportgymnasium / SYAB Trafikcenter","operator":"SYAB Gruppen","operator:type":"school"}},"geometry":{"type":"Point","coordinates":[16.2931187,56.6857139]}},{"type":"Feature","properties":{"id":1290965243,"osm_type":"way","name":"Färjestadens Högstadium","category":"school_primary","tags":{"amenity":"school","name":"Färjestadens Högstadium"}},"geometry":{"type":"Point","coordinates":[16.4800289,56.6389371]}},{"type":"Feature","properties":{"id":1293530819,"osm_type":"way","name":"Förskolan Bärnstenen","category":"school_primary","tags":{"amenity":"school","name":"Förskolan Bärnstenen"}},"geometry":{"type":"Point","coordinates":[16.483396,56.6370493]}},{"type":"Feature","properties":{"id":1334828301,"osm_type":"way","name":"Rocknebyskolan","category":"school_primary","tags":{"addr:city":"Rockneby","addr:housenumber":"8","addr:postcode":"39593","addr:street":"Enliden","amenity":"school","name":"Rocknebyskolan"}},"geometry":{"type":"Point","coordinates":[16.345764,56.8024207]}},{"type":"Feature","properties":{"id":1499045227,"osm_type":"way","name":"Capellagården","category":"school_primary","tags":{"addr:city":"Vickleby","addr:housenumber":"25","addr:postcode":"386 93","addr:street":"Vickleby bygata","amenity":"school","education":"school","name":"Capellagården","website":"https://www.capellagarden.se/","wikidata":"Q10441926","wikipedia":"sv:Capellagården"}},"geometry":{"type":"Point","coordinates":[16.4568967,56.5818549]}},{"type":"Feature","properties":{"id":1338528,"osm_type":"relation","name":"Funkaboskolan","category":"school_primary","tags":{"addr:city":"Kalmar","addr:housenumber":"1","addr:postcode":"393 50","addr:street":"Jägarevägen","amenity":"school","building":"school","building:levels":"2","name":"Funkaboskolan","type":"multipolygon"}},"geometry":{"type":"Point","coordinates":[16.3435168,56.6869356]}},{"type":"Feature","properties":{"id":1373831,"osm_type":"relation","name":"Jenny Nyströmskolan","category":"school_primary","tags":{"amenity":"school","building":"yes","name":"Jenny Nyströmskolan","type":"multipolygon"}},"geometry":{"type":"Point","coordinates":[16.3460208,56.6692038]}},{"type":"Feature","properties":{"id":14033163,"osm_type":"relation","name":"Funkaboskolan","category":"school_primary","tags":{"amenity":"school","name":"Funkaboskolan","type":"multipolygon"}},"geometry":{"type":"Point","coordinates":[16.3425057,56.6868427]}}]}