{"type":"FeatureCollection","features":[{"type":"Feature","properties":{"id":12998912041,"osm_type":"node","name":"Calmare Internationella Skola","category":"school_high","tags":{"addr:city":"Kalmar","addr:housenumber":"18 A","addr:postcode":"39234","addr:street":"Nygatan","amenity":"school","grades":"10-12","name":"Calmare Internationella Skola","operator:type":"private","short_name":"CIS","website":"https://cis.se/","wheelchair":"yes"}},"geometry":{"type":"Point","coordinates":[16.3479754,56.6659837]}},{"type":"Feature","properties":{"id":94131728,"osm_type":"way","name":"John Bauergymnasiet","category":"school_high","tags":{"amenity":"school","building":"yes","name":"John Bauergymnasiet"}},"geometry":{"type":"Point","coordinates":[16.351954,56.6664022]}},{"type":"Feature","properties":{"id":1144169030,"osm_type":"way","name":"SYAB Transportgymnasium / SYAB Trafikcenter","category":"school_high","tags":{"addr:country":"SE","addr:housenumber":"9","addr:street":"Elverslösavägen","amenity":"school","name":"SYAB Transportgymnasium / SYAB Trafikcenter","operator":"SYAB Gruppen","operator:type":"school"}},"geometry":{"type":"Point","coordinates":[16.2931187,56.6857139]}}]}