{"type":"FeatureCollection","features":[{"type":"Feature","properties":{"id":1619179918,"osm_type":"node","name":"Malkars Träningscenter","category":"sports_centre","tags":{"leisure":"sports_centre","name":"Malkars Träningscenter","sport":"multi"}},"geometry":{"type":"Point","coordinates":[16.3414122,56.6663469]}},{"type":"Feature","properties":{"id":4376946365,"osm_type":"node","name":"Nordic Wellness","category":"sports_centre","tags":{"brand":"Nordic Wellness","brand:wikidata":"Q60970249","leisure":"fitness_centre","name":"Nordic Wellness"}},"geometry":{"type":"Point","coordinates":[16.3390641,56.692077]}},{"type":"Feature","properties":{"id":4792901883,"osm_type":"node","name":"Nordic Wellness","category":"sports_centre","tags":{"leisure":"fitness_centre","name":"Nordic Wellness"}},"geometry":{"type":"Point","coordinates":[16.4677517,56.6500052]}},{"type":"Feature","properties":{"id":4792903100,"osm_type":"node","name":"Wellness","category":"sports_centre","tags":{"leisure":"fitness_centre","name":"Wellness"}},"geometry":{"type":"Point","coordinates":[16.4651446,56.6488624]}},{"type":"Feature","properties":{"id":4792931005,"osm_type":"node","name":"Hotell Skansen","category":"sports_centre","tags":{"leisure":"sports_centre","name":"Hotell Skansen","sport":"swimming"}},"geometry":{"type":"Point","coordinates":[16.466652,56.6492694]}},{"type":"Feature","properties":{"id":4792947533,"osm_type":"node","name":"","category":"sports_centre","tags":{"leisure":"fitness_station","wikidata":"Q107406742"}},"geometry":{"type":"Point","coordinates":[16.4636254,56.647898]}},{"type":"Feature","properties":{"id":5318043924,"osm_type":"node","name":"Malkars - City","category":"sports_centre","tags":{"check_date":"2023-04-22","leisure":"fitness_centre","name":"Malkars - City"}},"geometry":{"type":"Point","coordinates":[16.3627987,56.6648347]}},{"type":"Feature","properties":{"id":5318043932,"osm_type":"node","name":"Malkars - Varvsholmen","category":"sports_centre","tags":{"leisure":"fitness_centre","name":"Malkars - Varvsholmen"}},"geometry":{"type":"Point","coordinates":[16.3763934,56.6700588]}},{"type":"Feature","properties":{"id":7871314864,"osm_type":"node","name":"Lilla Iffehallen","category":"sports_centre","tags":{"building":"Sportcenter","leisure":"sports_centre","name":"Lilla Iffehallen","sport":"ice_hockey"}},"geometry":{"type":"Point","coordinates":[16.3484366,56.6688229]}},{"type":"Feature","properties":{"id":8992019821,"osm_type":"node","name":"","category":"sports_centre","tags":{"leisure":"fitness_station","sport":"fitness","wikidata":"Q107542773"}},"geometry":{"type":"Point","coordinates":[16.2298654,56.6805178]}},{"type":"Feature","properties":{"id":9022254819,"osm_type":"node","name":"Wellness Studio","category":"sports_centre","tags":{"check_date":"2023-04-22","leisure":"fitness_centre","name":"Wellness Studio"}},"geometry":{"type":"Point","coordinates":[16.3611487,56.6639808]}},{"type":"Feature","properties":{"id":9022316617,"osm_type":"node","name":"Fitness24Seven","category":"sports_centre","tags":{"brand":"Fitness24Seven","brand:wikidata":"Q61112447","check_date":"2025-07-16","leisure":"fitness_centre","name":"Fitness24Seven","opening_hours":"24/7"}},"geometry":{"type":"Point","coordinates":[16.3640301,56.6642441]}},{"type":"Feature","properties":{"id":9035700457,"osm_type":"node","name":"","category":"sports_centre","tags":{"fitness_station":"horizontal_bar","leisure":"fitness_station","sport":"fitness","wheelchair":"no"}},"geometry":{"type":"Point","coordinates":[16.2993016,56.7789889]}},{"type":"Feature","properties":{"id":9069806810,"osm_type":"node","name":"Malkars","category":"sports_centre","tags":{"addr:city":"Färjestaden","addr:country":"SE","addr:housenumber":"123","addr:street":"Storgatan","leisure":"fitness_centre","name":"Malkars","opening_hours":"24/7","website":"https://malkars.se/"}},"geometry":{"type":"Point","coordinates":[16.5101362,56.6515243]}},{"type":"Feature","properties":{"id":9386203375,"osm_type":"node","name":"Friskis & Svettis Kalmar","category":"sports_centre","tags":{"brand":"Friskis & Svettis","brand:wikidata":"Q1796631","brand:wikipedia":"sv:Friskis & Svettis","leisure":"sports_centre","name":"Friskis & Svettis Kalmar","opening_hours":"Mo-Fr 09:00-13:00,15:00-20:00; Sa 07:30-14:30; Su 09:00-19:00","opening_hours:url":"https://www.friskissvettis.se/kalmar/oppettider","sport":"multi","website":"https://www.friskissvettis.se/kalmar"}},"geometry":{"type":"Point","coordinates":[16.3509097,56.6724551]}},{"type":"Feature","properties":{"id":9910953935,"osm_type":"node","name":"","category":"sports_centre","tags":{"leisure":"fitness_station"}},"geometry":{"type":"Point","coordinates":[16.4541306,56.7875774]}},{"type":"Feature","properties":{"id":11976506220,"osm_type":"node","name":"Nordic Wellness","category":"sports_centre","tags":{"leisure":"fitness_centre","name":"Nordic Wellness"}},"geometry":{"type":"Point","coordinates":[16.4690651,56.6517053]}},{"type":"Feature","properties":{"id":12872498681,"osm_type":"node","name":"Torslundahallen","category":"sports_centre","tags":{"addr:street":"Axvägen, 386 92 Färjestaden","leisure":"sports_hall","name":"Torslundahallen","website":"https://www.morbylanga.se/uppleva-och-gora/idrott-motion-natur-och-friluftsliv/sporthallar-fritidsanlaggningar-och-samlinglokaler/torslundahallen/"}},"geometry":{"type":"Point","coordinates":[16.5176768,56.6368859]}},{"type":"Feature","properties":{"id":13317086558,"osm_type":"node","name":"Malkars träningscentrum","category":"sports_centre","tags":{"addr:city":"Kalmar","addr:country":"SE","leisure":"sports_centre","name":"Malkars träningscentrum","wheelchair":"yes"}},"geometry":{"type":"Point","coordinates":[16.2994985,56.7401801]}},{"type":"Feature","properties":{"id":37897618,"osm_type":"way","name":"","category":"sports_centre","tags":{"building":"sports_hall","leisure":"sports_centre","sport":"tennis"}},"geometry":{"type":"Point","coordinates":[16.3577053,56.6798914]}},{"type":"Feature","properties":{"id":38177115,"osm_type":"way","name":"Kalmar Sportcenter","category":"sports_centre","tags":{"building":"yes","leisure":"sports_centre","name":"Kalmar Sportcenter","sport":"basketball;swimming;volleyball;table_tennis;ice_hockey;futsal;floorball"}},"geometry":{"type":"Point","coordinates":[16.3485903,56.6686186]}},{"type":"Feature","properties":{"id":38730731,"osm_type":"way","name":"Kalmar Motorklubb","category":"sports_centre","tags":{"leisure":"sports_centre","location":"outdoor","name":"Kalmar Motorklubb","sport":"motor"}},"geometry":{"type":"Point","coordinates":[16.2828583,56.6997956]}},{"type":"Feature","properties":{"id":45263105,"osm_type":"way","name":"Lindsdals Sporthall","category":"sports_centre","tags":{"building":"sports_hall","leisure":"sports_centre","name":"Lindsdals Sporthall","sport":"multi","wheelchair":"yes"}},"geometry":{"type":"Point","coordinates":[16.2947241,56.7355534]}},{"type":"Feature","properties":{"id":93572837,"osm_type":"way","name":"Kifab Arena","category":"sports_centre","tags":{"leisure":"sports_centre","name":"Kifab Arena","sport":"floorball;athletics"}},"geometry":{"type":"Point","coordinates":[16.3150453,56.6783055]}},{"type":"Feature","properties":{"id":154992221,"osm_type":"way","name":"Kalmar Motorklub","category":"sports_centre","tags":{"leisure":"sports_centre","name":"Kalmar Motorklub","sport":"motocross"}},"geometry":{"type":"Point","coordinates":[16.3118846,56.7640097]}},{"type":"Feature","properties":{"id":170361848,"osm_type":"way","name":"Sydpoolen","category":"sports_centre","tags":{"leisure":"swimming_pool","name":"Sydpoolen","sport":"swimming"}},"geometry":{"type":"Point","coordinates":[16.4816279,56.6862729]}},{"type":"Feature","properties":{"id":209674355,"osm_type":"way","name":"","category":"sports_centre","tags":{"leisure":"sports_centre","sport":"shooting"}},"geometry":{"type":"Point","coordinates":[16.2056823,56.8099424]}},{"type":"Feature","properties":{"id":209674746,"osm_type":"way","name":"","category":"sports_centre","tags":{"leisure":"sports_centre","sport":"shooting"}},"geometry":{"type":"Point","coordinates":[16.2225244,56.8065409]}},{"type":"Feature","properties":{"id":228829488,"osm_type":"way","name":"","category":"sports_centre","tags":{"leisure":"swimming_pool"}},"geometry":{"type":"Point","coordinates":[16.512819,56.7219707]}},{"type":"Feature","properties":{"id":305353818,"osm_type":"way","name":"Färjestadens sporthall","category":"sports_centre","tags":{"addr:housenumber":"8A","addr:street":"Björkvägen","building":"yes","leisure":"sports_centre","name":"Färjestadens sporthall"}},"geometry":{"type":"Point","coordinates":[16.4748303,56.6507658]}},{"type":"Feature","properties":{"id":306396383,"osm_type":"way","name":"","category":"sports_centre","tags":{"leisure":"swimming_pool"}},"geometry":{"type":"Point","coordinates":[16.4621748,56.6473914]}},{"type":"Feature","properties":{"id":306478781,"osm_type":"way","name":"Färjehallen","category":"sports_centre","tags":{"addr:city":"Färjestaden","addr:country":"SE","addr:housenumber":"2","addr:postcode":"386 34","addr:street":"Stengatan","building":"sports_hall","leisure":"sports_centre","location":"indoor","name":"Färjehallen","sport":"floorball"}},"geometry":{"type":"Point","coordinates":[16.4785689,56.639371]}},{"type":"Feature","properties":{"id":307287038,"osm_type":"way","name":"Skansenhallen Sporthall","category":"sports_centre","tags":{"building":"sports_hall","leisure":"sports_centre","name":"Skansenhallen Sporthall","sport":"multi"}},"geometry":{"type":"Point","coordinates":[16.3868583,56.5237551]}},{"type":"Feature","properties":{"id":349989335,"osm_type":"way","name":"","category":"sports_centre","tags":{"leisure":"swimming_pool"}},"geometry":{"type":"Point","coordinates":[16.4887034,56.6696999]}},{"type":"Feature","properties":{"id":349989338,"osm_type":"way","name":"","category":"sports_centre","tags":{"leisure":"swimming_pool"}},"geometry":{"type":"Point","coordinates":[16.4878446,56.6689635]}},{"type":"Feature","properties":{"id":349989351,"osm_type":"way","name":"","category":"sports_centre","tags":{"leisure":"swimming_pool"}},"geometry":{"type":"Point","coordinates":[16.4886621,56.6695283]}},{"type":"Feature","properties":{"id":349989352,"osm_type":"way","name":"","category":"sports_centre","tags":{"leisure":"swimming_pool"}},"geometry":{"type":"Point","coordinates":[16.4891583,56.6697564]}},{"type":"Feature","properties":{"id":349989359,"osm_type":"way","name":"","category":"sports_centre","tags":{"leisure":"swimming_pool"}},"geometry":{"type":"Point","coordinates":[16.4883219,56.6697111]}},{"type":"Feature","properties":{"id":349989361,"osm_type":"way","name":"","category":"sports_centre","tags":{"leisure":"swimming_pool"}},"geometry":{"type":"Point","coordinates":[16.4884504,56.6698636]}},{"type":"Feature","properties":{"id":468652785,"osm_type":"way","name":"Multiarenan","category":"sports_centre","tags":{"leisure":"sports_centre","name":"Multiarenan","sport":"soccer;basketball"}},"geometry":{"type":"Point","coordinates":[16.4792494,56.6396093]}},{"type":"Feature","properties":{"id":547695799,"osm_type":"way","name":"","category":"sports_centre","tags":{"fitness_station":"yes","leisure":"fitness_station","opening_hours":"24/7","sport":"fitness","wikidata":"Q108135417"}},"geometry":{"type":"Point","coordinates":[16.3383436,56.6805028]}},{"type":"Feature","properties":{"id":698902526,"osm_type":"way","name":"","category":"sports_centre","tags":{"leisure":"swimming_pool"}},"geometry":{"type":"Point","coordinates":[16.2654916,56.6586985]}},{"type":"Feature","properties":{"id":698902542,"osm_type":"way","name":"","category":"sports_centre","tags":{"leisure":"swimming_pool"}},"geometry":{"type":"Point","coordinates":[16.2668478,56.6590518]}},{"type":"Feature","properties":{"id":698902543,"osm_type":"way","name":"","category":"sports_centre","tags":{"leisure":"swimming_pool"}},"geometry":{"type":"Point","coordinates":[16.2662839,56.6592524]}},{"type":"Feature","properties":{"id":698902544,"osm_type":"way","name":"","category":"sports_centre","tags":{"leisure":"swimming_pool"}},"geometry":{"type":"Point","coordinates":[16.2667355,56.6588652]}},{"type":"Feature","properties":{"id":698902545,"osm_type":"way","name":"","category":"sports_centre","tags":{"leisure":"swimming_pool"}},"geometry":{"type":"Point","coordinates":[16.2657008,56.659356]}},{"type":"Feature","properties":{"id":698902547,"osm_type":"way","name":"","category":"sports_centre","tags":{"leisure":"swimming_pool"}},"geometry":{"type":"Point","coordinates":[16.2669146,56.6582123]}},{"type":"Feature","properties":{"id":773821163,"osm_type":"way","name":"","category":"sports_centre","tags":{"leisure":"sports_centre","sport":"soccer"}},"geometry":{"type":"Point","coordinates":[16.2432347,56.6492562]}},{"type":"Feature","properties":{"id":789306217,"osm_type":"way","name":"Gröndals idrottsplats","category":"sports_centre","tags":{"leisure":"sports_centre","name":"Gröndals idrottsplats","short_name":"Gröndals IP","sport":"multi"}},"geometry":{"type":"Point","coordinates":[16.3558457,56.6799588]}},{"type":"Feature","properties":{"id":810506199,"osm_type":"way","name":"","category":"sports_centre","tags":{"leisure":"sports_centre"}},"geometry":{"type":"Point","coordinates":[16.3464767,56.8025231]}},{"type":"Feature","properties":{"id":810506208,"osm_type":"way","name":"Rockneby Allaktivitetshus","category":"sports_centre","tags":{"building":"sports_hall","leisure":"sports_centre","location":"indoor","name":"Rockneby Allaktivitetshus","sport":"multi"}},"geometry":{"type":"Point","coordinates":[16.3533002,56.801827]}},{"type":"Feature","properties":{"id":853808167,"osm_type":"way","name":"Nordic Wellness","category":"sports_centre","tags":{"addr:city":"Kalmar","addr:country":"SE","addr:housenumber":"1","addr:postcode":"39239","addr:street":"Polhemsgatan","brand":"Nordic Wellness","brand:wikidata":"Q60970249","check_date":"2023-04-27","indoor":"room","leisure":"fitness_centre","level":"0","name":"Nordic Wellness","opening_hours":"PH,Mo-Su 05:00-23:00","room":"shop","shop":"no","wheelchair":"yes"}},"geometry":{"type":"Point","coordinates":[16.3386479,56.6710803]}},{"type":"Feature","properties":{"id":875517753,"osm_type":"way","name":"Hatstore Arena","category":"sports_centre","tags":{"building":"stadium","check_date":"2025-06-19","leisure":"ice_rink","name":"Hatstore Arena","sport":"ice_hockey"}},"geometry":{"type":"Point","coordinates":[16.3475165,56.668391]}},{"type":"Feature","properties":{"id":875704547,"osm_type":"way","name":"","category":"sports_centre","tags":{"leisure":"fitness_station","sport":"fitness","wikidata":"Q107542792"}},"geometry":{"type":"Point","coordinates":[16.3375765,56.6517428]}},{"type":"Feature","properties":{"id":884193304,"osm_type":"way","name":"Kalmar Padel Arena","category":"sports_centre","tags":{"building":"yes","leisure":"sports_hall","name":"Kalmar Padel Arena","sport":"padel;paddle_tennis"}},"geometry":{"type":"Point","coordinates":[16.3130024,56.678389]}},{"type":"Feature","properties":{"id":953095783,"osm_type":"way","name":"","category":"sports_centre","tags":{"leisure":"fitness_station","opening_hours":"24/7","sport":"fitness"}},"geometry":{"type":"Point","coordinates":[16.3436476,56.6656199]}},{"type":"Feature","properties":{"id":971677661,"osm_type":"way","name":"","category":"sports_centre","tags":{"leisure":"swimming_pool"}},"geometry":{"type":"Point","coordinates":[16.2112441,56.6849507]}},{"type":"Feature","properties":{"id":973622864,"osm_type":"way","name":"","category":"sports_centre","tags":{"addr:street":"Åbyvallsvägen","leisure":"ice_rink","lit":"yes","seasonal":"yes","sport":"ice_hockey","surface":"asphalt"}},"geometry":{"type":"Point","coordinates":[16.2914067,56.7800488]}},{"type":"Feature","properties":{"id":973627352,"osm_type":"way","name":"Läckeby Gym","category":"sports_centre","tags":{"addr:city":"Läckeby","addr:country":"SE","addr:housenumber":"28","addr:street":"Läckebyvägen","building":"yes","building:levels":"1","leisure":"fitness_centre","name":"Läckeby Gym","opening_hours":"24/7","roof:shape":"gabled"}},"geometry":{"type":"Point","coordinates":[16.2967477,56.7825254]}},{"type":"Feature","properties":{"id":974946320,"osm_type":"way","name":"","category":"sports_centre","tags":{"access":"private","leisure":"swimming_pool"}},"geometry":{"type":"Point","coordinates":[16.2882019,56.7825981]}},{"type":"Feature","properties":{"id":975041838,"osm_type":"way","name":"","category":"sports_centre","tags":{"access":"private","leisure":"swimming_pool","location":"outdoor","swimming_pool":"covered"}},"geometry":{"type":"Point","coordinates":[16.2964437,56.7830264]}},{"type":"Feature","properties":{"id":975042675,"osm_type":"way","name":"","category":"sports_centre","tags":{"access":"private","leisure":"swimming_pool","location":"outdoor","swimming_pool":"covered"}},"geometry":{"type":"Point","coordinates":[16.2964247,56.7847588]}},{"type":"Feature","properties":{"id":976401628,"osm_type":"way","name":"","category":"sports_centre","tags":{"access":"private","leisure":"swimming_pool","location":"outdoor"}},"geometry":{"type":"Point","coordinates":[16.2966045,56.7787722]}},{"type":"Feature","properties":{"id":978669158,"osm_type":"way","name":"","category":"sports_centre","tags":{"access":"private","leisure":"swimming_pool"}},"geometry":{"type":"Point","coordinates":[16.2884354,56.7378876]}},{"type":"Feature","properties":{"id":1088022559,"osm_type":"way","name":"","category":"sports_centre","tags":{"leisure":"swimming_pool"}},"geometry":{"type":"Point","coordinates":[16.4677286,56.6490716]}},{"type":"Feature","properties":{"id":1214648443,"osm_type":"way","name":"","category":"sports_centre","tags":{"access":"private","leisure":"swimming_pool"}},"geometry":{"type":"Point","coordinates":[16.495798,56.6962261]}},{"type":"Feature","properties":{"id":1214648444,"osm_type":"way","name":"","category":"sports_centre","tags":{"access":"private","leisure":"swimming_pool"}},"geometry":{"type":"Point","coordinates":[16.4952576,56.6961687]}},{"type":"Feature","properties":{"id":1214648455,"osm_type":"way","name":"","category":"sports_centre","tags":{"access":"private","leisure":"swimming_pool"}},"geometry":{"type":"Point","coordinates":[16.4951988,56.6954883]}},{"type":"Feature","properties":{"id":1293517531,"osm_type":"way","name":"","category":"sports_centre","tags":{"access":"private","leisure":"swimming_pool"}},"geometry":{"type":"Point","coordinates":[16.4758442,56.6382906]}},{"type":"Feature","properties":{"id":1297475450,"osm_type":"way","name":"Fredriksskans utegym","category":"sports_centre","tags":{"leisure":"fitness_station","name":"Fredriksskans utegym","operator":"Kalmar Municipality","sport":"fitness","wikidata":"Q126936594"}},"geometry":{"type":"Point","coordinates":[16.3610983,56.6698338]}},{"type":"Feature","properties":{"id":1299386950,"osm_type":"way","name":"","category":"sports_centre","tags":{"access":"private","leisure":"swimming_pool"}},"geometry":{"type":"Point","coordinates":[16.5110021,56.7238219]}},{"type":"Feature","properties":{"id":1299388346,"osm_type":"way","name":"","category":"sports_centre","tags":{"access":"private","leisure":"swimming_pool"}},"geometry":{"type":"Point","coordinates":[16.5155299,56.7192602]}},{"type":"Feature","properties":{"id":1299847517,"osm_type":"way","name":"","category":"sports_centre","tags":{"access":"private","leisure":"swimming_pool"}},"geometry":{"type":"Point","coordinates":[16.5144856,56.7201284]}},{"type":"Feature","properties":{"id":1299847522,"osm_type":"way","name":"","category":"sports_centre","tags":{"access":"private","leisure":"swimming_pool"}},"geometry":{"type":"Point","coordinates":[16.5144654,56.719926]}},{"type":"Feature","properties":{"id":1300617246,"osm_type":"way","name":"","category":"sports_centre","tags":{"access":"private","leisure":"swimming_pool"}},"geometry":{"type":"Point","coordinates":[16.4708139,56.6340874]}},{"type":"Feature","properties":{"id":1363603451,"osm_type":"way","name":"","category":"sports_centre","tags":{"leisure":"swimming_pool"}},"geometry":{"type":"Point","coordinates":[16.2119481,56.5440988]}},{"type":"Feature","properties":{"id":1363821132,"osm_type":"way","name":"","category":"sports_centre","tags":{"leisure":"swimming_pool","source":"microsoft/BuildingFootprints"}},"geometry":{"type":"Point","coordinates":[16.2210242,56.5486985]}},{"type":"Feature","properties":{"id":1363855424,"osm_type":"way","name":"","category":"sports_centre","tags":{"leisure":"swimming_pool"}},"geometry":{"type":"Point","coordinates":[16.225177,56.5548152]}},{"type":"Feature","properties":{"id":1415354838,"osm_type":"way","name":"Rinkabyholms sporthall","category":"sports_centre","tags":{"building":"yes","leisure":"sports_centre","name":"Rinkabyholms sporthall"}},"geometry":{"type":"Point","coordinates":[16.2562413,56.6501456]}},{"type":"Feature","properties":{"id":1421292125,"osm_type":"way","name":"","category":"sports_centre","tags":{"leisure":"fitness_station","lit":"yes"}},"geometry":{"type":"Point","coordinates":[16.3053167,56.7314056]}},{"type":"Feature","properties":{"id":1424934174,"osm_type":"way","name":"Vattnets Hus","category":"sports_centre","tags":{"addr:city":"Kalmar","addr:country":"SE","addr:housenumber":"11","addr:postcode":"39361","addr:street":"Lotusvägen","building":"yes","leisure":"sports_centre","name":"Vattnets Hus","sport":"swimming","website":"https://www.vattnetshuskalmar.se"}},"geometry":{"type":"Point","coordinates":[16.3179912,56.7118651]}},{"type":"Feature","properties":{"id":1532024947,"osm_type":"way","name":"Snurrom utegym","category":"sports_centre","tags":{"leisure":"fitness_station","lit":"yes","name":"Snurrom utegym","operator":"Kalmar kommun"}},"geometry":{"type":"Point","coordinates":[16.3239026,56.7147674]}},{"type":"Feature","properties":{"id":10233565,"osm_type":"relation","name":"","category":"sports_centre","tags":{"leisure":"sports_centre","sport":"horse_racing","type":"multipolygon"}},"geometry":{"type":"Point","coordinates":[16.2714433,56.6677479]}},{"type":"Feature","properties":{"id":10272111,"osm_type":"relation","name":"","category":"sports_centre","tags":{"leisure":"sports_centre","sport":"multi","type":"multipolygon"}},"geometry":{"type":"Point","coordinates":[16.3799416,56.523159]}},{"type":"Feature","properties":{"id":10924796,"osm_type":"relation","name":"","category":"sports_centre","tags":{"leisure":"sports_centre","type":"multipolygon"}},"geometry":{"type":"Point","coordinates":[16.4895437,56.6457132]}},{"type":"Feature","properties":{"id":10974292,"osm_type":"relation","name":"Lindsdals idrottsplats","category":"sports_centre","tags":{"leisure":"sports_centre","name":"Lindsdals idrottsplats","short_name":"Lindsdals IP","sport":"multi","type":"multipolygon"}},"geometry":{"type":"Point","coordinates":[16.3085477,56.7236468]}},{"type":"Feature","properties":{"id":12483873,"osm_type":"relation","name":"","category":"sports_centre","tags":{"description":"Bench press and squat machine with variable loads","leisure":"fitness_station","opening_hours":"24/7","sport":"fitness","type":"multipolygon","wikidata":"Q107676373"}},"geometry":{"type":"Point","coordinates":[16.3408517,56.6727731]}}]}