{"type":"FeatureCollection","features":[{"type":"Feature","properties":{"id":475835457,"osm_type":"node","name":"Biostaden","category":"theatre","tags":{"amenity":"cinema","name":"Biostaden","wikidata":"Q106577716"}},"geometry":{"type":"Point","coordinates":[16.3641984,56.6607507]}},{"type":"Feature","properties":{"id":4793016712,"osm_type":"node","name":"","category":"theatre","tags":{"amenity":"theatre"}},"geometry":{"type":"Point","coordinates":[16.4679881,56.6494807]}},{"type":"Feature","properties":{"id":91265009,"osm_type":"way","name":"Kalmar Teater","category":"theatre","tags":{"amenity":"theatre","building":"yes","check_date":"2024-04-19","name":"Kalmar Teater"}},"geometry":{"type":"Point","coordinates":[16.3602073,56.6628398]}},{"type":"Feature","properties":{"id":91388978,"osm_type":"way","name":"Byteatern","category":"theatre","tags":{"amenity":"theatre","building":"yes","check_date":"2025-10-23","name":"Byteatern"}},"geometry":{"type":"Point","coordinates":[16.3651764,56.6585879]}},{"type":"Feature","properties":{"id":93252863,"osm_type":"way","name":"Saga","category":"theatre","tags":{"amenity":"cinema","building":"yes","name":"Saga","wikidata":"Q2211598"}},"geometry":{"type":"Point","coordinates":[16.3521147,56.6633231]}}]}