{"type":"FeatureCollection","features":[{"type":"Feature","properties":{"id":1674407260,"osm_type":"node","name":"Läckeby Djursjukhus","category":"veterinary","tags":{"amenity":"veterinary","name":"Läckeby Djursjukhus"}},"geometry":{"type":"Point","coordinates":[16.2682664,56.7844748]}},{"type":"Feature","properties":{"id":11175142977,"osm_type":"node","name":"Lindsdals Veterinärklinik","category":"veterinary","tags":{"amenity":"veterinary","name":"Lindsdals Veterinärklinik","opening_hours":"Mo-Tu 08:10-16:00; Th-Fr 08:10-16:00","website":"https://lindsdalsvet.se/"}},"geometry":{"type":"Point","coordinates":[16.2998839,56.7392562]}},{"type":"Feature","properties":{"id":12647069801,"osm_type":"node","name":"Veterinärkliniken i Kalmar AB","category":"veterinary","tags":{"addr:housenumber":"8","addr:postcode":"393 56","addr:street":"Franska vägen","amenity":"veterinary","name":"Veterinärkliniken i Kalmar AB"}},"geometry":{"type":"Point","coordinates":[16.3244522,56.6954509]}},{"type":"Feature","properties":{"id":93536024,"osm_type":"way","name":"Kalmar Djursjukhus","category":"veterinary","tags":{"amenity":"veterinary","building":"yes","name":"Kalmar Djursjukhus"}},"geometry":{"type":"Point","coordinates":[16.3367534,56.6645377]}}]}