{"type":"FeatureCollection","features":[{"type":"Feature","properties":{"id":54048626,"osm_type":"way","name":"Kronobergs slottsruin","category":"castle","tags":{"castle_type":"fortress","historic":"castle","name":"Kronobergs slottsruin","name:en":"Kronoberg Castle Ruins","note":"closed, construction","place":"islet","ruins":"yes","tourism":"attraction","wikidata":"Q442135","wikipedia":"sv:Kronobergs slott"}},"geometry":{"type":"Point","coordinates":[14.7943406,56.9419149]}},{"type":"Feature","properties":{"id":104569541,"osm_type":"way","name":"","category":"castle","tags":{"building":"yes","castle_type":"manor","historic":"castle"}},"geometry":{"type":"Point","coordinates":[14.7234752,56.868374]}},{"type":"Feature","properties":{"id":142537548,"osm_type":"way","name":"Teleborgs slott","category":"castle","tags":{"building":"yes","historic":"castle","name":"Teleborgs slott","name:en":"Teleborg's Castle","tourism":"yes","website":"https://www.teleborgsslott.com/","wikidata":"Q441865","wikipedia":"sv:Teleborgs slott"}},"geometry":{"type":"Point","coordinates":[14.8341902,56.8571461]}},{"type":"Feature","properties":{"id":276255978,"osm_type":"way","name":"Bergkvara slottsruin","category":"castle","tags":{"area":"yes","historic":"castle","name":"Bergkvara slottsruin","name:en":"Bergkvara Castle Ruins","ruins":"yes","tourism":"yes","wikidata":"Q4819182","wikipedia":"sv:Bergkvara (gods)"}},"geometry":{"type":"Point","coordinates":[14.7242846,56.8676839]}},{"type":"Feature","properties":{"id":290454668,"osm_type":"way","name":"Gårdsby säteri","category":"castle","tags":{"building":"yes","castle_type":"manor","historic":"castle","name":"Gårdsby säteri","source:name":"osm note"}},"geometry":{"type":"Point","coordinates":[14.8937231,56.9628805]}},{"type":"Feature","properties":{"id":290454670,"osm_type":"way","name":"","category":"castle","tags":{"building":"yes","castle_type":"manor","historic":"castle"}},"geometry":{"type":"Point","coordinates":[14.7275434,57.0154974]}},{"type":"Feature","properties":{"id":290454673,"osm_type":"way","name":"","category":"castle","tags":{"building":"yes","castle_type":"manor","historic":"castle"}},"geometry":{"type":"Point","coordinates":[14.771485,56.7705885]}}]}