{"type":"FeatureCollection","features":[{"type":"Feature","properties":{"id":30854391,"osm_type":"way","name":"Tegnérkyrkogården","category":"cemetery","tags":{"denomination":"lutheran","landuse":"cemetery","name":"Tegnérkyrkogården","religion":"christian","wikidata":"Q30334550"}},"geometry":{"type":"Point","coordinates":[14.8011954,56.877444]}},{"type":"Feature","properties":{"id":56039320,"osm_type":"way","name":"Skogslyckans kyrkogård","category":"cemetery","tags":{"landuse":"cemetery","name":"Skogslyckans kyrkogård"}},"geometry":{"type":"Point","coordinates":[14.8129587,56.8888632]}},{"type":"Feature","properties":{"id":59263185,"osm_type":"way","name":"","category":"cemetery","tags":{"amenity":"grave_yard","denomination":"lutheran","religion":"christian"}},"geometry":{"type":"Point","coordinates":[14.8902872,57.0255842]}},{"type":"Feature","properties":{"id":103433863,"osm_type":"way","name":"","category":"cemetery","tags":{"amenity":"grave_yard"}},"geometry":{"type":"Point","coordinates":[14.8248141,56.8698235]}},{"type":"Feature","properties":{"id":198666410,"osm_type":"way","name":"","category":"cemetery","tags":{"amenity":"grave_yard","denomination":"lutheran","religion":"christian"}},"geometry":{"type":"Point","coordinates":[14.7319118,56.785157]}},{"type":"Feature","properties":{"id":237182171,"osm_type":"way","name":"","category":"cemetery","tags":{"amenity":"grave_yard","denomination":"lutheran","religion":"christian","wikidata":"Q115302569"}},"geometry":{"type":"Point","coordinates":[14.7459371,56.8602312]}},{"type":"Feature","properties":{"id":632318686,"osm_type":"way","name":"","category":"cemetery","tags":{"amenity":"grave_yard","denomination":"lutheran","religion":"christian"}},"geometry":{"type":"Point","coordinates":[14.9366809,56.8523942]}},{"type":"Feature","properties":{"id":633086852,"osm_type":"way","name":"","category":"cemetery","tags":{"amenity":"grave_yard","denomination":"lutheran","religion":"christian"}},"geometry":{"type":"Point","coordinates":[14.9540409,56.8312674]}},{"type":"Feature","properties":{"id":707402497,"osm_type":"way","name":"","category":"cemetery","tags":{"amenity":"grave_yard","denomination":"lutheran","religion":"christian"}},"geometry":{"type":"Point","coordinates":[14.8265519,56.7759958]}},{"type":"Feature","properties":{"id":1093926887,"osm_type":"way","name":"","category":"cemetery","tags":{"amenity":"grave_yard","denomination":"lutheran","religion":"christian"}},"geometry":{"type":"Point","coordinates":[14.7256574,56.718332]}},{"type":"Feature","properties":{"id":1099852277,"osm_type":"way","name":"Torparängens Begravningsplats","category":"cemetery","tags":{"landuse":"cemetery","name":"Torparängens Begravningsplats"}},"geometry":{"type":"Point","coordinates":[14.7992893,56.8522054]}},{"type":"Feature","properties":{"id":1126300952,"osm_type":"way","name":"","category":"cemetery","tags":{"amenity":"grave_yard","denomination":"lutheran","religion":"christian","wikidata":"Q115302584"}},"geometry":{"type":"Point","coordinates":[14.6747679,56.9945671]}},{"type":"Feature","properties":{"id":10865860,"osm_type":"relation","name":"","category":"cemetery","tags":{"amenity":"grave_yard","denomination":"lutheran","religion":"christian","type":"multipolygon","wikidata":"Q115302524"}},"geometry":{"type":"Point","coordinates":[14.9271582,56.7404875]}},{"type":"Feature","properties":{"id":10924089,"osm_type":"relation","name":"Öjaby Kyrkogård","category":"cemetery","tags":{"denomination":"lutheran","landuse":"cemetery","name":"Öjaby Kyrkogård","religion":"christian","type":"multipolygon","wikidata":"Q115302583"}},"geometry":{"type":"Point","coordinates":[14.7405845,56.906549]}},{"type":"Feature","properties":{"id":12865707,"osm_type":"relation","name":"Hovshaga Kyrkogård","category":"cemetery","tags":{"landuse":"cemetery","name":"Hovshaga Kyrkogård","type":"multipolygon"}},"geometry":{"type":"Point","coordinates":[14.8062438,56.9081487]}}]}