{"type":"FeatureCollection","features":[{"type":"Feature","properties":{"id":220474855,"osm_type":"way","name":"Skogslyckans församlingshem","category":"community_centre","tags":{"amenity":"community_centre","building":"yes","community_centre":"parish_hall","denomination":"lutheran","name":"Skogslyckans församlingshem","operator":"Svenska kyrkan","operator:type":"religious","operator:wikidata":"Q749243","religion":"christian"}},"geometry":{"type":"Point","coordinates":[14.8126288,56.887315]}},{"type":"Feature","properties":{"id":237182066,"osm_type":"way","name":"Öjaby församlingshem","category":"community_centre","tags":{"amenity":"community_centre","building":"yes","community_centre":"parish_hall","denomination":"lutheran","name":"Öjaby församlingshem","operator":"Svenska kyrkan","religion":"christian"}},"geometry":{"type":"Point","coordinates":[14.7405874,56.9074887]}},{"type":"Feature","properties":{"id":440793930,"osm_type":"way","name":"Växjö Domkyrkocentrum","category":"community_centre","tags":{"amenity":"community_centre","building":"yes","check_date":"2023-07-18","community_centre":"parish_hall","name":"Växjö Domkyrkocentrum","wheelchair":"yes"}},"geometry":{"type":"Point","coordinates":[14.8121469,56.8781345]}},{"type":"Feature","properties":{"id":1470902730,"osm_type":"way","name":"Ingelstads församlingshem","category":"community_centre","tags":{"amenity":"community_centre","building":"yes","community_centre":"parish_hall","name":"Ingelstads församlingshem","operator":"Östra Torsås församling","operator:type":"religious"}},"geometry":{"type":"Point","coordinates":[14.9285822,56.7414445]}}]}