{"type":"FeatureCollection","features":[{"type":"Feature","properties":{"id":4325220765,"osm_type":"node","name":"Folktandvården","category":"dentistry","tags":{"addr:city":"Växjö","addr:country":"SE","addr:housenumber":"16B","addr:postcode":"35231","addr:street":"Klostergatan","amenity":"dentist","branch":"Klostergatan","brand":"Folktandvården","brand:wikidata":"Q10497476","healthcare":"dentist","name":"Folktandvården","opening_hours":"Mo-Th 07:00-18:00, Fr 07:00-17:00","phone":"0470 - 58 88 61","website":"https://www.regionkronoberg.se/folktandvarden/","wheelchair":"yes"}},"geometry":{"type":"Point","coordinates":[14.8077024,56.8802498]}},{"type":"Feature","properties":{"id":4326619478,"osm_type":"node","name":"Folktandvården Linné","category":"dentistry","tags":{"addr:city":"Växjö","addr:country":"SE","addr:housenumber":"1A","addr:postcode":"352 51","addr:street":"Södra Vallviksvägen","amenity":"dentist","healthcare":"dentist","name":"Folktandvården Linné","opening_hours":"Mo,Tu 11:00-19:00; We,Th 07:00-15:00; Fr 07:00-15:30"}},"geometry":{"type":"Point","coordinates":[14.8191798,56.854937]}},{"type":"Feature","properties":{"id":9477178975,"osm_type":"node","name":"Tandvården Teleborg","category":"dentistry","tags":{"addr:city":"Växjö","addr:country":"SE","addr:housenumber":"5D","addr:postcode":"35222","addr:street":"Framtidsvägen","amenity":"dentist","name":"Tandvården Teleborg","phone":"047080425","website":"https://www.tandvardenteleborg.se/"}},"geometry":{"type":"Point","coordinates":[14.8227144,56.8579492]}},{"type":"Feature","properties":{"id":10729930692,"osm_type":"node","name":"Folktandvården","category":"dentistry","tags":{"addr:street":"Jonsgårdsvägen","amenity":"dentist","healthcare":"dentist","name":"Folktandvården","opening_hours":"Mo-Th 07:30-17:00; Fr 07:30-16:00; PH closed","wheelchair":"limited"}},"geometry":{"type":"Point","coordinates":[14.8930922,57.0221837]}},{"type":"Feature","properties":{"id":11631741414,"osm_type":"node","name":"Folktandvården","category":"dentistry","tags":{"amenity":"dentist","brand":"Folktandvården","brand:wikidata":"Q10497476","healthcare":"dentist","name":"Folktandvården"}},"geometry":{"type":"Point","coordinates":[14.9217443,56.743921]}},{"type":"Feature","properties":{"id":13254034302,"osm_type":"node","name":"Folktandvården Västerbron","category":"dentistry","tags":{"addr:housenumber":"4G","addr:street":"Södra Järnvägsgatan","amenity":"dentist","name":"Folktandvården Västerbron"}},"geometry":{"type":"Point","coordinates":[14.8033013,56.875828]}}]}