{"type":"FeatureCollection","features":[{"type":"Feature","properties":{"id":739953649,"osm_type":"node","name":"Maxi ICA Stormarknad Växjö","category":"grocery","tags":{"addr:city":"Växjö","addr:housenumber":"30","addr:postcode":"352 46","addr:street":"Hejaregatan","brand":"Maxi ICA Stormarknad","brand:wikidata":"Q1663776","brand:wikipedia":"sv:Ica","check_date:opening_hours":"2024-07-08","name":"Maxi ICA Stormarknad Växjö","opening_hours":"Mo-Su 07:00-22:00","operator":"ICA","payment:cash":"yes","shop":"supermarket","short_name":"ICA Maxi","wheelchair":"yes"}},"geometry":{"type":"Point","coordinates":[14.7668629,56.8836334]}},{"type":"Feature","properties":{"id":1000779830,"osm_type":"node","name":"Willys Växjö Teleborg","category":"grocery","tags":{"addr:city":"Växjö","addr:country":"SE","addr:housenumber":"1","addr:postcode":"352 51","addr:street":"Skogsuddevägen","brand":"Willys","brand:wikidata":"Q10720214","brand:wikipedia":"sv:Willys","name":"Willys Växjö Teleborg","opening_hours":"Mo-Fr 07:00-22:00; Sa 07:00-22:00; Su 09:00-22:00","operator":"PostNord","post_office":"post_partner","post_office:brand":"Postnord;DB_Schenker","shop":"supermarket"}},"geometry":{"type":"Point","coordinates":[14.8192995,56.8600382]}},{"type":"Feature","properties":{"id":1000779831,"osm_type":"node","name":"Coop Växjö Emil Lindells Väg","category":"grocery","tags":{"addr:city":"Växjö","addr:country":"SE","addr:housenumber":"46","addr:street":"Emil Lindells Väg","brand":"Coop","brand:wikidata":"Q15229319","name":"Coop Växjö Emil Lindells Väg","phone":"010-7464060","shop":"supermarket","website":"https://www.coop.se/butiker-erbjudanden/coop-butiker/coop-vaxjo-emil-lindells-vag/"}},"geometry":{"type":"Point","coordinates":[14.8192173,56.8669543]}},{"type":"Feature","properties":{"id":1000792947,"osm_type":"node","name":"Coop Oxtorget 07-5700","category":"grocery","tags":{"addr:city":"Växjö","addr:country":"SE","addr:housenumber":"44","addr:postcode":"352 32","addr:street":"Sandgärdsgatan","brand":"Coop","brand:wikidata":"Q106684510","check_date:opening_hours":"2021-08-16","name":"Coop Oxtorget 07-5700","opening_hours":"Mo-Su 06:00-23:00","operator":"Coop","shop":"supermarket","website":"https://www.coop.se/Butiker-varor--erbjudanden/Butiker-import/Coop-Konsum/Coop-Konsum-Oxtorget/","wheelchair":"yes"}},"geometry":{"type":"Point","coordinates":[14.7979047,56.8787105]}},{"type":"Feature","properties":{"id":1863018995,"osm_type":"node","name":"ICA Supermarket Cityhallen Växjö","category":"grocery","tags":{"addr:city":"Växjö","addr:housenumber":"8","addr:postcode":"352 30","addr:street":"Sandgärdsgatan","amenity":"Kontantuttag","brand":"ICA Supermarket","brand:wikidata":"Q1663776","brand:wikipedia":"sv:Ica","check_date":"2024-07-09","name":"ICA Supermarket Cityhallen Växjö","opening_hours":"Mo-Fr 07:00-22:00, Sa,Su,PH 08:00-22:00","operator":"ICA","shop":"supermarket","wheelchair":"yes"}},"geometry":{"type":"Point","coordinates":[14.8072052,56.8778765]}},{"type":"Feature","properties":{"id":2153539308,"osm_type":"node","name":"ICA Supermarket Ingelstad","category":"grocery","tags":{"addr:city":"Ingelstad","addr:country":"SE","addr:housenumber":"38","addr:postcode":"355 71","addr:street":"Gamla Växjövägen","atm":"no","brand":"ICA Supermarket","brand:wikidata":"Q1663776","brand:wikipedia":"sv:Ica","name":"ICA Supermarket Ingelstad","opening_hours":"Mo-Su 08:00-21:00","operator":"ICA","post_office":"post_partner","post_office:brand":"Postnord;DB_Schenker","shop":"supermarket","website":"https://www.ica.se/butiker/supermarket/vaxjo/ica-supermarket-ingelstad-2278/start/","wheelchair":"yes"}},"geometry":{"type":"Point","coordinates":[14.9199554,56.74665]}},{"type":"Feature","properties":{"id":2304215964,"osm_type":"node","name":"ICA Supermarket Hovshaga","category":"grocery","tags":{"addr:city":"Växjö","addr:housenumber":"6","addr:postcode":"352 66","addr:street":"Pomonavägen","brand":"ICA Supermarket","brand:wikidata":"Q1663776","brand:wikipedia":"sv:Ica","name":"ICA Supermarket Hovshaga","opening_hours":"Mo-Su 07:00-22:00","operator":"ICA","post_office":"post_partner","post_office:brand":"Postnord","shop":"supermarket"}},"geometry":{"type":"Point","coordinates":[14.7973473,56.909373]}},{"type":"Feature","properties":{"id":2337344056,"osm_type":"node","name":"Mmp","category":"grocery","tags":{"addr:city":"Växjö","addr:country":"SE","addr:housenumber":"1","addr:postcode":"352 65","addr:street":"Vingavägen","name":"Mmp","post_office":"post_partner","post_office:brand":"Bring;DHL;DB_Schenker","shop":"convenience"}},"geometry":{"type":"Point","coordinates":[14.79821,56.902744]}},{"type":"Feature","properties":{"id":2413777168,"osm_type":"node","name":"Coop Kristinatorget 07-6304","category":"grocery","tags":{"addr:city":"Växjö","addr:country":"SE","addr:housenumber":"5","addr:postcode":"352 39","addr:street":"Kristina Nilssons Väg","brand":"Coop","brand:wikidata":"Q106684510","name":"Coop Kristinatorget 07-6304","operator":"Coop Närhandel","phone":"010-7450730","shop":"supermarket","website":"https://www.coop.se/butiker-erbjudanden/coop/coop-kristinatorget/"}},"geometry":{"type":"Point","coordinates":[14.8203635,56.8838378]}},{"type":"Feature","properties":{"id":2413822965,"osm_type":"node","name":"Coop 07-6314 Södra Ringvägen","category":"grocery","tags":{"addr:city":"Växjö","addr:country":"SE","addr:housenumber":"29","addr:postcode":"352 35","addr:street":"Södra Ringvägen","brand":"Coop (Sweden)","brand:wikidata":"Q15229319","name":"Coop 07-6314 Södra Ringvägen","operator":"Coop Närhandel","phone":"010-7450740","post_office":"post_partner","post_office:brand":"Postnord","shop":"supermarket","website":"https://www.coop.se/butiker-erbjudanden/coop/coop-sodra-ringvaegen/","wheelchair":"limited"}},"geometry":{"type":"Point","coordinates":[14.7969623,56.8719672]}},{"type":"Feature","properties":{"id":2779122819,"osm_type":"node","name":"Emmaus Växjö","category":"grocery","tags":{"addr:city":"Växjö","addr:country":"SE","addr:housenumber":"14","addr:postcode":"352 30","addr:street":"Storgatan","name":"Emmaus Växjö","opening_hours":"Mo-Fr 11:00-18:00, Sa 11:00-14:00","shop":"supermarket","wheelchair":"limited"}},"geometry":{"type":"Point","coordinates":[14.8065152,56.8788749]}},{"type":"Feature","properties":{"id":3868054043,"osm_type":"node","name":"Lidl","category":"grocery","tags":{"addr:city":"Växjö","addr:housenumber":"70","addr:postcode":"352 46","addr:street":"Storgatan","brand":"Lidl","brand:wikidata":"Q151954","brand:wikipedia":"sv:Lidl","diet:gluten_free":"yes","name":"Lidl","opening_hours":"Mo-Fr 08:00-20:00; Sa 08:00-19:00; Su 08:00-19:00","operator":"Lidl","shop":"supermarket","wheelchair":"yes"}},"geometry":{"type":"Point","coordinates":[14.7819338,56.8792674]}},{"type":"Feature","properties":{"id":5030616528,"osm_type":"node","name":"Hemmakväll","category":"grocery","tags":{"name":"Hemmakväll","name:sv":"Hemmakväll","shop":"convenience"}},"geometry":{"type":"Point","coordinates":[14.7996481,56.8790372]}},{"type":"Feature","properties":{"id":5103871198,"osm_type":"node","name":"Axfood Snabbgross AB","category":"grocery","tags":{"addr:city":"Växjö","addr:country":"SE","addr:housenumber":"53","addr:postcode":"352 46","addr:street":"Arabygatan","contact:phone":"+46 470 10140","contact:website":"https://www.snabbgross.se/","name":"Axfood Snabbgross AB","opening_hours":"Vardagar: 07:00-18:00, Lördagar: 08:00-14:00, Söndagar: 08:00-12:00","shop":"supermarket"}},"geometry":{"type":"Point","coordinates":[14.7817553,56.8934177]}},{"type":"Feature","properties":{"id":5770187253,"osm_type":"node","name":"ICA Kvantum Teleborg","category":"grocery","tags":{"addr:city":"Växjö","addr:country":"SE","addr:housenumber":"5","addr:postcode":"352 22","addr:street":"Framtidsvägen","brand":"ICA Kvantum","brand:wikidata":"Q1663776","brand:wikipedia":"sv:Ica","name":"ICA Kvantum Teleborg","name:en":"ICA Kvantum","name:sv":"ICA Kvantum","opening_hours":"Mo-Su 07:00-23:00","operator":"ICA Banken","post_office":"post_partner","post_office:brand":"Bring;DHL;Postnord;Apoteksombud","shop":"supermarket"}},"geometry":{"type":"Point","coordinates":[14.8225253,56.8573931]}},{"type":"Feature","properties":{"id":8396852656,"osm_type":"node","name":"Let's Shop Supermarket","category":"grocery","tags":{"addr:city":"Växjö","addr:country":"SE","addr:housenumber":"29","addr:postcode":"352 52","addr:street":"P G Vejdes väg","name":"Let's Shop Supermarket","opening_hours":"Mo-Fr 08:00-21:00; Sa-Su 12:00-20:00","phone":"+46735685898","shop":"convenience"}},"geometry":{"type":"Point","coordinates":[14.8282384,56.8550771]}},{"type":"Feature","properties":{"id":8402511222,"osm_type":"node","name":"Lidl","category":"grocery","tags":{"addr:city":"Växjö","addr:country":"SE","addr:housenumber":"70","addr:postcode":"352 54","addr:street":"Smedsvängen","brand":"Lidl","brand:wikidata":"Q151954","brand:wikipedia":"sv:Lidl","name":"Lidl","opening_hours":"Mo-Fr 08:00-20:00; Sa 08:00-19:00; Su 09:00-19:00","phone":"+46 20 190 80 70","shop":"supermarket","website":"https://www.lidl.se/","wheelchair":"yes"}},"geometry":{"type":"Point","coordinates":[14.8207667,56.8530591]}},{"type":"Feature","properties":{"id":8830306173,"osm_type":"node","name":"Gamla Cigarraffären","category":"grocery","tags":{"addr:city":"Växjö","addr:country":"SE","addr:housenumber":"5","addr:postcode":"35230","addr:street":"Kungsgatan","name":"Gamla Cigarraffären","post_office":"post_partner","post_office:brand":"DHL;DB_Schenker","shop":"convenience"}},"geometry":{"type":"Point","coordinates":[14.8083172,56.8783174]}},{"type":"Feature","properties":{"id":10704192893,"osm_type":"node","name":"Hemköp 4677 Rondellen","category":"grocery","tags":{"addr:city":"Växjö","addr:country":"SE","addr:housenumber":"98","addr:postcode":"352 42","addr:street":"Högstorpsvägen","brand":"Hemköp","brand:wikidata":"Q10521746","name":"Hemköp 4677 Rondellen","operator":"Hemköp","phone":"0470-746915","shop":"supermarket","website":"https://www.hemkop.se/butik/4677"}},"geometry":{"type":"Point","coordinates":[14.8349046,56.8792077]}},{"type":"Feature","properties":{"id":10729900084,"osm_type":"node","name":"","category":"grocery","tags":{"cuisine":"asian","opening_hours":"Mo-Fr 09:00-18:00","phone":"+46 470 91000","shop":"supermarket"}},"geometry":{"type":"Point","coordinates":[14.8933015,57.0220804]}},{"type":"Feature","properties":{"id":11053678147,"osm_type":"node","name":"Asiatisk Livsmedelbutik","category":"grocery","tags":{"check_date":"2025-08-19","check_date:opening_hours":"2025-08-19","name":"Asiatisk Livsmedelbutik","opening_hours":"Mo-Fr 09:30-18:00; Sa 10:00-17:00; Su 12:00-16:00","shop":"supermarket"}},"geometry":{"type":"Point","coordinates":[14.8055999,56.877802]}},{"type":"Feature","properties":{"id":12211212529,"osm_type":"node","name":"Lågans livs","category":"grocery","tags":{"addr:city":"Växjö","addr:country":"SE","addr:housenumber":"20","addr:postcode":"352 33","addr:street":"Linnégatan","name":"Lågans livs","post_office":"post_partner","post_office:brand":"Bring;DHL","shop":"convenience"}},"geometry":{"type":"Point","coordinates":[14.812414,56.8823373]}},{"type":"Feature","properties":{"id":12875792614,"osm_type":"node","name":"Lågans Plus","category":"grocery","tags":{"addr:city":"Växjö","addr:housenumber":"10","addr:postcode":"35246","addr:street":"Verkstadsgatan","name":"Lågans Plus","operator":"Sepehr Jalaly","shop":"supermarket"}},"geometry":{"type":"Point","coordinates":[14.7673085,56.887521]}},{"type":"Feature","properties":{"id":13001702474,"osm_type":"node","name":"ICA Supermarket Mörners","category":"grocery","tags":{"addr:city":"Växjö","addr:housenumber":"64C","addr:postcode":"352 37","addr:street":"Mörners Väg","name":"ICA Supermarket Mörners","operator":"ICA","post_office":"post_partner","post_office:brand":"Apoteksombud","shop":"supermarket"}},"geometry":{"type":"Point","coordinates":[14.7955875,56.8901194]}},{"type":"Feature","properties":{"id":13001702499,"osm_type":"node","name":"Circle K Växjö Hejaregatan","category":"grocery","tags":{"addr:city":"Växjö","addr:housenumber":"17","addr:postcode":"352 46","addr:street":"Hejaregatan","name":"Circle K Växjö Hejaregatan","operator":"Circle K","shop":"convenience"}},"geometry":{"type":"Point","coordinates":[14.7615239,56.8841819]}},{"type":"Feature","properties":{"id":13001704502,"osm_type":"node","name":"Tallhöjdens Livs","category":"grocery","tags":{"addr:city":"Växjö","addr:housenumber":"2","addr:postcode":"352 47","addr:street":"Hjalmar Petris Väg","name":"Tallhöjdens Livs","shop":"supermarket"}},"geometry":{"type":"Point","coordinates":[14.7908042,56.8968699]}},{"type":"Feature","properties":{"id":13001704510,"osm_type":"node","name":"Shill Dalbo St1","category":"grocery","tags":{"addr:city":"Växjö","addr:housenumber":"60","addr:postcode":"352 37","addr:street":"Mörners Väg","name":"Shill Dalbo St1","operator":"Bring","post_office":"post_partner","post_office:brand":"Bussgods;DHL","shop":"convenience"}},"geometry":{"type":"Point","coordinates":[14.7981404,56.8902788]}},{"type":"Feature","properties":{"id":13001704512,"osm_type":"node","name":"Myskväll","category":"grocery","tags":{"addr:city":"Växjö","addr:housenumber":"3","addr:postcode":"352 34","addr:street":"Värendsgatan","name":"Myskväll","shop":"convenience"}},"geometry":{"type":"Point","coordinates":[14.8063731,56.8748748]}},{"type":"Feature","properties":{"id":13001704520,"osm_type":"node","name":"Brödernas Frukt Och Grönt","category":"grocery","tags":{"addr:city":"Växjö","addr:housenumber":"18G","addr:postcode":"352 46","addr:street":"Verkstadsgatan","name":"Brödernas Frukt Och Grönt","shop":"supermarket"}},"geometry":{"type":"Point","coordinates":[14.7631533,56.8879623]}},{"type":"Feature","properties":{"id":13001704547,"osm_type":"node","name":"Preem 46512","category":"grocery","tags":{"addr:city":"Växjö","addr:housenumber":"2","addr:postcode":"352 41","addr:street":"Sandviksvägen","name":"Preem 46512","operator":"Preem","post_office":"post_partner","post_office:brand":"Postnord;DB_Schenker","shop":"convenience"}},"geometry":{"type":"Point","coordinates":[14.8333213,56.8786372]}},{"type":"Feature","properties":{"id":13001704550,"osm_type":"node","name":"Eri Afro Växjö","category":"grocery","tags":{"addr:city":"Växjö","addr:housenumber":"7","addr:postcode":"352 46","addr:street":"Smedjegatan","name":"Eri Afro Växjö","shop":"supermarket"}},"geometry":{"type":"Point","coordinates":[14.780286,56.8810231]}},{"type":"Feature","properties":{"id":13001704556,"osm_type":"node","name":"4:ans servicebutik","category":"grocery","tags":{"addr:city":"Växjö","addr:housenumber":"16","addr:postcode":"352 33","addr:street":"Kronobergsgatan","name":"4:ans servicebutik","operator":"Oklassad","shop":"convenience"}},"geometry":{"type":"Point","coordinates":[14.81056,56.8791194]}},{"type":"Feature","properties":{"id":13001704575,"osm_type":"node","name":"OKQ8 Växjö Sambandsv.","category":"grocery","tags":{"addr:city":"Växjö","addr:housenumber":"2","addr:postcode":"352 36","addr:street":"Sambandsvägen","name":"OKQ8 Växjö Sambandsv.","operator":"OKQ8","post_office":"post_partner","post_office:brand":"Postnord","shop":"convenience"}},"geometry":{"type":"Point","coordinates":[14.7749028,56.8783455]}},{"type":"Feature","properties":{"id":13001704584,"osm_type":"node","name":"Let´s Shop","category":"grocery","tags":{"addr:city":"Växjö","addr:housenumber":"4","addr:postcode":"352 29","addr:street":"Södra Järnvägsgatan","name":"Let´s Shop","post_office":"post_partner","post_office:brand":"Bring;DHL","shop":"convenience"}},"geometry":{"type":"Point","coordinates":[14.8064482,56.8758788]}},{"type":"Feature","properties":{"id":13254034305,"osm_type":"node","name":"Pistage","category":"grocery","tags":{"name":"Pistage","shop":"greengrocer"}},"geometry":{"type":"Point","coordinates":[14.800044,56.8792939]}},{"type":"Feature","properties":{"id":102730454,"osm_type":"way","name":"City Gross Växjö","category":"grocery","tags":{"addr:city":"Växjö","addr:country":"SE","addr:housenumber":"4","addr:postcode":"352 36","addr:street":"Sambandsvägen","brand":"City Gross","brand:wikidata":"Q10453555","brand:wikipedia":"sv:City Gross","building":"yes","name":"City Gross Växjö","opening_hours":"PH,Mo-Su 08:00-22:00","operator":"City Gross","phone":"+46 470 705600","post_office":"post_partner","post_office:brand":"Bring;DHL","shop":"supermarket","website":"https://www.citygross.se/","wheelchair":"yes","wikidata":"Q10453555","wikipedia":"sv:City Gross"}},"geometry":{"type":"Point","coordinates":[14.7726651,56.8783494]}},{"type":"Feature","properties":{"id":102881348,"osm_type":"way","name":"OKQ8 Växjö Norremarksvägen","category":"grocery","tags":{"addr:city":"Växjö","addr:country":"SE","addr:housenumber":"2","addr:postcode":"352 45","addr:street":"Norremarksvägen","brand":"OKQ8","brand:wikidata":"Q2789310","building":"yes","name":"OKQ8 Växjö Norremarksvägen","operator":"OKQ8","post_office":"post_partner","post_office:brand":"DHL;DB_Schenker","shop":"convenience"}},"geometry":{"type":"Point","coordinates":[14.8271682,56.9016905]}},{"type":"Feature","properties":{"id":102881397,"osm_type":"way","name":"ICA Kvantum Växjö","category":"grocery","tags":{"addr:city":"Växjö","addr:country":"SE","addr:housenumber":"3","addr:postcode":"352 45","addr:street":"Norremarksvägen","brand":"ICA Kvantum","brand:wikidata":"Q1663776","brand:wikipedia":"sv:Ica","building":"yes","name":"ICA Kvantum Växjö","opening_hours":"Mo-Su 07:00-22:00","operator":"ICA","shop":"supermarket","wheelchair":"yes"}},"geometry":{"type":"Point","coordinates":[14.8309024,56.9020825]}},{"type":"Feature","properties":{"id":102881409,"osm_type":"way","name":"Stora Coop Norremark 07-5800","category":"grocery","tags":{"addr:city":"Växjö","addr:country":"SE","addr:housenumber":"1","addr:postcode":"352 45","addr:street":"Norremarksvägen","brand:wikidata":"Q15229319","brand:wikipedia":"sv:Coop Butiker & Stormarknader","building":"yes","name":"Stora Coop Norremark 07-5800","opening_hours":"Mo-Su 06:00-23:00","operator":"Coop","shop":"supermarket","website":"https://www.coop.se/Butiker-varor--erbjudanden/Butiker-import/Coop-Extra/Coop-Extra-Norremarksvagen-Vaxjo/"}},"geometry":{"type":"Point","coordinates":[14.8294603,56.9025597]}},{"type":"Feature","properties":{"id":102893126,"osm_type":"way","name":"Circle K Växjö Evedal","category":"grocery","tags":{"addr:city":"Växjö","addr:housenumber":"1","addr:postcode":"352 45","addr:street":"Älgvägen","brand":"Circle K","brand:wikidata":"Q3268010","brand:wikipedia":"sv:Circle K","building":"yes","name":"Circle K Växjö Evedal","operator":"Circle K","shop":"convenience"}},"geometry":{"type":"Point","coordinates":[14.8238782,56.9042391]}},{"type":"Feature","properties":{"id":104843585,"osm_type":"way","name":"Bergsnäs Motel&service AB","category":"grocery","tags":{"addr:city":"Växjö","addr:housenumber":"6","addr:postcode":"352 74","addr:street":"Stora Vägen","brand":"OKQ8","brand:wikidata":"Q2789310","building":"yes","fuel:diesel":"yes","fuel:e85":"yes","fuel:octane_95":"yes","name":"Bergsnäs Motel&service AB","operator":"EMAB","post_office":"post_partner","post_office:brand":"Postnord;DB_Schenker","shop":"convenience"}},"geometry":{"type":"Point","coordinates":[14.7530104,56.8850882]}},{"type":"Feature","properties":{"id":221162098,"osm_type":"way","name":"Coop 13-6008 Nydalavägen","category":"grocery","tags":{"addr:city":"Växjö","addr:country":"SE","addr:housenumber":"21","addr:postcode":"352 48","addr:street":"Nydalavägen","brand":"Coop (Sweden)","brand:wikidata":"Q15229319","building":"yes","name":"Coop 13-6008 Nydalavägen","operator":"Coop Närhandel","phone":"010-7464050","shop":"supermarket","website":"https://www.coop.se/butiker-erbjudanden/coop-butiker/coop-nydalavagen/"}},"geometry":{"type":"Point","coordinates":[14.7964812,56.8999719]}},{"type":"Feature","properties":{"id":400026435,"osm_type":"way","name":"ICA Supermarket Rottne","category":"grocery","tags":{"addr:city":"Rottne","addr:housenumber":"12","addr:postcode":"363 30","addr:street":"Löpanäsvägen","brand":"ICA Supermarket","brand:wikidata":"Q1663776","brand:wikipedia":"sv:Ica","building":"yes","check_date":"2018-07-08","level":"0","name":"ICA Supermarket Rottne","opening_hours":"08:00-21:00","operator":"ICA","post_office":"post_partner","post_office:brand":"Postnord;DB_Schenker","shop":"supermarket","wheelchair":"yes"}},"geometry":{"type":"Point","coordinates":[14.8913913,57.0221358]}},{"type":"Feature","properties":{"id":436605223,"osm_type":"way","name":"Nära Dig Kalvsviks Lanthandel","category":"grocery","tags":{"addr:city":"Kalvsvik","addr:postcode":"355 96","addr:street":"Telebro","building":"retail","name":"Nära Dig Kalvsviks Lanthandel","opening_hours":"Mo-Fr 10:00-18:00; Sa 09:00-13:00","operator":"Apoteket","post_office":"post_partner","post_office:brand":"Apoteksombud","shop":"convenience"}},"geometry":{"type":"Point","coordinates":[14.7120981,56.7322893]}},{"type":"Feature","properties":{"id":582343783,"osm_type":"way","name":"Willy:s Växjö I 11 - 2265","category":"grocery","tags":{"addr:city":"Växjö","addr:country":"SE","addr:housenumber":"27","addr:postcode":"352 36","addr:street":"Marketenterivägen","brand":"Willys","brand:wikidata":"Q10720214","brand:wikipedia":"sv:Willys","building":"yes","name":"Willy:s Växjö I 11 - 2265","opening_hours":"Mo-Sa 08:00-21:00; Su 09:00-21:00","operator":"Willy:s","phone":"+46 470 575140","shop":"supermarket"}},"geometry":{"type":"Point","coordinates":[14.7675843,56.8774363]}},{"type":"Feature","properties":{"id":584977130,"osm_type":"way","name":"Lidl","category":"grocery","tags":{"addr:city":"Växjö","addr:country":"SE","addr:housenumber":"3","addr:postcode":"35245","addr:street":"Erik Norbergs väg","brand":"Lidl","brand:wikidata":"Q151954","brand:wikipedia":"sv:Lidl","building":"yes","name":"Lidl","shop":"supermarket"}},"geometry":{"type":"Point","coordinates":[14.8257263,56.900395]}},{"type":"Feature","properties":{"id":1251291523,"osm_type":"way","name":"Ingelstadhuset","category":"grocery","tags":{"addr:city":"Ingelstad","addr:housenumber":"24","addr:postcode":"355 72","addr:street":"Riksvägen","building":"yes","name":"Ingelstadhuset","operator":"EMAB","post_office":"post_partner","post_office:brand":"Bring;DHL;UPS","shop":"convenience"}},"geometry":{"type":"Point","coordinates":[14.9257343,56.7491781]}}]}