{"type":"FeatureCollection","features":[{"type":"Feature","properties":{"id":1000792675,"osm_type":"node","name":"Växjöhälsan vårdcentral","category":"healthcare_center","tags":{"amenity":"doctors","healthcare":"doctor","name":"Växjöhälsan vårdcentral"}},"geometry":{"type":"Point","coordinates":[14.7983534,56.8812765]}},{"type":"Feature","properties":{"id":2313613461,"osm_type":"node","name":"Capio Vårdcentral Hovshaga","category":"healthcare_center","tags":{"amenity":"clinic","healthcare":"clinic","name":"Capio Vårdcentral Hovshaga"}},"geometry":{"type":"Point","coordinates":[14.7985707,56.9093086]}},{"type":"Feature","properties":{"id":2323255934,"osm_type":"node","name":"Capio Vårdcentral Rehab","category":"healthcare_center","tags":{"amenity":"clinic","name":"Capio Vårdcentral Rehab","operator":"Capio"}},"geometry":{"type":"Point","coordinates":[14.7967642,56.9098494]}},{"type":"Feature","properties":{"id":2413996642,"osm_type":"node","name":"Teleborgs vårdcentral","category":"healthcare_center","tags":{"amenity":"clinic","healthcare":"clinic","name":"Teleborgs vårdcentral"}},"geometry":{"type":"Point","coordinates":[14.8195267,56.8552523]}},{"type":"Feature","properties":{"id":12830009604,"osm_type":"node","name":"KirurgiTeamet specialistläkarklinik","category":"healthcare_center","tags":{"amenity":"clinic","name":"KirurgiTeamet specialistläkarklinik"}},"geometry":{"type":"Point","coordinates":[14.7805739,56.8795601]}},{"type":"Feature","properties":{"id":102890467,"osm_type":"way","name":"Vårdcentral Växjöhälsan","category":"healthcare_center","tags":{"addr:city":"Växjö","addr:housenumber":"1","addr:postcode":"35245","addr:street":"Hjortvägen","amenity":"clinic","building":"yes","healthcare":"clinic","healthcare:speciality":"general;paediatrics","name":"Vårdcentral Växjöhälsan","operator":"Prima Vård AB"}},"geometry":{"type":"Point","coordinates":[14.8191733,56.9066021]}},{"type":"Feature","properties":{"id":498824272,"osm_type":"way","name":"Ingelstad Vårdcentral","category":"healthcare_center","tags":{"amenity":"clinic","building":"yes","healthcare":"clinic","name":"Ingelstad Vårdcentral","operator":"Region Kronoberg","operator:type":"public"}},"geometry":{"type":"Point","coordinates":[14.9215411,56.7437425]}}]}