{"type":"FeatureCollection","features":[{"type":"Feature","properties":{"id":4357618040,"osm_type":"node","name":"Linnés Arboretum","category":"historic_landmark","tags":{"historic":"yes","name":"Linnés Arboretum"}},"geometry":{"type":"Point","coordinates":[14.8100282,56.8483716]}},{"type":"Feature","properties":{"id":4393497306,"osm_type":"node","name":"Ångbåten Thor","category":"historic_landmark","tags":{"name":"Ångbåten Thor","name:en":"Steam Boat Thor","tourism":"attraction","website":"https://www.kulturparkensmaland.se/1.0.1.0/67/1/"}},"geometry":{"type":"Point","coordinates":[14.7941591,56.9408466]}},{"type":"Feature","properties":{"id":7260827065,"osm_type":"node","name":"Nöbbelestenen","category":"historic_landmark","tags":{"historic":"rune_stone","inscription":"rostein * auk * eilifR * aki : auk * hakun : reisþu * þeiR * sueinaR * iftiR sin * faþur * kubl keni*likt * ftiR * kala * tauþan : þy : mun * ko... ... -m kitit * uerþa * meþ * sin * lifiR * auk * stafiR * run","name":"Nöbbelestenen","tourism":"attraction","wikidata":"Q18332728","wikipedia":"sv:Smålands runinskrifter 16"}},"geometry":{"type":"Point","coordinates":[14.8710482,56.7720111]}},{"type":"Feature","properties":{"id":11631741419,"osm_type":"node","name":"Inglinge hög","category":"historic_landmark","tags":{"historic":"yes","name":"Inglinge hög"}},"geometry":{"type":"Point","coordinates":[14.9096278,56.7462396]}},{"type":"Feature","properties":{"id":54048626,"osm_type":"way","name":"Kronobergs slottsruin","category":"historic_landmark","tags":{"castle_type":"fortress","historic":"castle","name":"Kronobergs slottsruin","name:en":"Kronoberg Castle Ruins","note":"closed, construction","place":"islet","ruins":"yes","tourism":"attraction","wikidata":"Q442135","wikipedia":"sv:Kronobergs slott"}},"geometry":{"type":"Point","coordinates":[14.7943406,56.9419149]}},{"type":"Feature","properties":{"id":54150323,"osm_type":"way","name":"","category":"historic_landmark","tags":{"building":"yes","building:levels":"2","building:material":"wood","historic":"yes","roof:levels":"1","roof:shape":"gabled"}},"geometry":{"type":"Point","coordinates":[14.794391,56.9406317]}}]}