{"type":"FeatureCollection","features":[{"type":"Feature","properties":{"id":13413186,"osm_type":"relation","name":"Centrallasarettet Växjö","category":"hospital","tags":{"amenity":"hospital","emergency":"yes","health_specialty:emergency_medicine":"yes","health_specialty:family_medicine":"yes","health_specialty:intensive_care_medicine":"yes","health_specialty:orthopaedics":"yes","health_specialty:surgery":"yes","health_specialty:vascular_surgery":"yes","healthcare":"hospital","name":"Centrallasarettet Växjö","opening_hours":"24/7","type":"multipolygon"}},"geometry":{"type":"Point","coordinates":[14.8059628,56.874291]}}]}