{"type":"FeatureCollection","features":[{"type":"Feature","properties":{"id":853165095,"osm_type":"node","name":"Elite Park Hotel","category":"hotel","tags":{"name":"Elite Park Hotel","tourism":"hotel"}},"geometry":{"type":"Point","coordinates":[14.8022845,56.8805846]}},{"type":"Feature","properties":{"id":889311942,"osm_type":"node","name":"Öjaby Herrgård","category":"hotel","tags":{"addr:city":"Växjö","addr:country":"SE","addr:housenumber":"113","addr:postcode":"352 50","addr:street":"Öjabyvägen","check_date":"2025-12-24","name":"Öjaby Herrgård","note":"http://www.ojabyherrgard.se","phone":"+46 470 701620","source":"survey","tourism":"hotel"}},"geometry":{"type":"Point","coordinates":[14.7362023,56.9137199]}},{"type":"Feature","properties":{"id":1000789571,"osm_type":"node","name":"Royal Corner","category":"hotel","tags":{"name":"Royal Corner","operator":"Best Western","tourism":"hotel","wheelchair":"yes"}},"geometry":{"type":"Point","coordinates":[14.7989687,56.879721]}},{"type":"Feature","properties":{"id":1773971417,"osm_type":"node","name":"STF Vandrarhem Osaby Säteri","category":"hotel","tags":{"brand":"STF","name":"STF Vandrarhem Osaby Säteri","tourism":"hostel","website":"http://www.osaby.se/"}},"geometry":{"type":"Point","coordinates":[14.7737355,56.7698407]}},{"type":"Feature","properties":{"id":2434277195,"osm_type":"node","name":"Elite Stadshotellet","category":"hotel","tags":{"addr:city":"Växjö","addr:country":"SE","addr:housenumber":"6A","addr:postcode":"351 04","addr:street":"Kungsgatan","internet_access":"wlan","name":"Elite Stadshotellet","tourism":"hotel","wheelchair":"yes"}},"geometry":{"type":"Point","coordinates":[14.8088691,56.8780104]}},{"type":"Feature","properties":{"id":7628677151,"osm_type":"node","name":"Nattvilan","category":"hotel","tags":{"beds":"10","name":"Nattvilan","operator":"Åsa & Sven-Göran Erdtman","rooms":"4","tourism":"hostel"}},"geometry":{"type":"Point","coordinates":[14.855833,56.8285021]}},{"type":"Feature","properties":{"id":11052230564,"osm_type":"node","name":"Home Hotel Cardinal","category":"hotel","tags":{"addr:city":"Växjö","addr:housenumber":"10","addr:postcode":"352 30","addr:street":"Bäckgatan","brand":"Clarion","brand:wikidata":"Q10454567","check_date":"2024-07-09","name":"Home Hotel Cardinal","not:brand:wikidata":"Q135249100","tourism":"hotel"}},"geometry":{"type":"Point","coordinates":[14.805246,56.8785428]}},{"type":"Feature","properties":{"id":11631741410,"osm_type":"node","name":"Solvikens pensionat","category":"hotel","tags":{"name":"Solvikens pensionat","tourism":"guest_house"}},"geometry":{"type":"Point","coordinates":[14.9218943,56.7467909]}},{"type":"Feature","properties":{"id":13088848410,"osm_type":"node","name":"Home Hotel Cardinal","category":"hotel","tags":{"name":"Home Hotel Cardinal","not:brand:wikidata":"Q135249100","tourism":"hotel"}},"geometry":{"type":"Point","coordinates":[14.804646,56.8780228]}},{"type":"Feature","properties":{"id":13131693620,"osm_type":"node","name":"Hotell Värend","category":"hotel","tags":{"bar":"no","internet_access":"yes","internet_access:fee":"no","name":"Hotell Värend","swimming_pool":"no","tourism":"hotel"}},"geometry":{"type":"Point","coordinates":[14.8088183,56.8826684]}},{"type":"Feature","properties":{"id":13134535300,"osm_type":"node","name":"Hotel Esplanad","category":"hotel","tags":{"name":"Hotel Esplanad","tourism":"hotel"}},"geometry":{"type":"Point","coordinates":[14.8060855,56.8813815]}},{"type":"Feature","properties":{"id":102730468,"osm_type":"way","name":"Scandic Växjö","category":"hotel","tags":{"addr:country":"SE","addr:housenumber":"19","addr:street":"Hejaragatan","brand":"Scandic Hotels","brand:wikidata":"Q129391","building":"yes","email":"växjö@scandichotels.com","internet_access":"wlan","name":"Scandic Växjö","operator":"Scandic","phone":"+46 470736000","rooms":"123","tourism":"hotel","website":"https://www.scandichotels.com/en/hotels/scandic-vaxjo"}},"geometry":{"type":"Point","coordinates":[14.760765,56.8837635]}},{"type":"Feature","properties":{"id":157766805,"osm_type":"way","name":"STF Vandrarhem Växjö/Evedal","category":"hotel","tags":{"addr:city":"Växjö","addr:country":"SE","addr:housenumber":"11","addr:postcode":"35263","addr:street":"L J Brandts väg","brand":"STF","building":"yes","contact:email":"vaxjo.vandrarhem@telia.com","contact:phone":"+46 470 630 70","contact:website":"https://www.svenskaturistforeningen.se/upptack/Omraden/Smaland/Vandrarhem/STF-Vandrarhem-Vaxjo/","name":"STF Vandrarhem Växjö/Evedal","tourism":"hostel","website":"https://www.svenskaturistforeningen.se/upptack/Omraden/Smaland/Vandrarhem/STF-Vandrarhem-Vaxjo/"}},"geometry":{"type":"Point","coordinates":[14.821472,56.9213504]}},{"type":"Feature","properties":{"id":14210446,"osm_type":"relation","name":"Villa Vik","category":"hotel","tags":{"addr:city":"Växjö","addr:country":"SE","addr:housenumber":"72","addr:postcode":"35249","addr:street":"Lenhovdavägen","email":"kontakt@villavik.se","fax":"+46 470 614 02","name":"Villa Vik","phone":"+46 470 652 90","tourism":"hotel","type":"site","website":"https://www.villavik.se/hotell.shtml","wheelchair":"limited"}},"geometry":{"type":"Point","coordinates":[14.8610108,56.9213771]}}]}