{"type":"FeatureCollection","features":[{"type":"Feature","properties":{"id":2302382858,"osm_type":"node","name":"Växjö Waldorfförskola","category":"kindergarten","tags":{"amenity":"kindergarten","name":"Växjö Waldorfförskola"}},"geometry":{"type":"Point","coordinates":[14.8032471,56.918681]}},{"type":"Feature","properties":{"id":4384421853,"osm_type":"node","name":"Förskolan Grimman","category":"kindergarten","tags":{"addr:city":"Växjö","addr:housenumber":"1","addr:postcode":"352 55","addr:street":"Grimvägen","amenity":"kindergarten","name":"Förskolan Grimman","operator":"Växjö kommun"}},"geometry":{"type":"Point","coordinates":[14.8171744,56.8448568]}},{"type":"Feature","properties":{"id":4384421854,"osm_type":"node","name":"Förskolan Ryttargården","category":"kindergarten","tags":{"amenity":"kindergarten","name":"Förskolan Ryttargården","operator":"Växjö kommun"}},"geometry":{"type":"Point","coordinates":[14.8184458,56.8531601]}},{"type":"Feature","properties":{"id":4384421855,"osm_type":"node","name":"Källans förskola","category":"kindergarten","tags":{"amenity":"kindergarten","education":"kindergarten","name":"Källans förskola","operator":"Kristen förskola"}},"geometry":{"type":"Point","coordinates":[14.8179187,56.8536067]}},{"type":"Feature","properties":{"id":4453665624,"osm_type":"node","name":"Vårbacka Förskola","category":"kindergarten","tags":{"addr:city":"Växjö","addr:country":"SE","addr:housenumber":"113","addr:postcode":"352 50","addr:street":"Öjabyvägen","amenity":"childcare","check_date":"2025-12-24","name":"Vårbacka Förskola","phone":"+46470-602 90","website":"https://www.varbackaforskola.se/"}},"geometry":{"type":"Point","coordinates":[14.7385064,56.9136027]}},{"type":"Feature","properties":{"id":4919518730,"osm_type":"node","name":"Pilbäckens förskola","category":"kindergarten","tags":{"addr:city":"Växjö","addr:country":"SE","addr:housenumber":"80","addr:postcode":"352 44","addr:street":"Surbrunnsvägen","amenity":"kindergarten","name":"Pilbäckens förskola","operator":"Växjö kommun","website":"http://www.vaxjo.se/-/Invanare/Forskola--skola/Barn-1---5-ar/Forskolor/Samlingssida-forskolor/Pilbackens-forskola/"}},"geometry":{"type":"Point","coordinates":[14.8051706,56.8970688]}},{"type":"Feature","properties":{"id":4920956667,"osm_type":"node","name":"Förskolan Paletten","category":"kindergarten","tags":{"addr:city":"Växjö","addr:country":"SE","addr:housenumber":"1","addr:postcode":"352 47","addr:street":"Hjalmar Petris väg","amenity":"kindergarten","name":"Förskolan Paletten","operator":"Växjö kommun","website":"https://www.vaxjo.se/paletten"}},"geometry":{"type":"Point","coordinates":[14.792406,56.8960646]}},{"type":"Feature","properties":{"id":5779477757,"osm_type":"node","name":"Linnéparken","category":"kindergarten","tags":{"addr:city":"Växjö","addr:housenumber":"4B","addr:postcode":"352 40","addr:street":"Östregårdsgatan","amenity":"kindergarten","check_date":"2023-07-18","name":"Linnéparken"}},"geometry":{"type":"Point","coordinates":[14.8139305,56.8772971]}},{"type":"Feature","properties":{"id":9477178959,"osm_type":"node","name":"","category":"kindergarten","tags":{"amenity":"kindergarten"}},"geometry":{"type":"Point","coordinates":[14.8231849,56.8593897]}},{"type":"Feature","properties":{"id":11559814242,"osm_type":"node","name":"Norrlandia Förskola","category":"kindergarten","tags":{"amenity":"kindergarten","name":"Norrlandia Förskola"}},"geometry":{"type":"Point","coordinates":[14.8174527,56.8385927]}},{"type":"Feature","properties":{"id":11631790499,"osm_type":"node","name":"Helenetorps förskola","category":"kindergarten","tags":{"addr:city":"Ingelstad","addr:housenumber":"52","addr:postcode":"360 44","addr:street":"Helenetorpsvägen","amenity":"kindergarten","name":"Helenetorps förskola","operator":"Växjö kommun"}},"geometry":{"type":"Point","coordinates":[14.921179,56.7411603]}},{"type":"Feature","properties":{"id":11640814412,"osm_type":"node","name":"Ingelstad förskola","category":"kindergarten","tags":{"addr:city":"Ingelstad","addr:housenumber":"1","addr:postcode":"360 44","addr:street":"Gamla Växjövägen","amenity":"kindergarten","max_age":"5","min_age":"5","name":"Ingelstad förskola","operator":"Växjö kommun"}},"geometry":{"type":"Point","coordinates":[14.9307901,56.7389797]}},{"type":"Feature","properties":{"id":13015497831,"osm_type":"node","name":"Lindö förskola","category":"kindergarten","tags":{"addr:city":"Växjö","addr:housenumber":"1c","addr:postcode":"352 50","addr:street":"Gullregnsvägen","amenity":"kindergarten","name":"Lindö förskola"}},"geometry":{"type":"Point","coordinates":[14.7404174,56.9103809]}},{"type":"Feature","properties":{"id":13015497833,"osm_type":"node","name":"Lillestad förskola","category":"kindergarten","tags":{"addr:city":"Växjö","addr:housenumber":"54","addr:postcode":"352 43","addr:street":"Gamla Norrvägen","amenity":"kindergarten","name":"Lillestad förskola"}},"geometry":{"type":"Point","coordinates":[14.8228197,56.8899365]}},{"type":"Feature","properties":{"id":13015497834,"osm_type":"node","name":"Förskolan Kullen","category":"kindergarten","tags":{"addr:city":"Rottne","addr:housenumber":"11","addr:postcode":"360 40","addr:street":"Villavägen","amenity":"kindergarten","name":"Förskolan Kullen"}},"geometry":{"type":"Point","coordinates":[14.8948361,57.0234019]}},{"type":"Feature","properties":{"id":13015497835,"osm_type":"node","name":"Kalvsvik förskola","category":"kindergarten","tags":{"addr:city":"Kalvsvik","addr:postcode":"355 96","addr:street":"Kalvsviks bygdegård","amenity":"kindergarten","name":"Kalvsvik förskola"}},"geometry":{"type":"Point","coordinates":[14.7182516,56.7205394]}},{"type":"Feature","properties":{"id":13015497836,"osm_type":"node","name":"Högstorps förskola","category":"kindergarten","tags":{"addr:city":"Växjö","addr:housenumber":"117","addr:postcode":"352 42","addr:street":"Högstorpsvägen","amenity":"kindergarten","name":"Högstorps förskola"}},"geometry":{"type":"Point","coordinates":[14.8407014,56.8795554]}},{"type":"Feature","properties":{"id":13015497837,"osm_type":"node","name":"Hovs förskola","category":"kindergarten","tags":{"addr:city":"Växjö","addr:postcode":"352 63","addr:street":"Hovs skolväg","amenity":"kindergarten","name":"Hovs förskola"}},"geometry":{"type":"Point","coordinates":[14.8012959,56.9027189]}},{"type":"Feature","properties":{"id":13015497838,"osm_type":"node","name":"Hofs park förskola","category":"kindergarten","tags":{"addr:city":"Växjö","addr:housenumber":"1","addr:postcode":"352 44","addr:street":"Harsövägen","amenity":"kindergarten","name":"Hofs park förskola"}},"geometry":{"type":"Point","coordinates":[14.8058903,56.8911674]}},{"type":"Feature","properties":{"id":13015497851,"osm_type":"node","name":"Gustavslunds förskola","category":"kindergarten","tags":{"addr:city":"Växjö","addr:housenumber":"5","addr:postcode":"352 62","addr:street":"Gamla Kronobergsvägen","amenity":"kindergarten","name":"Gustavslunds förskola"}},"geometry":{"type":"Point","coordinates":[14.7942173,56.9159019]}},{"type":"Feature","properties":{"id":13015497863,"osm_type":"node","name":"Förskolan Fantasia","category":"kindergarten","tags":{"addr:city":"Rottne","addr:housenumber":"5","addr:postcode":"260 40","addr:street":"Bengtsgårdsvägen","amenity":"kindergarten","name":"Förskolan Fantasia"}},"geometry":{"type":"Point","coordinates":[14.8873973,57.024847]}},{"type":"Feature","properties":{"id":13015497865,"osm_type":"node","name":"Fagrabäcks förskola","category":"kindergarten","tags":{"addr:city":"Växjö","addr:housenumber":"67","addr:postcode":"352 39","addr:street":"Skaldevägen","amenity":"kindergarten","name":"Fagrabäcks förskola"}},"geometry":{"type":"Point","coordinates":[14.8257762,56.8817177]}},{"type":"Feature","properties":{"id":13015497867,"osm_type":"node","name":"Förskolan Bullerbyn","category":"kindergarten","tags":{"addr:city":"Växjö","addr:housenumber":"38","addr:postcode":"352 33","addr:street":"Kungsgatan","amenity":"kindergarten","name":"Förskolan Bullerbyn"}},"geometry":{"type":"Point","coordinates":[14.8082721,56.8842588]}},{"type":"Feature","properties":{"id":13015497868,"osm_type":"node","name":"Förskolan Bokelund","category":"kindergarten","tags":{"addr:city":"Växjö","addr:housenumber":"8","addr:postcode":"352 37","addr:street":"Försommarvägen","amenity":"kindergarten","name":"Förskolan Bokelund"}},"geometry":{"type":"Point","coordinates":[14.7975004,56.8964048]}},{"type":"Feature","properties":{"id":13015497869,"osm_type":"node","name":"Biskopshagens förskola","category":"kindergarten","tags":{"addr:city":"Växjö","addr:housenumber":"15","addr:postcode":"352 57","addr:street":"Eklövsgatan","amenity":"kindergarten","name":"Biskopshagens förskola"}},"geometry":{"type":"Point","coordinates":[14.7948182,56.8650032]}},{"type":"Feature","properties":{"id":13015497870,"osm_type":"node","name":"Alpgatans förskola","category":"kindergarten","tags":{"addr:city":"Växjö","addr:housenumber":"5","addr:postcode":"352 41","addr:street":"Alpgatan","amenity":"kindergarten","name":"Alpgatans förskola"}},"geometry":{"type":"Point","coordinates":[14.8287481,56.8776406]}},{"type":"Feature","properties":{"id":13513838203,"osm_type":"node","name":"Dagishaket AB","category":"kindergarten","tags":{"addr:housenumber":"8","addr:postcode":"35272","addr:street":"Lancastervägen","amenity":"childcare","name":"Dagishaket AB","website":"https://www.dagishaket.se/"}},"geometry":{"type":"Point","coordinates":[14.843717,56.9079773]}},{"type":"Feature","properties":{"id":58657167,"osm_type":"way","name":"Förskolan Kometen","category":"kindergarten","tags":{"addr:city":"Växjö","addr:country":"SE","addr:housenumber":"6-8","addr:postcode":"35264","addr:street":"Uranusvägen","amenity":"kindergarten","name":"Förskolan Kometen","preschool":"yes"}},"geometry":{"type":"Point","coordinates":[14.8115337,56.9196668]}},{"type":"Feature","properties":{"id":58738030,"osm_type":"way","name":"Förskolan Borggården","category":"kindergarten","tags":{"amenity":"kindergarten","name":"Förskolan Borggården"}},"geometry":{"type":"Point","coordinates":[14.7807358,56.9107401]}},{"type":"Feature","properties":{"id":59342742,"osm_type":"way","name":"","category":"kindergarten","tags":{"amenity":"kindergarten"}},"geometry":{"type":"Point","coordinates":[14.8012729,56.8712762]}},{"type":"Feature","properties":{"id":103451053,"osm_type":"way","name":"Brände udde förskola","category":"kindergarten","tags":{"addr:city":"Växjö","addr:housenumber":"10","addr:postcode":"355 91","addr:street":"Tingsrydsvägen","amenity":"kindergarten","building":"kindergarten","ele":"167","name":"Brände udde förskola","website":"https://www.vaxjo.se/sidor/forskola-och-skola/barn-1---5-ar/forskolor/forskolor-a-e/brande-udde-forskola.html"}},"geometry":{"type":"Point","coordinates":[14.8363009,56.8614083]}},{"type":"Feature","properties":{"id":220466145,"osm_type":"way","name":"Förskolan Björken","category":"kindergarten","tags":{"addr:city":"Växjö","addr:housenumber":"6","addr:postcode":"352 32","addr:street":"Vårvägen","amenity":"kindergarten","building":"yes","name":"Förskolan Björken","phone":"+46 470 433 30","website":"https://www.vaxjo.se/sidor/forskola-och-skola/barn-1---5-ar/forskolor/forskolor-a-e/bjorken-forskola.html"}},"geometry":{"type":"Point","coordinates":[14.7981936,56.8852908]}},{"type":"Feature","properties":{"id":221367877,"osm_type":"way","name":"Förskolan Villekulla","category":"kindergarten","tags":{"amenity":"kindergarten","name":"Förskolan Villekulla"}},"geometry":{"type":"Point","coordinates":[14.7924584,56.9131178]}},{"type":"Feature","properties":{"id":221968086,"osm_type":"way","name":"Bonnagårdens Förskola","category":"kindergarten","tags":{"amenity":"kindergarten","name":"Bonnagårdens Förskola"}},"geometry":{"type":"Point","coordinates":[14.7952661,56.9177159]}},{"type":"Feature","properties":{"id":222818753,"osm_type":"way","name":"Förskolan Gullvivan","category":"kindergarten","tags":{"addr:city":"Växjö","addr:housenumber":"15","addr:postcode":"352 61","addr:street":"Astrakanvägen","amenity":"kindergarten","name":"Förskolan Gullvivan"}},"geometry":{"type":"Point","coordinates":[14.7932137,56.9065989]}},{"type":"Feature","properties":{"id":276503468,"osm_type":"way","name":"Stallbackens förskola","category":"kindergarten","tags":{"amenity":"kindergarten","check_date":"2023-06-30","name":"Stallbackens förskola"}},"geometry":{"type":"Point","coordinates":[14.8259787,56.8506267]}},{"type":"Feature","properties":{"id":360093163,"osm_type":"way","name":"Förskolan Skeppet","category":"kindergarten","tags":{"addr:city":"Växjö","addr:country":"SE","addr:housenumber":"16","addr:postcode":"352 55","addr:street":"Skeppsvägen","amenity":"kindergarten","name":"Förskolan Skeppet","phone":"+46 470 41946"}},"geometry":{"type":"Point","coordinates":[14.8121022,56.8407898]}},{"type":"Feature","properties":{"id":589953292,"osm_type":"way","name":"Vikaholms förskola","category":"kindergarten","tags":{"amenity":"kindergarten","barrier":"fence","capacity":"200","name":"Vikaholms förskola","operator":"Växjö kommun"}},"geometry":{"type":"Point","coordinates":[14.795433,56.8367071]}},{"type":"Feature","properties":{"id":808144962,"osm_type":"way","name":"Växjö Fria Förskola Torparängen","category":"kindergarten","tags":{"amenity":"kindergarten","building":"yes","name":"Växjö Fria Förskola Torparängen"}},"geometry":{"type":"Point","coordinates":[14.8026785,56.8527516]}},{"type":"Feature","properties":{"id":1058327717,"osm_type":"way","name":"Torpa Förskola","category":"kindergarten","tags":{"amenity":"kindergarten","name":"Torpa Förskola"}},"geometry":{"type":"Point","coordinates":[14.8070741,56.8342571]}},{"type":"Feature","properties":{"id":1101660695,"osm_type":"way","name":"","category":"kindergarten","tags":{"amenity":"kindergarten"}},"geometry":{"type":"Point","coordinates":[14.8028573,56.8529116]}},{"type":"Feature","properties":{"id":1370801924,"osm_type":"way","name":"Sandsbro Förskola","category":"kindergarten","tags":{"amenity":"kindergarten","name":"Sandsbro Förskola"}},"geometry":{"type":"Point","coordinates":[14.8509295,56.9108651]}},{"type":"Feature","properties":{"id":2936008,"osm_type":"relation","name":"Förskolan Slottet","category":"kindergarten","tags":{"amenity":"kindergarten","name":"Förskolan Slottet","type":"multipolygon"}},"geometry":{"type":"Point","coordinates":[14.7861686,56.9135712]}},{"type":"Feature","properties":{"id":10844541,"osm_type":"relation","name":"Förskola Skogsleken","category":"kindergarten","tags":{"amenity":"kindergarten","name":"Förskola Skogsleken","type":"multipolygon"}},"geometry":{"type":"Point","coordinates":[14.8440979,56.9056401]}}]}