{"type":"FeatureCollection","features":[{"type":"Feature","properties":{"id":2153534160,"osm_type":"node","name":"Ingelstad bibliotek","category":"library","tags":{"amenity":"library","name":"Ingelstad bibliotek"}},"geometry":{"type":"Point","coordinates":[14.9221902,56.744944]}},{"type":"Feature","properties":{"id":2316451797,"osm_type":"node","name":"Hovshaga Bibliotek","category":"library","tags":{"amenity":"library","name":"Hovshaga Bibliotek","wheelchair":"yes","wikidata":"Q61752162"}},"geometry":{"type":"Point","coordinates":[14.7974706,56.9098528]}},{"type":"Feature","properties":{"id":9420458761,"osm_type":"node","name":"","category":"library","tags":{"amenity":"library","website":"https://bibliotek.vaxjo.se/web/arena/teleborg"}},"geometry":{"type":"Point","coordinates":[14.8204186,56.8522869]}},{"type":"Feature","properties":{"id":149966259,"osm_type":"way","name":"UB","category":"library","tags":{"amenity":"library","building":"yes","name":"UB","opening_hours":"Mo-Fr 08:00-22:00; Sa,Su 08:00-18:00"}},"geometry":{"type":"Point","coordinates":[14.8296992,56.8552856]}},{"type":"Feature","properties":{"id":282852814,"osm_type":"way","name":"Växjö stadsbibliotek","category":"library","tags":{"addr:city":"Växjö","addr:country":"SE","addr:housenumber":"7","addr:postcode":"352 31","addr:street":"Västra Esplanaden","amenity":"library","building":"yes","contact:facebook":"vaxjobibliotek","contact:instagram":"vaxjobibblan","name":"Växjö stadsbibliotek","phone":"+46 470 414 44","source":"locale_knowledge","website":"https://bibliotek.vaxjo.se","wheelchair":"yes","wikidata":"Q10718580"}},"geometry":{"type":"Point","coordinates":[14.8005761,56.8804691]}}]}