{"type":"FeatureCollection","features":[{"type":"Feature","properties":{"id":2329207119,"osm_type":"node","name":"Grand Samarkand","category":"mall","tags":{"atm":"yes","check_date":"2024-07-07","name":"Grand Samarkand","opening_hours":"Mo-Fr 10:00-20:00; Sa-Su 10:00-18:00","shop":"mall","website":"https://grandsamarkand.se/","wheelchair":"yes"}},"geometry":{"type":"Point","coordinates":[14.766196,56.885214]}},{"type":"Feature","properties":{"id":103444581,"osm_type":"way","name":"Tegnérgallerian","category":"mall","tags":{"building":"retail","name":"Tegnérgallerian","shop":"mall"}},"geometry":{"type":"Point","coordinates":[14.8004705,56.879576]}}]}