{"type":"FeatureCollection","features":[{"type":"Feature","properties":{"id":1825577348,"osm_type":"node","name":"Berghälla","category":"manor","tags":{"description":"stone grave","historic":"manor","name":"Berghälla"}},"geometry":{"type":"Point","coordinates":[14.8181759,56.9238713]}},{"type":"Feature","properties":{"id":282667698,"osm_type":"way","name":"Öjaby herrgård","category":"manor","tags":{"building":"yes","castle_type":"manor","historic":"manor","name":"Öjaby herrgård","name:sv":"Öjaby herrgård"}},"geometry":{"type":"Point","coordinates":[14.7370712,56.9141326]}}]}