{"type":"FeatureCollection","features":[{"type":"Feature","properties":{"id":103452939,"osm_type":"way","name":"Utvandrarnas hus","category":"museum","tags":{"addr:city":"Växjö","addr:country":"SE","addr:housenumber":"4","addr:postcode":"352 34","addr:street":"Vilhelm Mobergs gata","building":"yes","check_date":"2023-07-18","fee":"yes","name":"Utvandrarnas hus","name:en":"Emigrant Institute","opening_hours":"Tu-Fr 10:00-17:00; Sa-Su 11:00-16:00","tourism":"museum","website":"https://www.kulturparkensmaland.se/1.0.1.0/14/1/","wikidata":"Q3152205","wikipedia":"sv:Svenska Emigrantinstitutet"}},"geometry":{"type":"Point","coordinates":[14.8088325,56.8756042]}},{"type":"Feature","properties":{"id":103452956,"osm_type":"way","name":"Smålands Museum","category":"museum","tags":{"building":"yes","fee":"yes","name":"Smålands Museum","name:en":"Museum of Småland","tourism":"museum","website":"https://www.kulturparkensmaland.se/1.0.1.0/13/1/","wheelchair":"limited","wikidata":"Q396260","wikipedia":"sv:Smålands museum"}},"geometry":{"type":"Point","coordinates":[14.8073165,56.8757648]}},{"type":"Feature","properties":{"id":1456113217,"osm_type":"way","name":"Gårdsby hembygdspark","category":"museum","tags":{"addr:city":"Växjö","addr:postcode":"35592","addr:street":"Gårdsby","alt_name":"Hoppet","email":"hembygd@gardsby.se","fee":"no","layer":"1","museum":"history","name":"Gårdsby hembygdspark","opening_hours":"24/7","operator":"Gårdsby sockens hembygdsförening","operator:type":"association","tourism":"museum"}},"geometry":{"type":"Point","coordinates":[14.9078501,56.9437027]}}]}