{"type":"FeatureCollection","features":[{"type":"Feature","properties":{"id":116123085,"osm_type":"way","name":"Slottsstallarna","category":"nightclub","tags":{"amenity":"nightclub","building":"yes","name":"Slottsstallarna"}},"geometry":{"type":"Point","coordinates":[14.8331204,56.8556939]}},{"type":"Feature","properties":{"id":149966364,"osm_type":"way","name":"Sivans Studentpub","category":"nightclub","tags":{"addr:city":"Växjö","addr:country":"SE","addr:housenumber":"12","addr:postcode":"352 52","addr:street":"Gerorg Lückligs väg","amenity":"nightclub","building":"yes","name":"Sivans Studentpub"}},"geometry":{"type":"Point","coordinates":[14.8302034,56.8529379]}}]}