{"type":"FeatureCollection","features":[{"type":"Feature","properties":{"id":8396901326,"osm_type":"node","name":"Pedalängen","category":"park","tags":{"leisure":"park","name":"Pedalängen"}},"geometry":{"type":"Point","coordinates":[14.8288318,56.8544242]}},{"type":"Feature","properties":{"id":30501754,"osm_type":"way","name":"","category":"park","tags":{"leisure":"park"}},"geometry":{"type":"Point","coordinates":[14.7972111,56.865781]}},{"type":"Feature","properties":{"id":52175519,"osm_type":"way","name":"Biparadiset","category":"park","tags":{"leisure":"park","name":"Biparadiset"}},"geometry":{"type":"Point","coordinates":[14.7808036,56.8667265]}},{"type":"Feature","properties":{"id":54738523,"osm_type":"way","name":"","category":"park","tags":{"leisure":"park"}},"geometry":{"type":"Point","coordinates":[14.8206483,56.8628293]}},{"type":"Feature","properties":{"id":54890416,"osm_type":"way","name":"","category":"park","tags":{"leisure":"park"}},"geometry":{"type":"Point","coordinates":[14.8229748,56.8760458]}},{"type":"Feature","properties":{"id":56039845,"osm_type":"way","name":"","category":"park","tags":{"leisure":"park"}},"geometry":{"type":"Point","coordinates":[14.80418,56.8844248]}},{"type":"Feature","properties":{"id":58993928,"osm_type":"way","name":"","category":"park","tags":{"leisure":"park"}},"geometry":{"type":"Point","coordinates":[14.7962397,56.8739895]}},{"type":"Feature","properties":{"id":69922650,"osm_type":"way","name":"","category":"park","tags":{"leisure":"park"}},"geometry":{"type":"Point","coordinates":[14.7811832,56.9146183]}},{"type":"Feature","properties":{"id":69923482,"osm_type":"way","name":"","category":"park","tags":{"leisure":"park"}},"geometry":{"type":"Point","coordinates":[14.7887795,56.9151152]}},{"type":"Feature","properties":{"id":75302347,"osm_type":"way","name":"","category":"park","tags":{"leisure":"park"}},"geometry":{"type":"Point","coordinates":[14.7846442,56.914651]}},{"type":"Feature","properties":{"id":103197003,"osm_type":"way","name":"","category":"park","tags":{"leisure":"park"}},"geometry":{"type":"Point","coordinates":[14.8235148,56.8776718]}},{"type":"Feature","properties":{"id":103451095,"osm_type":"way","name":"","category":"park","tags":{"leisure":"park"}},"geometry":{"type":"Point","coordinates":[14.8199061,56.8794818]}},{"type":"Feature","properties":{"id":103452943,"osm_type":"way","name":"Museiparken","category":"park","tags":{"leisure":"park","name":"Museiparken"}},"geometry":{"type":"Point","coordinates":[14.8082825,56.8758459]}},{"type":"Feature","properties":{"id":103795639,"osm_type":"way","name":"","category":"park","tags":{"leisure":"park"}},"geometry":{"type":"Point","coordinates":[14.8182645,56.8822394]}},{"type":"Feature","properties":{"id":149966532,"osm_type":"way","name":"","category":"park","tags":{"leisure":"park"}},"geometry":{"type":"Point","coordinates":[14.8248351,56.8667431]}},{"type":"Feature","properties":{"id":180877417,"osm_type":"way","name":"","category":"park","tags":{"leisure":"park"}},"geometry":{"type":"Point","coordinates":[14.796444,56.840193]}},{"type":"Feature","properties":{"id":180877419,"osm_type":"way","name":"","category":"park","tags":{"leisure":"park"}},"geometry":{"type":"Point","coordinates":[14.7967305,56.8406804]}},{"type":"Feature","properties":{"id":180877438,"osm_type":"way","name":"","category":"park","tags":{"leisure":"park"}},"geometry":{"type":"Point","coordinates":[14.7967731,56.8408689]}},{"type":"Feature","properties":{"id":180877443,"osm_type":"way","name":"","category":"park","tags":{"leisure":"park"}},"geometry":{"type":"Point","coordinates":[14.7965925,56.8406081]}},{"type":"Feature","properties":{"id":180877447,"osm_type":"way","name":"","category":"park","tags":{"leisure":"park"}},"geometry":{"type":"Point","coordinates":[14.7970558,56.8408456]}},{"type":"Feature","properties":{"id":180923281,"osm_type":"way","name":"","category":"park","tags":{"leisure":"park"}},"geometry":{"type":"Point","coordinates":[14.7970201,56.8417564]}},{"type":"Feature","properties":{"id":180923283,"osm_type":"way","name":"","category":"park","tags":{"leisure":"park"}},"geometry":{"type":"Point","coordinates":[14.7975307,56.8422985]}},{"type":"Feature","properties":{"id":180923285,"osm_type":"way","name":"","category":"park","tags":{"leisure":"park","surface":"grass"}},"geometry":{"type":"Point","coordinates":[14.7987861,56.8420306]}},{"type":"Feature","properties":{"id":180923288,"osm_type":"way","name":"","category":"park","tags":{"leisure":"park"}},"geometry":{"type":"Point","coordinates":[14.7972376,56.841505]}},{"type":"Feature","properties":{"id":180923294,"osm_type":"way","name":"","category":"park","tags":{"leisure":"park"}},"geometry":{"type":"Point","coordinates":[14.7976202,56.8400458]}},{"type":"Feature","properties":{"id":181157435,"osm_type":"way","name":"","category":"park","tags":{"leisure":"park"}},"geometry":{"type":"Point","coordinates":[14.8032265,56.8401648]}},{"type":"Feature","properties":{"id":183633729,"osm_type":"way","name":"","category":"park","tags":{"leisure":"park"}},"geometry":{"type":"Point","coordinates":[14.8024353,56.8426123]}},{"type":"Feature","properties":{"id":184258703,"osm_type":"way","name":"","category":"park","tags":{"leisure":"park"}},"geometry":{"type":"Point","coordinates":[14.8085691,56.8506924]}},{"type":"Feature","properties":{"id":184258705,"osm_type":"way","name":"","category":"park","tags":{"leisure":"park"}},"geometry":{"type":"Point","coordinates":[14.8071989,56.8511501]}},{"type":"Feature","properties":{"id":184258707,"osm_type":"way","name":"","category":"park","tags":{"leisure":"park"}},"geometry":{"type":"Point","coordinates":[14.8065895,56.8499208]}},{"type":"Feature","properties":{"id":184258709,"osm_type":"way","name":"","category":"park","tags":{"leisure":"park"}},"geometry":{"type":"Point","coordinates":[14.8085395,56.8527981]}},{"type":"Feature","properties":{"id":184258710,"osm_type":"way","name":"","category":"park","tags":{"leisure":"park"}},"geometry":{"type":"Point","coordinates":[14.8093564,56.8528324]}},{"type":"Feature","properties":{"id":184258711,"osm_type":"way","name":"","category":"park","tags":{"leisure":"park"}},"geometry":{"type":"Point","coordinates":[14.8056648,56.8478822]}},{"type":"Feature","properties":{"id":184258712,"osm_type":"way","name":"","category":"park","tags":{"leisure":"park"}},"geometry":{"type":"Point","coordinates":[14.8075702,56.8524083]}},{"type":"Feature","properties":{"id":184258717,"osm_type":"way","name":"","category":"park","tags":{"leisure":"park"}},"geometry":{"type":"Point","coordinates":[14.8094409,56.8480293]}},{"type":"Feature","properties":{"id":184258718,"osm_type":"way","name":"","category":"park","tags":{"leisure":"park"}},"geometry":{"type":"Point","coordinates":[14.8063303,56.8489679]}},{"type":"Feature","properties":{"id":217801112,"osm_type":"way","name":"","category":"park","tags":{"leisure":"park"}},"geometry":{"type":"Point","coordinates":[14.8009581,56.9198964]}},{"type":"Feature","properties":{"id":217802721,"osm_type":"way","name":"Lugnet Parken","category":"park","tags":{"leisure":"park","name":"Lugnet Parken"}},"geometry":{"type":"Point","coordinates":[14.8025312,56.9173374]}},{"type":"Feature","properties":{"id":222068685,"osm_type":"way","name":"","category":"park","tags":{"leisure":"park"}},"geometry":{"type":"Point","coordinates":[14.7856902,56.914868]}},{"type":"Feature","properties":{"id":222068819,"osm_type":"way","name":"","category":"park","tags":{"leisure":"park"}},"geometry":{"type":"Point","coordinates":[14.7874017,56.9158052]}},{"type":"Feature","properties":{"id":222068896,"osm_type":"way","name":"","category":"park","tags":{"leisure":"park"}},"geometry":{"type":"Point","coordinates":[14.7885699,56.9145171]}},{"type":"Feature","properties":{"id":222145083,"osm_type":"way","name":"","category":"park","tags":{"leisure":"park"}},"geometry":{"type":"Point","coordinates":[14.7844814,56.9157904]}},{"type":"Feature","properties":{"id":222145621,"osm_type":"way","name":"","category":"park","tags":{"leisure":"park"}},"geometry":{"type":"Point","coordinates":[14.7898613,56.9162438]}},{"type":"Feature","properties":{"id":222145622,"osm_type":"way","name":"","category":"park","tags":{"leisure":"park"}},"geometry":{"type":"Point","coordinates":[14.7900272,56.9148962]}},{"type":"Feature","properties":{"id":222145623,"osm_type":"way","name":"","category":"park","tags":{"leisure":"park"}},"geometry":{"type":"Point","coordinates":[14.7898559,56.9155558]}},{"type":"Feature","properties":{"id":222819528,"osm_type":"way","name":"","category":"park","tags":{"leisure":"park"}},"geometry":{"type":"Point","coordinates":[14.7941207,56.9075491]}},{"type":"Feature","properties":{"id":222825603,"osm_type":"way","name":"","category":"park","tags":{"leisure":"park"}},"geometry":{"type":"Point","coordinates":[14.7956151,56.9065024]}},{"type":"Feature","properties":{"id":242755725,"osm_type":"way","name":"","category":"park","tags":{"leisure":"park"}},"geometry":{"type":"Point","coordinates":[14.7941873,56.9043555]}},{"type":"Feature","properties":{"id":242758588,"osm_type":"way","name":"","category":"park","tags":{"leisure":"park"}},"geometry":{"type":"Point","coordinates":[14.7926887,56.9049891]}},{"type":"Feature","properties":{"id":256433023,"osm_type":"way","name":"","category":"park","tags":{"leisure":"park"}},"geometry":{"type":"Point","coordinates":[14.8047421,56.8801978]}},{"type":"Feature","properties":{"id":264494443,"osm_type":"way","name":"","category":"park","tags":{"leisure":"park"}},"geometry":{"type":"Point","coordinates":[14.7950051,56.8356031]}},{"type":"Feature","properties":{"id":276500064,"osm_type":"way","name":"Regementsparken","category":"park","tags":{"leisure":"park","name":"Regementsparken"}},"geometry":{"type":"Point","coordinates":[14.78197,56.8780035]}},{"type":"Feature","properties":{"id":276502093,"osm_type":"way","name":"","category":"park","tags":{"leisure":"park"}},"geometry":{"type":"Point","coordinates":[14.8337756,56.8568531]}},{"type":"Feature","properties":{"id":299747062,"osm_type":"way","name":"","category":"park","tags":{"leisure":"park"}},"geometry":{"type":"Point","coordinates":[14.7462262,56.9126978]}},{"type":"Feature","properties":{"id":300917887,"osm_type":"way","name":"","category":"park","tags":{"leisure":"park"}},"geometry":{"type":"Point","coordinates":[14.783794,56.8966006]}},{"type":"Feature","properties":{"id":301986036,"osm_type":"way","name":"","category":"park","tags":{"leisure":"park"}},"geometry":{"type":"Point","coordinates":[14.816514,56.8993996]}},{"type":"Feature","properties":{"id":324187618,"osm_type":"way","name":"","category":"park","tags":{"leisure":"park"}},"geometry":{"type":"Point","coordinates":[14.8159522,56.8945904]}},{"type":"Feature","properties":{"id":401729944,"osm_type":"way","name":"","category":"park","tags":{"leisure":"park"}},"geometry":{"type":"Point","coordinates":[14.8878471,57.0233314]}},{"type":"Feature","properties":{"id":474136711,"osm_type":"way","name":"","category":"park","tags":{"leisure":"park"}},"geometry":{"type":"Point","coordinates":[14.8163846,56.8774701]}},{"type":"Feature","properties":{"id":494843209,"osm_type":"way","name":"Pilbäcksparken","category":"park","tags":{"leisure":"park","name":"Pilbäcksparken"}},"geometry":{"type":"Point","coordinates":[14.8058828,56.8985748]}},{"type":"Feature","properties":{"id":583365001,"osm_type":"way","name":"","category":"park","tags":{"leisure":"park"}},"geometry":{"type":"Point","coordinates":[14.8009404,56.9227152]}},{"type":"Feature","properties":{"id":583365002,"osm_type":"way","name":"","category":"park","tags":{"leisure":"park"}},"geometry":{"type":"Point","coordinates":[14.80209,56.9225744]}},{"type":"Feature","properties":{"id":616795355,"osm_type":"way","name":"","category":"park","tags":{"leisure":"park"}},"geometry":{"type":"Point","coordinates":[14.8128903,56.9193174]}},{"type":"Feature","properties":{"id":840953663,"osm_type":"way","name":"Geometriparken","category":"park","tags":{"leisure":"park","name":"Geometriparken"}},"geometry":{"type":"Point","coordinates":[14.8238402,56.8598264]}},{"type":"Feature","properties":{"id":937289785,"osm_type":"way","name":"Sivansängen","category":"park","tags":{"leisure":"park","name":"Sivansängen"}},"geometry":{"type":"Point","coordinates":[14.8289231,56.8536595]}},{"type":"Feature","properties":{"id":942976064,"osm_type":"way","name":"","category":"park","tags":{"leisure":"park"}},"geometry":{"type":"Point","coordinates":[14.8261186,56.8525812]}},{"type":"Feature","properties":{"id":943526459,"osm_type":"way","name":"Paul Bobergs park","category":"park","tags":{"leisure":"park","name":"Paul Bobergs park"}},"geometry":{"type":"Point","coordinates":[14.8045915,56.8757825]}},{"type":"Feature","properties":{"id":1101660694,"osm_type":"way","name":"","category":"park","tags":{"leisure":"park"}},"geometry":{"type":"Point","coordinates":[14.8013515,56.8528956]}},{"type":"Feature","properties":{"id":1192455165,"osm_type":"way","name":"","category":"park","tags":{"leisure":"park"}},"geometry":{"type":"Point","coordinates":[14.8213123,56.9204436]}},{"type":"Feature","properties":{"id":1192455167,"osm_type":"way","name":"","category":"park","tags":{"leisure":"park"}},"geometry":{"type":"Point","coordinates":[14.8192985,56.9236884]}},{"type":"Feature","properties":{"id":1423249692,"osm_type":"way","name":"","category":"park","tags":{"leisure":"park"}},"geometry":{"type":"Point","coordinates":[14.8029669,56.8801957]}},{"type":"Feature","properties":{"id":910969,"osm_type":"relation","name":"Strandbjörket","category":"park","tags":{"leisure":"park","name":"Strandbjörket","type":"multipolygon"}},"geometry":{"type":"Point","coordinates":[14.8060707,56.8713593]}},{"type":"Feature","properties":{"id":916158,"osm_type":"relation","name":"","category":"park","tags":{"leisure":"park","type":"multipolygon"}},"geometry":{"type":"Point","coordinates":[14.7988615,56.8728378]}},{"type":"Feature","properties":{"id":2414699,"osm_type":"relation","name":"","category":"park","tags":{"leisure":"park","type":"multipolygon"}},"geometry":{"type":"Point","coordinates":[14.7984818,56.8414169]}},{"type":"Feature","properties":{"id":2415037,"osm_type":"relation","name":"","category":"park","tags":{"leisure":"park","type":"multipolygon"}},"geometry":{"type":"Point","coordinates":[14.7968801,56.8394819]}},{"type":"Feature","properties":{"id":10599147,"osm_type":"relation","name":"","category":"park","tags":{"leisure":"park","type":"multipolygon"}},"geometry":{"type":"Point","coordinates":[14.814643,56.886708]}},{"type":"Feature","properties":{"id":10918841,"osm_type":"relation","name":"","category":"park","tags":{"leisure":"park","type":"multipolygon"}},"geometry":{"type":"Point","coordinates":[14.7480198,56.9152889]}},{"type":"Feature","properties":{"id":13413102,"osm_type":"relation","name":"Linnéparken","category":"park","tags":{"leisure":"park","name":"Linnéparken","type":"multipolygon"}},"geometry":{"type":"Point","coordinates":[14.8127324,56.876562]}},{"type":"Feature","properties":{"id":13413103,"osm_type":"relation","name":"","category":"park","tags":{"leisure":"park","type":"multipolygon"}},"geometry":{"type":"Point","coordinates":[14.8146826,56.8725412]}},{"type":"Feature","properties":{"id":13413188,"osm_type":"relation","name":"","category":"park","tags":{"leisure":"park","type":"multipolygon"}},"geometry":{"type":"Point","coordinates":[14.8094119,56.8743148]}},{"type":"Feature","properties":{"id":13421390,"osm_type":"relation","name":"","category":"park","tags":{"leisure":"park","type":"multipolygon"}},"geometry":{"type":"Point","coordinates":[14.8160406,56.8666856]}}]}