{"type":"FeatureCollection","features":[{"type":"Feature","properties":{"id":1863018985,"osm_type":"node","name":"Apoteket","category":"pharmacy","tags":{"addr:city":"Växjö","addr:housenumber":"17","addr:postcode":"352 30","addr:street":"Storgatan","amenity":"pharmacy","app:apk":"se.apoteket.recept","app:apple":"https://itunes.apple.com/se/app/mitt-apotek/id1053398061","branch":"Storgatan Växjö","brand":"Apoteket","brand:wikidata":"Q1785637","check_date":"2024-07-09","healthcare":"pharmacy","name":"Apoteket","opening_hours":"Mo-Fr 09:00-18:00; Sa 09:00-16:00","operator":"Apoteket","owner":"Svenska Staten","ownership":"national","phone":"+46771450450","website:stock":"https://www.fass.se/","wheelchair":"yes"}},"geometry":{"type":"Point","coordinates":[14.8045592,56.8787734]}},{"type":"Feature","properties":{"id":2413996643,"osm_type":"node","name":"Kronans Apotek Växjö, Vårdcentralen Teleborg","category":"pharmacy","tags":{"addr:city":"Växjö","addr:housenumber":"1","addr:postcode":"352 51","addr:street":"Vallviksvägen","amenity":"pharmacy","brand":"Apoteksgruppen","dispensing":"yes","healthcare":"pharmacy","name":"Kronans Apotek Växjö, Vårdcentralen Teleborg","operator":"Apoteksgruppen","website:stock":"https://www.fass.se/"}},"geometry":{"type":"Point","coordinates":[14.8197483,56.8551592]}},{"type":"Feature","properties":{"id":8396971992,"osm_type":"node","name":"Apotek Hjärtat","category":"pharmacy","tags":{"amenity":"pharmacy","brand":"Apotek Hjärtat","brand:wikidata":"Q10416114","healthcare":"pharmacy","name":"Apotek Hjärtat"}},"geometry":{"type":"Point","coordinates":[14.8227233,56.8575749]}},{"type":"Feature","properties":{"id":9477178964,"osm_type":"node","name":"DOZ Apotek","category":"pharmacy","tags":{"addr:country":"SE","addr:housenumber":"1","addr:postcode":"35221","addr:street":"Skogsuddevägen","amenity":"pharmacy","name":"DOZ Apotek"}},"geometry":{"type":"Point","coordinates":[14.8195526,56.8599109]}},{"type":"Feature","properties":{"id":10727717073,"osm_type":"node","name":"ICA Apotek","category":"pharmacy","tags":{"amenity":"pharmacy","healthcare":"pharmacy","name":"ICA Apotek"}},"geometry":{"type":"Point","coordinates":[14.8922496,57.0220446]}},{"type":"Feature","properties":{"id":11631741413,"osm_type":"node","name":"Kronans Apotek Ingelstad Vårdcentral","category":"pharmacy","tags":{"addr:city":"Ingelstad","addr:housenumber":"2","addr:postcode":"360 44","addr:street":"Helenetorpsvägen","amenity":"pharmacy","brand":"Kronans Apotek","brand:wikidata":"Q10549422","healthcare":"pharmacy","name":"Kronans Apotek Ingelstad Vårdcentral","operator":"Kronans Apotek"}},"geometry":{"type":"Point","coordinates":[14.9213916,56.7437489]}},{"type":"Feature","properties":{"id":12039997693,"osm_type":"node","name":"Apoteket Samarkand","category":"pharmacy","tags":{"addr:city":"Växjö","addr:housenumber":"32","addr:postcode":"352 46","addr:street":"Hejaregatan","amenity":"pharmacy","brand":"Apoteket","brand:wikidata":"Q1785637","check_date":"2024-07-07","healthcare":"pharmacy","name":"Apoteket Samarkand","opening_hours":"Mo-Fr 10:00-20:00; Sa-Su 10:00-18:00","operator":"Apoteket"}},"geometry":{"type":"Point","coordinates":[14.7661537,56.8847432]}},{"type":"Feature","properties":{"id":13001702476,"osm_type":"node","name":"Apoteket Hovshaga","category":"pharmacy","tags":{"addr:city":"Växjö","addr:housenumber":"17E","addr:postcode":"352 65","addr:street":"Segerstadsvägen","amenity":"pharmacy","name":"Apoteket Hovshaga","operator":"Apoteket"}},"geometry":{"type":"Point","coordinates":[14.7989809,56.9083213]}},{"type":"Feature","properties":{"id":13001702479,"osm_type":"node","name":"Kronans Apotek Norremark","category":"pharmacy","tags":{"addr:city":"Växjö","addr:housenumber":"4","addr:postcode":"352 45","addr:street":"Deltavägen","amenity":"pharmacy","name":"Kronans Apotek Norremark","operator":"Kronans Apotek"}},"geometry":{"type":"Point","coordinates":[14.8315926,56.9028652]}},{"type":"Feature","properties":{"id":13001702496,"osm_type":"node","name":"Kronans Apotek","category":"pharmacy","tags":{"addr:city":"Växjö","addr:housenumber":"10","addr:postcode":"352 31","addr:street":"Storgatan","amenity":"pharmacy","branch":"Växjö Linnégallerian","brand":"Kronans Apotek","brand:wikidata":"Q10549422","healthcare":"pharmacy","name":"Kronans Apotek","operator":"Kronans Apotek"}},"geometry":{"type":"Point","coordinates":[14.8075721,56.87875]}},{"type":"Feature","properties":{"id":13001704511,"osm_type":"node","name":"Apotek Hjärtat","category":"pharmacy","tags":{"addr:city":"Växjö","addr:housenumber":"8, Centrallasarettet","addr:postcode":"351 85","addr:street":"Strandvägen","amenity":"pharmacy","branch":"Växjö Centrallasarett","brand":"Apotek Hjärtat","brand:wikidata":"Q10416114","healthcare":"pharmacy","name":"Apotek Hjärtat","operator":"Apotek Hjärtat"}},"geometry":{"type":"Point","coordinates":[14.8065636,56.874611]}},{"type":"Feature","properties":{"id":13001704536,"osm_type":"node","name":"Apoteket Sambandsvägen Växjö","category":"pharmacy","tags":{"addr:city":"Växjö","addr:housenumber":"4","addr:postcode":"352 36","addr:street":"Sambandsvägen","amenity":"pharmacy","name":"Apoteket Sambandsvägen Växjö","operator":"Apoteket"}},"geometry":{"type":"Point","coordinates":[14.7735187,56.8780099]}},{"type":"Feature","properties":{"id":13001704544,"osm_type":"node","name":"Apotek Hjärtat ICA Maxi Växjö","category":"pharmacy","tags":{"addr:city":"Växjö","addr:postcode":"351 04","addr:street":"Hejaregatan","amenity":"pharmacy","name":"Apotek Hjärtat ICA Maxi Växjö","operator":"Apotek Hjärtat"}},"geometry":{"type":"Point","coordinates":[14.7664028,56.88334]}},{"type":"Feature","properties":{"id":13001704559,"osm_type":"node","name":"Apotek Hjärtat Rottne","category":"pharmacy","tags":{"addr:city":"Rottne","addr:housenumber":"5","addr:postcode":"360 40","addr:street":"Löpanäsvägen","amenity":"pharmacy","name":"Apotek Hjärtat Rottne","operator":"Apotek Hjärtat"}},"geometry":{"type":"Point","coordinates":[14.8912275,57.0229769]}},{"type":"Feature","properties":{"id":13001704574,"osm_type":"node","name":"Apotek Hjärtat","category":"pharmacy","tags":{"addr:city":"Växjö","addr:housenumber":"36","addr:postcode":"352 31","addr:street":"Tegnérgallerian, Storgatan","amenity":"pharmacy","branch":"Tegnér Växjö","brand":"Apotek Hjärtat","brand:wikidata":"Q10416114","healthcare":"pharmacy","name":"Apotek Hjärtat","operator":"Apotek Hjärtat"}},"geometry":{"type":"Point","coordinates":[14.7996274,56.8793377]}}]}