{"type":"FeatureCollection","features":[{"type":"Feature","properties":{"id":1164364974,"osm_type":"node","name":"Torparkyrkan","category":"place_of_worship","tags":{"amenity":"place_of_worship","name":"Torparkyrkan","religion":"christian"}},"geometry":{"type":"Point","coordinates":[14.7995595,56.8425363]}},{"type":"Feature","properties":{"id":2451274550,"osm_type":"node","name":"Högstorps kyrka","category":"place_of_worship","tags":{"amenity":"place_of_worship","contact:website":"http://svenskakyrkanivaxjo.se/Vara-forsamlingar/Vaxjo-domkyrkoforsamling/Hogstorps-kyrka--forsamlingshem/","denomination":"lutheran","name":"Högstorps kyrka","religion":"christian","wikidata":"Q10532421"}},"geometry":{"type":"Point","coordinates":[14.8406563,56.8771396]}},{"type":"Feature","properties":{"id":2451275040,"osm_type":"node","name":"Teleborgs kyrka","category":"place_of_worship","tags":{"addr:city":"Växjö","addr:country":"SE","addr:housenumber":"5","addr:postcode":"352 54","addr:street":"Furutåvägen","amenity":"place_of_worship","denomination":"lutheran","name":"Teleborgs kyrka","operator":"Svenska kyrkan","religion":"christian","service_times":"Su 17:00","wikidata":"Q10692265","wikipedia":"sv:Teleborgs kyrka"}},"geometry":{"type":"Point","coordinates":[14.8182385,56.8539773]}},{"type":"Feature","properties":{"id":2451295402,"osm_type":"node","name":"Ulriksbergskyrkan","category":"place_of_worship","tags":{"amenity":"place_of_worship","check_date":"2024-07-19","denomination":"evangelical","name":"Ulriksbergskyrkan","religion":"christian","service_times":"Su 10:00"}},"geometry":{"type":"Point","coordinates":[14.7914474,56.8873454]}},{"type":"Feature","properties":{"id":2451299650,"osm_type":"node","name":"Sankt Mikaels katolska kyrka","category":"place_of_worship","tags":{"amenity":"place_of_worship","denomination":"catholic","name":"Sankt Mikaels katolska kyrka","religion":"christian","short_name":"S:t Mikaels katolska kyrka"}},"geometry":{"type":"Point","coordinates":[14.79192,56.8853447]}},{"type":"Feature","properties":{"id":30749764,"osm_type":"way","name":"Växjö Domkyrka","category":"place_of_worship","tags":{"addr:city":"Växjö","amenity":"place_of_worship","building":"cathedral","denomination":"lutheran","diocese":"Växjö stift","name":"Växjö Domkyrka","religion":"christian","wheelchair":"yes","wikidata":"Q1236720","wikimedia_commons":"File:Växjö domkyrka 0023.jpg","wikipedia":"sv:Växjö domkyrka"}},"geometry":{"type":"Point","coordinates":[14.8121325,56.8773992]}},{"type":"Feature","properties":{"id":149966327,"osm_type":"way","name":"University Church","category":"place_of_worship","tags":{"amenity":"place_of_worship","building":"yes","denomination":"lutheran","name":"University Church","religion":"christian"}},"geometry":{"type":"Point","coordinates":[14.8312811,56.8569151]}},{"type":"Feature","properties":{"id":171559224,"osm_type":"way","name":"Öhrs kyrka","category":"place_of_worship","tags":{"alt_name":"Örs kyrka","amenity":"place_of_worship","building":"church","denomination":"lutheran","name":"Öhrs kyrka","religion":"christian","wikidata":"Q10727659","wikipedia":"sv:Örs kyrka, Småland"}},"geometry":{"type":"Point","coordinates":[14.674601,56.9946212]}},{"type":"Feature","properties":{"id":171793815,"osm_type":"way","name":"Öjaby Kyrka","category":"place_of_worship","tags":{"amenity":"place_of_worship","building":"church","denomination":"lutheran","name":"Öjaby Kyrka","operator":"Svenska kyrkan","parish":"Öjaby församling","religion":"christian","source":"Bing","wikidata":"Q10727185"}},"geometry":{"type":"Point","coordinates":[14.7403746,56.9070868]}},{"type":"Feature","properties":{"id":218037917,"osm_type":"way","name":"Bergunda kyrka","category":"place_of_worship","tags":{"amenity":"place_of_worship","building":"church","denomination":"lutheran","name":"Bergunda kyrka","religion":"christian","source":"gps","wikidata":"Q10428609"}},"geometry":{"type":"Point","coordinates":[14.7457196,56.8602939]}},{"type":"Feature","properties":{"id":220474885,"osm_type":"way","name":"Skogslyckans kyrka","category":"place_of_worship","tags":{"amenity":"place_of_worship","building":"church","denomination":"lutheran","name":"Skogslyckans kyrka","religion":"christian","service_times":"Su 10:00","website":"https://www.svenskakyrkanivaxjo.se/skogslyckan","wikidata":"Q10670377"}},"geometry":{"type":"Point","coordinates":[14.8130615,56.889547]}},{"type":"Feature","properties":{"id":220626229,"osm_type":"way","name":"Västrabokyrkan","category":"place_of_worship","tags":{"amenity":"place_of_worship","building":"yes","denomination":"evangelical","name":"Västrabokyrkan","religion":"christian","website":"http://lokalt.efs.nu/portal/page/portal/vastrabo","wikidata":"Q10718451"}},"geometry":{"type":"Point","coordinates":[14.7844893,56.8842065]}},{"type":"Feature","properties":{"id":221366283,"osm_type":"way","name":"Johanneskyrkan","category":"place_of_worship","tags":{"addr:city":"Växjö","addr:country":"SE","addr:housenumber":"4","addr:postcode":"35262","addr:street":"Paradvägen","amenity":"place_of_worship","building":"yes","denomination":"lutheran","name":"Johanneskyrkan","religion":"christian","wikidata":"Q10540508"}},"geometry":{"type":"Point","coordinates":[14.7923489,56.9137566]}},{"type":"Feature","properties":{"id":223510234,"osm_type":"way","name":"Sandsbro kapell","category":"place_of_worship","tags":{"amenity":"place_of_worship","building":"yes","name":"Sandsbro kapell","religion":"christian"}},"geometry":{"type":"Point","coordinates":[14.8523656,56.9114542]}},{"type":"Feature","properties":{"id":223917363,"osm_type":"way","name":"Equmeniakyrkan Växjö","category":"place_of_worship","tags":{"addr:city":"Växjö","addr:country":"SE","addr:housenumber":"2","addr:postcode":"352 44","addr:street":"Bergövägen","amenity":"place_of_worship","building":"yes","contact:phone":"+46 470 70 64 40","contact:website":"http://equmeniakyrkanvaxjo.se/","denomination":"uniting_church_in_sweden","name":"Equmeniakyrkan Växjö","religion":"christian"}},"geometry":{"type":"Point","coordinates":[14.8048482,56.8906147]}},{"type":"Feature","properties":{"id":223917367,"osm_type":"way","name":"Mariakyrkan","category":"place_of_worship","tags":{"amenity":"place_of_worship","building":"church","denomination":"lutheran","name":"Mariakyrkan","religion":"christian","service_times":"Su 10:00","wikidata":"Q10577242"}},"geometry":{"type":"Point","coordinates":[14.8003729,56.9001375]}},{"type":"Feature","properties":{"id":234243666,"osm_type":"way","name":"Hovshaga kapell","category":"place_of_worship","tags":{"amenity":"place_of_worship","building":"chapel","denomination":"lutheran","name":"Hovshaga kapell","religion":"christian"}},"geometry":{"type":"Point","coordinates":[14.8063764,56.9094847]}},{"type":"Feature","properties":{"id":400053018,"osm_type":"way","name":"Söraby kyrka","category":"place_of_worship","tags":{"amenity":"place_of_worship","building":"church","denomination":"lutheran","name":"Söraby kyrka","religion":"christian","wikidata":"Q10689177"}},"geometry":{"type":"Point","coordinates":[14.8899934,57.0258827]}},{"type":"Feature","properties":{"id":400498116,"osm_type":"way","name":"Pingstkyrkan","category":"place_of_worship","tags":{"addr:city":"Rottne","addr:country":"SE","addr:housenumber":"11","addr:postcode":"363 31","addr:street":"Falkvägen","amenity":"place_of_worship","building":"yes","denomination":"pentecostal","name":"Pingstkyrkan","religion":"christian","website":"https://www.pingstkyrkanrottne.se"}},"geometry":{"type":"Point","coordinates":[14.8952057,57.0297093]}},{"type":"Feature","properties":{"id":632318688,"osm_type":"way","name":"Hemmesjö gamla kyrka","category":"place_of_worship","tags":{"amenity":"place_of_worship","building":"church","denomination":"lutheran","name":"Hemmesjö gamla kyrka","religion":"christian"}},"geometry":{"type":"Point","coordinates":[14.9368107,56.8524248]}},{"type":"Feature","properties":{"id":633086856,"osm_type":"way","name":"Hemmesjö kyrka","category":"place_of_worship","tags":{"amenity":"place_of_worship","building":"church","denomination":"lutheran","name":"Hemmesjö kyrka","religion":"christian","wikidata":"Q10521810"}},"geometry":{"type":"Point","coordinates":[14.9538455,56.8314698]}},{"type":"Feature","properties":{"id":707402498,"osm_type":"way","name":"Tävelsås kyrka","category":"place_of_worship","tags":{"amenity":"place_of_worship","building":"church","denomination":"lutheran","name":"Tävelsås kyrka","religion":"christian"}},"geometry":{"type":"Point","coordinates":[14.826556,56.7758843]}},{"type":"Feature","properties":{"id":781367541,"osm_type":"way","name":"Gårdsby kyrka","category":"place_of_worship","tags":{"amenity":"place_of_worship","building":"church","check_date":"2024-06-12","denomination":"lutheran","name":"Gårdsby kyrka","operator":"Svenska kyrkan","religion":"christian","start_date":"1833","wikidata":"Q10512530","wikipedia":"sv:Gårdsby kyrka"}},"geometry":{"type":"Point","coordinates":[14.8995243,56.9600173]}},{"type":"Feature","properties":{"id":804862324,"osm_type":"way","name":"Östra Torsås kyrka","category":"place_of_worship","tags":{"amenity":"place_of_worship","building":"church","denomination":"lutheran","name":"Östra Torsås kyrka","religion":"christian","wikidata":"Q10728442"}},"geometry":{"type":"Point","coordinates":[14.9290034,56.7411269]}},{"type":"Feature","properties":{"id":1192499919,"osm_type":"way","name":"Vederslevs kyrka","category":"place_of_worship","tags":{"amenity":"place_of_worship","building":"church","denomination":"lutheran","name":"Vederslevs kyrka","religion":"christian"}},"geometry":{"type":"Point","coordinates":[14.7317202,56.7851489]}},{"type":"Feature","properties":{"id":1266073391,"osm_type":"way","name":"Sankt Sigfrids kapell","category":"place_of_worship","tags":{"addr:city":"Växjö","amenity":"place_of_worship","building":"church","denomination":"lutheran","name":"Sankt Sigfrids kapell","religion":"christian","short_name":"S:t Sigfrids kapell","wikidata":"Q26256947","wikimedia_commons":"File:Sankt Sigfrids kapell 004.jpg","wikipedia":"sv:Sankt Sigfrids kapell, Växjö"}},"geometry":{"type":"Point","coordinates":[14.7915558,56.9335262]}}]}