{"type":"FeatureCollection","features":[{"type":"Feature","properties":{"id":336658192,"osm_type":"node","name":"","category":"playground","tags":{"leisure":"playground"}},"geometry":{"type":"Point","coordinates":[14.7979641,56.8683023]}},{"type":"Feature","properties":{"id":340073592,"osm_type":"node","name":"","category":"playground","tags":{"leisure":"playground"}},"geometry":{"type":"Point","coordinates":[14.8135039,56.8770802]}},{"type":"Feature","properties":{"id":340460417,"osm_type":"node","name":"","category":"playground","tags":{"leisure":"playground"}},"geometry":{"type":"Point","coordinates":[14.8030177,56.84661]}},{"type":"Feature","properties":{"id":340460421,"osm_type":"node","name":"","category":"playground","tags":{"leisure":"playground"}},"geometry":{"type":"Point","coordinates":[14.8055684,56.8508587]}},{"type":"Feature","properties":{"id":732816288,"osm_type":"node","name":"","category":"playground","tags":{"leisure":"playground"}},"geometry":{"type":"Point","coordinates":[14.7815982,56.9101608]}},{"type":"Feature","properties":{"id":732817980,"osm_type":"node","name":"","category":"playground","tags":{"leisure":"playground"}},"geometry":{"type":"Point","coordinates":[14.7845961,56.9113642]}},{"type":"Feature","properties":{"id":735595710,"osm_type":"node","name":"","category":"playground","tags":{"leisure":"playground"}},"geometry":{"type":"Point","coordinates":[14.783471,56.9102636]}},{"type":"Feature","properties":{"id":842385707,"osm_type":"node","name":"","category":"playground","tags":{"leisure":"playground"}},"geometry":{"type":"Point","coordinates":[14.7858904,56.9066837]}},{"type":"Feature","properties":{"id":1737737589,"osm_type":"node","name":"","category":"playground","tags":{"leisure":"playground"}},"geometry":{"type":"Point","coordinates":[14.9054841,56.7557462]}},{"type":"Feature","properties":{"id":1883087213,"osm_type":"node","name":"","category":"playground","tags":{"leisure":"playground"}},"geometry":{"type":"Point","coordinates":[14.7995498,56.8677475]}},{"type":"Feature","properties":{"id":1936481745,"osm_type":"node","name":"","category":"playground","tags":{"leisure":"playground","playground":"playhouse"}},"geometry":{"type":"Point","coordinates":[14.8072719,56.8390068]}},{"type":"Feature","properties":{"id":1936481759,"osm_type":"node","name":"","category":"playground","tags":{"leisure":"playground","playground":"zipwire"}},"geometry":{"type":"Point","coordinates":[14.8076999,56.8392095]}},{"type":"Feature","properties":{"id":2153556498,"osm_type":"node","name":"","category":"playground","tags":{"leisure":"playground"}},"geometry":{"type":"Point","coordinates":[14.9301214,56.7360153]}},{"type":"Feature","properties":{"id":2259871518,"osm_type":"node","name":"","category":"playground","tags":{"leisure":"playground"}},"geometry":{"type":"Point","coordinates":[14.7989423,56.8440009]}},{"type":"Feature","properties":{"id":2259871524,"osm_type":"node","name":"","category":"playground","tags":{"leisure":"playground"}},"geometry":{"type":"Point","coordinates":[14.7990477,56.8443763]}},{"type":"Feature","properties":{"id":2259871527,"osm_type":"node","name":"","category":"playground","tags":{"leisure":"playground"}},"geometry":{"type":"Point","coordinates":[14.7976957,56.8444673]}},{"type":"Feature","properties":{"id":2259871530,"osm_type":"node","name":"","category":"playground","tags":{"leisure":"playground"}},"geometry":{"type":"Point","coordinates":[14.7972589,56.8445508]}},{"type":"Feature","properties":{"id":2259871532,"osm_type":"node","name":"","category":"playground","tags":{"leisure":"playground"}},"geometry":{"type":"Point","coordinates":[14.7992072,56.8446494]}},{"type":"Feature","properties":{"id":2259871535,"osm_type":"node","name":"","category":"playground","tags":{"leisure":"playground"}},"geometry":{"type":"Point","coordinates":[14.7999213,56.8452409]}},{"type":"Feature","properties":{"id":2259871581,"osm_type":"node","name":"","category":"playground","tags":{"leisure":"playground"}},"geometry":{"type":"Point","coordinates":[14.8000947,56.846113]}},{"type":"Feature","properties":{"id":2270504313,"osm_type":"node","name":"","category":"playground","tags":{"access":"yes","leisure":"playground"}},"geometry":{"type":"Point","coordinates":[14.8026146,56.9169962]}},{"type":"Feature","properties":{"id":2319884942,"osm_type":"node","name":"","category":"playground","tags":{"leisure":"playground"}},"geometry":{"type":"Point","coordinates":[14.792727,56.898664]}},{"type":"Feature","properties":{"id":2320175651,"osm_type":"node","name":"Slottsbrovägen","category":"playground","tags":{"leisure":"playground","name":"Slottsbrovägen"}},"geometry":{"type":"Point","coordinates":[14.784255,56.9146107]}},{"type":"Feature","properties":{"id":2323236400,"osm_type":"node","name":"","category":"playground","tags":{"leisure":"playground"}},"geometry":{"type":"Point","coordinates":[14.792444,56.911143]}},{"type":"Feature","properties":{"id":2330942413,"osm_type":"node","name":"","category":"playground","tags":{"leisure":"playground"}},"geometry":{"type":"Point","coordinates":[14.794223,56.920212]}},{"type":"Feature","properties":{"id":2331976372,"osm_type":"node","name":"","category":"playground","tags":{"leisure":"playground"}},"geometry":{"type":"Point","coordinates":[14.8441,56.908448]}},{"type":"Feature","properties":{"id":2438373219,"osm_type":"node","name":"","category":"playground","tags":{"leisure":"playground"}},"geometry":{"type":"Point","coordinates":[14.8114056,56.9150342]}},{"type":"Feature","properties":{"id":2502095314,"osm_type":"node","name":"","category":"playground","tags":{"leisure":"playground"}},"geometry":{"type":"Point","coordinates":[14.7942143,56.9044715]}},{"type":"Feature","properties":{"id":2502116229,"osm_type":"node","name":"","category":"playground","tags":{"leisure":"playground"}},"geometry":{"type":"Point","coordinates":[14.7924323,56.9050452]}},{"type":"Feature","properties":{"id":2502116232,"osm_type":"node","name":"","category":"playground","tags":{"leisure":"playground"}},"geometry":{"type":"Point","coordinates":[14.7930985,56.9048977]}},{"type":"Feature","properties":{"id":2623353909,"osm_type":"node","name":"","category":"playground","tags":{"leisure":"playground"}},"geometry":{"type":"Point","coordinates":[14.8125266,56.8388365]}},{"type":"Feature","properties":{"id":3037855244,"osm_type":"node","name":"","category":"playground","tags":{"leisure":"playground"}},"geometry":{"type":"Point","coordinates":[14.746188,56.9129861]}},{"type":"Feature","properties":{"id":4031096989,"osm_type":"node","name":"","category":"playground","tags":{"leisure":"playground"}},"geometry":{"type":"Point","coordinates":[14.8901916,57.0218551]}},{"type":"Feature","properties":{"id":4357570957,"osm_type":"node","name":"","category":"playground","tags":{"leisure":"playground"}},"geometry":{"type":"Point","coordinates":[14.8211537,56.8458362]}},{"type":"Feature","properties":{"id":4357603932,"osm_type":"node","name":"","category":"playground","tags":{"leisure":"playground","playground":"swing"}},"geometry":{"type":"Point","coordinates":[14.814392,56.8477036]}},{"type":"Feature","properties":{"id":4511811200,"osm_type":"node","name":"","category":"playground","tags":{"leisure":"playground"}},"geometry":{"type":"Point","coordinates":[14.7337239,56.9044469]}},{"type":"Feature","properties":{"id":4681481955,"osm_type":"node","name":"","category":"playground","tags":{"leisure":"playground"}},"geometry":{"type":"Point","coordinates":[14.8163264,56.8774783]}},{"type":"Feature","properties":{"id":5779421590,"osm_type":"node","name":"","category":"playground","tags":{"leisure":"playground","surface":"sand"}},"geometry":{"type":"Point","coordinates":[14.8115568,56.8764715]}},{"type":"Feature","properties":{"id":7263439987,"osm_type":"node","name":"","category":"playground","tags":{"access":"private","leisure":"playground","surface":"grass"}},"geometry":{"type":"Point","coordinates":[14.8661825,56.9034848]}},{"type":"Feature","properties":{"id":7557009358,"osm_type":"node","name":"","category":"playground","tags":{"leisure":"playground"}},"geometry":{"type":"Point","coordinates":[14.8013037,56.8526768]}},{"type":"Feature","properties":{"id":7647122187,"osm_type":"node","name":"Geometriparken","category":"playground","tags":{"access":"yes","leisure":"playground","name":"Geometriparken"}},"geometry":{"type":"Point","coordinates":[14.8237109,56.8596485]}},{"type":"Feature","properties":{"id":9722664633,"osm_type":"node","name":"Bredviks Naturlekplats","category":"playground","tags":{"leisure":"playground","name":"Bredviks Naturlekplats"}},"geometry":{"type":"Point","coordinates":[14.7480318,56.8762296]}},{"type":"Feature","properties":{"id":9724834246,"osm_type":"node","name":"","category":"playground","tags":{"leisure":"playground"}},"geometry":{"type":"Point","coordinates":[14.8019286,56.8486625]}},{"type":"Feature","properties":{"id":9724834299,"osm_type":"node","name":"","category":"playground","tags":{"leisure":"playground"}},"geometry":{"type":"Point","coordinates":[14.8022227,56.8508823]}},{"type":"Feature","properties":{"id":10068703729,"osm_type":"node","name":"","category":"playground","tags":{"leisure":"playground"}},"geometry":{"type":"Point","coordinates":[14.8008474,56.8533162]}},{"type":"Feature","properties":{"id":10078222677,"osm_type":"node","name":"","category":"playground","tags":{"leisure":"playground"}},"geometry":{"type":"Point","coordinates":[14.8171241,56.8377234]}},{"type":"Feature","properties":{"id":11064285290,"osm_type":"node","name":"","category":"playground","tags":{"leisure":"playground"}},"geometry":{"type":"Point","coordinates":[14.8235913,56.9194147]}},{"type":"Feature","properties":{"id":11110545167,"osm_type":"node","name":"","category":"playground","tags":{"leisure":"playground"}},"geometry":{"type":"Point","coordinates":[14.7834255,56.8931787]}},{"type":"Feature","properties":{"id":11559898993,"osm_type":"node","name":"","category":"playground","tags":{"leisure":"playground"}},"geometry":{"type":"Point","coordinates":[14.8168877,56.8399795]}},{"type":"Feature","properties":{"id":11639163421,"osm_type":"node","name":"","category":"playground","tags":{"leisure":"playground","playground":"slide"}},"geometry":{"type":"Point","coordinates":[14.9297118,56.7392858]}},{"type":"Feature","properties":{"id":12615206215,"osm_type":"node","name":"","category":"playground","tags":{"access":"yes","leisure":"playground"}},"geometry":{"type":"Point","coordinates":[14.8594545,56.9131682]}},{"type":"Feature","properties":{"id":13872258134,"osm_type":"node","name":"","category":"playground","tags":{"leisure":"playground"}},"geometry":{"type":"Point","coordinates":[14.7682649,56.8808343]}},{"type":"Feature","properties":{"id":30788182,"osm_type":"way","name":"","category":"playground","tags":{"access":"yes","leisure":"playground"}},"geometry":{"type":"Point","coordinates":[14.80485,56.8726628]}},{"type":"Feature","properties":{"id":59563635,"osm_type":"way","name":"","category":"playground","tags":{"leisure":"playground","wheelchair":"limited"}},"geometry":{"type":"Point","coordinates":[14.7921355,56.8780989]}},{"type":"Feature","properties":{"id":164044715,"osm_type":"way","name":"","category":"playground","tags":{"leisure":"playground"}},"geometry":{"type":"Point","coordinates":[14.8074383,56.8386229]}},{"type":"Feature","properties":{"id":180877412,"osm_type":"way","name":"","category":"playground","tags":{"leisure":"playground"}},"geometry":{"type":"Point","coordinates":[14.7975495,56.8399405]}},{"type":"Feature","properties":{"id":180877421,"osm_type":"way","name":"","category":"playground","tags":{"leisure":"playground","playground":"sandpit"}},"geometry":{"type":"Point","coordinates":[14.7982943,56.8420944]}},{"type":"Feature","properties":{"id":180877423,"osm_type":"way","name":"","category":"playground","tags":{"leisure":"playground","playground":"sandpit"}},"geometry":{"type":"Point","coordinates":[14.7975124,56.841916]}},{"type":"Feature","properties":{"id":180877427,"osm_type":"way","name":"","category":"playground","tags":{"leisure":"playground","playground":"swing"}},"geometry":{"type":"Point","coordinates":[14.799267,56.8401801]}},{"type":"Feature","properties":{"id":180877428,"osm_type":"way","name":"","category":"playground","tags":{"leisure":"playground","playground":"playhouse"}},"geometry":{"type":"Point","coordinates":[14.7965793,56.8402881]}},{"type":"Feature","properties":{"id":180877430,"osm_type":"way","name":"","category":"playground","tags":{"leisure":"playground","playground":"swing"}},"geometry":{"type":"Point","coordinates":[14.7969044,56.8399338]}},{"type":"Feature","properties":{"id":180877431,"osm_type":"way","name":"","category":"playground","tags":{"leisure":"playground","playground":"sandpit"}},"geometry":{"type":"Point","coordinates":[14.7984935,56.8403628]}},{"type":"Feature","properties":{"id":180877432,"osm_type":"way","name":"","category":"playground","tags":{"leisure":"playground","playground":"sandpit"}},"geometry":{"type":"Point","coordinates":[14.7973483,56.8420393]}},{"type":"Feature","properties":{"id":180877435,"osm_type":"way","name":"","category":"playground","tags":{"leisure":"playground","playground":"sandpit"}},"geometry":{"type":"Point","coordinates":[14.7982255,56.8422508]}},{"type":"Feature","properties":{"id":180877436,"osm_type":"way","name":"","category":"playground","tags":{"leisure":"playground","playground":"sandpit"}},"geometry":{"type":"Point","coordinates":[14.7971503,56.8394584]}},{"type":"Feature","properties":{"id":180877437,"osm_type":"way","name":"","category":"playground","tags":{"leisure":"playground","playground":"sandpit"}},"geometry":{"type":"Point","coordinates":[14.7993483,56.8400593]}},{"type":"Feature","properties":{"id":180877439,"osm_type":"way","name":"","category":"playground","tags":{"leisure":"playground","playground":"sandpit"}},"geometry":{"type":"Point","coordinates":[14.7968231,56.8407685]}},{"type":"Feature","properties":{"id":180877441,"osm_type":"way","name":"","category":"playground","tags":{"leisure":"playground","playground":"sandpit"}},"geometry":{"type":"Point","coordinates":[14.7964712,56.8402956]}},{"type":"Feature","properties":{"id":180877442,"osm_type":"way","name":"","category":"playground","tags":{"leisure":"playground","playground":"slide"}},"geometry":{"type":"Point","coordinates":[14.7967262,56.8407845]}},{"type":"Feature","properties":{"id":181157440,"osm_type":"way","name":"","category":"playground","tags":{"leisure":"playground"}},"geometry":{"type":"Point","coordinates":[14.8034024,56.8404433]}},{"type":"Feature","properties":{"id":183633727,"osm_type":"way","name":"","category":"playground","tags":{"leisure":"playground"}},"geometry":{"type":"Point","coordinates":[14.802607,56.8428395]}},{"type":"Feature","properties":{"id":183633728,"osm_type":"way","name":"","category":"playground","tags":{"leisure":"playground"}},"geometry":{"type":"Point","coordinates":[14.8027726,56.8426788]}},{"type":"Feature","properties":{"id":183701363,"osm_type":"way","name":"","category":"playground","tags":{"leisure":"playground"}},"geometry":{"type":"Point","coordinates":[14.7967602,56.8432444]}},{"type":"Feature","properties":{"id":183701378,"osm_type":"way","name":"","category":"playground","tags":{"leisure":"playground"}},"geometry":{"type":"Point","coordinates":[14.7982445,56.8433827]}},{"type":"Feature","properties":{"id":183701379,"osm_type":"way","name":"","category":"playground","tags":{"leisure":"playground"}},"geometry":{"type":"Point","coordinates":[14.7975498,56.8433421]}},{"type":"Feature","properties":{"id":183825748,"osm_type":"way","name":"","category":"playground","tags":{"leisure":"playground","playground":"sandpit"}},"geometry":{"type":"Point","coordinates":[14.8141673,56.8475059]}},{"type":"Feature","properties":{"id":184258708,"osm_type":"way","name":"","category":"playground","tags":{"leisure":"playground"}},"geometry":{"type":"Point","coordinates":[14.8088215,56.8507129]}},{"type":"Feature","properties":{"id":216596043,"osm_type":"way","name":"","category":"playground","tags":{"leisure":"playground"}},"geometry":{"type":"Point","coordinates":[14.7977348,56.8459409]}},{"type":"Feature","properties":{"id":216596045,"osm_type":"way","name":"","category":"playground","tags":{"leisure":"playground"}},"geometry":{"type":"Point","coordinates":[14.7977699,56.8461299]}},{"type":"Feature","properties":{"id":221186546,"osm_type":"way","name":"","category":"playground","tags":{"leisure":"playground"}},"geometry":{"type":"Point","coordinates":[14.8013526,56.9183641]}},{"type":"Feature","properties":{"id":221306602,"osm_type":"way","name":"Nybygget","category":"playground","tags":{"leisure":"playground","name":"Nybygget"}},"geometry":{"type":"Point","coordinates":[14.7943784,56.9198878]}},{"type":"Feature","properties":{"id":221368482,"osm_type":"way","name":"","category":"playground","tags":{"leisure":"playground"}},"geometry":{"type":"Point","coordinates":[14.7898334,56.9162273]}},{"type":"Feature","properties":{"id":221368483,"osm_type":"way","name":"","category":"playground","tags":{"leisure":"playground"}},"geometry":{"type":"Point","coordinates":[14.7899639,56.9155861]}},{"type":"Feature","properties":{"id":221368484,"osm_type":"way","name":"","category":"playground","tags":{"leisure":"playground"}},"geometry":{"type":"Point","coordinates":[14.7899305,56.9149008]}},{"type":"Feature","properties":{"id":221996416,"osm_type":"way","name":"","category":"playground","tags":{"leisure":"playground"}},"geometry":{"type":"Point","coordinates":[14.788576,56.9145518]}},{"type":"Feature","properties":{"id":222000698,"osm_type":"way","name":"","category":"playground","tags":{"leisure":"playground"}},"geometry":{"type":"Point","coordinates":[14.788257,56.9149295]}},{"type":"Feature","properties":{"id":222068687,"osm_type":"way","name":"","category":"playground","tags":{"leisure":"playground"}},"geometry":{"type":"Point","coordinates":[14.7857261,56.9149606]}},{"type":"Feature","properties":{"id":222132538,"osm_type":"way","name":"Paradtrappan","category":"playground","tags":{"leisure":"playground","name":"Paradtrappan"}},"geometry":{"type":"Point","coordinates":[14.7887462,56.9154949]}},{"type":"Feature","properties":{"id":222145084,"osm_type":"way","name":"","category":"playground","tags":{"leisure":"playground"}},"geometry":{"type":"Point","coordinates":[14.7844764,56.9159779]}},{"type":"Feature","properties":{"id":222146258,"osm_type":"way","name":"","category":"playground","tags":{"leisure":"playground"}},"geometry":{"type":"Point","coordinates":[14.792552,56.9139694]}},{"type":"Feature","properties":{"id":222378330,"osm_type":"way","name":"","category":"playground","tags":{"leisure":"playground"}},"geometry":{"type":"Point","coordinates":[14.7813232,56.9147575]}},{"type":"Feature","properties":{"id":222392146,"osm_type":"way","name":"","category":"playground","tags":{"access":"yes","leisure":"playground"}},"geometry":{"type":"Point","coordinates":[14.7977814,56.9097125]}},{"type":"Feature","properties":{"id":222533903,"osm_type":"way","name":"","category":"playground","tags":{"leisure":"playground"}},"geometry":{"type":"Point","coordinates":[14.796785,56.9117991]}},{"type":"Feature","properties":{"id":222550360,"osm_type":"way","name":"","category":"playground","tags":{"leisure":"playground"}},"geometry":{"type":"Point","coordinates":[14.7953363,56.9109735]}},{"type":"Feature","properties":{"id":222550366,"osm_type":"way","name":"","category":"playground","tags":{"leisure":"playground"}},"geometry":{"type":"Point","coordinates":[14.794859,56.9104619]}},{"type":"Feature","properties":{"id":222550367,"osm_type":"way","name":"","category":"playground","tags":{"leisure":"playground"}},"geometry":{"type":"Point","coordinates":[14.794316,56.9109484]}},{"type":"Feature","properties":{"id":222550369,"osm_type":"way","name":"","category":"playground","tags":{"leisure":"playground"}},"geometry":{"type":"Point","coordinates":[14.7958379,56.9100911]}},{"type":"Feature","properties":{"id":222698264,"osm_type":"way","name":"","category":"playground","tags":{"leisure":"playground"}},"geometry":{"type":"Point","coordinates":[14.794619,56.9089904]}},{"type":"Feature","properties":{"id":223420375,"osm_type":"way","name":"","category":"playground","tags":{"leisure":"playground"}},"geometry":{"type":"Point","coordinates":[14.7924971,56.9121147]}},{"type":"Feature","properties":{"id":223434730,"osm_type":"way","name":"","category":"playground","tags":{"leisure":"playground"}},"geometry":{"type":"Point","coordinates":[14.7927746,56.9102936]}},{"type":"Feature","properties":{"id":223435117,"osm_type":"way","name":"","category":"playground","tags":{"leisure":"playground"}},"geometry":{"type":"Point","coordinates":[14.7884314,56.9113962]}},{"type":"Feature","properties":{"id":224157522,"osm_type":"way","name":"","category":"playground","tags":{"leisure":"playground"}},"geometry":{"type":"Point","coordinates":[14.7988859,56.9173876]}},{"type":"Feature","properties":{"id":224896899,"osm_type":"way","name":"","category":"playground","tags":{"leisure":"playground"}},"geometry":{"type":"Point","coordinates":[14.7997012,56.9029134]}},{"type":"Feature","properties":{"id":224989159,"osm_type":"way","name":"","category":"playground","tags":{"leisure":"playground"}},"geometry":{"type":"Point","coordinates":[14.804048,56.9126577]}},{"type":"Feature","properties":{"id":225025019,"osm_type":"way","name":"","category":"playground","tags":{"leisure":"playground"}},"geometry":{"type":"Point","coordinates":[14.8027719,56.9117976]}},{"type":"Feature","properties":{"id":233516414,"osm_type":"way","name":"","category":"playground","tags":{"area":"yes","leisure":"playground"}},"geometry":{"type":"Point","coordinates":[14.8133428,56.9193027]}},{"type":"Feature","properties":{"id":233893719,"osm_type":"way","name":"","category":"playground","tags":{"leisure":"playground"}},"geometry":{"type":"Point","coordinates":[14.8044006,56.90389]}},{"type":"Feature","properties":{"id":234067895,"osm_type":"way","name":"","category":"playground","tags":{"leisure":"playground"}},"geometry":{"type":"Point","coordinates":[14.7999277,56.9051401]}},{"type":"Feature","properties":{"id":300917889,"osm_type":"way","name":"","category":"playground","tags":{"leisure":"playground"}},"geometry":{"type":"Point","coordinates":[14.783982,56.8965209]}},{"type":"Feature","properties":{"id":301986039,"osm_type":"way","name":"","category":"playground","tags":{"leisure":"playground"}},"geometry":{"type":"Point","coordinates":[14.8154523,56.8992147]}},{"type":"Feature","properties":{"id":324187623,"osm_type":"way","name":"","category":"playground","tags":{"leisure":"playground"}},"geometry":{"type":"Point","coordinates":[14.8166801,56.8947086]}},{"type":"Feature","properties":{"id":360093162,"osm_type":"way","name":"","category":"playground","tags":{"leisure":"playground"}},"geometry":{"type":"Point","coordinates":[14.8122649,56.8414049]}},{"type":"Feature","properties":{"id":370283033,"osm_type":"way","name":"","category":"playground","tags":{"leisure":"playground"}},"geometry":{"type":"Point","coordinates":[14.815673,56.8572421]}},{"type":"Feature","properties":{"id":370283034,"osm_type":"way","name":"","category":"playground","tags":{"leisure":"playground"}},"geometry":{"type":"Point","coordinates":[14.8023634,56.8445874]}},{"type":"Feature","properties":{"id":437982511,"osm_type":"way","name":"","category":"playground","tags":{"leisure":"playground"}},"geometry":{"type":"Point","coordinates":[14.8148256,56.8487246]}},{"type":"Feature","properties":{"id":437986291,"osm_type":"way","name":"","category":"playground","tags":{"leisure":"playground"}},"geometry":{"type":"Point","coordinates":[14.8149048,56.8465762]}},{"type":"Feature","properties":{"id":440410233,"osm_type":"way","name":"","category":"playground","tags":{"leisure":"playground"}},"geometry":{"type":"Point","coordinates":[14.8137606,56.8520575]}},{"type":"Feature","properties":{"id":501230830,"osm_type":"way","name":"","category":"playground","tags":{"leisure":"playground"}},"geometry":{"type":"Point","coordinates":[14.805783,56.8977368]}},{"type":"Feature","properties":{"id":589953289,"osm_type":"way","name":"","category":"playground","tags":{"access":"private","leisure":"playground"}},"geometry":{"type":"Point","coordinates":[14.7948674,56.83681]}},{"type":"Feature","properties":{"id":785214971,"osm_type":"way","name":"","category":"playground","tags":{"access":"customers","leisure":"playground","playground:theme":"playground","surface":"sand"}},"geometry":{"type":"Point","coordinates":[14.7374384,56.9095531]}},{"type":"Feature","properties":{"id":785407722,"osm_type":"way","name":"","category":"playground","tags":{"leisure":"playground","surface":"sand"}},"geometry":{"type":"Point","coordinates":[14.7361944,56.9017194]}},{"type":"Feature","properties":{"id":785408721,"osm_type":"way","name":"","category":"playground","tags":{"access":"yes","leisure":"playground","opening_hours":"24/7"}},"geometry":{"type":"Point","coordinates":[14.7398972,56.9001873]}},{"type":"Feature","properties":{"id":955086156,"osm_type":"way","name":"","category":"playground","tags":{"access":"yes","leisure":"playground"}},"geometry":{"type":"Point","coordinates":[14.7412275,56.9074392]}},{"type":"Feature","properties":{"id":1017471983,"osm_type":"way","name":"","category":"playground","tags":{"leisure":"playground"}},"geometry":{"type":"Point","coordinates":[14.8198793,56.8585937]}},{"type":"Feature","properties":{"id":1017471984,"osm_type":"way","name":"","category":"playground","tags":{"leisure":"playground"}},"geometry":{"type":"Point","coordinates":[14.8196806,56.8583615]}},{"type":"Feature","properties":{"id":1017541332,"osm_type":"way","name":"","category":"playground","tags":{"leisure":"playground"}},"geometry":{"type":"Point","coordinates":[14.8226577,56.8484563]}},{"type":"Feature","properties":{"id":1017541334,"osm_type":"way","name":"","category":"playground","tags":{"leisure":"playground"}},"geometry":{"type":"Point","coordinates":[14.8211129,56.8493093]}},{"type":"Feature","properties":{"id":1017541336,"osm_type":"way","name":"","category":"playground","tags":{"leisure":"playground"}},"geometry":{"type":"Point","coordinates":[14.8223199,56.8480072]}},{"type":"Feature","properties":{"id":1019086645,"osm_type":"way","name":"","category":"playground","tags":{"leisure":"playground"}},"geometry":{"type":"Point","coordinates":[14.8177997,56.8440202]}},{"type":"Feature","properties":{"id":1028411015,"osm_type":"way","name":"","category":"playground","tags":{"leisure":"playground"}},"geometry":{"type":"Point","coordinates":[14.7984597,56.8335351]}},{"type":"Feature","properties":{"id":1073003595,"osm_type":"way","name":"Lekplatsen Farmen","category":"playground","tags":{"access":"yes","leisure":"playground","name":"Lekplatsen Farmen","operator":"Växjö kommun","playground:theme":"playground"}},"geometry":{"type":"Point","coordinates":[14.8018054,56.9088659]}},{"type":"Feature","properties":{"id":1192456327,"osm_type":"way","name":"","category":"playground","tags":{"access":"yes","leisure":"playground"}},"geometry":{"type":"Point","coordinates":[14.8188973,56.9232783]}},{"type":"Feature","properties":{"id":1252326169,"osm_type":"way","name":"","category":"playground","tags":{"leisure":"playground","surface":"sand"}},"geometry":{"type":"Point","coordinates":[14.9302041,56.7395004]}},{"type":"Feature","properties":{"id":1252326170,"osm_type":"way","name":"","category":"playground","tags":{"leisure":"playground","surface":"sand"}},"geometry":{"type":"Point","coordinates":[14.9293156,56.7393383]}},{"type":"Feature","properties":{"id":1274259099,"osm_type":"way","name":"Parkourpark Spetsamossen","category":"playground","tags":{"access":"yes","leisure":"playground","name":"Parkourpark Spetsamossen","playground:theme":"parkour","website":"https://www.vaxjo.se/sidor/se-och-gora/spontanidrott-och-lek/parkourpark-spetsamossen.html"}},"geometry":{"type":"Point","coordinates":[14.8016804,56.8841987]}},{"type":"Feature","properties":{"id":1274281644,"osm_type":"way","name":"","category":"playground","tags":{"leisure":"playground"}},"geometry":{"type":"Point","coordinates":[14.8025599,56.8870749]}},{"type":"Feature","properties":{"id":1274281645,"osm_type":"way","name":"","category":"playground","tags":{"access":"yes","leisure":"playground"}},"geometry":{"type":"Point","coordinates":[14.7985062,56.8857542]}},{"type":"Feature","properties":{"id":1329946364,"osm_type":"way","name":"Movägens lekplats","category":"playground","tags":{"access":"yes","leisure":"playground","name":"Movägens lekplats","playground:theme":"castle","surface":"gravel"}},"geometry":{"type":"Point","coordinates":[14.8601693,56.9072731]}},{"type":"Feature","properties":{"id":1356365910,"osm_type":"way","name":"","category":"playground","tags":{"leisure":"playground"}},"geometry":{"type":"Point","coordinates":[14.8506299,56.8806097]}},{"type":"Feature","properties":{"id":1363041427,"osm_type":"way","name":"Prästmarkens Lekplats","category":"playground","tags":{"access":"yes","leisure":"playground","name":"Prästmarkens Lekplats","surface":"sand"}},"geometry":{"type":"Point","coordinates":[14.8458291,56.9085001]}},{"type":"Feature","properties":{"id":1368378175,"osm_type":"way","name":"Brinkvallens lekplats","category":"playground","tags":{"access":"yes","leisure":"playground","name":"Brinkvallens lekplats","operator":"Växjö kommun","surface":"sand"}},"geometry":{"type":"Point","coordinates":[14.8531077,56.9102243]}},{"type":"Feature","properties":{"id":1368380648,"osm_type":"way","name":"Björkvägens lekplats","category":"playground","tags":{"access":"yes","leisure":"playground","name":"Björkvägens lekplats","operator":"Växjö kommun","surface":"sand"}},"geometry":{"type":"Point","coordinates":[14.8574176,56.9124664]}},{"type":"Feature","properties":{"id":1432083143,"osm_type":"way","name":"","category":"playground","tags":{"leisure":"playground"}},"geometry":{"type":"Point","coordinates":[14.8024935,56.9083175]}}]}