{"type":"FeatureCollection","features":[{"type":"Feature","properties":{"id":340460141,"osm_type":"node","name":"Cafè Strandbjörket","category":"restaurant","tags":{"amenity":"cafe","name":"Cafè Strandbjörket","opening_hours":"\"Sorry, we are closed\""}},"geometry":{"type":"Point","coordinates":[14.8058846,56.8728888]}},{"type":"Feature","properties":{"id":340460436,"osm_type":"node","name":"Krikor Pizza och Kebab","category":"restaurant","tags":{"amenity":"fast_food","cuisine":"pizza","name":"Krikor Pizza och Kebab"}},"geometry":{"type":"Point","coordinates":[14.799544,56.8431393]}},{"type":"Feature","properties":{"id":427116262,"osm_type":"node","name":"Restaurang Brunnen","category":"restaurant","tags":{"amenity":"restaurant","diet:vegetarian":"yes","email":"Brunnen@ljuvasmaker.com","indoor_seating":"yes","name":"Restaurang Brunnen","outdoor_seating":"yes","phone":"+46 470 63082","website":"https://www.restaurangbrunnen.se/","wheelchair":"yes"}},"geometry":{"type":"Point","coordinates":[14.8188414,56.9220997]}},{"type":"Feature","properties":{"id":702860776,"osm_type":"node","name":"Hovshaga Pizzeria","category":"restaurant","tags":{"amenity":"fast_food","cuisine":"pizza","name":"Hovshaga Pizzeria"}},"geometry":{"type":"Point","coordinates":[14.7969154,56.9096293]}},{"type":"Feature","properties":{"id":853165106,"osm_type":"node","name":"Spice'n'Rice","category":"restaurant","tags":{"addr:city":"Växjö","addr:country":"SE","addr:housenumber":"3","addr:street":"Västra Esplanaden","amenity":"fast_food","cuisine":"thai","delivery":"no","name":"Spice'n'Rice","outdoor_seating":"yes","phone":"+46 470 74 01 11","smoking":"outside","takeaway":"yes","wheelchair":"yes"}},"geometry":{"type":"Point","coordinates":[14.801151,56.878776]}},{"type":"Feature","properties":{"id":1000779821,"osm_type":"node","name":"Pizza","category":"restaurant","tags":{"amenity":"fast_food","name":"Pizza"}},"geometry":{"type":"Point","coordinates":[14.819396,56.8731311]}},{"type":"Feature","properties":{"id":1000789572,"osm_type":"node","name":"La Castellina","category":"restaurant","tags":{"amenity":"restaurant","cuisine":"italian","name":"La Castellina","wheelchair":"yes"}},"geometry":{"type":"Point","coordinates":[14.7989502,56.8793052]}},{"type":"Feature","properties":{"id":1000789573,"osm_type":"node","name":"Pizza","category":"restaurant","tags":{"amenity":"fast_food","cuisine":"pizza","name":"Pizza","wheelchair":"no"}},"geometry":{"type":"Point","coordinates":[14.7992922,56.8800072]}},{"type":"Feature","properties":{"id":1000789575,"osm_type":"node","name":"Hong Kong","category":"restaurant","tags":{"amenity":"restaurant","name":"Hong Kong"}},"geometry":{"type":"Point","coordinates":[14.8001773,56.8790372]}},{"type":"Feature","properties":{"id":1000792666,"osm_type":"node","name":"Classico Resturang & Pizzeria","category":"restaurant","tags":{"amenity":"restaurant","cuisine":"pizza","name":"Classico Resturang & Pizzeria","opening_hours":"Mo-Su 10:00-22:00"}},"geometry":{"type":"Point","coordinates":[14.8014431,56.8820591]}},{"type":"Feature","properties":{"id":1013535568,"osm_type":"node","name":"Kungsgrillen Norremark","category":"restaurant","tags":{"addr:city":"Växjö","addr:country":"SE","addr:housenumber":"2H","addr:postcode":"352 45","addr:street":"Rådjursvägen","amenity":"restaurant","cuisine":"pizza","name":"Kungsgrillen Norremark","website":"https://kungsgrillen.com/"}},"geometry":{"type":"Point","coordinates":[14.8269943,56.9041076]}},{"type":"Feature","properties":{"id":1310256873,"osm_type":"node","name":"Svenska Tantens Trädgårdscafé","category":"restaurant","tags":{"amenity":"cafe","name":"Svenska Tantens Trädgårdscafé"}},"geometry":{"type":"Point","coordinates":[14.7210876,56.8690524]}},{"type":"Feature","properties":{"id":1329781300,"osm_type":"node","name":"Villa Vik","category":"restaurant","tags":{"addr:city":"Växjö","addr:country":"SE","addr:housenumber":"74","addr:postcode":"35249","addr:street":"Lenhovdavägen","amenity":"restaurant","cuisine":"regional","email":"kontakt@villavik.se","fax":"+46 470 61402","name":"Villa Vik","phone":"+46 470 65290","smoking":"no","website":"https://www.villavik.se/restaurang.shtml","wheelchair":"yes"}},"geometry":{"type":"Point","coordinates":[14.8619688,56.922002]}},{"type":"Feature","properties":{"id":1335757914,"osm_type":"node","name":"","category":"restaurant","tags":{"amenity":"cafe"}},"geometry":{"type":"Point","coordinates":[14.6538956,56.8719183]}},{"type":"Feature","properties":{"id":1380742859,"osm_type":"node","name":"Gemla viltrestaurang - wild food","category":"restaurant","tags":{"amenity":"restaurant","cuisine":"steak_house","name":"Gemla viltrestaurang - wild food"}},"geometry":{"type":"Point","coordinates":[14.6529112,56.8593955]}},{"type":"Feature","properties":{"id":1700224363,"osm_type":"node","name":"Evedals värdshus","category":"restaurant","tags":{"addr:city":"Växjö","addr:country":"SE","addr:postcode":"35263","addr:street":"L J Brandts väg","amenity":"restaurant","contact:email":"info@evedalsvardshus.se","contact:phone":"+46 470 630 03","contact:website":"http://www.evedalsvardshus.se/","delivery":"no","indoor_seating":"yes","name":"Evedals värdshus","outdoor_seating":"yes","smoking":"outside","website":"http://www.evedalsvardshus.se/","wheelchair":"yes"}},"geometry":{"type":"Point","coordinates":[14.820862,56.92157]}},{"type":"Feature","properties":{"id":1863018992,"osm_type":"node","name":"Bar & Restaurang Båtsmannen","category":"restaurant","tags":{"addr:city":"Växjö","addr:street":"Bäckgatan","amenity":"restaurant","cuisine":"diner","delivery":"no","internet_access":"no","name":"Bar & Restaurang Båtsmannen","outdoor_seating":"yes","smoking":"outside","wheelchair":"yes"}},"geometry":{"type":"Point","coordinates":[14.80479,56.877463]}},{"type":"Feature","properties":{"id":2007305408,"osm_type":"node","name":"Abbas Falafel","category":"restaurant","tags":{"amenity":"fast_food","cuisine":"kebab","name":"Abbas Falafel"}},"geometry":{"type":"Point","coordinates":[14.8313663,56.8552108]}},{"type":"Feature","properties":{"id":2153534161,"osm_type":"node","name":"Näckrosen pizzeria","category":"restaurant","tags":{"amenity":"fast_food","cuisine":"pizza","name":"Näckrosen pizzeria"}},"geometry":{"type":"Point","coordinates":[14.9223015,56.7447644]}},{"type":"Feature","properties":{"id":2232512016,"osm_type":"node","name":"Oxgrillen","category":"restaurant","tags":{"addr:city":"Växjö","addr:postcode":"35232","addr:street":"Oxtorget","amenity":"fast_food","contact:phone":"+46 470 24955","cuisine":"burger","name":"Oxgrillen","wheelchair":"limited"}},"geometry":{"type":"Point","coordinates":[14.7989621,56.8788104]}},{"type":"Feature","properties":{"id":2286925387,"osm_type":"node","name":"Pizza Lovers","category":"restaurant","tags":{"addr:city":"Växjö","addr:country":"SE","addr:housenumber":"2","addr:street":"Slöjdgatan","amenity":"restaurant","cuisine":"pizza","name":"Pizza Lovers","outdoor_seating":"yes","smoking":"outside","website":"https://www.pizzalover.se/","wheelchair":"yes"}},"geometry":{"type":"Point","coordinates":[14.77621,56.88782]}},{"type":"Feature","properties":{"id":2337339684,"osm_type":"node","name":"La Strada Restaurang & Pizzeria","category":"restaurant","tags":{"amenity":"restaurant","cuisine":"pizza","name":"La Strada Restaurang & Pizzeria","outdoor_seating":"yes","phone":"+46 470 629 00","website":"www.la-strada.se","wheelchair":"yes"}},"geometry":{"type":"Point","coordinates":[14.798034,56.90302]}},{"type":"Feature","properties":{"id":2418822197,"osm_type":"node","name":"Barks Korvkiosk","category":"restaurant","tags":{"amenity":"fast_food","name":"Barks Korvkiosk"}},"geometry":{"type":"Point","coordinates":[14.8117904,56.8829548]}},{"type":"Feature","properties":{"id":2450576074,"osm_type":"node","name":"Café Fontaine","category":"restaurant","tags":{"amenity":"cafe","indoor_seating":"yes","name":"Café Fontaine","outdoor_seating":"yes"}},"geometry":{"type":"Point","coordinates":[14.8107521,56.8758345]}},{"type":"Feature","properties":{"id":2451252466,"osm_type":"node","name":"Pizzeria Excelle","category":"restaurant","tags":{"amenity":"restaurant","check_date":"2024-07-09","cuisine":"pizza","name":"Pizzeria Excelle","opening_hours":"Mo-Th 10:30-22:00; Fr-Sa 10:30-04:00; Su 12:00-22:00","phone":"+46 470 449 66","wheelchair":"limited"}},"geometry":{"type":"Point","coordinates":[14.8067886,56.8772227]}},{"type":"Feature","properties":{"id":2451584616,"osm_type":"node","name":"The Bishops Arms","category":"restaurant","tags":{"amenity":"pub","brand":"The Bishops Arms","brand:wikidata":"Q10430084","name":"The Bishops Arms","opening_hours":"Mo-Tu 17:00-24:00; We 17:00-01:00, Th 16:00-01:00, Fr-Sa 16:00-02:00, Su 17:00-23:00","phone":"+46 470 276 66","website":"https://www.bishopsarms.com/vara-pubar/vaxjo/","wheelchair":"no"}},"geometry":{"type":"Point","coordinates":[14.8090418,56.8777086]}},{"type":"Feature","properties":{"id":2452732406,"osm_type":"node","name":"Lagerlunden Bistro & Bar","category":"restaurant","tags":{"amenity":"restaurant","name":"Lagerlunden Bistro & Bar"}},"geometry":{"type":"Point","coordinates":[14.8086513,56.8779585]}},{"type":"Feature","properties":{"id":2452732407,"osm_type":"node","name":"Moshi Moshi","category":"restaurant","tags":{"amenity":"restaurant","cuisine":"sushi","name":"Moshi Moshi"}},"geometry":{"type":"Point","coordinates":[14.8081277,56.8774655]}},{"type":"Feature","properties":{"id":2452732408,"osm_type":"node","name":"","category":"restaurant","tags":{"amenity":"restaurant","cuisine":"steak_house"}},"geometry":{"type":"Point","coordinates":[14.8080945,56.8773404]}},{"type":"Feature","properties":{"id":2452732409,"osm_type":"node","name":"Pizzeria Napoli","category":"restaurant","tags":{"amenity":"restaurant","cuisine":"pizza","name":"Pizzeria Napoli"}},"geometry":{"type":"Point","coordinates":[14.8082114,56.8777702]}},{"type":"Feature","properties":{"id":2452732416,"osm_type":"node","name":"Mango Sallad","category":"restaurant","tags":{"amenity":"restaurant","name":"Mango Sallad","opening_hours":"Mo-Fr 10:30-19:00; Sa 11:00-17:00"}},"geometry":{"type":"Point","coordinates":[14.8081006,56.8773914]}},{"type":"Feature","properties":{"id":2452732425,"osm_type":"node","name":"Bastard Burgers","category":"restaurant","tags":{"amenity":"restaurant","brand":"Bastard Burgers","brand:wikidata":"Q76873807","cuisine":"burger","name":"Bastard Burgers","takeaway":"yes"}},"geometry":{"type":"Point","coordinates":[14.8084621,56.8773848]}},{"type":"Feature","properties":{"id":3328501918,"osm_type":"node","name":"Askelyckan","category":"restaurant","tags":{"addr:city":"Växjö","addr:country":"SE","addr:housenumber":"25","addr:postcode":"35230","addr:street":"Storgatan","amenity":"cafe","baby_feeding":"no","changing_table":"yes","cuisine":"cake","food":"snacks","highchair":"4","indoor_seating":"yes","name":"Askelyckan","outdoor_seating":"yes","smoking":"no","toilets":"yes","toilets:access":"customers","toilets:wheelchair":"no","wheelchair":"limited"}},"geometry":{"type":"Point","coordinates":[14.8024767,56.8789106]}},{"type":"Feature","properties":{"id":3328511715,"osm_type":"node","name":"Rose Garden","category":"restaurant","tags":{"amenity":"restaurant","cuisine":"japanese","name":"Rose Garden"}},"geometry":{"type":"Point","coordinates":[14.7994454,56.8789832]}},{"type":"Feature","properties":{"id":3871530542,"osm_type":"node","name":"Espresso House","category":"restaurant","tags":{"amenity":"cafe","brand":"Espresso House","brand:wikidata":"Q10489162","brand:wikipedia":"sv:Espresso House","cuisine":"coffee_shop","name":"Espresso House","opening_hours":"Mo-Fr 07:00-22:00, Sa 09:00-23:00, Su,PH 09:00-21:00","takeaway":"yes","wheelchair":"limited"}},"geometry":{"type":"Point","coordinates":[14.8071066,56.8788107]}},{"type":"Feature","properties":{"id":3871530544,"osm_type":"node","name":"Redford Indian Tandoori Restaurant","category":"restaurant","tags":{"amenity":"restaurant","cuisine":"indian","name":"Redford Indian Tandoori Restaurant","opening_hours":"Mo-Th 11:30-13:30,16:30-21:00; Fr 11:30-13:30,16:30-21:30; Sa 12:30-21:30"}},"geometry":{"type":"Point","coordinates":[14.8050734,56.8793559]}},{"type":"Feature","properties":{"id":3922140130,"osm_type":"node","name":"Miso","category":"restaurant","tags":{"addr:city":"Växjö","addr:country":"SE","addr:housenumber":"6","addr:postcode":"352 31","addr:street":"Västra Esplanaden","amenity":"restaurant","cuisine":"sushi","name":"Miso","opening_hours":"Mo-Th 11:00-20:00, Fr 11:00-21:00, Sa 12:00-21:00, Su 13:00-20:00","phone":"+46 470 777666","smoking":"no","takeaway":"yes","website":"https://www.misomiso.se/","wheelchair":"no"}},"geometry":{"type":"Point","coordinates":[14.8019026,56.8794554]}},{"type":"Feature","properties":{"id":4031026891,"osm_type":"node","name":"Rottne Restaurang och Pizzeria","category":"restaurant","tags":{"addr:street":"Jonsgårdsvägen","amenity":"restaurant","cuisine":"italian","level":"1","name":"Rottne Restaurang och Pizzeria","opening_hours":"Mo-Fr 11:30-21:00; Sa-Su 12:00-21:00","takeaway":"yes","toilets":"yes","wheelchair":"yes"}},"geometry":{"type":"Point","coordinates":[14.890791,57.0223553]}},{"type":"Feature","properties":{"id":4339482629,"osm_type":"node","name":"Sláinte","category":"restaurant","tags":{"amenity":"pub","check_date":"2024-07-09","name":"Sláinte","opening_hours":"Mo 17:00-22:00; Tu-Th 16:00-24:00; Fr-Sa 16:00-01:00; Su off","theme":"irish","wheelchair":"yes"}},"geometry":{"type":"Point","coordinates":[14.804949,56.8785933]}},{"type":"Feature","properties":{"id":4929474521,"osm_type":"node","name":"Kafe de Luxe","category":"restaurant","tags":{"addr:country":"SE","addr:housenumber":"19","addr:street":"Sandgärdsgatan","amenity":"restaurant","check_date":"2026-04-14","cuisine":"burger;chicken;sausage;seafood","diet:vegan":"yes","diet:vegetarian":"yes","indoor_seating":"yes","name":"Kafe de Luxe","opening_hours":"Mo,Tu 11:30-24:00, We,Th 11:30-01:00, Fr,Sa 11:30-03:00, Su 11:30-20:00","outdoor_seating":"yes","payment:cash":"no","payment:credit_cards":"yes","payment:debit_cards":"yes","website":"https://www.kafedeluxe.se/"}},"geometry":{"type":"Point","coordinates":[14.8062466,56.8777658]}},{"type":"Feature","properties":{"id":5637635826,"osm_type":"node","name":"Kafé","category":"restaurant","tags":{"amenity":"cafe","name":"Kafé","name:sv":"Kafé Kringlan Evedal","opening_hours":"Tu-Su 14:00-20:00"}},"geometry":{"type":"Point","coordinates":[14.8223091,56.9189849]}},{"type":"Feature","properties":{"id":6080306672,"osm_type":"node","name":"Pizza House","category":"restaurant","tags":{"amenity":"fast_food","cuisine":"pizza","name":"Pizza House"}},"geometry":{"type":"Point","coordinates":[14.7792228,56.8832575]}},{"type":"Feature","properties":{"id":6080306673,"osm_type":"node","name":"Pizza Inn","category":"restaurant","tags":{"amenity":"fast_food","brand":"Pizza Inn","brand:wikidata":"Q4118850","brand:wikipedia":"en:Pizza Inn","cuisine":"pizza","name":"Pizza Inn","takeaway":"yes"}},"geometry":{"type":"Point","coordinates":[14.9188869,56.7466914]}},{"type":"Feature","properties":{"id":6473760885,"osm_type":"node","name":"Chapter House","category":"restaurant","tags":{"addr:country":"SE","addr:housenumber":"7","addr:postcode":"352 30","addr:street":"Klostergatan","amenity":"bar","name":"Chapter House","opening_hours":"Tu-Th 16:00-01:00+, Fr 15:00-01:00, Sa 12:00-01:00","wheelchair":"no"}},"geometry":{"type":"Point","coordinates":[14.8070671,56.8785579]}},{"type":"Feature","properties":{"id":8049749368,"osm_type":"node","name":"Sushi Yama","category":"restaurant","tags":{"addr:city":"Växjö","addr:country":"SE","addr:housenumber":"32","addr:postcode":"35246","addr:street":"Hejaregatan","amenity":"restaurant","brand":"Sushi Yama","brand:wikidata":"Q31897009","cuisine":"japanese","name":"Sushi Yama","opening_hours":"Mo-Fr 10:00-18:00; Sa-Su 10:00-18:00","phone":"+46 47 078 9000","website":"https://www.sushiyama.se/"}},"geometry":{"type":"Point","coordinates":[14.7661553,56.8841191]}},{"type":"Feature","properties":{"id":8396852658,"osm_type":"node","name":"Restaurang Rasken","category":"restaurant","tags":{"addr:city":"Växjö","addr:country":"SE","addr:housenumber":"5","addr:postcode":"352 52","addr:street":"Vejdes plats","amenity":"restaurant","check_date:opening_hours":"2024-10-26","name":"Restaurang Rasken","opening_hours":"Mo-Fr 11:30-14:00","phone":"+46 470 72 84 80","website":"https://www.hors.se/vaxjo/17/5/restaurang-rasken/"}},"geometry":{"type":"Point","coordinates":[14.827949,56.8556458]}},{"type":"Feature","properties":{"id":8396852659,"osm_type":"node","name":"Prego Astrakan","category":"restaurant","tags":{"addr:city":"Växjö","addr:country":"SE","addr:housenumber":"7","addr:postcode":"351 95","addr:street":"Pelarplatsen","amenity":"cafe","name":"Prego Astrakan","opening_hours":"Mo-Th 09:30-16:30; Fr 09:30-15:00","website":"https://www.hors.se/vaxjo/17/6/prego-astrakan/"}},"geometry":{"type":"Point","coordinates":[14.8300025,56.8552769]}},{"type":"Feature","properties":{"id":8402511218,"osm_type":"node","name":"Restaurang Kristina","category":"restaurant","tags":{"addr:city":"Växjö","addr:country":"SE","addr:housenumber":"1","addr:postcode":"351 95","addr:street":"Universitetsplatsen","amenity":"restaurant","check_date:opening_hours":"2024-10-26","name":"Restaurang Kristina","opening_hours":"Mo-Fr 11:00-14:00","phone":"+46 470 809 20","website":"https://www.hors.se/vaxjo/17/3/restaurang-kristina/"}},"geometry":{"type":"Point","coordinates":[14.8311069,56.8547257]}},{"type":"Feature","properties":{"id":8402511219,"osm_type":"node","name":"Kristinas Bakficka","category":"restaurant","tags":{"addr:city":"Växjö","addr:country":"SE","addr:housenumber":"1","addr:postcode":"351 95","addr:street":"Universitetsplatsen","amenity":"cafe","name":"Kristinas Bakficka","opening_hours":"8:00-15:30","phone":"+46 470 809 20","website":"https://www.hors.se/vaxjo/17/4/kristinas-bakficka/"}},"geometry":{"type":"Point","coordinates":[14.831005,56.8547315]}},{"type":"Feature","properties":{"id":8402511220,"osm_type":"node","name":"Kaffebaren M-Huset","category":"restaurant","tags":{"addr:city":"Växjö","addr:country":"SE","addr:housenumber":"1","addr:postcode":"352 52","addr:street":"Georg Lückligs väg","amenity":"cafe","name":"Kaffebaren M-Huset","opening_hours:covid19":"closed","phone":"+46 70 551 30 58","website":"https://www.hors.se/vaxjo/17/8/kaffebaren-m-huset/"}},"geometry":{"type":"Point","coordinates":[14.832835,56.8540661]}},{"type":"Feature","properties":{"id":8402511221,"osm_type":"node","name":"Maestro Pizzeria","category":"restaurant","tags":{"addr:city":"Växjö","addr:country":"SE","addr:housenumber":"5","addr:postcode":"352 52","addr:street":"Pelarplatsen","amenity":"restaurant","name":"Maestro Pizzeria","opening_hours":"Mo-Fr 11:00-21:00; Sa,Su 12:00-21:00","phone":"+46 470 72 33 44","website":"https://www.maestrovaxjo.se/"}},"geometry":{"type":"Point","coordinates":[14.8297584,56.8558682]}},{"type":"Feature","properties":{"id":8576149049,"osm_type":"node","name":"Starbucks","category":"restaurant","tags":{"amenity":"cafe","brand":"Starbucks","brand:wikidata":"Q37158","brand:wikipedia":"en:Starbucks","cuisine":"coffee_shop","name":"Starbucks","official_name":"Starbucks Coffee","takeaway":"yes"}},"geometry":{"type":"Point","coordinates":[14.8305858,56.8541662]}},{"type":"Feature","properties":{"id":8600472812,"osm_type":"node","name":"Restaurang & Pizzeria Trummen","category":"restaurant","tags":{"addr:city":"Växjö","addr:country":"SE","addr:housenumber":"3G","addr:postcode":"35222","addr:street":"Anna Koskulls gata","amenity":"restaurant","cuisine":"pizza","name":"Restaurang & Pizzeria Trummen","phone":"+46 470 835 50","takeaway":"yes","website":"https://www.trummensbellavista.se/"}},"geometry":{"type":"Point","coordinates":[14.8219254,56.8595448]}},{"type":"Feature","properties":{"id":8643142985,"osm_type":"node","name":"Elvan","category":"restaurant","tags":{"addr:city":"Växjö","addr:country":"SE","addr:housenumber":"11","addr:postcode":"352 36","addr:street":"Marketenterivägen","amenity":"restaurant","cuisine":"pizza","name":"Elvan"}},"geometry":{"type":"Point","coordinates":[14.7723191,56.8768556]}},{"type":"Feature","properties":{"id":8794953928,"osm_type":"node","name":"Domkyrkocentrum","category":"restaurant","tags":{"amenity":"cafe","check_date":"2023-07-18","name":"Domkyrkocentrum"}},"geometry":{"type":"Point","coordinates":[14.8123132,56.8781896]}},{"type":"Feature","properties":{"id":8794954077,"osm_type":"node","name":"Tam Nak Thai","category":"restaurant","tags":{"amenity":"restaurant","name":"Tam Nak Thai"}},"geometry":{"type":"Point","coordinates":[14.8130425,56.8782046]}},{"type":"Feature","properties":{"id":8795172208,"osm_type":"node","name":"Izakaya Moshi","category":"restaurant","tags":{"amenity":"restaurant","name":"Izakaya Moshi"}},"geometry":{"type":"Point","coordinates":[14.8068494,56.8756766]}},{"type":"Feature","properties":{"id":9007571661,"osm_type":"node","name":"Ingers Smörgåsar","category":"restaurant","tags":{"addr:country":"SE","addr:housenumber":"15","addr:street":"Marketenterivägen","amenity":"restaurant","cuisine":"sandwich","name":"Ingers Smörgåsar","opening_hours":"Mo-Fr 08:00-16:30; Sa 10:00-15:00","phone":"+46 470 268 50"}},"geometry":{"type":"Point","coordinates":[14.7723748,56.8771027]}},{"type":"Feature","properties":{"id":9017496327,"osm_type":"node","name":"Ryttmästaregården","category":"restaurant","tags":{"addr:city":"Växjö","addr:country":"SE","addr:postcode":"35263","amenity":"restaurant","check_date":"2025-06-16","cuisine":"swedish","indoor_seating":"yes","name":"Ryttmästaregården","outdoor_seating":"yes","website":"https://ryttmastaregarden.se/","wheelchair":"limited"}},"geometry":{"type":"Point","coordinates":[14.7943966,56.9405951]}},{"type":"Feature","properties":{"id":9056454820,"osm_type":"node","name":"Mer än Mat","category":"restaurant","tags":{"amenity":"restaurant","name":"Mer än Mat","website":"https://facebook.com/restaurangmam/"}},"geometry":{"type":"Point","coordinates":[14.8271377,56.8660684]}},{"type":"Feature","properties":{"id":9135019575,"osm_type":"node","name":"Espresso House","category":"restaurant","tags":{"amenity":"cafe","brand":"Espresso House","brand:wikidata":"Q10489162","brand:wikipedia":"sv:Espresso House","cuisine":"coffee_shop","name":"Espresso House","takeaway":"yes"}},"geometry":{"type":"Point","coordinates":[14.8063362,56.8769764]}},{"type":"Feature","properties":{"id":9196215417,"osm_type":"node","name":"Umami Grill","category":"restaurant","tags":{"amenity":"restaurant","check_date":"2024-07-09","name":"Umami Grill"}},"geometry":{"type":"Point","coordinates":[14.8053708,56.8789463]}},{"type":"Feature","properties":{"id":9477178962,"osm_type":"node","name":"Kungsgrillen","category":"restaurant","tags":{"addr:city":"Växjö","addr:country":"SE","addr:housenumber":"70","addr:street":"Smedsvängen","amenity":"restaurant","indoor_seating":"yes","name":"Kungsgrillen","outdoor_seating":"no","phone":"+46 470 813 00","takeaway":"yes","website":"https://xn--kungsgrillenvxj-dlb22a.se/"}},"geometry":{"type":"Point","coordinates":[14.8204383,56.8531207]}},{"type":"Feature","properties":{"id":9547796815,"osm_type":"node","name":"Black Stone","category":"restaurant","tags":{"amenity":"restaurant","check_date":"2024-07-09","cuisine":"steak_house","name":"Black Stone","opening_hours":"Mo,Su off; Tu-Fr 16:00-24:00; Sa 12:00-24:00","payment:cash":"no","payment:credit_cards":"yes","payment:debit_cards":"yes","phone":"+46 470 31 03 1","website":"https://www.blackstonesteakhouse.se"}},"geometry":{"type":"Point","coordinates":[14.8061261,56.8781476]}},{"type":"Feature","properties":{"id":9547866817,"osm_type":"node","name":"Nutella Crepes House","category":"restaurant","tags":{"amenity":"restaurant","cuisine":"crepe","diet:vegetarian":"yes","name":"Nutella Crepes House"}},"geometry":{"type":"Point","coordinates":[14.8075796,56.876772]}},{"type":"Feature","properties":{"id":9547866818,"osm_type":"node","name":"Oas","category":"restaurant","tags":{"amenity":"cafe","check_date":"2024-07-09","name":"Oas","opening_hours":"Mo-Fr 11:00-17:00; Sa 10:00-16:00; Su off"}},"geometry":{"type":"Point","coordinates":[14.8063222,56.8782793]}},{"type":"Feature","properties":{"id":9547866819,"osm_type":"node","name":"Signatur","category":"restaurant","tags":{"amenity":"restaurant","check_date":"2024-07-09","email":"bokning@restaurangsignatur.com","name":"Signatur","opening_hours":"Mo,Su off; Tu-Fr 16:00-24:00; Sa 12:00-24:00","phone":"+46 470 35 23 0","website":"https://www.restaurangsignatur.com"}},"geometry":{"type":"Point","coordinates":[14.8063208,56.877904]}},{"type":"Feature","properties":{"id":9547866820,"osm_type":"node","name":"di Massimo","category":"restaurant","tags":{"amenity":"restaurant","check_date":"2024-07-09","name":"di Massimo","opening_hours":"Mo-Th 11:30-14:00,17:00-22:00; Fr 11:30-14:00,17:00-23:00; Sa 12:00-23:00; Su off","payment:cash":"no","payment:credit_cards":"yes","payment:debit_cards":"yes"}},"geometry":{"type":"Point","coordinates":[14.8064839,56.8778828]}},{"type":"Feature","properties":{"id":10114783132,"osm_type":"node","name":"Café & Salladsbar","category":"restaurant","tags":{"addr:city":"Växjö","addr:postcode":"352 52","amenity":"restaurant","name":"Café & Salladsbar","opening_hours":"Mo-Fr 08:00-15:00","phone":"+46 470 72 84 80","website":"https://www.hors.se"}},"geometry":{"type":"Point","coordinates":[14.8305843,56.8555428]}},{"type":"Feature","properties":{"id":10114783133,"osm_type":"node","name":"Slow Mo Steakhouse","category":"restaurant","tags":{"addr:city":"Växjö","amenity":"restaurant","name":"Slow Mo Steakhouse","website":"https://www.slowmosmokehouse.se/"}},"geometry":{"type":"Point","coordinates":[14.8269061,56.8507843]}},{"type":"Feature","properties":{"id":11052230567,"osm_type":"node","name":"Holy Greens","category":"restaurant","tags":{"amenity":"restaurant","brand":"Holy Greens","brand:wikidata":"Q124048681","check_date":"2024-07-09","cuisine":"salad","name":"Holy Greens","opening_hours":"Mo-Fr 08:00-18:00; Sa 11:00-17:00; Su off","takeaway":"yes"}},"geometry":{"type":"Point","coordinates":[14.8058102,56.8788918]}},{"type":"Feature","properties":{"id":11052230570,"osm_type":"node","name":"Kungsgrillen","category":"restaurant","tags":{"amenity":"fast_food","check_date":"2024-07-09","cuisine":"kebab","name":"Kungsgrillen"}},"geometry":{"type":"Point","coordinates":[14.806035,56.8787628]}},{"type":"Feature","properties":{"id":11052695012,"osm_type":"node","name":"SIA Glass","category":"restaurant","tags":{"amenity":"ice_cream","check_date":"2023-07-18","name":"SIA Glass"}},"geometry":{"type":"Point","coordinates":[14.8082569,56.8786187]}},{"type":"Feature","properties":{"id":11053580122,"osm_type":"node","name":"O'Learys","category":"restaurant","tags":{"amenity":"bar","check_date":"2023-07-18","name":"O'Learys"}},"geometry":{"type":"Point","coordinates":[14.807406,56.8787729]}},{"type":"Feature","properties":{"id":11053583739,"osm_type":"node","name":"PM & Vänner Bistro","category":"restaurant","tags":{"amenity":"restaurant","check_date":"2024-07-09","name":"PM & Vänner Bistro"}},"geometry":{"type":"Point","coordinates":[14.8040981,56.8789989]}},{"type":"Feature","properties":{"id":11053586039,"osm_type":"node","name":"Kungsgrillen","category":"restaurant","tags":{"amenity":"fast_food","name":"Kungsgrillen"}},"geometry":{"type":"Point","coordinates":[14.8033275,56.878804]}},{"type":"Feature","properties":{"id":11053586040,"osm_type":"node","name":"Via Venetto","category":"restaurant","tags":{"amenity":"restaurant","check_date":"2023-07-18","cuisine":"pizza","name":"Via Venetto"}},"geometry":{"type":"Point","coordinates":[14.8031243,56.8792102]}},{"type":"Feature","properties":{"id":11053586042,"osm_type":"node","name":"Cyrano","category":"restaurant","tags":{"amenity":"restaurant","check_date":"2023-07-18","name":"Cyrano"}},"geometry":{"type":"Point","coordinates":[14.8029532,56.8787036]}},{"type":"Feature","properties":{"id":11053586046,"osm_type":"node","name":"Butchers Burger","category":"restaurant","tags":{"amenity":"fast_food","check_date":"2023-07-18","name":"Butchers Burger"}},"geometry":{"type":"Point","coordinates":[14.8024722,56.8790941]}},{"type":"Feature","properties":{"id":11066794651,"osm_type":"node","name":"Mammornas Cafe","category":"restaurant","tags":{"amenity":"cafe","name":"Mammornas Cafe"}},"geometry":{"type":"Point","coordinates":[14.8088238,56.8756765]}},{"type":"Feature","properties":{"id":11631741422,"osm_type":"node","name":"Café Mölleslätt","category":"restaurant","tags":{"amenity":"cafe","name":"Café Mölleslätt","opening_hours":"closed","website":"https://www.instagram.com/cafemolleslatt/"}},"geometry":{"type":"Point","coordinates":[14.924854,56.744023]}},{"type":"Feature","properties":{"id":12039986358,"osm_type":"node","name":"Espresso House","category":"restaurant","tags":{"amenity":"cafe","brand":"Espresso House","brand:wikidata":"Q10489162","check_date":"2024-07-07","cuisine":"coffee_shop","name":"Espresso House","opening_hours":"Mo-Fr 10:00-20:00; Sa-Su 10:00-18:00","takeaway":"yes"}},"geometry":{"type":"Point","coordinates":[14.7656615,56.8846363]}},{"type":"Feature","properties":{"id":12042411449,"osm_type":"node","name":"Estvalls Café","category":"restaurant","tags":{"amenity":"cafe","name":"Estvalls Café","opening_hours":"Mo-Fr 10:00-20:00; Sa-Su 10:00-18:00"}},"geometry":{"type":"Point","coordinates":[14.7660648,56.8852916]}},{"type":"Feature","properties":{"id":12043648142,"osm_type":"node","name":"keun joo:","category":"restaurant","tags":{"amenity":"restaurant","check_date":"2024-07-09","name":"keun joo:","opening_hours":"Mo,Su off; Tu-Th 17:00-24:00; Fr-Sa 17:00-01:00","payment:cash":"no","payment:credit_cards":"yes","payment:debit_cards":"yes"}},"geometry":{"type":"Point","coordinates":[14.8070374,56.8772101]}},{"type":"Feature","properties":{"id":12043648144,"osm_type":"node","name":"Bullet bar","category":"restaurant","tags":{"amenity":"bar","check_date":"2024-07-09","indoor_seating":"yes","name":"Bullet bar","outdoor_seating":"no"}},"geometry":{"type":"Point","coordinates":[14.8064513,56.8777408]}},{"type":"Feature","properties":{"id":12043648145,"osm_type":"node","name":"Blend Bar","category":"restaurant","tags":{"amenity":"bar","check_date":"2024-07-09","name":"Blend Bar","opening_hours":"Mo-Tu,Su off; We-Th 17:00-24:00; Fr-Sa 16:00-24:00","website":"https://www.blendbar.com"}},"geometry":{"type":"Point","coordinates":[14.8062239,56.8779796]}},{"type":"Feature","properties":{"id":12043648146,"osm_type":"node","name":"Vineria di Massimo","category":"restaurant","tags":{"amenity":"bar","check_date":"2024-07-09","name":"Vineria di Massimo","opening_hours":"Mo-Tu,Su off; We-Th,Sa 17:00-24:00; Fr 01:00-24:00"}},"geometry":{"type":"Point","coordinates":[14.8063596,56.8780421]}},{"type":"Feature","properties":{"id":12043674466,"osm_type":"node","name":"Umami Monkey","category":"restaurant","tags":{"amenity":"restaurant","check_date":"2024-07-09","name":"Umami Monkey"}},"geometry":{"type":"Point","coordinates":[14.8052686,56.8789221]}},{"type":"Feature","properties":{"id":12043800540,"osm_type":"node","name":"Zen Restaurang","category":"restaurant","tags":{"amenity":"restaurant","check_date":"2024-07-09","name":"Zen Restaurang","opening_hours":"Mo 11:30-14:00; Tu-Fr 11:30-14:00,17:00-21:00; Sa 12:00-21:00; Su off"}},"geometry":{"type":"Point","coordinates":[14.8041434,56.8780386]}},{"type":"Feature","properties":{"id":12048998391,"osm_type":"node","name":"Kupans café","category":"restaurant","tags":{"amenity":"cafe","name":"Kupans café"}},"geometry":{"type":"Point","coordinates":[14.7823502,56.8860313]}},{"type":"Feature","properties":{"id":12070806270,"osm_type":"node","name":"An Viet","category":"restaurant","tags":{"addr:city":"Växjö","addr:housenumber":"6","addr:postcode":"352 31","addr:street":"Västra Esplanaden","amenity":"restaurant","cuisine":"vietnamese","name":"An Viet","phone":"+46 470 788 388","website":"https://www.anviet.se/"}},"geometry":{"type":"Point","coordinates":[14.8018971,56.8794113]}},{"type":"Feature","properties":{"id":12830009502,"osm_type":"node","name":"Kungsgrillen","category":"restaurant","tags":{"amenity":"fast_food","cuisine":"burger;kebab;pizza","diet:vegan":"yes","diet:vegetarian":"yes","name":"Kungsgrillen"}},"geometry":{"type":"Point","coordinates":[14.7887297,56.8789478]}},{"type":"Feature","properties":{"id":12956109612,"osm_type":"node","name":"Galai","category":"restaurant","tags":{"amenity":"restaurant","indoor_seating":"yes","name":"Galai","opening_hours":"Mo-Th 16:30-22:00, Fr 11:30-01:00, Sa 12:00-01:00","outdoor_seating":"yes"}},"geometry":{"type":"Point","coordinates":[14.8049241,56.8799066]}},{"type":"Feature","properties":{"id":12956114943,"osm_type":"node","name":"Mor & Dotter","category":"restaurant","tags":{"amenity":"cafe","indoor_seating":"yes","name":"Mor & Dotter","outdoor_seating":"no"}},"geometry":{"type":"Point","coordinates":[14.8054202,56.8796414]}},{"type":"Feature","properties":{"id":12956133147,"osm_type":"node","name":"Belle's Take away","category":"restaurant","tags":{"amenity":"fast_food","indoor_seating":"no","name":"Belle's Take away","opening_hours":"Mo-Fr 11:00-18:00","outdoor_seating":"yes"}},"geometry":{"type":"Point","coordinates":[14.8062532,56.8797377]}},{"type":"Feature","properties":{"id":13031505601,"osm_type":"node","name":"Picknick de luxe","category":"restaurant","tags":{"addr:street":"Ekobacken","amenity":"restaurant","cuisine":"local","diet:vegan":"yes","diet:vegetarian":"yes","name":"Picknick de luxe","opening_hours":"We-Th 16:00-21:00; Fr-Sa 09:00-18:00","website":"https://www.kafedeluxe.se/picknick-de-luxe"}},"geometry":{"type":"Point","coordinates":[14.8170665,56.8785715]}},{"type":"Feature","properties":{"id":13073059817,"osm_type":"node","name":"Bastard Burgers","category":"restaurant","tags":{"addr:housenumber":"32","addr:street":"Hejaregatan","amenity":"restaurant","brand":"Bastard Burgers","brand:wikidata":"Q76873807","cuisine":"burger","name":"Bastard Burgers","opening_hours":"Mo-Fr 10:00-20:00; Sa-Su 11:00-18:00","takeaway":"yes","website":"https://bastardburgers.com/se/restaurants/grand-samarkand/"}},"geometry":{"type":"Point","coordinates":[14.7660183,56.8842799]}},{"type":"Feature","properties":{"id":13081387518,"osm_type":"node","name":"Subway","category":"restaurant","tags":{"amenity":"fast_food","brand":"Subway","brand:wikidata":"Q244457","cuisine":"sandwich","name":"Subway","takeaway":"yes"}},"geometry":{"type":"Point","coordinates":[14.8061727,56.8769895]}},{"type":"Feature","properties":{"id":13081392079,"osm_type":"node","name":"Grub & Go","category":"restaurant","tags":{"amenity":"fast_food","name":"Grub & Go"}},"geometry":{"type":"Point","coordinates":[14.8047974,56.8777338]}},{"type":"Feature","properties":{"id":13088880095,"osm_type":"node","name":"smak – urbant kök och bar","category":"restaurant","tags":{"amenity":"restaurant","name":"smak – urbant kök och bar"}},"geometry":{"type":"Point","coordinates":[14.8039016,56.8782856]}},{"type":"Feature","properties":{"id":13254034301,"osm_type":"node","name":"Masala Garden","category":"restaurant","tags":{"amenity":"restaurant","name":"Masala Garden"}},"geometry":{"type":"Point","coordinates":[14.8072479,56.8796626]}},{"type":"Feature","properties":{"id":102730459,"osm_type":"way","name":"Max","category":"restaurant","tags":{"amenity":"fast_food","brand":"Max","brand:wikidata":"Q1912172","brand:wikipedia":"sv:Max Hamburgerrestauranger","building":"yes","contact:address":"Max i Växjö, Sambandsvägen 6, 352 36 Växjö.","contact:phone":"+46 470 598000","cuisine":"burger","drive_through":"yes","name":"Max","opening_hours":"Su-Th 10:00-01:00, Fr,Sa 10:00-03:00","operator":"Max","source":"Max Resturanger AB","takeaway":"yes","website":"https://www.max.se/sv/Hitta-Max/Restauranger/Vaxjo-Handelsplats-I11/","wheelchair":"yes"}},"geometry":{"type":"Point","coordinates":[14.774786,56.8778358]}},{"type":"Feature","properties":{"id":102730475,"osm_type":"way","name":"McDonald's","category":"restaurant","tags":{"amenity":"fast_food","brand":"McDonald's","brand:wikidata":"Q38076","brand:wikipedia":"sv:McDonald's","building":"yes","cuisine":"burger","name":"McDonald's","takeaway":"yes","wheelchair":"yes"}},"geometry":{"type":"Point","coordinates":[14.7627006,56.8843382]}},{"type":"Feature","properties":{"id":102881392,"osm_type":"way","name":"McDonald's","category":"restaurant","tags":{"addr:city":"Växjö","addr:country":"SE","addr:housenumber":"4","addr:postcode":"35245","addr:street":"Norremarksvägen","amenity":"fast_food","brand":"McDonald's","brand:wikidata":"Q38076","brand:wikipedia":"sv:McDonald's","building":"yes","cuisine":"burger","name":"McDonald's","takeaway":"yes"}},"geometry":{"type":"Point","coordinates":[14.828387,56.9015541]}},{"type":"Feature","properties":{"id":103473627,"osm_type":"way","name":"Jalla Jalla","category":"restaurant","tags":{"amenity":"restaurant","building":"commercial","cuisine":"kebab","name":"Jalla Jalla","outdoor_seating":"yes","smoking":"outside","takeaway":"yes"}},"geometry":{"type":"Point","coordinates":[14.7872057,56.8744288]}},{"type":"Feature","properties":{"id":103475182,"osm_type":"way","name":"Bambu kök","category":"restaurant","tags":{"amenity":"fast_food","building":"yes","cuisine":"asian","name":"Bambu kök"}},"geometry":{"type":"Point","coordinates":[14.8200776,56.8598293]}},{"type":"Feature","properties":{"id":104802190,"osm_type":"way","name":"Tasty","category":"restaurant","tags":{"addr:city":"Växjö","addr:country":"SE","addr:housenumber":"28","addr:postcode":"352 46","addr:street":"Smedjegatan","amenity":"fast_food","building":"yes","name":"Tasty","opening_hours":"Mo-Su 11:00-20:00"}},"geometry":{"type":"Point","coordinates":[14.7801538,56.8882067]}},{"type":"Feature","properties":{"id":104887100,"osm_type":"way","name":"Kungsgrillen spetsamossen","category":"restaurant","tags":{"addr:city":"Växjö","addr:housenumber":"7","addr:postcode":"35233","addr:street":"Ringsbergsvägen","amenity":"restaurant","building":"yes","cuisine":"pizza;kebab","name":"Kungsgrillen spetsamossen","phone":"+46 470 163 36"}},"geometry":{"type":"Point","coordinates":[14.8034192,56.885775]}},{"type":"Feature","properties":{"id":171789417,"osm_type":"way","name":"Öhrs lantcafe","category":"restaurant","tags":{"amenity":"cafe","building":"yes","name":"Öhrs lantcafe","source":"Bing"}},"geometry":{"type":"Point","coordinates":[14.6714993,56.9963555]}},{"type":"Feature","properties":{"id":171793805,"osm_type":"way","name":"Pizzeria Amore","category":"restaurant","tags":{"amenity":"restaurant","building":"yes","cuisine":"pizza","name":"Pizzeria Amore","opening_hours":"Mo-We 11:00-20:00, Th-Fr 11:00-21:00, Sa-Su 12:00-21:00","source":"Bing;survey"}},"geometry":{"type":"Point","coordinates":[14.7387512,56.8969536]}},{"type":"Feature","properties":{"id":275631438,"osm_type":"way","name":"Ryttartorpet","category":"restaurant","tags":{"addr:city":"Växjö","addr:country":"SE","addr:housenumber":"3","addr:postcode":"352 60","addr:street":"Araby Ryttaretorpet","amenity":"cafe","building":"yes","name":"Ryttartorpet"}},"geometry":{"type":"Point","coordinates":[14.7690578,56.9146691]}},{"type":"Feature","properties":{"id":419087199,"osm_type":"way","name":"Max","category":"restaurant","tags":{"addr:city":"Växjö","addr:country":"SE","addr:housenumber":"1","addr:postcode":"35245","addr:street":"Erik Norbergs väg","amenity":"fast_food","brand":"Max","brand:wikidata":"Q1912172","building":"yes","cuisine":"burger","name":"Max","takeaway":"yes"}},"geometry":{"type":"Point","coordinates":[14.8249723,56.8999]}},{"type":"Feature","properties":{"id":440793928,"osm_type":"way","name":"4 Krogar","category":"restaurant","tags":{"amenity":"restaurant","building":"yes","name":"4 Krogar","wheelchair":"yes"}},"geometry":{"type":"Point","coordinates":[14.8121615,56.8758525]}},{"type":"Feature","properties":{"id":479216334,"osm_type":"way","name":"Pizza Hut","category":"restaurant","tags":{"amenity":"restaurant","brand":"Pizza Hut","brand:wikidata":"Q191615","brand:wikipedia":"en:Pizza Hut","building":"yes","cuisine":"pizza","name":"Pizza Hut","wheelchair":"yes"}},"geometry":{"type":"Point","coordinates":[14.7639586,56.8825233]}},{"type":"Feature","properties":{"id":579857279,"osm_type":"way","name":"Matkungen","category":"restaurant","tags":{"addr:city":"Växjö","addr:postcode":"35252","addr:street":"P G Vejdes väg","amenity":"fast_food","building":"food_truck","cuisine":"falafel;kebab;chili_cheese","description":"Late opening hours on weekends and special occasions","name":"Matkungen","opening_hours":"Mo,Tu 11:00-22:00, We 11:00-03:00, Th 11:00-02:00, Fr 11:00-03:00, Sa 12:00-03:00, Su 12:00-22:00","outdoor_seating":"yes","payment:cash":"yes","payment:credit_cards":"yes","takeaway":"yes"}},"geometry":{"type":"Point","coordinates":[14.8260548,56.8547578]}},{"type":"Feature","properties":{"id":611894970,"osm_type":"way","name":"Burger King","category":"restaurant","tags":{"addr:city":"Växjö","addr:street":"Marketenterivägen","amenity":"fast_food","brand":"Burger King","brand:wikidata":"Q177054","brand:wikipedia":"sv:Burger King","building":"yes","cuisine":"burger","drive_through":"yes","name":"Burger King","outdoor_seating":"yes","smoking":"outside","takeaway":"yes","website":"https://burgerking.se/","wheelchair":"yes"}},"geometry":{"type":"Point","coordinates":[14.7656193,56.8786662]}},{"type":"Feature","properties":{"id":877938034,"osm_type":"way","name":"Max","category":"restaurant","tags":{"amenity":"fast_food","brand":"Max","brand:wikidata":"Q1912172","brand:wikipedia":"sv:Max Hamburgerrestauranger","building":"yes","cuisine":"burger","name":"Max","opening_hours":"Su-Th 10:00-01:00, Fr,Sa 10:00-04:00","takeaway":"yes"}},"geometry":{"type":"Point","coordinates":[14.8200832,56.8605303]}},{"type":"Feature","properties":{"id":877938039,"osm_type":"way","name":"It´s food time","category":"restaurant","tags":{"amenity":"fast_food","building":"yes","name":"It´s food time","opening_hours":"Mo,Tu,Th 11:00-21:00, We 11:00-02:00, Fr,Sa 11:00-03:00, Su 12:00-20:00"}},"geometry":{"type":"Point","coordinates":[14.8347717,56.8521434]}},{"type":"Feature","properties":{"id":995727014,"osm_type":"way","name":"KFC","category":"restaurant","tags":{"alt_name":"Kentucky Fried Chicken","alt_name:en":"Kentucky Fried Chicken","alt_name:hi":"केंटुकी फ्राइड चिकन","alt_name:pa":"ਕੈਂਟੁਕੀ ਫ੍ਰਾਈਡ ਚਿਕਨ","alt_name:pnb":"کینٹکی فرائیڈ چکن","alt_name:ur":"کینٹکی فرائیڈ چکن","amenity":"fast_food","brand":"KFC","brand:en":"KFC","brand:hi":"केएफसी","brand:pa":"ਕੇਐਫਸੀ","brand:pnb":"کے ایف سی","brand:ur":"کے ایف سی","brand:wikidata":"Q524757","building":"yes","cuisine":"chicken","name":"KFC","name:en":"KFC","name:hi":"केएफसी","name:pa":"ਕੇਐਫਸੀ","name:pnb":"کے ایف سی","name:ur":"کے ایف سی","takeaway":"yes"}},"geometry":{"type":"Point","coordinates":[14.7639732,56.8820584]}},{"type":"Feature","properties":{"id":995727015,"osm_type":"way","name":"Chopchop","category":"restaurant","tags":{"amenity":"fast_food","building":"yes","cuisine":"asian","name":"Chopchop","name:en":"Chopchop"}},"geometry":{"type":"Point","coordinates":[14.7641923,56.8818367]}},{"type":"Feature","properties":{"id":1198575744,"osm_type":"way","name":"","category":"restaurant","tags":{"amenity":"biergarten"}},"geometry":{"type":"Point","coordinates":[14.8190865,56.9220481]}}]}