{"type":"FeatureCollection","features":[{"type":"Feature","properties":{"id":1194735215,"osm_type":"node","name":"Teknikum","category":"school_high","tags":{"addr:city":"Växjö","addr:housenumber":"6","addr:postcode":"352 43","addr:street":"Gamla Norrvägen","amenity":"school","name":"Teknikum","wikidata":"Q7695461"}},"geometry":{"type":"Point","coordinates":[14.8169172,56.8829794]}},{"type":"Feature","properties":{"id":12830171701,"osm_type":"node","name":"LBS Kreativa Gymnasiet","category":"school_high","tags":{"addr:housenumber":"9","addr:street":"Regementsgatan","amenity":"school","name":"LBS Kreativa Gymnasiet"}},"geometry":{"type":"Point","coordinates":[14.7914644,56.8769356]}},{"type":"Feature","properties":{"id":103476448,"osm_type":"way","name":"Katedralskolan","category":"school_high","tags":{"addr:city":"Växjö","addr:housenumber":"1","addr:postcode":"352 39","addr:street":"Samuel Ödmanns väg","amenity":"school","name":"Katedralskolan","wikidata":"Q6375893"}},"geometry":{"type":"Point","coordinates":[14.8203876,56.8815163]}},{"type":"Feature","properties":{"id":577700588,"osm_type":"way","name":"Kungsmadskolan","category":"school_high","tags":{"addr:city":"Växjö","addr:housenumber":"21T","addr:postcode":"352 33","addr:street":"Sandsbrovägen","amenity":"school","name":"Kungsmadskolan","wikidata":"Q10550352"}},"geometry":{"type":"Point","coordinates":[14.8115246,56.8851895]}}]}