{"type":"FeatureCollection","features":[{"type":"Feature","properties":{"id":1000779834,"osm_type":"node","name":"Ljungfälleskolan","category":"school_primary","tags":{"addr:city":"Växjö","addr:housenumber":"4","addr:postcode":"352 54","addr:street":"Drabantvägen","amenity":"school","name":"Ljungfälleskolan"}},"geometry":{"type":"Point","coordinates":[14.8221312,56.8488298]}},{"type":"Feature","properties":{"id":1000779835,"osm_type":"node","name":"Teleborg centrum","category":"school_primary","tags":{"addr:city":"Växjö","addr:country":"SE","addr:housenumber":"72","addr:postcode":"352 54","addr:street":"Smedsvängen","amenity":"school","grades":"7-9","level":"0","name":"Teleborg centrum","operator":"Växjö kommun","religion":"none","website":"https://www.vaxjo.se/sidor/forskola-och-skola/skola-6-16-ar/grundskolor/skolor-r-u/teleborg-centrum-tc.html"}},"geometry":{"type":"Point","coordinates":[14.8209142,56.8521429]}},{"type":"Feature","properties":{"id":1194735215,"osm_type":"node","name":"Teknikum","category":"school_primary","tags":{"addr:city":"Växjö","addr:housenumber":"6","addr:postcode":"352 43","addr:street":"Gamla Norrvägen","amenity":"school","name":"Teknikum","wikidata":"Q7695461"}},"geometry":{"type":"Point","coordinates":[14.8169172,56.8829794]}},{"type":"Feature","properties":{"id":2443975210,"osm_type":"node","name":"Pilbäckskolan","category":"school_primary","tags":{"addr:city":"Växjö","addr:country":"SE","addr:housenumber":"80","addr:postcode":"35244","addr:street":"Surbrunnsvägen","amenity":"school","name":"Pilbäckskolan","operator":"Växjö kommun","website":"http://www.vaxjo.se/-Skolornas-webbplatser/Pilbackskolan--startsida/"}},"geometry":{"type":"Point","coordinates":[14.8067551,56.897096]}},{"type":"Feature","properties":{"id":3401485228,"osm_type":"node","name":"Norregårdskolan","category":"school_primary","tags":{"addr:city":"Växjö","addr:country":"SE","addr:housenumber":"14","addr:postcode":"352 44","addr:street":"Kringelvägen","amenity":"school","name":"Norregårdskolan","operator":"Växjö kommun","website":"https://www.vaxjo.se/norregardskolan"}},"geometry":{"type":"Point","coordinates":[14.8046829,56.900468]}},{"type":"Feature","properties":{"id":4920956668,"osm_type":"node","name":"Centrumskolan","category":"school_primary","tags":{"addr:city":"Växjö","addr:country":"SE","addr:housenumber":"1-3","addr:postcode":"35247","addr:street":"Höstvägen","amenity":"school","name":"Centrumskolan","operator":"Växjö kommun","website":"https://www.vaxjo.se/centrumskolan"}},"geometry":{"type":"Point","coordinates":[14.7937096,56.8909107]}},{"type":"Feature","properties":{"id":10997640965,"osm_type":"node","name":"Ingelstad skola","category":"school_primary","tags":{"addr:city":"Ingelstad","addr:country":"SE","addr:housenumber":"1","addr:postcode":"355 72","addr:street":"Gamla Växjövägen","amenity":"school","grades":"0-6","name":"Ingelstad skola","website":"https://www.vaxjo.se/sidor/forskola-och-skola/skola-6---16-ar/grundskolor/skolor-g-k/ingelstad-skola.html"}},"geometry":{"type":"Point","coordinates":[14.9292674,56.7397568]}},{"type":"Feature","properties":{"id":11559939068,"osm_type":"node","name":"Internationella Engelska Skolan","category":"school_primary","tags":{"amenity":"school","name":"Internationella Engelska Skolan"}},"geometry":{"type":"Point","coordinates":[14.8172938,56.839205]}},{"type":"Feature","properties":{"id":12830009501,"osm_type":"node","name":"Elin Wägnerskolan","category":"school_primary","tags":{"addr:city":"Växjö","addr:housenumber":"50","addr:postcode":"352 36","addr:street":"Storgatan","amenity":"school","name":"Elin Wägnerskolan"}},"geometry":{"type":"Point","coordinates":[14.7931541,56.87923]}},{"type":"Feature","properties":{"id":12830171701,"osm_type":"node","name":"LBS Kreativa Gymnasiet","category":"school_primary","tags":{"addr:housenumber":"9","addr:street":"Regementsgatan","amenity":"school","name":"LBS Kreativa Gymnasiet"}},"geometry":{"type":"Point","coordinates":[14.7914644,56.8769356]}},{"type":"Feature","properties":{"id":13015497832,"osm_type":"node","name":"Öjaby skola","category":"school_primary","tags":{"addr:city":"Växjö","addr:housenumber":"84","addr:postcode":"352 50","addr:street":"Öjabyvägen","amenity":"school","name":"Öjaby skola"}},"geometry":{"type":"Point","coordinates":[14.7403746,56.9109608]}},{"type":"Feature","properties":{"id":13015497864,"osm_type":"node","name":"Söraby skola","category":"school_primary","tags":{"addr:city":"Rottne","addr:housenumber":"5","addr:postcode":"360 40","addr:street":"Smedsgårdsvägen","amenity":"school","name":"Söraby skola","source":"Bing"}},"geometry":{"type":"Point","coordinates":[14.8892587,57.0247916]}},{"type":"Feature","properties":{"id":13015497871,"osm_type":"node","name":"Vederslöv skola","category":"school_primary","tags":{"addr:city":"Vederslöv","addr:housenumber":"14","addr:postcode":"355 94","addr:street":"Kinnevadsvägen","amenity":"school","name":"Vederslöv skola"}},"geometry":{"type":"Point","coordinates":[14.7339401,56.7861479]}},{"type":"Feature","properties":{"id":13015517105,"osm_type":"node","name":"Ulriksbergskolan","category":"school_primary","tags":{"addr:city":"Växjö","addr:housenumber":"15","addr:postcode":"352 36","addr:street":"Ulriksbergspromenaden","amenity":"school","name":"Ulriksbergskolan"}},"geometry":{"type":"Point","coordinates":[14.7905642,56.8848376]}},{"type":"Feature","properties":{"id":13015517106,"osm_type":"node","name":"Tävelsås skola","category":"school_primary","tags":{"addr:city":"Tävelsås","addr:housenumber":"4a","addr:postcode":"355 95","addr:street":"Stjärnviksvägen","amenity":"school","name":"Tävelsås skola"}},"geometry":{"type":"Point","coordinates":[14.8264199,56.7750183]}},{"type":"Feature","properties":{"id":13015517107,"osm_type":"node","name":"Ringsbergskolan","category":"school_primary","tags":{"addr:city":"Växjö","addr:housenumber":"20","addr:postcode":"352 31","addr:street":"Västergatan","amenity":"school","name":"Ringsbergskolan"}},"geometry":{"type":"Point","coordinates":[14.8051178,56.883381]}},{"type":"Feature","properties":{"id":13015517108,"osm_type":"node","name":"Lillestadskolan","category":"school_primary","tags":{"addr:city":"Växjö","addr:housenumber":"54","addr:postcode":"352 43","addr:street":"Gamla Norrvägen","amenity":"school","name":"Lillestadskolan"}},"geometry":{"type":"Point","coordinates":[14.823021,56.8907571]}},{"type":"Feature","properties":{"id":13015517109,"osm_type":"node","name":"Kalvsvik skola","category":"school_primary","tags":{"addr:city":"Kalvsvik","addr:postcode":"355 96","addr:street":"Kalvsviks bygdegård","amenity":"school","name":"Kalvsvik skola"}},"geometry":{"type":"Point","coordinates":[14.7179,56.720718]}},{"type":"Feature","properties":{"id":13015517122,"osm_type":"node","name":"Högstorps skola","category":"school_primary","tags":{"addr:city":"Växjö","addr:housenumber":"147","addr:postcode":"352 42","addr:street":"Högstorpsvägen","amenity":"school","name":"Högstorps skola"}},"geometry":{"type":"Point","coordinates":[14.8511875,56.8771437]}},{"type":"Feature","properties":{"id":13131450820,"osm_type":"node","name":"Växjö Kulturskola","category":"school_primary","tags":{"addr:housenumber":"29","addr:street":"Kungsgatan","amenity":"school","name":"Växjö Kulturskola"}},"geometry":{"type":"Point","coordinates":[14.8078281,56.8829503]}},{"type":"Feature","properties":{"id":52467265,"osm_type":"way","name":"Hagavikskolan","category":"school_primary","tags":{"addr:city":"Växjö","addr:housenumber":"15","addr:postcode":"351 12","addr:street":"Björnvägen","amenity":"school","grades":"7-9","name":"Hagavikskolan","website":"https://www.vaxjo.se/sidor/forskola-och-skola/skola-6---16-ar/grundskolor/skolor-g-k/hagavikskolan.html"}},"geometry":{"type":"Point","coordinates":[14.8228989,56.913866]}},{"type":"Feature","properties":{"id":58993924,"osm_type":"way","name":"Bäckaslövskolan","category":"school_primary","tags":{"addr:city":"Växjö","addr:housenumber":"9","addr:postcode":"352 35","addr:street":"Valhallagatan","amenity":"school","name":"Bäckaslövskolan"}},"geometry":{"type":"Point","coordinates":[14.7945942,56.8740125]}},{"type":"Feature","properties":{"id":59563634,"osm_type":"way","name":"","category":"school_primary","tags":{"amenity":"school"}},"geometry":{"type":"Point","coordinates":[14.7929209,56.8770711]}},{"type":"Feature","properties":{"id":102349202,"osm_type":"way","name":"Fagrabäckskolan","category":"school_primary","tags":{"addr:city":"Växjö","addr:housenumber":"70","addr:postcode":"352 42","addr:street":"Österleden","amenity":"school","building":"yes","name":"Fagrabäckskolan"}},"geometry":{"type":"Point","coordinates":[14.8303624,56.8814103]}},{"type":"Feature","properties":{"id":103437974,"osm_type":"way","name":"Östregårdskolan","category":"school_primary","tags":{"addr:city":"Växjö","addr:housenumber":"2","addr:postcode":"352 40","addr:street":"Brunnsvägen","amenity":"school","name":"Östregårdskolan"}},"geometry":{"type":"Point","coordinates":[14.8186589,56.8745808]}},{"type":"Feature","properties":{"id":103465952,"osm_type":"way","name":"Lexicon","category":"school_primary","tags":{"amenity":"school","building":"yes","name":"Lexicon"}},"geometry":{"type":"Point","coordinates":[14.7736003,56.8932235]}},{"type":"Feature","properties":{"id":103476448,"osm_type":"way","name":"Katedralskolan","category":"school_primary","tags":{"addr:city":"Växjö","addr:housenumber":"1","addr:postcode":"352 39","addr:street":"Samuel Ödmanns väg","amenity":"school","name":"Katedralskolan","wikidata":"Q6375893"}},"geometry":{"type":"Point","coordinates":[14.8203876,56.8815163]}},{"type":"Feature","properties":{"id":171787130,"osm_type":"way","name":"Åby skola","category":"school_primary","tags":{"addr:city":"Tjureda","addr:housenumber":"18","addr:postcode":"363 34","addr:street":"Borgavägen","amenity":"school","name":"Åby skola","website":"https://www.vaxjo.se/sidor/forskola-och-skola/skola-6-16-ar/grundskolor/skolor-v-o/aby-skola.html"}},"geometry":{"type":"Point","coordinates":[14.7756029,57.0237567]}},{"type":"Feature","properties":{"id":171789419,"osm_type":"way","name":"Ör skola","category":"school_primary","tags":{"addr:city":"Ör","addr:postcode":"342 64","addr:street":"Örtagården","amenity":"school","building":"yes","name":"Ör skola","source":"Bing"}},"geometry":{"type":"Point","coordinates":[14.6740582,56.9950496]}},{"type":"Feature","properties":{"id":180959122,"osm_type":"way","name":"Furutåskolan","category":"school_primary","tags":{"addr:city":"Växjö","addr:housenumber":"49","addr:postcode":"352 54","addr:street":"Furutåvägen","amenity":"school","name":"Furutåskolan"}},"geometry":{"type":"Point","coordinates":[14.8074405,56.8539555]}},{"type":"Feature","properties":{"id":221654526,"osm_type":"way","name":"Gustavslundskolan","category":"school_primary","tags":{"addr:city":"Växjö","addr:country":"SE","addr:housenumber":"6","addr:postcode":"352 62","addr:street":"Paradvägen","amenity":"school","name":"Gustavslundskolan"}},"geometry":{"type":"Point","coordinates":[14.7921594,56.9153464]}},{"type":"Feature","properties":{"id":222562806,"osm_type":"way","name":"Hovshagaskolan","category":"school_primary","tags":{"addr:city":"Växjö","addr:housenumber":"16","addr:postcode":"352 66","addr:street":"Påskvägen","amenity":"school","name":"Hovshagaskolan"}},"geometry":{"type":"Point","coordinates":[14.7907649,56.9071139]}},{"type":"Feature","properties":{"id":224923090,"osm_type":"way","name":"Växjö Islamiska Skola","category":"school_primary","tags":{"addr:city":"Växjö","addr:country":"SE","addr:housenumber":"7","addr:street":"Segerstadsvägen","amenity":"school","name":"Växjö Islamiska Skola"}},"geometry":{"type":"Point","coordinates":[14.7986791,56.9059808]}},{"type":"Feature","properties":{"id":276500065,"osm_type":"way","name":"","category":"school_primary","tags":{"amenity":"school"}},"geometry":{"type":"Point","coordinates":[14.7822625,56.8785398]}},{"type":"Feature","properties":{"id":328269157,"osm_type":"way","name":"Växjö Internationella Grundskola","category":"school_primary","tags":{"addr:city":"Växjö","addr:country":"SE","addr:housenumber":"8","addr:postcode":"35245","addr:street":"Norremarksvägen","amenity":"school","name":"Växjö Internationella Grundskola","website":"https://www.vigs.se/"}},"geometry":{"type":"Point","coordinates":[14.8303463,56.9010168]}},{"type":"Feature","properties":{"id":577700588,"osm_type":"way","name":"Kungsmadskolan","category":"school_primary","tags":{"addr:city":"Växjö","addr:housenumber":"21T","addr:postcode":"352 33","addr:street":"Sandsbrovägen","amenity":"school","name":"Kungsmadskolan","wikidata":"Q10550352"}},"geometry":{"type":"Point","coordinates":[14.8115246,56.8851895]}},{"type":"Feature","properties":{"id":583367473,"osm_type":"way","name":"Östra Lugnets skola","category":"school_primary","tags":{"addr:city":"Växjö","addr:housenumber":"1","addr:postcode":"352 64","addr:street":"Saturnusvägen","amenity":"school","name":"Östra Lugnets skola"}},"geometry":{"type":"Point","coordinates":[14.8147487,56.9138002]}},{"type":"Feature","properties":{"id":603530346,"osm_type":"way","name":"Pär Lagerkvistskolan","category":"school_primary","tags":{"addr:city":"Växjö","addr:postcode":"352 58","addr:street":"Bredviksvägen","amenity":"school","name":"Pär Lagerkvistskolan","operator":"Växjö kommun"}},"geometry":{"type":"Point","coordinates":[14.7452912,56.8766688]}},{"type":"Feature","properties":{"id":777732379,"osm_type":"way","name":"","category":"school_primary","tags":{"amenity":"school"}},"geometry":{"type":"Point","coordinates":[14.9009478,56.7464557]}},{"type":"Feature","properties":{"id":954040300,"osm_type":"way","name":"VFG","category":"school_primary","tags":{"addr:postcode":"352 50","addr:street":"Pistolvägen","amenity":"school","education":"school","email":"info@vfg.se","name":"VFG","phone":"+46-47060119","website":"http://VFG.se"}},"geometry":{"type":"Point","coordinates":[14.7289251,56.9122751]}},{"type":"Feature","properties":{"id":7079225,"osm_type":"relation","name":"Torparskolan","category":"school_primary","tags":{"addr:city":"Växjö","addr:housenumber":"74","addr:postcode":"352 53","addr:street":"Skiftesvägen","amenity":"school","name":"Torparskolan","type":"multipolygon"}},"geometry":{"type":"Point","coordinates":[14.7971992,56.8420002]}},{"type":"Feature","properties":{"id":10784702,"osm_type":"relation","name":"Sandsbro skola","category":"school_primary","tags":{"addr:city":"Växjö","addr:housenumber":"29","addr:postcode":"352 72","addr:street":"Fyllerydsvägen","amenity":"school","name":"Sandsbro skola","type":"multipolygon"}},"geometry":{"type":"Point","coordinates":[14.8609907,56.9114294]}},{"type":"Feature","properties":{"id":12865768,"osm_type":"relation","name":"","category":"school_primary","tags":{"amenity":"school","type":"multipolygon"}},"geometry":{"type":"Point","coordinates":[14.8300749,56.8820072]}}]}