{"type":"FeatureCollection","features":[{"type":"Feature","properties":{"id":8731857894,"osm_type":"node","name":"Olympen Trainingscenter","category":"sports_centre","tags":{"leisure":"fitness_centre","name":"Olympen Trainingscenter","opening_hours":"Mo-Su 05:00-23:00"}},"geometry":{"type":"Point","coordinates":[14.8300234,56.8564388]}},{"type":"Feature","properties":{"id":9056454819,"osm_type":"node","name":"Tetraedern","category":"sports_centre","tags":{"leisure":"fitness_station","name":"Tetraedern","sport":"fitness"}},"geometry":{"type":"Point","coordinates":[14.8334223,56.8650889]}},{"type":"Feature","properties":{"id":9402181880,"osm_type":"node","name":"","category":"sports_centre","tags":{"leisure":"fitness_station","sport":"fitness"}},"geometry":{"type":"Point","coordinates":[14.8150365,56.8705589]}},{"type":"Feature","properties":{"id":9450577113,"osm_type":"node","name":"","category":"sports_centre","tags":{"leisure":"fitness_station","sport":"fitness","website":"https://www.naturkartan.se/sv/kronobergs-lan/utegym-tufvan","wikidata":"Q107451758"}},"geometry":{"type":"Point","coordinates":[14.8260128,56.8525492]}},{"type":"Feature","properties":{"id":9477178949,"osm_type":"node","name":"Nordic Wellness","category":"sports_centre","tags":{"addr:city":"Växjö","brand":"Nordic Wellness","email":"vaxjo.teleborg@nordicwellness.se","leisure":"fitness_centre","phone":"+46 10 155 52 18","sport":"fitness","website":"https://nordicwellness.se/vara-klubbar/vaxjo/vaxjo-teleborg/"}},"geometry":{"type":"Point","coordinates":[14.8203143,56.853107]}},{"type":"Feature","properties":{"id":9477178951,"osm_type":"node","name":"STC Teleborg","category":"sports_centre","tags":{"addr:city":"Växjö","addr:country":"SE","addr:housenumber":"1","addr:postcode":"35221","addr:street":"Skogsuddevägen","brand":"STC","leisure":"fitness_centre","name":"STC Teleborg","opening_hours":"Mo-Su 05:00-23:00","phone":"+46 10 457 82 09","sport":"fitness","website":"https://www.stc.se/klubbar/vaxjo-teleborg/"}},"geometry":{"type":"Point","coordinates":[14.8193626,56.8595905]}},{"type":"Feature","properties":{"id":10003176853,"osm_type":"node","name":"","category":"sports_centre","tags":{"leisure":"fitness_station","sport":"fitness","wikidata":"Q113753729"}},"geometry":{"type":"Point","coordinates":[14.9394086,57.0365713]}},{"type":"Feature","properties":{"id":10302010472,"osm_type":"node","name":"","category":"sports_centre","tags":{"leisure":"fitness_station","sport":"fitness","wikidata":"Q115978841"}},"geometry":{"type":"Point","coordinates":[14.775891,56.9123333]}},{"type":"Feature","properties":{"id":11631702149,"osm_type":"node","name":"Träningshuset Fitness 4U","category":"sports_centre","tags":{"leisure":"fitness_centre","name":"Träningshuset Fitness 4U","opening_hours":"Mo-Su 05:00-23:00","website":"https://www.fitness4u.se/"}},"geometry":{"type":"Point","coordinates":[14.9267284,56.7499684]}},{"type":"Feature","properties":{"id":12818824001,"osm_type":"node","name":"Nordic Wellness Norremark","category":"sports_centre","tags":{"leisure":"fitness_centre","name":"Nordic Wellness Norremark","opening_hours":"Mo-Su 09:00-23:00"}},"geometry":{"type":"Point","coordinates":[14.8339878,56.904489]}},{"type":"Feature","properties":{"id":12830009401,"osm_type":"node","name":"Dykcenter","category":"sports_centre","tags":{"email":"info@vaxjodyksport.com","leisure":"sports_centre","name":"Dykcenter"}},"geometry":{"type":"Point","coordinates":[14.7956707,56.8791071]}},{"type":"Feature","properties":{"id":12956092967,"osm_type":"node","name":"Scandinavian Training Center","category":"sports_centre","tags":{"leisure":"fitness_centre","name":"Scandinavian Training Center","opening_hours":"Mo-Su 05:00-23:00"}},"geometry":{"type":"Point","coordinates":[14.8049145,56.878311]}},{"type":"Feature","properties":{"id":13131501354,"osm_type":"node","name":"Griffel Arena","category":"sports_centre","tags":{"addr:housenumber":"13","addr:street":"Lineborgsplan","leisure":"sports_centre","name":"Griffel Arena"}},"geometry":{"type":"Point","coordinates":[14.8118339,56.8843104]}},{"type":"Feature","properties":{"id":13254034101,"osm_type":"node","name":"Fitness 24 Seven","category":"sports_centre","tags":{"leisure":"fitness_centre","name":"Fitness 24 Seven"}},"geometry":{"type":"Point","coordinates":[14.807636,56.8798995]}},{"type":"Feature","properties":{"id":13254034601,"osm_type":"node","name":"stc","category":"sports_centre","tags":{"leisure":"fitness_centre","name":"stc"}},"geometry":{"type":"Point","coordinates":[14.8034836,56.8762624]}},{"type":"Feature","properties":{"id":13254034701,"osm_type":"node","name":"Happy Societies","category":"sports_centre","tags":{"leisure":"fitness_centre","name":"Happy Societies"}},"geometry":{"type":"Point","coordinates":[14.8029333,56.8761058]}},{"type":"Feature","properties":{"id":59342743,"osm_type":"way","name":"Strandbjörkshallen","category":"sports_centre","tags":{"building":"yes","leisure":"sports_centre","name":"Strandbjörkshallen","sport":"basketball"}},"geometry":{"type":"Point","coordinates":[14.8028061,56.871288]}},{"type":"Feature","properties":{"id":99411823,"osm_type":"way","name":"","category":"sports_centre","tags":{"building":"sports_hall","leisure":"sports_hall","source":"Bing","sport":"ice_skating"}},"geometry":{"type":"Point","coordinates":[14.773791,57.0201871]}},{"type":"Feature","properties":{"id":102463026,"osm_type":"way","name":"","category":"sports_centre","tags":{"building":"yes","leisure":"sports_hall"}},"geometry":{"type":"Point","coordinates":[14.8207507,56.8821571]}},{"type":"Feature","properties":{"id":102463081,"osm_type":"way","name":"","category":"sports_centre","tags":{"building":"yes","leisure":"sports_hall"}},"geometry":{"type":"Point","coordinates":[14.8180125,56.8835747]}},{"type":"Feature","properties":{"id":103203079,"osm_type":"way","name":"Actic Växjö Simhall","category":"sports_centre","tags":{"building":"sports_hall","leisure":"sports_centre","name":"Actic Växjö Simhall","sport":"swimming","website":"https://www.actic.se/hitta-gym/gym-i-vaxjo/vaxjo-simhall/","wikidata":"Q125406650"}},"geometry":{"type":"Point","coordinates":[14.8159161,56.8725842]}},{"type":"Feature","properties":{"id":103460965,"osm_type":"way","name":"Idrottshuset i Växjö","category":"sports_centre","tags":{"addr:city":"Växjö","addr:country":"SE","addr:housenumber":"1","addr:postcode":"35246","addr:street":"Bollgatan","building":"yes","leisure":"sports_hall","name":"Idrottshuset i Växjö","opening_hours":"Mo-Th 10:00-20:00; Fr 10:00-19:00","website":"https://idrottshuset.se/"}},"geometry":{"type":"Point","coordinates":[14.7759904,56.881233]}},{"type":"Feature","properties":{"id":103460971,"osm_type":"way","name":"Växjö Ishall","category":"sports_centre","tags":{"building":"sports_hall","leisure":"ice_rink","name":"Växjö Ishall","seasonal":"no","sport":"multi"}},"geometry":{"type":"Point","coordinates":[14.7737656,56.8802041]}},{"type":"Feature","properties":{"id":103460978,"osm_type":"way","name":"Tipshallen","category":"sports_centre","tags":{"building":"yes","leisure":"sports_centre","name":"Tipshallen","sport":"multi"}},"geometry":{"type":"Point","coordinates":[14.774477,56.8812286]}},{"type":"Feature","properties":{"id":108499837,"osm_type":"way","name":"","category":"sports_centre","tags":{"building":"yes","leisure":"sports_centre","sport":"multi"}},"geometry":{"type":"Point","coordinates":[14.7730812,56.8812291]}},{"type":"Feature","properties":{"id":115931305,"osm_type":"way","name":"Teleborgshallen","category":"sports_centre","tags":{"building":"yes","leisure":"sports_centre","name":"Teleborgshallen"}},"geometry":{"type":"Point","coordinates":[14.8212433,56.849885]}},{"type":"Feature","properties":{"id":177912612,"osm_type":"way","name":"Södra Climate Arena","category":"sports_centre","tags":{"building":"yes","leisure":"sports_centre","name":"Södra Climate Arena","sport":"tennis"}},"geometry":{"type":"Point","coordinates":[14.8181847,56.861002]}},{"type":"Feature","properties":{"id":224902348,"osm_type":"way","name":"Hagavallen","category":"sports_centre","tags":{"leisure":"sports_centre","name":"Hagavallen","sport":"soccer"}},"geometry":{"type":"Point","coordinates":[14.7916957,56.9173119]}},{"type":"Feature","properties":{"id":231456522,"osm_type":"way","name":"VIDA Arena","category":"sports_centre","tags":{"building":"yes","leisure":"sports_centre","name":"VIDA Arena","sport":"hockey","wheelchair":"yes","wikidata":"Q1629803"}},"geometry":{"type":"Point","coordinates":[14.7727664,56.8796556]}},{"type":"Feature","properties":{"id":400053015,"osm_type":"way","name":"","category":"sports_centre","tags":{"building":"yes","leisure":"sports_centre"}},"geometry":{"type":"Point","coordinates":[14.8904924,57.0247488]}},{"type":"Feature","properties":{"id":400424484,"osm_type":"way","name":"Vidingeskans","category":"sports_centre","tags":{"leisure":"sports_centre","name":"Vidingeskans"}},"geometry":{"type":"Point","coordinates":[14.9007227,57.0229046]}},{"type":"Feature","properties":{"id":419082345,"osm_type":"way","name":"Idrottskliniken Norremark","category":"sports_centre","tags":{"addr:city":"Växjö","addr:country":"SE","addr:housenumber":"1","addr:postcode":"352 45","addr:street":"Grusåsvägen","building":"yes","leisure":"fitness_centre","name":"Idrottskliniken Norremark","website":"https://idrottskliniken.com/","wheelchair":"yes"}},"geometry":{"type":"Point","coordinates":[14.834371,56.9036466]}},{"type":"Feature","properties":{"id":1019403224,"osm_type":"way","name":"","category":"sports_centre","tags":{"leisure":"fitness_station","sport":"fitness"}},"geometry":{"type":"Point","coordinates":[14.8159307,56.8707592]}},{"type":"Feature","properties":{"id":1025585827,"osm_type":"way","name":"","category":"sports_centre","tags":{"building":"yes","leisure":"sports_hall"}},"geometry":{"type":"Point","coordinates":[14.8166211,56.8402159]}},{"type":"Feature","properties":{"id":1184242066,"osm_type":"way","name":"Ingelstad sporthall","category":"sports_centre","tags":{"building":"yes","leisure":"sports_hall","name":"Ingelstad sporthall"}},"geometry":{"type":"Point","coordinates":[14.9307566,56.7398266]}},{"type":"Feature","properties":{"id":1329946341,"osm_type":"way","name":"","category":"sports_centre","tags":{"access":"private","leisure":"swimming_pool"}},"geometry":{"type":"Point","coordinates":[14.8609259,56.9064643]}},{"type":"Feature","properties":{"id":1329946362,"osm_type":"way","name":"","category":"sports_centre","tags":{"access":"private","leisure":"swimming_pool"}},"geometry":{"type":"Point","coordinates":[14.8622412,56.9065444]}},{"type":"Feature","properties":{"id":1329946420,"osm_type":"way","name":"","category":"sports_centre","tags":{"access":"private","leisure":"swimming_pool"}},"geometry":{"type":"Point","coordinates":[14.8649508,56.9070565]}},{"type":"Feature","properties":{"id":1329946422,"osm_type":"way","name":"","category":"sports_centre","tags":{"access":"private","leisure":"swimming_pool"}},"geometry":{"type":"Point","coordinates":[14.8643156,56.9076832]}},{"type":"Feature","properties":{"id":1329946428,"osm_type":"way","name":"","category":"sports_centre","tags":{"access":"private","leisure":"swimming_pool"}},"geometry":{"type":"Point","coordinates":[14.8632228,56.9073625]}},{"type":"Feature","properties":{"id":1329946438,"osm_type":"way","name":"","category":"sports_centre","tags":{"access":"private","leisure":"swimming_pool"}},"geometry":{"type":"Point","coordinates":[14.8621234,56.9071339]}},{"type":"Feature","properties":{"id":1329946474,"osm_type":"way","name":"","category":"sports_centre","tags":{"access":"private","leisure":"swimming_pool"}},"geometry":{"type":"Point","coordinates":[14.8669483,56.9089805]}},{"type":"Feature","properties":{"id":1329946491,"osm_type":"way","name":"","category":"sports_centre","tags":{"access":"private","leisure":"swimming_pool"}},"geometry":{"type":"Point","coordinates":[14.8651592,56.9077103]}},{"type":"Feature","properties":{"id":1432083133,"osm_type":"way","name":"","category":"sports_centre","tags":{"leisure":"swimming_pool"}},"geometry":{"type":"Point","coordinates":[14.801138,56.9090099]}},{"type":"Feature","properties":{"id":10827765,"osm_type":"relation","name":"","category":"sports_centre","tags":{"leisure":"sports_centre","sport":"soccer","type":"multipolygon"}},"geometry":{"type":"Point","coordinates":[14.9025597,56.7525045]}},{"type":"Feature","properties":{"id":12865582,"osm_type":"relation","name":"","category":"sports_centre","tags":{"leisure":"sports_centre","sport":"soccer","type":"multipolygon"}},"geometry":{"type":"Point","coordinates":[14.7484158,56.8812376]}}]}