{"type":"FeatureCollection","features":[{"type":"Feature","properties":{"id":108499865,"osm_type":"way","name":"Nya Värendsvallen","category":"stadium","tags":{"leisure":"stadium","name":"Nya Värendsvallen","sport":"multi","wikidata":"Q501603"}},"geometry":{"type":"Point","coordinates":[14.7720639,56.881242]}},{"type":"Feature","properties":{"id":242047568,"osm_type":"way","name":"Fortnox Arena","category":"stadium","tags":{"building":"yes","leisure":"stadium","name":"Fortnox Arena","sport":"floorball","wikidata":"Q5472692"}},"geometry":{"type":"Point","coordinates":[14.7760407,56.8823023]}},{"type":"Feature","properties":{"id":242047569,"osm_type":"way","name":"Telekonsult Arena","category":"stadium","tags":{"building":"yes","leisure":"stadium","name":"Telekonsult Arena","phone":"+46 470 731000","roof:shape":"round","sport":"athletics","website":"https://telekonsultarena.se/","wikidata":"Q10692292","wikipedia":"sv:Telekonsult Arena"}},"geometry":{"type":"Point","coordinates":[14.7740166,56.8822172]}},{"type":"Feature","properties":{"id":3272129,"osm_type":"relation","name":"Spiris Arena","category":"stadium","tags":{"building":"yes","leisure":"stadium","name":"Spiris Arena","old_name":"Visma Arena","sport":"soccer","type":"multipolygon","wikidata":"Q1583034"}},"geometry":{"type":"Point","coordinates":[14.7768372,56.8800886]}}]}