{"type":"FeatureCollection","features":[{"type":"Feature","properties":{"id":1000792668,"osm_type":"node","name":"Växjö Konserthus","category":"theatre","tags":{"addr:city":"Växjö","addr:country":"SE","addr:housenumber":"10-14","addr:postcode":"35231","addr:street":"Västra Esplanaden","amenity":"theatre","name":"Växjö Konserthus","website":"https://www.vaxjokonserthus.se/","wheelchair":"yes"}},"geometry":{"type":"Point","coordinates":[14.8030164,56.8804017]}},{"type":"Feature","properties":{"id":1000792670,"osm_type":"node","name":"Växjö Teater","category":"theatre","tags":{"amenity":"theatre","check_date":"2025-08-19","name":"Växjö Teater","wikidata":"Q10718567"}},"geometry":{"type":"Point","coordinates":[14.803483,56.8798608]}},{"type":"Feature","properties":{"id":1000792946,"osm_type":"node","name":"Filmstaden","category":"theatre","tags":{"addr:city":"Växjö","addr:country":"SE","addr:housenumber":"10","addr:street":"Oxtorget","amenity":"cinema","name":"Filmstaden","website":"http://www.sf.se","wheelchair":"yes","wikidata":"Q106574566"}},"geometry":{"type":"Point","coordinates":[14.7979276,56.8788934]}},{"type":"Feature","properties":{"id":11053581281,"osm_type":"node","name":"Palladium","category":"theatre","tags":{"amenity":"cinema","check_date":"2023-07-18","name":"Palladium","wikidata":"Q78612151"}},"geometry":{"type":"Point","coordinates":[14.8067469,56.8788072]}},{"type":"Feature","properties":{"id":11631769097,"osm_type":"node","name":"Risingegården","category":"theatre","tags":{"amenity":"events_venue","name":"Risingegården"}},"geometry":{"type":"Point","coordinates":[14.9095656,56.7417436]}}]}