{"type":"FeatureCollection","features":[{"type":"Feature","properties":{"id":102893123,"osm_type":"way","name":"Evidensia Djursjukhuset Växjö","category":"veterinary","tags":{"addr:city":"Växjö","addr:country":"SE","addr:housenumber":"2","addr:postcode":"352 45","addr:street":"Renvägen","amenity":"veterinary","building":"yes","name":"Evidensia Djursjukhuset Växjö","opening_hours":"Mo-Fr 07:30-21:30; Sa-Su 10:00-21:30","operator":"Evidensia Djursjukvård AB","phone":"+46 470 719050","website":"https://evidensia.se/djursjukhuset-vaxjo","wheelchair":"yes"}},"geometry":{"type":"Point","coordinates":[14.8205852,56.906768]}}]}