{"type":"FeatureCollection","features":[{"type":"Feature","properties":{"id":1770252341,"osm_type":"node","name":"Nya Älvsborgs fästning","category":"castle","tags":{"alt_name":"Nya Älvsborg","castle_type":"fortress","historic":"castle","name":"Nya Älvsborgs fästning","name:en":"Alvsborg Fortress","old_name":"Nya Elfsborg","seamark:fortified_structure:category":"fort","seamark:type":"fortified_structure","tourism":"yes","wikidata":"Q1481707","wikipedia":"sv:Nya Älvsborg"}},"geometry":{"type":"Point","coordinates":[11.8385472,57.6854256]}},{"type":"Feature","properties":{"id":26605531,"osm_type":"way","name":"Oscar II:s fort","category":"castle","tags":{"barrier":"city_wall","historic":"fort","name":"Oscar II:s fort","tourism":"yes","website":"http://www.o2fort.se/","wikidata":"Q10725744","wikipedia":"sv:Älvsborgs fästning"}},"geometry":{"type":"Point","coordinates":[11.8520699,57.6747848]}},{"type":"Feature","properties":{"id":28805433,"osm_type":"way","name":"Ragnhildsholmen","category":"castle","tags":{"access":"yes","castle_type":"fortress","historic":"castle","historic:civilization":"middle-ages","name":"Ragnhildsholmen","old_name":"Ragnildarholm","ruins:building":"castle","tourism":"attraction","wikidata":"Q4994584","wikipedia":"sv:Ragnhildsholmen"}},"geometry":{"type":"Point","coordinates":[11.939687,57.8451188]}},{"type":"Feature","properties":{"id":84617679,"osm_type":"way","name":"Stora Katrinelund","category":"castle","tags":{"building":"yes","castle_type":"manor","historic":"castle","name":"Stora Katrinelund","wikidata":"Q10681032","wikipedia":"sv:Stora Katrinelund"}},"geometry":{"type":"Point","coordinates":[11.9880737,57.7041679]}},{"type":"Feature","properties":{"id":87342890,"osm_type":"way","name":"","category":"castle","tags":{"addr:country":"SE","addr:housenumber":"60","addr:street":"Växthusvägen","building":"yes","castle_type":"manor","historic":"castle","old_name":"Hildedals herrgård","operator":"Higab","source":"Bing","start_date":"1919"}},"geometry":{"type":"Point","coordinates":[11.9411279,57.733644]}},{"type":"Feature","properties":{"id":89100858,"osm_type":"way","name":"Gunnebo slott","category":"castle","tags":{"building":"yes","castle_type":"manor","historic":"castle","name":"Gunnebo slott","tourism":"yes","website":"https://www.gunneboslott.se/","wikidata":"Q2094403","wikipedia":"sv:Gunnebo slott"}},"geometry":{"type":"Point","coordinates":[12.0583921,57.6579445]}},{"type":"Feature","properties":{"id":133263672,"osm_type":"way","name":"Stora Torp","category":"castle","tags":{"building":"yes","castle_type":"manor","historic":"castle","name":"Stora Torp","wikidata":"Q10681125","wikipedia":"sv:Stora Torp"}},"geometry":{"type":"Point","coordinates":[12.0192925,57.6990759]}},{"type":"Feature","properties":{"id":150412730,"osm_type":"way","name":"Partille herrgård","category":"castle","tags":{"building":"yes","building:colour":"#6e6e6c","building:levels":"3","building:material":"brick","castle_type":"manor","historic":"castle","name":"Partille herrgård","roof:colour":"brown","roof:levels":"1","roof:material":"roof_tiles","roof:shape":"hipped","wikidata":"Q10621387","wikipedia":"sv:Partille herrgård"}},"geometry":{"type":"Point","coordinates":[12.1025033,57.7383897]}},{"type":"Feature","properties":{"id":204531963,"osm_type":"way","name":"Pixbo herrgård","category":"castle","tags":{"addr:country":"SE","addr:housenumber":"33","addr:street":"Herrgårdsvägen","building":"yes","castle_type":"manor","historic":"castle","name":"Pixbo herrgård"}},"geometry":{"type":"Point","coordinates":[12.0774862,57.6502611]}},{"type":"Feature","properties":{"id":205028163,"osm_type":"way","name":"Stora Gårda","category":"castle","tags":{"addr:city":"Göteborg","addr:country":"SE","addr:housename":"Stora Gårda","addr:housenumber":"9","addr:street":"Egmontsgatan","building":"yes","castle_type":"manor","heritage":"yes","historic":"castle","name":"Stora Gårda","wikidata":"Q17154077","wikipedia":"sv:Stora Gårda"}},"geometry":{"type":"Point","coordinates":[12.0070554,57.6982747]}},{"type":"Feature","properties":{"id":272383841,"osm_type":"way","name":"Billdals gård","category":"castle","tags":{"addr:country":"SE","addr:housenumber":"50","addr:street":"Billdals Allé","building":"yes","castle_type":"manor","historic":"castle","name":"Billdals gård","official_name":"Billdals herrgård","wikidata":"Q10429613","wikipedia":"sv:Billdals gård"}},"geometry":{"type":"Point","coordinates":[11.945406,57.5831407]}},{"type":"Feature","properties":{"id":824503950,"osm_type":"way","name":"Gamla Älvsborg","category":"castle","tags":{"access":"yes","castle_type":"fortress","check_date":"2024-06-09","fee":"no","historic":"castle","name":"Gamla Älvsborg","old_name":"Älvsborgs slott","opening_hours":"24/7","ruins:building":"castle","tourism":"yes","website":"https://www.elfsborgsfastning.se/gamla-elfsborg","wikidata":"Q372141","wikipedia":"sv:Älvsborg"}},"geometry":{"type":"Point","coordinates":[11.9071418,57.6898384]}},{"type":"Feature","properties":{"id":1206478078,"osm_type":"way","name":"Bohus fästning","category":"castle","tags":{"castle_type":"fortress","facebook":"https://www.facebook.com/bohusfastning/","historic":"castle","image":"https://photos.app.goo.gl/fYbEYq6sHqbiCYhGA","name":"Bohus fästning","ruins":"yes","tourism":"attraction","url":"https://youtu.be/KwcVGiErAps","wall":"castle_wall","website":"https://www.bohusfastning.com/","wikidata":"Q1408860","wikipedia":"sv:Bohus fästning"}},"geometry":{"type":"Point","coordinates":[11.9998599,57.8617598]}}]}