{"type":"FeatureCollection","features":[{"type":"Feature","properties":{"id":5107252,"osm_type":"way","name":"Djurgårdskyrkogården","category":"cemetery","tags":{"denomination":"lutheran","landuse":"cemetery","name":"Djurgårdskyrkogården","religion":"christian","wikidata":"Q10474951"}},"geometry":{"type":"Point","coordinates":[11.9365043,57.6927982]}},{"type":"Feature","properties":{"id":15068104,"osm_type":"way","name":"Tåns kyrkogård","category":"cemetery","tags":{"denomination":"lutheran","landuse":"cemetery","name":"Tåns kyrkogård","religion":"christian","wikidata":"Q10708118","wikipedia":"sv:Tåns kyrkogård"}},"geometry":{"type":"Point","coordinates":[12.0061476,57.7103994]}},{"type":"Feature","properties":{"id":15801394,"osm_type":"way","name":"Örgryte nya kyrkogård","category":"cemetery","tags":{"denomination":"lutheran","landuse":"cemetery","name":"Örgryte nya kyrkogård","operator":"Svenska kyrkan","religion":"christian","wikidata":"Q10727567"}},"geometry":{"type":"Point","coordinates":[12.0103879,57.7093268]}},{"type":"Feature","properties":{"id":27017870,"osm_type":"way","name":"Lundby nya kyrkogård","category":"cemetery","tags":{"amenity":"grave_yard","denomination":"lutheran","name":"Lundby nya kyrkogård","religion":"christian","wikidata":"Q115304138"}},"geometry":{"type":"Point","coordinates":[11.9132117,57.7076639]}},{"type":"Feature","properties":{"id":30301057,"osm_type":"way","name":"Partille kyrkogård","category":"cemetery","tags":{"amenity":"grave_yard","denomination":"lutheran","name":"Partille kyrkogård","religion":"christian","wikidata":"Q115304432"}},"geometry":{"type":"Point","coordinates":[12.1045866,57.7396179]}},{"type":"Feature","properties":{"id":49184333,"osm_type":"way","name":"Askims norra kyrkogård","category":"cemetery","tags":{"amenity":"grave_yard","denomination":"lutheran","name":"Askims norra kyrkogård","religion":"christian"}},"geometry":{"type":"Point","coordinates":[11.9390647,57.6361352]}},{"type":"Feature","properties":{"id":49801736,"osm_type":"way","name":"Frölunda kyrkogård","category":"cemetery","tags":{"denomination":"lutheran","landuse":"cemetery","name":"Frölunda kyrkogård","religion":"christian"}},"geometry":{"type":"Point","coordinates":[11.9381345,57.6478197]}},{"type":"Feature","properties":{"id":90766798,"osm_type":"way","name":"Askims södra kyrkogård","category":"cemetery","tags":{"amenity":"grave_yard","denomination":"lutheran","name":"Askims södra kyrkogård","religion":"christian","wikidata":"Q115304131"}},"geometry":{"type":"Point","coordinates":[11.9414748,57.6162086]}},{"type":"Feature","properties":{"id":94518917,"osm_type":"way","name":"Backa nya kyrkogård","category":"cemetery","tags":{"denomination":"lutheran","landuse":"cemetery","name":"Backa nya kyrkogård","religion":"christian"}},"geometry":{"type":"Point","coordinates":[11.9773576,57.7436135]}},{"type":"Feature","properties":{"id":132087658,"osm_type":"way","name":"Örgryte gamla kyrkogård","category":"cemetery","tags":{"amenity":"grave_yard","denomination":"lutheran","name":"Örgryte gamla kyrkogård","religion":"christian","wikidata":"Q10727563"}},"geometry":{"type":"Point","coordinates":[11.9974331,57.6985718]}},{"type":"Feature","properties":{"id":182971939,"osm_type":"way","name":"Nya Mosaiska begravningsplatsen","category":"cemetery","tags":{"landuse":"cemetery","loc_name":"Judiska begravningsplatsen","name":"Nya Mosaiska begravningsplatsen","religion":"jewish"}},"geometry":{"type":"Point","coordinates":[12.0181326,57.712444]}},{"type":"Feature","properties":{"id":241704948,"osm_type":"way","name":"Lindome kyrkogård","category":"cemetery","tags":{"amenity":"grave_yard","denomination":"lutheran","name":"Lindome kyrkogård","religion":"christian","wikidata":"Q115304350"}},"geometry":{"type":"Point","coordinates":[12.1092069,57.578085]}},{"type":"Feature","properties":{"id":256019497,"osm_type":"way","name":"Sankt Halvards kyrkogård","category":"cemetery","tags":{"denomination":"lutheran","landuse":"cemetery","name":"Sankt Halvards kyrkogård","religion":"christian","short_name":"St Halvards kyrkogård"}},"geometry":{"type":"Point","coordinates":[11.9124909,57.8489733]}},{"type":"Feature","properties":{"id":277978470,"osm_type":"way","name":"Ytterby kyrkogård","category":"cemetery","tags":{"amenity":"grave_yard","denomination":"lutheran","name":"Ytterby kyrkogård","religion":"christian"}},"geometry":{"type":"Point","coordinates":[11.9200201,57.8616522]}},{"type":"Feature","properties":{"id":279349643,"osm_type":"way","name":"Angereds gamla kyrkogård","category":"cemetery","tags":{"amenity":"grave_yard","denomination":"lutheran","name":"Angereds gamla kyrkogård","religion":"christian","source":"bing","wikidata":"Q115192515"}},"geometry":{"type":"Point","coordinates":[12.1011905,57.7866329]}},{"type":"Feature","properties":{"id":311471626,"osm_type":"way","name":"Surte kyrkogård","category":"cemetery","tags":{"contact:website":"http://www.gravar.se/forsamling/nodinge-forsamling/surte-kyrkogard","denomination":"lutheran","landuse":"cemetery","name":"Surte kyrkogård","religion":"christian","wikidata":"Q115304383"}},"geometry":{"type":"Point","coordinates":[12.0191423,57.83302]}},{"type":"Feature","properties":{"id":428180146,"osm_type":"way","name":"Rödbo kyrkogård","category":"cemetery","tags":{"amenity":"grave_yard","denomination":"lutheran","name":"Rödbo kyrkogård","religion":"christian","wikidata":"Q115304140"}},"geometry":{"type":"Point","coordinates":[11.9946887,57.8564265]}},{"type":"Feature","properties":{"id":496498578,"osm_type":"way","name":"Hospitalskyrkogården","category":"cemetery","tags":{"fixme":"här handlar det sig väl om en tidigare - historic - begravningsplats?","landuse":"cemetery","name":"Hospitalskyrkogården"}},"geometry":{"type":"Point","coordinates":[12.0053453,57.7385286]}},{"type":"Feature","properties":{"id":596846433,"osm_type":"way","name":"Säve kyrkogård","category":"cemetery","tags":{"amenity":"grave_yard","denomination":"lutheran","name":"Säve kyrkogård","religion":"christian","wikidata":"Q115304143"}},"geometry":{"type":"Point","coordinates":[11.9186527,57.8027447]}},{"type":"Feature","properties":{"id":793646296,"osm_type":"way","name":"Harestad kyrkogård","category":"cemetery","tags":{"amenity":"grave_yard","denomination":"lutheran","name":"Harestad kyrkogård","religion":"christian"}},"geometry":{"type":"Point","coordinates":[11.8376975,57.8174294]}},{"type":"Feature","properties":{"id":826526606,"osm_type":"way","name":"","category":"cemetery","tags":{"fixme":"här handlar det sig väl om en tidigare - historic - begravningsplats?","landuse":"cemetery"}},"geometry":{"type":"Point","coordinates":[11.9786288,57.7541859]}},{"type":"Feature","properties":{"id":966756024,"osm_type":"way","name":"Livereds begravningsplats","category":"cemetery","tags":{"landuse":"cemetery","name":"Livereds begravningsplats","religion":"multifaith"}},"geometry":{"type":"Point","coordinates":[12.0620623,57.6038282]}},{"type":"Feature","properties":{"id":1219977833,"osm_type":"way","name":"Sankt Jörgens kyrkogård","category":"cemetery","tags":{"amenity":"grave_yard","name":"Sankt Jörgens kyrkogård"}},"geometry":{"type":"Point","coordinates":[11.9577426,57.7476334]}},{"type":"Feature","properties":{"id":1352418099,"osm_type":"way","name":"Bräcke kyrkogård","category":"cemetery","tags":{"landuse":"cemetery","name":"Bräcke kyrkogård","old_name":"Kolerakyrkogården"}},"geometry":{"type":"Point","coordinates":[11.900828,57.7034096]}},{"type":"Feature","properties":{"id":10290650,"osm_type":"relation","name":"Gunnareds kyrkogård","category":"cemetery","tags":{"denomination":"lutheran","landuse":"cemetery","name":"Gunnareds kyrkogård","religion":"christian","type":"multipolygon"}},"geometry":{"type":"Point","coordinates":[12.0471572,57.8011691]}},{"type":"Feature","properties":{"id":10300309,"osm_type":"relation","name":"Björlanda kyrkogård","category":"cemetery","tags":{"amenity":"grave_yard","denomination":"lutheran","name":"Björlanda kyrkogård","religion":"christian","type":"multipolygon"}},"geometry":{"type":"Point","coordinates":[11.8250933,57.761934]}},{"type":"Feature","properties":{"id":10422471,"osm_type":"relation","name":"Fridhem kyrkogård","category":"cemetery","tags":{"denomination":"lutheran","landuse":"cemetery","name":"Fridhem kyrkogård","religion":"christian","type":"multipolygon","wikidata":"Q10499026","wikipedia":"sv:Fridhems kyrkogård"}},"geometry":{"type":"Point","coordinates":[11.977906,57.7652775]}},{"type":"Feature","properties":{"id":10476129,"osm_type":"relation","name":"Västra kyrkogården","category":"cemetery","tags":{"denomination":"lutheran","landuse":"cemetery","name":"Västra kyrkogården","type":"multipolygon","wikidata":"Q10718436","wikipedia":"sv:Västra kyrkogården, Göteborg"}},"geometry":{"type":"Point","coordinates":[11.9166359,57.6798691]}},{"type":"Feature","properties":{"id":10601604,"osm_type":"relation","name":"Gamla Mosaiska begravningsplatsen","category":"cemetery","tags":{"alt_name":"Gamla Judiska begravningsplatsen","contact:website":"http://www.judiskaforsamlingen.se/gamla_begravningsplatsen.php","landuse":"cemetery","name":"Gamla Mosaiska begravningsplatsen","official_name":"Gamla Mosaiska begravningsplatsen vid Svingeln","religion":"jewish","type":"multipolygon","wikidata":"Q10502453","wikipedia":"sv:Gamla Mosaiska begravningsplatsen vid Svingeln"}},"geometry":{"type":"Point","coordinates":[11.9895059,57.7124666]}},{"type":"Feature","properties":{"id":10604531,"osm_type":"relation","name":"Kvibergs kyrkogård","category":"cemetery","tags":{"denomination":"lutheran","landuse":"cemetery","name":"Kvibergs kyrkogård","religion":"christian","type":"multipolygon","wikidata":"Q10551065"}},"geometry":{"type":"Point","coordinates":[12.0190298,57.7400111]}},{"type":"Feature","properties":{"id":10753983,"osm_type":"relation","name":"Fässbergs kyrkogård","category":"cemetery","tags":{"denomination":"lutheran","landuse":"cemetery","name":"Fässbergs kyrkogård","religion":"christian","type":"multipolygon","wikidata":"Q18290008"}},"geometry":{"type":"Point","coordinates":[11.9849207,57.654832]}},{"type":"Feature","properties":{"id":10760014,"osm_type":"relation","name":"Kikås kyrkogård","category":"cemetery","tags":{"denomination":"lutheran","landuse":"cemetery","name":"Kikås kyrkogård","religion":"christian","type":"multipolygon","wikidata":"Q30312933"}},"geometry":{"type":"Point","coordinates":[12.0480507,57.6498603]}},{"type":"Feature","properties":{"id":10972842,"osm_type":"relation","name":"Kållereds kyrkogård","category":"cemetery","tags":{"amenity":"grave_yard","denomination":"lutheran","name":"Kållereds kyrkogård","religion":"christian","type":"multipolygon"}},"geometry":{"type":"Point","coordinates":[12.0560628,57.6059157]}},{"type":"Feature","properties":{"id":11013969,"osm_type":"relation","name":"Råda kyrkogård","category":"cemetery","tags":{"amenity":"grave_yard","denomination":"lutheran","name":"Råda kyrkogård","religion":"christian","type":"multipolygon","wikidata":"Q119288065"}},"geometry":{"type":"Point","coordinates":[12.1050582,57.6602784]}},{"type":"Feature","properties":{"id":11014455,"osm_type":"relation","name":"Lundby gamla kyrkogård","category":"cemetery","tags":{"amenity":"grave_yard","denomination":"lutheran","name":"Lundby gamla kyrkogård","religion":"christian","type":"multipolygon","wikidata":"Q91465403"}},"geometry":{"type":"Point","coordinates":[11.914015,57.7132891]}},{"type":"Feature","properties":{"id":11302149,"osm_type":"relation","name":"Backa gamla kyrkogård","category":"cemetery","tags":{"amenity":"grave_yard","denomination":"lutheran","name":"Backa gamla kyrkogård","religion":"christian","type":"multipolygon"}},"geometry":{"type":"Point","coordinates":[11.9805982,57.7442083]}},{"type":"Feature","properties":{"id":11310202,"osm_type":"relation","name":"Tuve kyrkogård","category":"cemetery","tags":{"amenity":"grave_yard","denomination":"lutheran","name":"Tuve kyrkogård","religion":"christian","type":"multipolygon","wikidata":"Q115304148"}},"geometry":{"type":"Point","coordinates":[11.932939,57.7658988]}},{"type":"Feature","properties":{"id":11328268,"osm_type":"relation","name":"Billdals kyrkogård","category":"cemetery","tags":{"denomination":"lutheran","landuse":"cemetery","name":"Billdals kyrkogård","religion":"christian","type":"multipolygon","wikidata":"Q19977506"}},"geometry":{"type":"Point","coordinates":[11.9794887,57.5805832]}},{"type":"Feature","properties":{"id":11328275,"osm_type":"relation","name":"Muslimska begravingsplatsen","category":"cemetery","tags":{"landuse":"cemetery","name":"Muslimska begravingsplatsen","religion":"muslim","type":"multipolygon"}},"geometry":{"type":"Point","coordinates":[11.9731086,57.5850924]}},{"type":"Feature","properties":{"id":11328276,"osm_type":"relation","name":"Muslimska begravingsplatsen","category":"cemetery","tags":{"landuse":"cemetery","name":"Muslimska begravingsplatsen","religion":"muslim","type":"multipolygon"}},"geometry":{"type":"Point","coordinates":[11.9752964,57.5853448]}},{"type":"Feature","properties":{"id":11365417,"osm_type":"relation","name":"Nya Varvets kyrkogård","category":"cemetery","tags":{"denomination":"lutheran","landuse":"cemetery","name":"Nya Varvets kyrkogård","religion":"christian","type":"multipolygon","wikidata":"Q10604294","wikipedia":"sv:Nya Varvets kyrkogård"}},"geometry":{"type":"Point","coordinates":[11.8876611,57.6811077]}},{"type":"Feature","properties":{"id":13384458,"osm_type":"relation","name":"Mariebergs kyrkogård","category":"cemetery","tags":{"denomination":"lutheran","landuse":"cemetery","material":"stone","name":"Mariebergs kyrkogård","religion":"christian","type":"multipolygon","wikidata":"Q10577291"}},"geometry":{"type":"Point","coordinates":[11.9241055,57.6927958]}},{"type":"Feature","properties":{"id":15093548,"osm_type":"relation","name":"Östra kyrkogården","category":"cemetery","tags":{"denomination":"lutheran","landuse":"cemetery","name":"Östra kyrkogården","religion":"christian","type":"multipolygon","wikidata":"Q4354314","wikipedia":"sv:Östra kyrkogården, Göteborg"}},"geometry":{"type":"Point","coordinates":[12.0117065,57.7144976]}},{"type":"Feature","properties":{"id":15262441,"osm_type":"relation","name":"Partille södra griftegård","category":"cemetery","tags":{"denomination":"lutheran","landuse":"cemetery","name":"Partille södra griftegård","religion":"christian","type":"multipolygon"}},"geometry":{"type":"Point","coordinates":[12.1094241,57.7374203]}},{"type":"Feature","properties":{"id":16164347,"osm_type":"relation","name":"Stampens kyrkogård","category":"cemetery","tags":{"denomination":"lutheran","landuse":"cemetery","name":"Stampens kyrkogård","type":"multipolygon","wikidata":"Q10677505","wikipedia":"sv:Stampens kyrkogård"}},"geometry":{"type":"Point","coordinates":[11.9887923,57.7092872]}},{"type":"Feature","properties":{"id":17370749,"osm_type":"relation","name":"Angereds nya kyrkogård","category":"cemetery","tags":{"amenity":"grave_yard","denomination":"lutheran","name":"Angereds nya kyrkogård","religion":"christian","source":"bing","type":"multipolygon","wikidata":"Q115192498"}},"geometry":{"type":"Point","coordinates":[12.1018806,57.787809]}}]}