{"type":"FeatureCollection","features":[{"type":"Feature","properties":{"id":2698266043,"osm_type":"node","name":"Fixoteket Majorna","category":"community_centre","tags":{"amenity":"community_centre","name":"Fixoteket Majorna","opening_hours":"Th 16:30-19:00","operator":"Göteborgs Stad","operator:type":"government","operator:wikidata":"Q52502"}},"geometry":{"type":"Point","coordinates":[11.9160998,57.6904494]}},{"type":"Feature","properties":{"id":3185174975,"osm_type":"node","name":"","category":"community_centre","tags":{"amenity":"community_centre"}},"geometry":{"type":"Point","coordinates":[12.0522161,57.7280451]}},{"type":"Feature","properties":{"id":3385642736,"osm_type":"node","name":"Kulturlagret","category":"community_centre","tags":{"access":"yes","addr:city":"Göteborg","addr:country":"SE","addr:housenumber":"29","addr:postcode":"41462","addr:street":"Djurgårdsgatan","amenity":"community_centre","check_date":"2024-07-27","contact:facebook":"https://www.facebook.com/kulturlagretgbg","contact:instagram":"https://instagram.com/kulturlagretgbg?igshid=MzRlODBiNWFlZA==","name":"Kulturlagret","old_name":"Arena 29","operator":"Göteborgs Stad","operator:type":"government","operator:wikidata":"Q52502"}},"geometry":{"type":"Point","coordinates":[11.9324087,57.6964537]}},{"type":"Feature","properties":{"id":3837557658,"osm_type":"node","name":"Gustavigården","category":"community_centre","tags":{"addr:city":"Göteborg","addr:country":"SE","addr:housenumber":"28","addr:postcode":"41115","addr:street":"Kyrkogatan","amenity":"community_centre","capacity":"75","community_centre":"parish_hall","name":"Gustavigården","website":"https://www.svenskakyrkan.se/gbgdomkyrko/gustavigarden"}},"geometry":{"type":"Point","coordinates":[11.9653928,57.704896]}},{"type":"Feature","properties":{"id":4777647979,"osm_type":"node","name":"Göteborgs Haga församling","category":"community_centre","tags":{"amenity":"community_centre","community_centre":"parish_hall","contact:phone":"+46 31 731 61 60","contact:website":"https://www.svenskakyrkan.se/haga","denomination":"lutheran","name":"Göteborgs Haga församling","operator":"Svenska kyrkan","operator:type":"religious","operator:wikidata":"Q749243","parish":"Göteborgs Haga församling","religion":"christian"}},"geometry":{"type":"Point","coordinates":[11.9604628,57.6989849]}},{"type":"Feature","properties":{"id":4882272087,"osm_type":"node","name":"West Coast Jitterbugs","category":"community_centre","tags":{"amenity":"community_centre","leisure":"dance","name":"West Coast Jitterbugs","opening_hours:signed":"no","website":"https://www.wcj.se/"}},"geometry":{"type":"Point","coordinates":[11.9712072,57.6833247]}},{"type":"Feature","properties":{"id":5589834343,"osm_type":"node","name":"Norges Hus","category":"community_centre","tags":{"amenity":"community_centre","contact:email":"info@norgesus.se","contact:phone":"+46 31 16 13 68","contact:website":"http://norgeshus.se/","name":"Norges Hus","operator":"Den Norske Föreningen"}},"geometry":{"type":"Point","coordinates":[11.9861403,57.7027872]}},{"type":"Feature","properties":{"id":5867909447,"osm_type":"node","name":"Verket","category":"community_centre","tags":{"addr:city":"Göteborg","addr:housenumber":"1A","addr:postcode":"402 25","addr:street":"Lilla Stampgatan","amenity":"community_centre","community_centre:for":"multigeneration","contact:facebook":"https://www.facebook.com/verketgbg/","contact:phone":"+46 31 365 00 00","contact:website":"http://goteborg.se/wps/portal/enhetssida/verket","name":"Verket","operator":"Göteborgs Stad","operator:type":"public"}},"geometry":{"type":"Point","coordinates":[11.9863039,57.7078329]}},{"type":"Feature","properties":{"id":5893380159,"osm_type":"node","name":"Härlanda församlingshem","category":"community_centre","tags":{"amenity":"community_centre","community_centre":"parish_hall","denomination":"lutheran","name":"Härlanda församlingshem","operator":"Svenska kyrkan","operator:wikidata":"Q749243","parish":"Härlanda församling","religion":"christian"}},"geometry":{"type":"Point","coordinates":[12.0235901,57.7192305]}},{"type":"Feature","properties":{"id":5954454024,"osm_type":"node","name":"Mariaträffen","category":"community_centre","tags":{"amenity":"community_centre","community_centre:for":"multigeneration","contact:website":"http://goteborg.se/wps/portal/enhetssida/mariatraffen/om-mariatraffen","name":"Mariaträffen","operator":"Göteborgs Stad","operator:type":"government","operator:wikidata":"Q52502"}},"geometry":{"type":"Point","coordinates":[11.9199895,57.6859421]}},{"type":"Feature","properties":{"id":6071333832,"osm_type":"node","name":"Fixoteket Rannebergen","category":"community_centre","tags":{"amenity":"community_centre","name":"Fixoteket Rannebergen","operator":"Göteborgs Stad"}},"geometry":{"type":"Point","coordinates":[12.069601,57.8039724]}},{"type":"Feature","properties":{"id":6715882611,"osm_type":"node","name":"Högsbo Hobby","category":"community_centre","tags":{"amenity":"community_centre","club":"woodworking","community_centre":"club_home","contact:website":"http://högsbohobby.se","name":"Högsbo Hobby","operator":"Högsbo Hobbyförening"}},"geometry":{"type":"Point","coordinates":[11.9281375,57.6772032]}},{"type":"Feature","properties":{"id":7366723598,"osm_type":"node","name":"Seglaresalen","category":"community_centre","tags":{"access":"private","amenity":"community_centre","community_centre":"meeting_room","name":"Seglaresalen","operator":"HSB"}},"geometry":{"type":"Point","coordinates":[11.9198076,57.6900265]}},{"type":"Feature","properties":{"id":7511413587,"osm_type":"node","name":"Meeting Place Åby","category":"community_centre","tags":{"addr:city":"Mölndal","addr:country":"SE","addr:housenumber":"6","addr:postcode":"431 61","addr:street":"Katrinebergsgatan","amenity":"community_centre","community_centre:for":"juvenile","name":"Meeting Place Åby","name:sv":"Mötesplats Åby","opening_hours:covid19":"off","website":"https://www.molndal.se/startsida/uppleva-och-gora/ung-i-molndal/fritidsgardar/motesplats-aby.html","wheelchair":"yes"}},"geometry":{"type":"Point","coordinates":[12.014141,57.6495483]}},{"type":"Feature","properties":{"id":9104907555,"osm_type":"node","name":"Träffpunkt Krokslätt","category":"community_centre","tags":{"amenity":"community_centre","community_centre":"community_hall","community_centre:for":"senior","name":"Träffpunkt Krokslätt","official_name":"Miniträffpunkt Krokslätt","opening_hours":"We 10:00-12:00","operator":"Mölndals Stad"}},"geometry":{"type":"Point","coordinates":[12.0060117,57.6711203]}},{"type":"Feature","properties":{"id":9196068189,"osm_type":"node","name":"Turabdin Kulturförening","category":"community_centre","tags":{"amenity":"community_centre","community_centre":"cultural_centre","name":"Turabdin Kulturförening","opening_hours:signed":"no"}},"geometry":{"type":"Point","coordinates":[11.8903204,57.6468188]}},{"type":"Feature","properties":{"id":10285082659,"osm_type":"node","name":"Fritidsgården Axel","category":"community_centre","tags":{"amenity":"community_centre","community_centre":"youth_centre","name":"Fritidsgården Axel","operator":"Göteborgs Stad","operator:type":"public","website":"https://goteborg.se/wps/portal/enhetssida/fritidsklubben-axel"}},"geometry":{"type":"Point","coordinates":[11.9265014,57.67097]}},{"type":"Feature","properties":{"id":10291569503,"osm_type":"node","name":"Somaliska Kultur Center","category":"community_centre","tags":{"addr:city":"Angered","addr:country":"SE","addr:housenumber":"42","addr:postcode":"424 35","addr:street":"Bredfjällsgatan","amenity":"community_centre","community_centre":"cultural_centre","name":"Somaliska Kultur Center","opening_hours":"Sa-Su 09:00-17:00","phone":"+46 46728720025","website":"http://www.somaliskakcenter.se/"}},"geometry":{"type":"Point","coordinates":[12.0326206,57.7790367]}},{"type":"Feature","properties":{"id":10544185438,"osm_type":"node","name":"Båtsmansgården","category":"community_centre","tags":{"amenity":"community_centre","community_centre":"meeting_room","name":"Båtsmansgården","operator":"Hyresgästföreningen"}},"geometry":{"type":"Point","coordinates":[11.9188692,57.6656451]}},{"type":"Feature","properties":{"id":10568701007,"osm_type":"node","name":"Studiefrämjandets verksamhetshus","category":"community_centre","tags":{"amenity":"community_centre","name":"Studiefrämjandets verksamhetshus"}},"geometry":{"type":"Point","coordinates":[11.9431083,57.66553]}},{"type":"Feature","properties":{"id":10824136965,"osm_type":"node","name":"","category":"community_centre","tags":{"amenity":"community_centre","check_date":"2024-08-28","operator":"Göteborgs Stad","operator:type":"public","wheelchair":"yes"}},"geometry":{"type":"Point","coordinates":[11.9740146,57.7316097]}},{"type":"Feature","properties":{"id":11014010426,"osm_type":"node","name":"Draken Live","category":"community_centre","tags":{"addr:city":"Göteborg","addr:country":"SE","addr:housenumber":"15","addr:postcode":"41301","addr:street":"Heurlins Plats","amenity":"community_centre","name":"Draken Live","website":"https://drakenlive.se/"}},"geometry":{"type":"Point","coordinates":[11.9536192,57.7009197]}},{"type":"Feature","properties":{"id":11215426756,"osm_type":"node","name":"Eco Agroforestry Center","category":"community_centre","tags":{"amenity":"community_centre","contact:facebook":"https://www.facebook.com/eaclinnarhult/","name":"Eco Agroforestry Center"}},"geometry":{"type":"Point","coordinates":[12.067926,57.7761275]}},{"type":"Feature","properties":{"id":11215848637,"osm_type":"node","name":"Kulturhus Kviberg","category":"community_centre","tags":{"amenity":"community_centre","check_date:opening_hours":"2024-07-29","internet_access":"no","name":"Kulturhus Kviberg","opening_hours:signed":"no"}},"geometry":{"type":"Point","coordinates":[12.0314802,57.7378163]}},{"type":"Feature","properties":{"id":11968396216,"osm_type":"node","name":"Mötesplats Vintergatan 1","category":"community_centre","tags":{"addr:housenumber":"1A","addr:street":"Vintergatan","air_conditioning":"yes","amenity":"community_centre","check_date":"2024-06-10","email":"vintergatan@socialhisingen.goteborg.se","name":"Mötesplats Vintergatan 1","operator:type":"public","phone":"+46 31 365 00 00","polling_station":"yes","website":"https://goteborg.se/wps/portal/enhetssida/motesplats-vintergatan-1"}},"geometry":{"type":"Point","coordinates":[11.9277057,57.7096876]}},{"type":"Feature","properties":{"id":12800395696,"osm_type":"node","name":"Annedalsgården","category":"community_centre","tags":{"amenity":"community_centre","contact:website":"http://goteborg.se/wps/portal?uri=gbglnk:enheter&id=3271","fixme":"Survey! Annedalsgården som community_centre verkar inte finnas längre. Med namnet Annedalsgården refereras till själva byggnaden.","name":"Annedalsgården","operator":"Göteborgs Stad","operator:type":"government","operator:wikidata":"Q52502"}},"geometry":{"type":"Point","coordinates":[11.9604461,57.6907605]}},{"type":"Feature","properties":{"id":13317898911,"osm_type":"node","name":"Familjecentralen Fyrklövern","category":"community_centre","tags":{"addr:city":"Lindome","addr:housenumber":"7","addr:postcode":"437 30","addr:street":"Almåsgången","amenity":"community_centre","community_centre":"family_centre","name":"Familjecentralen Fyrklövern","operator":"Mölndals stad","phone":"+46 31 315 1000","website":"https://www.molndal.se/startsida/omsorg-och-hjalp/familj-barn-och-ungdom/stod-till-familjen/familjecentraler-med-oppen-forskola/familjecentralen-fyrklovern-i-lindome","wheelchair":"yes"}},"geometry":{"type":"Point","coordinates":[12.0869775,57.5773519]}},{"type":"Feature","properties":{"id":13419407300,"osm_type":"node","name":"Kulturhuset Möllan","category":"community_centre","tags":{"addr:city":"Mölndal","addr:housenumber":"19","addr:postcode":"431 30","addr:street":"Göteborgsvägen","amenity":"community_centre","community_centre":"cultural_centre","name":"Kulturhuset Möllan","opening_hours":"Mo-Fr 09:00-15:00","phone":"+46 31 27 5910","website":"https://kulturhusetmollan.se"}},"geometry":{"type":"Point","coordinates":[12.015121,57.6578613]}},{"type":"Feature","properties":{"id":28294403,"osm_type":"way","name":"Kärraton","category":"community_centre","tags":{"addr:country":"SE","addr:housenumber":"63","addr:street":"Prilyckegatan","amenity":"community_centre","building":"yes","community_centre":"youth_centre","community_centre:for":"juvenile","name":"Kärraton","source":"yahoo"}},"geometry":{"type":"Point","coordinates":[11.9858597,57.7902145]}},{"type":"Feature","properties":{"id":33282486,"osm_type":"way","name":"","category":"community_centre","tags":{"addr:city":"Mölndal","addr:country":"SE","addr:housenumber":"2","addr:postcode":"412 76","addr:street":"Korndalsvägen","amenity":"community_centre","building":"yes","club":"sport","community_centre":"club_home","office":"association","operator":"Örgryte IS","source":"WMS: Yahoo","sport":"soccer","start_date":"1987","website":"http://fotboll.ois.se/","wikidata":"Q10727044","wikipedia":"sv:ÖIS-gården"}},"geometry":{"type":"Point","coordinates":[12.0280128,57.6749539]}},{"type":"Feature","properties":{"id":41530671,"osm_type":"way","name":"Vårvindens fritidsgård","category":"community_centre","tags":{"amenity":"community_centre","building":"yes","community_centre:for":"juvenile","name":"Vårvindens fritidsgård"}},"geometry":{"type":"Point","coordinates":[11.8947896,57.7340044]}},{"type":"Feature","properties":{"id":41645754,"osm_type":"way","name":"Fässbergs församlingshem","category":"community_centre","tags":{"amenity":"community_centre","building":"religious","community_centre":"parish_hall","denomination":"lutheran","name":"Fässbergs församlingshem","operator":"Svenska kyrkan","parish":"Fässbergs församling","religion":"christian"}},"geometry":{"type":"Point","coordinates":[12.008306,57.6564319]}},{"type":"Feature","properties":{"id":49014709,"osm_type":"way","name":"","category":"community_centre","tags":{"addr:city":"Göteborg","addr:country":"SE","addr:postcode":"416 55","addr:street":"Kamratgårdsvägen","addr:unit":"50","amenity":"community_centre","building":"yes","club":"sport","community_centre":"club_home","office":"association","operator":"IFK Göteborg Fotboll","sport":"soccer","start_date":"1961","website":"https://ifkgoteborg.se/om-ifk-goteborg/kamratgarden/","wikidata":"Q10543212","wikipedia":"sv:Kamratgården"}},"geometry":{"type":"Point","coordinates":[12.0284327,57.6974516]}},{"type":"Feature","properties":{"id":51688079,"osm_type":"way","name":"Fritidsgården Pilen","category":"community_centre","tags":{"addr:city":"Askim","addr:country":"SE","addr:housenumber":"25","addr:street":"Askims Pilegårdsväg","alt_name":"Pilen","amenity":"community_centre","building":"yes","community_centre":"youth_centre","community_centre:for":"juvenile","name":"Fritidsgården Pilen","operator":"Göteborgs Stad"}},"geometry":{"type":"Point","coordinates":[11.9332181,57.6397046]}},{"type":"Feature","properties":{"id":52372478,"osm_type":"way","name":"Frölunda OL klubbstuga","category":"community_centre","tags":{"addr:country":"SE","addr:housenumber":"603","addr:street":"Sisjövägen","amenity":"community_centre","building":"yes","building:levels":"1","club":"sport","community_centre":"club_home","name":"Frölunda OL klubbstuga","office":"association","sport":"orienteering","website":"http://frolundaol.se"}},"geometry":{"type":"Point","coordinates":[11.9659025,57.6285929]}},{"type":"Feature","properties":{"id":60390093,"osm_type":"way","name":"Västerträffen","category":"community_centre","tags":{"addr:city":"Västra Frölunda","addr:country":"SE","addr:housenumber":"1","addr:street":"Östra Skärvallsgatan","amenity":"community_centre","building":"yes","community_centre":"meeting_room","contact:website":"http://www.vastertraffen.se/","name":"Västerträffen","operator":"Västerträffens Pensionärsklubb"}},"geometry":{"type":"Point","coordinates":[11.8724078,57.6590525]}},{"type":"Feature","properties":{"id":66324397,"osm_type":"way","name":"Kortedala IF klubbstuga","category":"community_centre","tags":{"addr:city":"Göteborg","addr:country":"SE","addr:housenumber":"11","addr:postcode":"415 11","addr:street":"Kortedala Idrottsväg","amenity":"community_centre","building":"yes","club":"sport","community_centre":"club_home","name":"Kortedala IF klubbstuga","office":"association","sport":"soccer","website":"https://www.svenskalag.se/kortedala"}},"geometry":{"type":"Point","coordinates":[12.0384483,57.7514894]}},{"type":"Feature","properties":{"id":70877604,"osm_type":"way","name":"Odd Fellow Orden","category":"community_centre","tags":{"addr:city":"Göteborg","addr:country":"SE","addr:housenumber":"9","addr:postcode":"411 24","addr:street":"Vasagatan","amenity":"community_centre","architect":"Louis Enders","building":"yes","community_centre":"club_home","name":"Odd Fellow Orden","operator:type":"private","phone":"+46 31 131 91 2","short_name":"Odd Fellow","source":"Yahoo","website":"https://www.gbgoddfellow.se/"}},"geometry":{"type":"Point","coordinates":[11.9648753,57.6975869]}},{"type":"Feature","properties":{"id":72135367,"osm_type":"way","name":"Råda Rum","category":"community_centre","tags":{"amenity":"community_centre","building":"yes","community_centre":"parish_hall","name":"Råda Rum"}},"geometry":{"type":"Point","coordinates":[12.1064865,57.6586121]}},{"type":"Feature","properties":{"id":72597009,"osm_type":"way","name":"Kooperativet Fjället","category":"community_centre","tags":{"amenity":"community_centre","community_center:for":"juvenile","name":"Kooperativet Fjället"}},"geometry":{"type":"Point","coordinates":[12.0710044,57.8031677]}},{"type":"Feature","properties":{"id":80243994,"osm_type":"way","name":"1200 kvadrat","category":"community_centre","tags":{"addr:country":"SE","addr:housenumber":"47","addr:street":"Mandolingatan","amenity":"community_centre","building":"civic","community_centre":"youth_centre","community_centre:for":"juvenile","name":"1200 kvadrat","website":"https://goteborg.se/wps/portal/enhetssida/fritidsgarden-pa-1200-kvadrat/"}},"geometry":{"type":"Point","coordinates":[11.9112918,57.6533412]}},{"type":"Feature","properties":{"id":80735452,"osm_type":"way","name":"Västra Frölunda IF","category":"community_centre","tags":{"addr:city":"Västra Frölunda","addr:country":"SE","addr:housenumber":"65","addr:postcode":"421 39","addr:street":"Musikvägen","amenity":"community_centre","building":"yes","club":"sport","community_centre":"club_home","description":"Västra Frölunda IF klubbhus","name":"Västra Frölunda IF","operator":"Västra Frölunda Idrottsförening","operator:short_name":"Västra Frölunda IF","website":"https://www.vastrafrolunda.com/"}},"geometry":{"type":"Point","coordinates":[11.9121122,57.6632542]}},{"type":"Feature","properties":{"id":80735472,"osm_type":"way","name":"SK Höjden","category":"community_centre","tags":{"amenity":"community_centre","building":"yes","club":"sport","community_centre":"club_home","name":"SK Höjden","website":"https://www.laget.se/skhojden"}},"geometry":{"type":"Point","coordinates":[11.9113499,57.6634806]}},{"type":"Feature","properties":{"id":88205095,"osm_type":"way","name":"BS Gothia","category":"community_centre","tags":{"amenity":"community_centre","building":"pavilion","name":"BS Gothia","sport":"archery"}},"geometry":{"type":"Point","coordinates":[11.9387821,57.7431896]}},{"type":"Feature","properties":{"id":88736761,"osm_type":"way","name":"Oscar Fredriks församlingshem","category":"community_centre","tags":{"addr:city":"Göteborg","addr:country":"SE","addr:housenumber":"1","addr:postcode":"41317","addr:street":"Oscar Fredriks Kyrkogata","amenity":"community_centre","building":"religious","community_centre":"parish_hall","contact:email":"oscarfredrik.forsamling@svenskakyrkan.se","contact:phone":"+46 31 731 92 50","contact:website":"http://www.svenskakyrkan.se/oscarfredrik/forsamlingen","denomination":"lutheran","name":"Oscar Fredriks församlingshem","operator":"Svenska kyrkan","parish":"Oskar Fredriks församling","religion":"christian"}},"geometry":{"type":"Point","coordinates":[11.9466135,57.6968155]}},{"type":"Feature","properties":{"id":89074276,"osm_type":"way","name":"Repslagargården","category":"community_centre","tags":{"amenity":"community_centre","building":"yes","community_centre":"parish_hall","denomination":"lutheran","name":"Repslagargården","operator":"Svenska kyrkan","operator:type":"religious","operator:wikidata":"Q749243","parish":"Masthuggs församling","religion":"christian"}},"geometry":{"type":"Point","coordinates":[11.9381228,57.6958446]}},{"type":"Feature","properties":{"id":89100898,"osm_type":"way","name":"Herkulesgården","category":"community_centre","tags":{"amenity":"community_centre","building":"yes","club":"sport","community_centre":"club_home","name":"Herkulesgården","office":"association","operator":"FK Herkules"}},"geometry":{"type":"Point","coordinates":[12.0557941,57.6532957]}},{"type":"Feature","properties":{"id":90630302,"osm_type":"way","name":"Allégården","category":"community_centre","tags":{"addr:city":"Göteborg","addr:country":"SE","addr:housenumber":"4","addr:postcode":"413 01","addr:street":"Södra Allégatan","amenity":"community_centre","building":"civic","building:levels":"2","community_centre:for":"senior","contact:email":"allegarden@socialresurs.goteborg.se","contact:phone":"+46 702 87 31 73","contact:website":"http://goteborg.se/wps/portal/enheter/traffpunkt/allegarden","name":"Allégården","old_name":"Dicksonska folkbiblioteket","roof:colour":"#BEDCD4","source":"Bing","wikidata":"Q10471464","wikipedia":"sv:Dicksonska folkbiblioteket"}},"geometry":{"type":"Point","coordinates":[11.9571796,57.6995156]}},{"type":"Feature","properties":{"id":92332149,"osm_type":"way","name":"Lilla Götafors","category":"community_centre","tags":{"addr:city":"Mölndal","addr:country":"SE","addr:housenumber":"15","addr:postcode":"43134","addr:street":"Götaforsliden","amenity":"community_centre","building":"yes","building:material":"brick","contact:email":"info@lillagotafors.se","contact:phone":"+46 73 512 13 00","contact:website":"http://www.lillagotafors.se","name":"Lilla Götafors","operator":"Malin Leijonberg and Simon Sjölund","roof:shape":"gabled"}},"geometry":{"type":"Point","coordinates":[12.0308953,57.6572236]}},{"type":"Feature","properties":{"id":93216098,"osm_type":"way","name":"Lundby församlingshem","category":"community_centre","tags":{"amenity":"community_centre","building":"religious","community_centre":"parish_hall","name":"Lundby församlingshem","operator":"Svenska kyrkan","operator:type":"religious","operator:wikidata":"Q749243","parish":"Lundby församling"}},"geometry":{"type":"Point","coordinates":[11.9154839,57.7122468]}},{"type":"Feature","properties":{"id":93219594,"osm_type":"way","name":"KF Velebit","category":"community_centre","tags":{"addr:city":"Göteborg","addr:country":"SE","addr:housenumber":"15","addr:postcode":"417 05","addr:street":"Hildedalsgatan","amenity":"community_centre","building":"yes","community_centre":"club_home","name":"KF Velebit","office":"association","source":"Bing","website":"http://www.velebit.se/"}},"geometry":{"type":"Point","coordinates":[11.9510046,57.7318452]}},{"type":"Feature","properties":{"id":96043853,"osm_type":"way","name":"Rosenhill Seamen's Center","category":"community_centre","tags":{"amenity":"community_centre","building":"yes","contact:email":"rosenhill@sjofartsverket.se","contact:phone":"+46 10 478 49 55","contact:website":"http://www.sjofartsverket.se/sv/Valkommen-till-seatime/Stationer/Goteborg-bildspel/","name":"Rosenhill Seamen's Center","operator":"Sjöfartsverket"}},"geometry":{"type":"Point","coordinates":[11.8953693,57.7015203]}},{"type":"Feature","properties":{"id":101529371,"osm_type":"way","name":"Sankta Maria Magdalenas katolska församling","category":"community_centre","tags":{"addr:city":"Göteborg","addr:country":"SE","addr:housenumber":"10","addr:postcode":"417 27","addr:street":"Slättadammsgatan","amenity":"community_centre","building":"religious","community_centre":"parish_hall","contact:fax":"+46 31 78 77 609","contact:phone":"+46 31 78 77 600","contact:website":"http://mariamagdalenas.se/index.php/en","denomination":"catholic","name":"Sankta Maria Magdalenas katolska församling","name:en":"Saint Mary Magdalen Parish","official_name":"S:ta Maria Magdalena","operator":"Stockholms katolska stift","religion":"christian"}},"geometry":{"type":"Point","coordinates":[11.9268007,57.7322524]}},{"type":"Feature","properties":{"id":102216608,"osm_type":"way","name":"Församlingshem Utby kyrka","category":"community_centre","tags":{"amenity":"community_centre","building":"religious","community_centre":"parish_hall","denomination":"lutheran","name":"Församlingshem Utby kyrka","operator":"Svenska kyrkan","parish":"Nylöse församling","religion":"christian"}},"geometry":{"type":"Point","coordinates":[12.0497643,57.7398494]}},{"type":"Feature","properties":{"id":114541196,"osm_type":"way","name":"Göteborgs estniska hus","category":"community_centre","tags":{"amenity":"community_centre","building":"yes","name":"Göteborgs estniska hus","name:et":"Göteborgi Eesti Maja","start_date":"1966"}},"geometry":{"type":"Point","coordinates":[11.9737673,57.68484]}},{"type":"Feature","properties":{"id":114668279,"osm_type":"way","name":"Järnvägsvagnen","category":"community_centre","tags":{"amenity":"community_centre","building":"yes","building:colour":"#0284e0","building:levels":"1","community_centre:for":"student","historic":"railway_car","name":"Järnvägsvagnen","opening_hours":"\"by appointment\"","operator":"Chalmers Studentkår","roof:colour":"#dfe2ef","roof:levels":"0","roof:shape":"flat","website":"https://chalmersstudentkar.se/train-car/"}},"geometry":{"type":"Point","coordinates":[11.9757825,57.6883151]}},{"type":"Feature","properties":{"id":120171691,"osm_type":"way","name":"Taubehuset","category":"community_centre","tags":{"addr:city":"Göteborg","addr:country":"SE","addr:housenumber":"3","addr:street":"Taubegatan","amenity":"community_centre","building":"civic","contact:email":"styrelsen@taubehuset.se","contact:website":"http://www.taubehuset.se","name":"Taubehuset","operator":"Kulturminnesföreningen Warfvet Kusten"}},"geometry":{"type":"Point","coordinates":[11.9173799,57.6950342]}},{"type":"Feature","properties":{"id":134533953,"osm_type":"way","name":"Bergsjö IF klubbstuga","category":"community_centre","tags":{"amenity":"community_centre","building":"yes","club":"sport","community_centre":"club_home","name":"Bergsjö IF klubbstuga","office":"association","sport":"soccer"}},"geometry":{"type":"Point","coordinates":[12.0562432,57.750901]}},{"type":"Feature","properties":{"id":134533954,"osm_type":"way","name":"Ka-Re klubbhus","category":"community_centre","tags":{"addr:city":"Göteborg","addr:country":"SE","addr:housenumber":"58","addr:postcode":"415 18","addr:street":"Ljusårsvägen","alt_name":"Karela","amenity":"community_centre","building":"yes","building:levels":"1","club":"outdoor","community_centre":"club_home","name":"Ka-Re klubbhus","name:fi":"Karela","office":"association","website":"https://www.karekerho.se/"}},"geometry":{"type":"Point","coordinates":[12.0531539,57.7664557]}},{"type":"Feature","properties":{"id":134533968,"osm_type":"way","name":"Utby IK klubbstuga","category":"community_centre","tags":{"addr:city":"Göteborg","addr:country":"SE","addr:housenumber":"56","addr:postcode":"415 18","addr:street":"Ljusårsvägen","amenity":"community_centre","building":"yes","building:levels":"1","club":"sport","community_centre":"club_home","name":"Utby IK klubbstuga","office":"association","website":"https://idrottonline.se/UtbyIK/"}},"geometry":{"type":"Point","coordinates":[12.0526622,57.7661894]}},{"type":"Feature","properties":{"id":135188230,"osm_type":"way","name":"Carl Johans församlingshem","category":"community_centre","tags":{"addr:city":"Göteborg","addr:country":"SE","addr:housenumber":"1","addr:postcode":"41455","addr:street":"Carl Johans Kyrkoplan","amenity":"community_centre","building":"religious","community_centre":"parish_hall","contact:email":"carljohan.forsamling@svenskakyrkan.se","contact:phone":"+46 31 731 92 00","contact:website":"http://www.svenskakyrkan.se/carljohan","denomination":"lutheran","description":"Församlingshem","name":"Carl Johans församlingshem","opening_hours":"Mo-Th 09:00-15:00; Fr 09:00-14:00","operator":"Svenska kyrkan - Carl Johans församling","religion":"christian","wikidata":"Q10512805","wikipedia":"sv:Göteborgs Carl Johans församling"}},"geometry":{"type":"Point","coordinates":[11.9220604,57.6961347]}},{"type":"Feature","properties":{"id":136449115,"osm_type":"way","name":"Gunnilse IS klubbhus","category":"community_centre","tags":{"addr:city":"Angered","addr:country":"SE","addr:housenumber":"12","addr:postcode":"424 32","addr:street":"Knattens Väg","amenity":"community_centre","building":"yes","club":"sport","community_centre":"club_home","name":"Gunnilse IS klubbhus","office":"association","short_name":"Gunnilse IS","website":"https://www.svenskalag.se/gunnilseis"}},"geometry":{"type":"Point","coordinates":[12.0155193,57.7781012]}},{"type":"Feature","properties":{"id":136840737,"osm_type":"way","name":"Kustens Hus","category":"community_centre","tags":{"addr:city":"Göteborg","addr:country":"SE","addr:housenumber":"9","addr:postcode":"414 55","addr:street":"Taubegatan","amenity":"community_centre","building":"yes","community_centre":"cultural_centre","contact:phone":"+46 31 14 10 73","contact:website":"http://www.visansvanner.com/","description":"Här hålls viskonserter varannan onsdag – vår och höst, och varannan Söndag under vinterhalvåret är det viscafé.","name":"Kustens Hus","operator":"Sällskapet Visans Vänner i Göteborg"}},"geometry":{"type":"Point","coordinates":[11.9166976,57.6941258]}},{"type":"Feature","properties":{"id":138557438,"osm_type":"way","name":"","category":"community_centre","tags":{"amenity":"community_centre","building":"yes","club":"sport","community_centre":"club_home","operator":"Slottsskogens Petanque Club","sport":"boules"}},"geometry":{"type":"Point","coordinates":[11.9403885,57.6790036]}},{"type":"Feature","properties":{"id":146302062,"osm_type":"way","name":"Sankt Pauligården","category":"community_centre","tags":{"addr:country":"SE","addr:housenumber":"1","addr:street":"Mäster Johansgatan","amenity":"community_centre","building":"religious","community_centre":"parish_hall","denomination":"lutheran","name":"Sankt Pauligården","operator":"Svenska kyrkan","parish":"Sankt Pauli församling","religion":"christian"}},"geometry":{"type":"Point","coordinates":[12.0044737,57.71446]}},{"type":"Feature","properties":{"id":146302092,"osm_type":"way","name":"Frivilligcentralen Pärlan","category":"community_centre","tags":{"addr:city":"Göteborg","addr:country":"SE","addr:housenumber":"103","addr:street":"Danska Vägen","amenity":"community_centre","building":"yes","community_centre":"meeting_room","name":"Frivilligcentralen Pärlan","website":"https://www.fcparlan.se/"}},"geometry":{"type":"Point","coordinates":[12.0047817,57.7152703]}},{"type":"Feature","properties":{"id":148199451,"osm_type":"way","name":"Kulturhuset Kåken","category":"community_centre","tags":{"amenity":"community_centre","building":"public","check_date":"2024-06-10","name":"Kulturhuset Kåken","polling_station":"yes"}},"geometry":{"type":"Point","coordinates":[12.0169852,57.7169965]}},{"type":"Feature","properties":{"id":150284950,"osm_type":"way","name":"Backa Folkets Hus","category":"community_centre","tags":{"addr:city":"Hisings Backa","addr:country":"SE","addr:housenumber":"2","addr:postcode":"422 44","addr:street":"Granåsgatan","amenity":"community_centre","building":"yes","community_centre":"meeting_room","contact:phone":"+46 31 226744","name":"Backa Folkets Hus","operator":"Göteborgs Stad","source":"Bing Aerial"}},"geometry":{"type":"Point","coordinates":[11.9745531,57.7348316]}},{"type":"Feature","properties":{"id":150412725,"osm_type":"way","name":"Partille församlingshem","category":"community_centre","tags":{"addr:city":"Partille","addr:country":"SE","addr:housenumber":"36","addr:street":"Gamla Kronvägen","amenity":"community_centre","building":"religious","community_centre":"parish_hall","denomination":"lutheran","level":"2","name":"Partille församlingshem","operator":"Svenska kyrkan","operator:type":"religious","operator:wikidata":"Q749243","religion":"christian","source":"Bing Aerial","website":"https://www.svenskakyrkan.se/partille/hyra-partille-forsamlingshem"}},"geometry":{"type":"Point","coordinates":[12.1033837,57.7394578]}},{"type":"Feature","properties":{"id":159237938,"osm_type":"way","name":"Björndammens fritidsgård","category":"community_centre","tags":{"addr:city":"Partille","addr:country":"SE","addr:housenumber":"6","addr:postcode":"433 44","addr:street":"Domarevägen","amenity":"community_centre","building":"public","community_centre":"youth_centre","community_centre:for":"juvenile","name":"Björndammens fritidsgård","operator":"Partille kommun","operator:type":"public"}},"geometry":{"type":"Point","coordinates":[12.1134417,57.7289231]}},{"type":"Feature","properties":{"id":163414999,"osm_type":"way","name":"","category":"community_centre","tags":{"addr:city":"Göteborg","addr:country":"SE","addr:housenumber":"75","addr:postcode":"41276","addr:street":"Gamla Boråsvägen","amenity":"community_centre","building":"yes","club":"sport","community_centre":"club_home","office":"association","operator":"GAIS","sport":"soccer"}},"geometry":{"type":"Point","coordinates":[12.0295173,57.6804483]}},{"type":"Feature","properties":{"id":179938008,"osm_type":"way","name":"Örgryte församlingshem","category":"community_centre","tags":{"addr:city":"Göteborg","addr:country":"SE","addr:housenumber":"2","addr:street":"Herrgårdsgatan","amenity":"community_centre","building":"religious","community_centre":"parish_hall","name":"Örgryte församlingshem"}},"geometry":{"type":"Point","coordinates":[12.0045321,57.7022738]}},{"type":"Feature","properties":{"id":182385346,"osm_type":"way","name":"Kålltorps fritidsgård","category":"community_centre","tags":{"addr:country":"SE","addr:housenumber":"13","addr:street":"Virginsgatan","amenity":"community_centre","building":"yes","community_centre":"youth_centre","community_centre:for":"juvenile","name":"Kålltorps fritidsgård","operator":"Göteborgs Stad"}},"geometry":{"type":"Point","coordinates":[12.0307367,57.7107718]}},{"type":"Feature","properties":{"id":189531498,"osm_type":"way","name":"Finlandia Pallo AIF","category":"community_centre","tags":{"addr:city":"Göteborg","addr:country":"SE","addr:postcode":"417 44","addr:street":"Hinnebäcksgatan","amenity":"community_centre","building":"yes","club":"sport","community_centre":"club_home","name":"Finlandia Pallo AIF","website":"https://www.finpa.se/","wikidata":"Q49103371","wikipedia":"sv:Finlandia/Pallo AIF"}},"geometry":{"type":"Point","coordinates":[11.9148008,57.7486117]}},{"type":"Feature","properties":{"id":189531500,"osm_type":"way","name":"IF Kville","category":"community_centre","tags":{"amenity":"community_centre","building":"yes","club":"sport","community_centre":"club_home","name":"IF Kville","website":"https://www.ifkville.se/"}},"geometry":{"type":"Point","coordinates":[11.9152729,57.748771]}},{"type":"Feature","properties":{"id":189531502,"osm_type":"way","name":"Tolereds AIK","category":"community_centre","tags":{"addr:city":"Göteborg","addr:country":"SE","addr:postcode":"417 44","addr:street":"Hinnebäcksgatan","amenity":"community_centre","building":"yes","building:levels":"1","club":"sport","community_centre":"club_home","name":"Tolereds AIK","sport":"orienteering","website":"http://www.toleredutby.se/"}},"geometry":{"type":"Point","coordinates":[11.915026,57.7490026]}},{"type":"Feature","properties":{"id":189531503,"osm_type":"way","name":"","category":"community_centre","tags":{"amenity":"community_centre","building":"yes"}},"geometry":{"type":"Point","coordinates":[11.9156433,57.7490277]}},{"type":"Feature","properties":{"id":190065076,"osm_type":"way","name":"Kärra församlingshem","category":"community_centre","tags":{"amenity":"community_centre","building":"yes","community_centre":"parish_hall","denomination":"lutheran","name":"Kärra församlingshem","operator":"Svenska kyrkan","parish":"Tuve-Säve församling","religion":"christian"}},"geometry":{"type":"Point","coordinates":[11.9921561,57.791625]}},{"type":"Feature","properties":{"id":198911510,"osm_type":"way","name":"Björlanda församlingshem","category":"community_centre","tags":{"amenity":"community_centre","building":"yes","community_centre":"parish_hall","denomination":"lutheran","name":"Björlanda församlingshem","operator":"Svenska kyrkan","parish":"Torslanda-Björlanda församling","religion":"christian"}},"geometry":{"type":"Point","coordinates":[11.8326279,57.7622267]}},{"type":"Feature","properties":{"id":205042086,"osm_type":"way","name":"Bostadsbolaget","category":"community_centre","tags":{"addr:housenumber":"12","addr:street":"Skidåkaren","amenity":"community_centre","building":"yes","club":"sport","community_centre":"club_home","name":"Bostadsbolaget","ref":"6"}},"geometry":{"type":"Point","coordinates":[12.0340277,57.705203]}},{"type":"Feature","properties":{"id":205042088,"osm_type":"way","name":"Göteborg-Majorna OK","category":"community_centre","tags":{"addr:housenumber":"5","addr:street":"Terränglöparen","amenity":"community_centre","building":"yes","club":"sport","community_centre":"club_home","description":"Göteborg-Majorna OK klubbstuga","name":"Göteborg-Majorna OK","operator":"Göteborg-Majorna OK","ref":"21","sport":"orienteering","website":"https://gmok.se/"}},"geometry":{"type":"Point","coordinates":[12.0366633,57.7048015]}},{"type":"Feature","properties":{"id":205042089,"osm_type":"way","name":"Göteborgs Skidklubb","category":"community_centre","tags":{"amenity":"community_centre","building":"yes","club":"sport","community_centre":"club_home","name":"Göteborgs Skidklubb","operator":"Göteborgs Skidklubb","website":"https://www.skidklubben.se/"}},"geometry":{"type":"Point","coordinates":[12.0369565,57.7045636]}},{"type":"Feature","properties":{"id":205042092,"osm_type":"way","name":"Gårda BK","category":"community_centre","tags":{"addr:housenumber":"4","addr:street":"Terränglöparen","amenity":"community_centre","building":"yes","club":"sport","community_centre":"club_home","name":"Gårda BK","opening_hours":"\"not for the public\"","ref":"4"}},"geometry":{"type":"Point","coordinates":[12.0356797,57.7046537]}},{"type":"Feature","properties":{"id":205042093,"osm_type":"way","name":"SAIK-stugan Skatås","category":"community_centre","tags":{"addr:housenumber":"13","addr:street":"Skidåkaren","amenity":"community_centre","building":"yes","club":"sport","community_centre":"club_home","name":"SAIK-stugan Skatås","office":"association","operator":"Sävedalens AIK","sport":"multi","website":"https://www.savedalensaik.se"}},"geometry":{"type":"Point","coordinates":[12.0344342,57.7052816]}},{"type":"Feature","properties":{"id":205042094,"osm_type":"way","name":"Friluftsfrämjandet","category":"community_centre","tags":{"addr:housenumber":"2","addr:street":"Skidåkaren","amenity":"community_centre","building":"yes","club":"sport","community_centre":"club_home","name":"Friluftsfrämjandet","opening_hours":"\"not for the public\""}},"geometry":{"type":"Point","coordinates":[12.0349971,57.7043542]}},{"type":"Feature","properties":{"id":205042095,"osm_type":"way","name":"RIK","category":"community_centre","tags":{"addr:housenumber":"8","addr:street":"Skidåkaren","amenity":"community_centre","building":"yes","club":"sport","community_centre":"club_home","name":"RIK","ref":"4"}},"geometry":{"type":"Point","coordinates":[12.0343536,57.7047778]}},{"type":"Feature","properties":{"id":205042096,"osm_type":"way","name":"MIS-stugan","category":"community_centre","tags":{"addr:housenumber":"3","addr:street":"Skidåkaren","amenity":"community_centre","building":"yes","club":"sport","community_centre":"club_home","name":"MIS-stugan","opening_hours":"\"not for the public\"","ref":"7"}},"geometry":{"type":"Point","coordinates":[12.0353965,57.7044787]}},{"type":"Feature","properties":{"id":205042098,"osm_type":"way","name":"Postens IF","category":"community_centre","tags":{"addr:country":"SE","addr:housenumber":"4","addr:street":"Skidåkaren","amenity":"community_centre","building":"yes","club":"sport","community_centre":"club_home","name":"Postens IF"}},"geometry":{"type":"Point","coordinates":[12.0348358,57.7044789]}},{"type":"Feature","properties":{"id":205042099,"osm_type":"way","name":"Skandia","category":"community_centre","tags":{"addr:housenumber":"9","addr:street":"Terränglöparen","amenity":"community_centre","building":"yes","club":"sport","community_centre":"club_home","name":"Skandia","ref":"18"}},"geometry":{"type":"Point","coordinates":[12.0360394,57.7048477]}},{"type":"Feature","properties":{"id":205042100,"osm_type":"way","name":"SEB","category":"community_centre","tags":{"addr:housenumber":"11","addr:street":"Terränglöparen","amenity":"community_centre","building":"yes","club":"sport","community_centre":"club_home","name":"SEB","ref":"16"}},"geometry":{"type":"Point","coordinates":[12.0354367,57.7051607]}},{"type":"Feature","properties":{"id":205042101,"osm_type":"way","name":"Solvikingarna","category":"community_centre","tags":{"addr:country":"SE","addr:housenumber":"13","addr:street":"Terränglöparen","amenity":"community_centre","building":"yes","club":"sport","community_centre":"club_home","description":"Solvikingarna klubbstuga","name":"Solvikingarna","operator":"Solvikingarna","ref":"17","sport":"athletics","website":"https://www.solvikingarna.se/"}},"geometry":{"type":"Point","coordinates":[12.0351801,57.7052975]}},{"type":"Feature","properties":{"id":205042102,"osm_type":"way","name":"Fritidsklubben SKF","category":"community_centre","tags":{"addr:housenumber":"9","addr:street":"Skidåkaren","amenity":"community_centre","building":"yes","club":"sport","community_centre":"club_home","name":"Fritidsklubben SKF","ref":"10"}},"geometry":{"type":"Point","coordinates":[12.0346933,57.7049215]}},{"type":"Feature","properties":{"id":205042104,"osm_type":"way","name":"GFS","category":"community_centre","tags":{"addr:housenumber":"5","addr:street":"Skidåkaren","amenity":"community_centre","building":"yes","club":"sport","community_centre":"club_home","loc_name":"Skatåsstugan","name":"GFS","opening_hours":"\"not for the public\"","operator":"Göteborgs spårvägar","website":"http://www.skatasstugan.se/"}},"geometry":{"type":"Point","coordinates":[12.0351578,57.7046316]}},{"type":"Feature","properties":{"id":205042105,"osm_type":"way","name":"Göteborg SAAB IF","category":"community_centre","tags":{"addr:housenumber":"1","addr:street":"Skidåkaren","amenity":"community_centre","building":"yes","club":"sport","community_centre":"club_home","name":"Göteborg SAAB IF","opening_hours":"\"not for the public\""}},"geometry":{"type":"Point","coordinates":[12.0357627,57.7044156]}},{"type":"Feature","properties":{"id":205042106,"osm_type":"way","name":"IOGT-NTO -rörelsen","category":"community_centre","tags":{"addr:housenumber":"3","addr:street":"Terränglöparen","amenity":"community_centre","building":"yes","club":"sport","community_centre":"club_home","name":"IOGT-NTO -rörelsen","ref":"19"}},"geometry":{"type":"Point","coordinates":[12.0364396,57.7046711]}},{"type":"Feature","properties":{"id":205042107,"osm_type":"way","name":"Majornas IK","category":"community_centre","tags":{"addr:housenumber":"8","addr:street":"Terränglöparen","amenity":"community_centre","building":"yes","club":"sport","community_centre":"club_home","description":"MIK:s klubbstuga","name":"Majornas IK","ref":"15"}},"geometry":{"type":"Point","coordinates":[12.0352886,57.7049057]}},{"type":"Feature","properties":{"id":205042109,"osm_type":"way","name":"M-60","category":"community_centre","tags":{"addr:housenumber":"6","addr:street":"Skidåkaren","amenity":"community_centre","building":"yes","club":"sport","community_centre":"club_home","name":"M-60"}},"geometry":{"type":"Point","coordinates":[12.0345849,57.7046391]}},{"type":"Feature","properties":{"id":205042111,"osm_type":"way","name":"Räddningstjänstens Idrottsförening","category":"community_centre","tags":{"addr:housenumber":"7","addr:street":"Terränglöparen","amenity":"community_centre","building":"yes","club":"sport","community_centre":"club_home","description":"Räddningstjänstens Idrottsförening klubbstuga","name":"Räddningstjänstens Idrottsförening","operator":"Räddningstjänstens Idrottsförening","ref":"20"}},"geometry":{"type":"Point","coordinates":[12.0362716,57.7050189]}},{"type":"Feature","properties":{"id":205042112,"osm_type":"way","name":"Cykelklubben Master","category":"community_centre","tags":{"addr:housenumber":"11","addr:street":"Skidåkaren","amenity":"community_centre","building":"yes","club":"sport","community_centre":"club_home","name":"Cykelklubben Master","office":"association","operator":"Cykelklubben Master","sport":"cycling","website":"https://ckmaster.com/"}},"geometry":{"type":"Point","coordinates":[12.0345685,57.7050505]}},{"type":"Feature","properties":{"id":205042113,"osm_type":"way","name":"IK Stern","category":"community_centre","tags":{"addr:housenumber":"7","addr:street":"Skidåkaren","amenity":"community_centre","building":"yes","club":"sport","community_centre":"club_home","description":"IK Stern klubbstuga","name":"IK Stern","operator":"IK Stern","ref":"9","website":"https://www.ikstern.se/"}},"geometry":{"type":"Point","coordinates":[12.0350115,57.7047749]}},{"type":"Feature","properties":{"id":210365810,"osm_type":"way","name":"Klubbstuga Utbynäs SK","category":"community_centre","tags":{"addr:city":"Göteborg","addr:country":"SE","addr:housenumber":"5","addr:postcode":"415 72","addr:street":"Lemmingsgatan","amenity":"community_centre","building":"yes","club":"sport","community_centre":"club_home","name":"Klubbstuga Utbynäs SK","operator":"Utbynäs SK","website":"https://www.svenskalag.se/utbynassk"}},"geometry":{"type":"Point","coordinates":[12.0535579,57.7344436]}},{"type":"Feature","properties":{"id":213481012,"osm_type":"way","name":"Göteborg Bangolfklubb","category":"community_centre","tags":{"amenity":"community_centre","building":"yes","club":"sport","community_centre":"club_home","name":"Göteborg Bangolfklubb","website":"https://www.goteborgbgk.se/"}},"geometry":{"type":"Point","coordinates":[12.0495212,57.7345034]}},{"type":"Feature","properties":{"id":215583173,"osm_type":"way","name":"","category":"community_centre","tags":{"amenity":"community_centre","building":"yes","club":"sport","community_centre":"club_home","golf":"clubhouse","ref":"Lerjedalens Golfklubb"}},"geometry":{"type":"Point","coordinates":[12.1053771,57.7930139]}},{"type":"Feature","properties":{"id":215583188,"osm_type":"way","name":"Angereds församlingshem","category":"community_centre","tags":{"addr:city":"Gunnilse","addr:country":"SE","addr:housenumber":"3","addr:postcode":"42457","addr:street":"Stommavägen","amenity":"community_centre","building":"yes","community_centre":"parish_hall","name":"Angereds församlingshem","operator":"Svenska kyrkan","operator:type":"religious","operator:wikidata":"Q749243","parish":"Angereds församling"}},"geometry":{"type":"Point","coordinates":[12.0990654,57.7870668]}},{"type":"Feature","properties":{"id":216984804,"osm_type":"way","name":"Folkets Hus","category":"community_centre","tags":{"amenity":"community_centre","building":"yes","name":"Folkets Hus"}},"geometry":{"type":"Point","coordinates":[12.1255625,57.6562057]}},{"type":"Feature","properties":{"id":216995467,"osm_type":"way","name":"Gunnesby Hembygdsgård","category":"community_centre","tags":{"amenity":"community_centre","building":"yes","name":"Gunnesby Hembygdsgård","old_name":"Gunnesby skola","operator":"Säve Rödbo Hembygdsförening"}},"geometry":{"type":"Point","coordinates":[11.9083053,57.8165756]}},{"type":"Feature","properties":{"id":218316935,"osm_type":"way","name":"Utsiktens Bollklubb","category":"community_centre","tags":{"amenity":"community_centre","building":"yes","club":"sport","community_centre":"club_home","description":"Utsiktens BK:s klubbhus","name":"Utsiktens Bollklubb","short_name":"Utsiktens BK","sport":"soccer","website":"https://www.utsiktensbk.se"}},"geometry":{"type":"Point","coordinates":[11.9104668,57.6649462]}},{"type":"Feature","properties":{"id":242518065,"osm_type":"way","name":"Lindome församlingscentrum","category":"community_centre","tags":{"addr:city":"Lindome","addr:country":"SE","addr:housenumber":"1","addr:postcode":"437 33","addr:street":"Annestorpsvägen","amenity":"community_centre","building":"yes","community_centre":"parish_hall","denomination":"lutheran","name":"Lindome församlingscentrum","operator":"Svenska kyrkan","parish":"Lindome församling","phone":"+46 31996860","religion":"christian","website":"https://www.svenskakyrkan.se/lindome"}},"geometry":{"type":"Point","coordinates":[12.0911919,57.5782695]}},{"type":"Feature","properties":{"id":251067210,"osm_type":"way","name":"Ytterby församlingshem","category":"community_centre","tags":{"amenity":"community_centre","building":"yes","community_centre":"parish_hall","denomination":"lutheran","name":"Ytterby församlingshem","operator":"Svenska kyrkan","religion":"christian"}},"geometry":{"type":"Point","coordinates":[11.920696,57.8610892]}},{"type":"Feature","properties":{"id":268611309,"osm_type":"way","name":"Zenithgården","category":"community_centre","tags":{"addr:city":"Torslanda","addr:country":"SE","addr:postcode":"42355","addr:street":"Zenithgården","amenity":"community_centre","building":"yes","club":"sport","community_centre":"club_home","contact:phone":"+46 31 92 61 13","contact:website":"http://www.ik-zenith.com","name":"Zenithgården","office":"association","wikidata":"Q10532939","wikipedia":"sv:IK Zenith"}},"geometry":{"type":"Point","coordinates":[11.828241,57.7514332]}},{"type":"Feature","properties":{"id":284259860,"osm_type":"way","name":"Nödinge Församling","category":"community_centre","tags":{"amenity":"community_centre","building":"yes","community_centre":"parish_hall","name":"Nödinge Församling"}},"geometry":{"type":"Point","coordinates":[12.0146986,57.8326385]}},{"type":"Feature","properties":{"id":306218411,"osm_type":"way","name":"","category":"community_centre","tags":{"amenity":"community_centre","building":"yes","club":"sport","community_centre":"club_home","operator":"Ik Uven","operator:type":"association","website":"https://www.svenskalag.se/ikuven-stugan"}},"geometry":{"type":"Point","coordinates":[12.1155727,57.5832072]}},{"type":"Feature","properties":{"id":311169335,"osm_type":"way","name":"Församlingshem Säve","category":"community_centre","tags":{"amenity":"community_centre","building":"yes","community_centre":"parish_hall","denomination":"lutheran","name":"Församlingshem Säve","operator":"Svenska kyrkan","parish":"Tuve-Säve församling","religion":"christian"}},"geometry":{"type":"Point","coordinates":[11.9181274,57.8016648]}},{"type":"Feature","properties":{"id":473405683,"osm_type":"way","name":"Gamlestadens medborgarhus","category":"community_centre","tags":{"addr:city":"Göteborg","addr:country":"SE","addr:housenumber":"11","addr:postcode":"415 01","addr:street":"Brahegatan","amenity":"community_centre","building":"yes","name":"Gamlestadens medborgarhus"}},"geometry":{"type":"Point","coordinates":[12.0125394,57.730815]}},{"type":"Feature","properties":{"id":516015705,"osm_type":"way","name":"Församlingshus","category":"community_centre","tags":{"addr:city":"Västra Frölunda","addr:country":"SE","addr:housenumber":"6","addr:postcode":"426 71","addr:street":"Hagens Kapellväg","amenity":"community_centre","building":"religious","community_centre":"parish_hall","denomination":"lutheran","name":"Församlingshus","operator":"Svenska kyrkan","parish":"Älvsborgs församling","religion":"christian"}},"geometry":{"type":"Point","coordinates":[11.8843623,57.6758815]}},{"type":"Feature","properties":{"id":613091855,"osm_type":"way","name":"Kulturhuset Möllan","category":"community_centre","tags":{"amenity":"community_centre","building":"yes","name":"Kulturhuset Möllan","website":"https://kulturhusetmollan.se/"}},"geometry":{"type":"Point","coordinates":[12.014898,57.6579443]}},{"type":"Feature","properties":{"id":627089974,"osm_type":"way","name":"Klubbstuga BK Häcken","category":"community_centre","tags":{"addr:city":"Göteborg","addr:country":"SE","addr:housenumber":"6","addr:postcode":"417 49","addr:street":"Entreprenadvägen","amenity":"community_centre","building":"yes","club":"sport","community_centre":"club_home","name":"Klubbstuga BK Häcken","office":"association","short_name":"Häcken","sport":"soccer","website":"https://bkhacken.se/","wikidata":"Q639723","wikipedia":"sv:BK Häcken"}},"geometry":{"type":"Point","coordinates":[11.9480417,57.7401419]}},{"type":"Feature","properties":{"id":799198215,"osm_type":"way","name":"Kållereds församlingshem","category":"community_centre","tags":{"addr:city":"Kållered","addr:country":"SE","addr:housenumber":"16","addr:postcode":"42831","addr:street":"Våmmedalsvägen","amenity":"community_centre","building":"religious","community_centre":"parish_hall","name":"Kållereds församlingshem"}},"geometry":{"type":"Point","coordinates":[12.0524003,57.6103205]}},{"type":"Feature","properties":{"id":802598700,"osm_type":"way","name":"","category":"community_centre","tags":{"amenity":"community_centre","building":"yes","community_centre":"parish_hall"}},"geometry":{"type":"Point","coordinates":[12.1088126,57.6866496]}},{"type":"Feature","properties":{"id":402052,"osm_type":"relation","name":"Blå Stället","category":"community_centre","tags":{"amenity":"community_centre","building":"yes","name":"Blå Stället","type":"multipolygon","wikidata":"Q16503272"}},"geometry":{"type":"Point","coordinates":[12.0513412,57.7959242]}},{"type":"Feature","properties":{"id":11373096,"osm_type":"relation","name":"IFK Göteborg Orientering","category":"community_centre","tags":{"addr:city":"Göteborg","addr:country":"SE","addr:housenumber":"20","addr:postcode":"41655","addr:street":"Brudaremossen","amenity":"community_centre","building":"yes","club":"sport","community_centre":"club_home","description":"IFK Göteborg Orientering klubbhus","name":"IFK Göteborg Orientering","operator":"IFK Göteborg Orientering","sport":"orienteering","type":"multipolygon"}},"geometry":{"type":"Point","coordinates":[12.0444899,57.6987371]}},{"type":"Feature","properties":{"id":16386893,"osm_type":"relation","name":"Kulturhuset Bergsjön","category":"community_centre","tags":{"amenity":"community_centre","building":"yes","community_centre":"community_hall","name":"Kulturhuset Bergsjön","type":"multipolygon","website":"https://goteborg.se/wps/portal/enhetssida/kulturhuset-bergsjon/om-kulturhuset","wikidata":"Q111901723"}},"geometry":{"type":"Point","coordinates":[12.0735067,57.7565967]}},{"type":"Feature","properties":{"id":17097203,"osm_type":"relation","name":"Folkets Hus","category":"community_centre","tags":{"amenity":"community_centre","building":"civic","contact:phone":"+46 31 774 30 00","contact:website":"http://folketshusgoteborg.se","name":"Folkets Hus","type":"multipolygon","wikidata":"Q29634608","wikipedia":"sv:Folkets hus, Göteborg"}},"geometry":{"type":"Point","coordinates":[11.9527307,57.701037]}},{"type":"Feature","properties":{"id":19319391,"osm_type":"relation","name":"Frölunda Kulturhus","category":"community_centre","tags":{"amenity":"community_centre","building":"civic","name":"Frölunda Kulturhus","type":"multipolygon","website":"https://goteborg.se/wps/portal/enhetssida/frolunda-kulturhus","wikidata":"Q10499741"}},"geometry":{"type":"Point","coordinates":[11.9097929,57.6544514]}}]}