{"type":"FeatureCollection","features":[{"type":"Feature","properties":{"id":672999278,"osm_type":"node","name":"Folktandvården","category":"dentistry","tags":{"addr:city":"Angered","addr:housenumber":"2","addr:postcode":"424 65","addr:street":"Triörgatan","amenity":"dentist","branch":"Angered","brand":"Folktandvården","brand:wikidata":"Q10497476","healthcare":"dentist","name":"Folktandvården","opening_hours":"Mo-Th 07:00-19:00; Fr 07:00-16:00","phone":"+46 10 441 74 50","website":"https://folktandvarden.vgregion.se/vara-kliniker/allmantandvardskliniker/folktandvarden-angered-goteborg/"}},"geometry":{"type":"Point","coordinates":[12.0513064,57.7983408]}},{"type":"Feature","properties":{"id":973276811,"osm_type":"node","name":"Tandläkargruppen","category":"dentistry","tags":{"amenity":"dentist","healthcare":"dentist","name":"Tandläkargruppen"}},"geometry":{"type":"Point","coordinates":[11.9918456,57.6873772]}},{"type":"Feature","properties":{"id":1098160564,"osm_type":"node","name":"","category":"dentistry","tags":{"amenity":"dentist"}},"geometry":{"type":"Point","coordinates":[11.9052822,57.7188566]}},{"type":"Feature","properties":{"id":1184155560,"osm_type":"node","name":"Folktandvården","category":"dentistry","tags":{"amenity":"dentist","brand":"Folktandvården","brand:wikidata":"Q10497476","brand:wikipedia":"sv:Folktandvården","healthcare":"dentist","name":"Folktandvården","opening_hours":"Mo,Tu 07:00-15:40; We 07:51-14:00; Th 07:00-15:40; Fr 07:00-15:00","wheelchair":"yes"}},"geometry":{"type":"Point","coordinates":[11.9362084,57.7214465]}},{"type":"Feature","properties":{"id":1570029343,"osm_type":"node","name":"Folktandvården","category":"dentistry","tags":{"amenity":"dentist","branch":"Gibraltar","brand":"Folktandvården","brand:wikidata":"Q10497476","healthcare":"dentist","name":"Folktandvården"}},"geometry":{"type":"Point","coordinates":[11.9776328,57.6918881]}},{"type":"Feature","properties":{"id":1681959555,"osm_type":"node","name":"Folktandvården","category":"dentistry","tags":{"addr:city":"Askim","addr:housenumber":"5","addr:place":"Askims Torg","addr:postcode":"43643","amenity":"dentist","branch":"Askim","brand":"Folktandvården","brand:wikidata":"Q10497476","contact:phone":"+46-31686760","healthcare":"dentist","name":"Folktandvården","opening_hours":"Mo-Fr 08:00-17:00","website":"https://folktandvarden.vgregion.se/vara-kliniker/allmantandvardskliniker/folktandvarden-askim-goteborg/"}},"geometry":{"type":"Point","coordinates":[11.9367236,57.6335228]}},{"type":"Feature","properties":{"id":1924177763,"osm_type":"node","name":"Tandläkare Ella Yahyapour","category":"dentistry","tags":{"addr:city":"Göteborg","addr:country":"SE","addr:housenumber":"38","addr:street":"Stampgatan","amenity":"dentist","contact:phone":"+46 31 15 14 16","healthcare":"dentist","name":"Tandläkare Ella Yahyapour","shop":"florist"}},"geometry":{"type":"Point","coordinates":[11.9856898,57.7077946]}},{"type":"Feature","properties":{"id":2033520152,"osm_type":"node","name":"SMAJLA Avenyn","category":"dentistry","tags":{"addr:city":"Göteborg","addr:country":"SE","addr:housenumber":"34","addr:postcode":"411 36","addr:street":"Kungsportsavenyen","amenity":"dentist","email":"info@smajla.se","healthcare":"dentist","healthcare:speciality":"orthodontics","name":"SMAJLA Avenyn","operator":"SMAJLA Dental AB","phone":"+46 31 99 44 44","website":"https://www.smajla.se"}},"geometry":{"type":"Point","coordinates":[11.9773807,57.699038]}},{"type":"Feature","properties":{"id":2079014094,"osm_type":"node","name":"Jättestenskliniken","category":"dentistry","tags":{"amenity":"dentist","name":"Jättestenskliniken"}},"geometry":{"type":"Point","coordinates":[11.9435265,57.7208976]}},{"type":"Feature","properties":{"id":2139221254,"osm_type":"node","name":"Elite Smile","category":"dentistry","tags":{"amenity":"dentist","healthcare":"dentist","name":"Elite Smile"}},"geometry":{"type":"Point","coordinates":[11.9803747,57.6994986]}},{"type":"Feature","properties":{"id":2139231449,"osm_type":"node","name":"Folktandvården","category":"dentistry","tags":{"amenity":"dentist","brand":"Folktandvården","brand:wikidata":"Q10497476","brand:wikipedia":"sv:Folktandvården","healthcare":"dentist","name":"Folktandvården"}},"geometry":{"type":"Point","coordinates":[11.892189,57.7128215]}},{"type":"Feature","properties":{"id":2141492049,"osm_type":"node","name":"Aqua Dental","category":"dentistry","tags":{"amenity":"dentist","check_date":"2026-04-30","healthcare":"dentist","name":"Aqua Dental"}},"geometry":{"type":"Point","coordinates":[11.9629826,57.7049438]}},{"type":"Feature","properties":{"id":2214756303,"osm_type":"node","name":"Folktandvården","category":"dentistry","tags":{"amenity":"dentist","brand":"Folktandvården","brand:wikidata":"Q10497476","brand:wikipedia":"sv:Folktandvården","check_date":"2024-06-20","healthcare":"dentist","name":"Folktandvården","wheelchair":"yes"}},"geometry":{"type":"Point","coordinates":[11.9972726,57.7145497]}},{"type":"Feature","properties":{"id":2465823156,"osm_type":"node","name":"Linnégatans Implantatklinik","category":"dentistry","tags":{"access":"yes","addr:city":"Göteborg","addr:country":"SE","addr:housenumber":"50","addr:postcode":"413 08","addr:street":"Linnégatan","amenity":"dentist","check_date:opening_hours":"2025-10-19","contact:email":"kontakt@linnegatansimplantatklinik.se","contact:facebook":"https://www.facebook.com/posts/","contact:instagram":"https://www.instagram.com/linnegatansimplantatklinik","contact:phone":"+46 31 141 44 5","contact:website":"https://linnegatansimplantatklinik.se/","entrance":"yes","healthcare":"dentist","name":"Linnégatans Implantatklinik","opening_hours":"Mo-Th 07:00-19:00; Fr 08:00-16:00","payment:cash":"yes","payment:credit_cards":"yes","payment:debit_cards":"yes"}},"geometry":{"type":"Point","coordinates":[11.9527237,57.6940718]}},{"type":"Feature","properties":{"id":2638431705,"osm_type":"node","name":"Vasa Tandklinik","category":"dentistry","tags":{"amenity":"dentist","healthcare":"dentist","name":"Vasa Tandklinik"}},"geometry":{"type":"Point","coordinates":[11.9697327,57.700361]}},{"type":"Feature","properties":{"id":2931043801,"osm_type":"node","name":"Tandläkarklinik","category":"dentistry","tags":{"amenity":"dentist","check_date":"2025-11-16","check_date:opening_hours":"2023-12-10","healthcare":"dentist","name":"Tandläkarklinik","opening_hours":"Mo-Th 09:00-16:00; Fr 09:00-14:00","payment:cash":"yes","payment:credit_cards":"yes","payment:debit_cards":"yes","phone":"+46 31 205 05 0"}},"geometry":{"type":"Point","coordinates":[11.985955,57.696971]}},{"type":"Feature","properties":{"id":3167183173,"osm_type":"node","name":"Folktandvården Kvillebäcken","category":"dentistry","tags":{"amenity":"dentist","name":"Folktandvården Kvillebäcken","opening_hours":"Mo-Th 07:00-19:00; Fr 07:00-15:00"}},"geometry":{"type":"Point","coordinates":[11.948761,57.7209921]}},{"type":"Feature","properties":{"id":3196418274,"osm_type":"node","name":"Akutkliniken Svingeln","category":"dentistry","tags":{"amenity":"dentist","healthcare":"dentist","name":"Akutkliniken Svingeln","website":"https://www.akutkliniken.se/"}},"geometry":{"type":"Point","coordinates":[11.9919077,57.712236]}},{"type":"Feature","properties":{"id":3526000760,"osm_type":"node","name":"Folktandvården","category":"dentistry","tags":{"addr:city":"Göteborg","addr:country":"SE","addr:housenumber":"6","addr:street":"Rullagergatan","amenity":"dentist","brand":"Folktandvården","brand:wikidata":"Q10497476","brand:wikipedia":"sv:Folktandvården","name":"Folktandvården"}},"geometry":{"type":"Point","coordinates":[12.0139238,57.7290053]}},{"type":"Feature","properties":{"id":4335910331,"osm_type":"node","name":"Folktandvården","category":"dentistry","tags":{"addr:city":"Göteborg","addr:country":"SE","addr:housenumber":"10","addr:street":"Odinsgatan","amenity":"dentist","brand":"Folktandvården","brand:wikidata":"Q10497476","healthcare":"dentist","name":"Folktandvården","opening_hours":"Mo-Fr 08:00-20:00; Sa,Su 08:00-16:00","operator":"Folktandvården"}},"geometry":{"type":"Point","coordinates":[11.979935,57.7090189]}},{"type":"Feature","properties":{"id":4338710897,"osm_type":"node","name":"Videnta Tandvård","category":"dentistry","tags":{"addr:city":"Göteborg","addr:housenumber":"8","addr:postcode":"411 02","addr:street":"Baldersgatan","amenity":"dentist","contact:email":"info@videnta.se","contact:phone":"+46 31 15 94 80","contact:website":"https://www.videnta.se/","healthcare":"dentist","name":"Videnta Tandvård","opening_hours":"Mo-Fr 09:00-18:00"}},"geometry":{"type":"Point","coordinates":[11.9865503,57.7089424]}},{"type":"Feature","properties":{"id":4537401105,"osm_type":"node","name":"Golden Smile","category":"dentistry","tags":{"amenity":"dentist","healthcare":"dentist","name":"Golden Smile","opening_hours":"Mo-Th 08:00-17:00; Fr 08:00-15:00","website":"https://goldensmile.se/"}},"geometry":{"type":"Point","coordinates":[11.928258,57.6710663]}},{"type":"Feature","properties":{"id":4665076893,"osm_type":"node","name":"Folktandvården Tuve","category":"dentistry","tags":{"addr:city":"Göteborg","addr:country":"SE","addr:housenumber":"4","addr:postcode":"41745","addr:street":"Tuve Torg","amenity":"dentist","contact:phone":"+46104418960","contact:website":"https://www.vgregion.se/","name":"Folktandvården Tuve","opening_hours":"Mo-Th 07:00-19:00; Fr 07:00-17:00"}},"geometry":{"type":"Point","coordinates":[11.9268002,57.7551153]}},{"type":"Feature","properties":{"id":4905980921,"osm_type":"node","name":"Dima Jasser tandläkarmottagning","category":"dentistry","tags":{"amenity":"dentist","contact:phone":"+46-313304151","contact:website":"http://Maxhalsa.com","healthcare":"dentist","name":"Dima Jasser tandläkarmottagning","name:ar":"طبيب أسنان (دكتورة ديمة جاسر)","name:en":"Dental doctor (Dr. Dima Jasser)","name:sv":"Maxhälsa tandläkare (Dr.Dima Jasser)","opening_hours":"Mo-Tu, Th-Fr 11:00-19:00"}},"geometry":{"type":"Point","coordinates":[12.0314261,57.8039583]}},{"type":"Feature","properties":{"id":5505825230,"osm_type":"node","name":"Aqua Dental Olskroken","category":"dentistry","tags":{"addr:city":"Göteborg","addr:country":"SE","addr:housenumber":"13A","addr:postcode":"41665","addr:street":"Redbergsvägen","amenity":"dentist","contact:email":"servicecenter@aquadental.se","contact:phone":"+46 101880000","contact:website":"http://aquadental.se","healthcare":"dentist","name":"Aqua Dental Olskroken","opening_hours":"Mo-Th 07:00-20:30; Fr 07:00-15:30; Sa-Su 08:00-15:30","payment:mastercard":"yes","payment:visa":"yes"}},"geometry":{"type":"Point","coordinates":[11.9997836,57.7144634]}},{"type":"Feature","properties":{"id":5505825231,"osm_type":"node","name":"Aqua Dental: Tandläkare City","category":"dentistry","tags":{"addr:city":"Göteborg","addr:country":"SE","addr:housenumber":"52","addr:postcode":"41109","addr:street":"Östra Hamngatan","amenity":"dentist","contact:email":"servicecenter@aquadental.se","contact:phone":"+46 101880000","contact:website":"http://aquadental.se","healthcare":"dentist","name":"Aqua Dental: Tandläkare City","name:sv":"Aqua Dental: Göteborg City","operator":"Aqua Dental"}},"geometry":{"type":"Point","coordinates":[11.9695456,57.7047718]}},{"type":"Feature","properties":{"id":6002985389,"osm_type":"node","name":"Folktandvården","category":"dentistry","tags":{"amenity":"dentist","branch":"Guldheden","brand":"Folktandvården","brand:wikidata":"Q10497476","healthcare":"dentist","name":"Folktandvården"}},"geometry":{"type":"Point","coordinates":[11.9716188,57.6832455]}},{"type":"Feature","properties":{"id":6002985390,"osm_type":"node","name":"Tandläkare Lars-Gunnar Karlsson","category":"dentistry","tags":{"amenity":"dentist","healthcare":"dentist","name":"Tandläkare Lars-Gunnar Karlsson"}},"geometry":{"type":"Point","coordinates":[11.97171,57.6832899]}},{"type":"Feature","properties":{"id":7211564646,"osm_type":"node","name":"Hörntanden Göteborg","category":"dentistry","tags":{"addr:city":"Göteborg","addr:country":"SE","addr:housenumber":"3","addr:postcode":"414 77","addr:street":"Marklandsgatan","amenity":"dentist","contact:email":"horntandengoteborg@gmail.com","contact:facebook":"https://horntandengoteborg.se/","contact:phone":"+46 31 413 21 0","contact:website":"https://horntandengoteborg.se/","healthcare":"dentist","name":"Hörntanden Göteborg","opening_hours":"Mo 08:00-15:00; Tu,Th 08:00-16:00; We 08:00-18:00; Fr 08:00-12:00","payment:cash":"yes","payment:credit_cards":"yes","payment:debit_cards":"yes"}},"geometry":{"type":"Point","coordinates":[11.9346271,57.6740874]}},{"type":"Feature","properties":{"id":8841785073,"osm_type":"node","name":"Folktandvården Axel","category":"dentistry","tags":{"amenity":"dentist","name":"Folktandvården Axel","opening_hours":"Mo 07:30-16:00; Tu 08:30-18:00; We,Th 07:30-16:00; Fr 07:30-15:00","website":"https://folktandvarden.vgregion.se/vara-kliniker/allmantandvardskliniker/folktandvarden-axel-goteborg/"}},"geometry":{"type":"Point","coordinates":[11.9274551,57.6715021]}},{"type":"Feature","properties":{"id":10246876570,"osm_type":"node","name":"Tandkliniken Kungssten","category":"dentistry","tags":{"amenity":"dentist","healthcare":"dentist","name":"Tandkliniken Kungssten","opening_hours":"Mo-Fr 10:00-18:00"}},"geometry":{"type":"Point","coordinates":[11.8975973,57.6795687]}},{"type":"Feature","properties":{"id":10278294952,"osm_type":"node","name":"2xTandläkarna Frimansson","category":"dentistry","tags":{"amenity":"dentist","healthcare":"dentist","name":"2xTandläkarna Frimansson"}},"geometry":{"type":"Point","coordinates":[11.9362008,57.6669874]}},{"type":"Feature","properties":{"id":10579139874,"osm_type":"node","name":"Oris Dental Dagnelid","category":"dentistry","tags":{"amenity":"dentist","name":"Oris Dental Dagnelid"}},"geometry":{"type":"Point","coordinates":[11.9425732,57.6643818]}},{"type":"Feature","properties":{"id":10611479675,"osm_type":"node","name":"Amiral Dent","category":"dentistry","tags":{"amenity":"dentist","healthcare":"dentist","name":"Amiral Dent"}},"geometry":{"type":"Point","coordinates":[11.9297516,57.695459]}},{"type":"Feature","properties":{"id":10611494507,"osm_type":"node","name":"Folktandvården","category":"dentistry","tags":{"addr:city":"Göteborg","addr:housenumber":"3","addr:postcode":"41448","addr:street":"Jaegerdorffsplatsen","amenity":"dentist","branch":"Majorna","brand":"Folktandvården","brand:wikidata":"Q10497476","check_date":"2023-05-24","healthcare":"dentist","name":"Folktandvården","website":"https://folktandvarden.vgregion.se/vara-kliniker/allmantandvardskliniker/folktandvarden-majorna-goteborg/","wheelchair":"yes"}},"geometry":{"type":"Point","coordinates":[11.9161525,57.6909583]}},{"type":"Feature","properties":{"id":10611753205,"osm_type":"node","name":"Distriktstandvården Wieselgrensplatsen","category":"dentistry","tags":{"addr:city":"Göteborg","addr:country":"SE","addr:housenumber":"29","addr:postcode":"41712","addr:street":"Wieselgrensplatsen","amenity":"dentist","branch":"Wieselgrensplatsen","brand":"Distriktstandvården","brand:wikidata":"Q10474535","check_date":"2025-05-29","email":"wieselgrensplatsen@distriktstandvarden.se","healthcare":"dentist","healthcare:speciality":"dentist;dental;dentistry;emergency_dental_care;dental_bridges;tooth_bonding;dental_extraction;dental_surgery;dental_crowns;dental_fillings;root_canals;tooth_whitening;dental_implants;dental_splints;tartar_removal;dental_examination","name":"Distriktstandvården Wieselgrensplatsen","opening_hours":"Mo-Th 07:00-19:00; Fr 07:00-17:00","operator":"Distriktstandvården","operator:type":"private","phone":"+4631235970","website":"https://distriktstandvarden.se/wieselgrensplatsen/","wheelchair":"yes"}},"geometry":{"type":"Point","coordinates":[11.9332325,57.7217433]}},{"type":"Feature","properties":{"id":10676938934,"osm_type":"node","name":"Majornas tandhälsovård","category":"dentistry","tags":{"amenity":"dentist","healthcare":"dentist","name":"Majornas tandhälsovård","opening_hours":"Mo-Th 08:00-17:00; Fr 08:00-13:00"}},"geometry":{"type":"Point","coordinates":[11.9195451,57.6863218]}},{"type":"Feature","properties":{"id":10739425478,"osm_type":"node","name":"Övre Husartandläkarna","category":"dentistry","tags":{"addr:city":"Göteborg","addr:housenumber":"21A","addr:postcode":"413 14","addr:street":"Övre Husargatan","amenity":"dentist","email":"info@ohtgbg.se","healthcare":"dentist","name":"Övre Husartandläkarna","name:sv":"Övre Husartandläkarna","opening_hours":"Mo-Th 07:30-17:00; Fr 07:30-13:00; Sa-Su off","payment:cash":"yes","payment:credit_cards":"yes","payment:debit_cards":"yes","phone":"+46 31 711 90 10","website":"https://www.xn--ht-eka.se/","wheelchair":"no"}},"geometry":{"type":"Point","coordinates":[11.9559809,57.6931796]}},{"type":"Feature","properties":{"id":10820368233,"osm_type":"node","name":"Team Bergström","category":"dentistry","tags":{"addr:city":"Mölndal","addr:housenumber":"5","addr:postcode":"431 30","addr:street":"Bergmansgatan","amenity":"dentist","email":"info@molndalstandhalsovard.se","healthcare":"dentist","level":"2","name":"Team Bergström","phone":"+46 31 67 22 50","website":"https://team-bergstrom.molndalstandhalsovard.se"}},"geometry":{"type":"Point","coordinates":[12.0157095,57.6561957]}},{"type":"Feature","properties":{"id":11229768560,"osm_type":"node","name":"Happident","category":"dentistry","tags":{"amenity":"dentist","branch":"Munkebäck","healthcare":"dentist","name":"Happident"}},"geometry":{"type":"Point","coordinates":[12.0255093,57.7204166]}},{"type":"Feature","properties":{"id":11261176211,"osm_type":"node","name":"Happident","category":"dentistry","tags":{"addr:city":"Göteborg","addr:housenumber":"9-11","addr:postcode":"41512","addr:street":"Gamlestads Brygga","amenity":"dentist","branch":"Gamlestaden","healthcare":"dentist","name":"Happident","website":"https://happident.se/tandlakare/goteborg/gamlestaden/"}},"geometry":{"type":"Point","coordinates":[12.0059795,57.7275234]}},{"type":"Feature","properties":{"id":11984937690,"osm_type":"node","name":"Dr V Tandklinik","category":"dentistry","tags":{"amenity":"dentist","healthcare":"dentist","name":"Dr V Tandklinik"}},"geometry":{"type":"Point","coordinates":[11.9455091,57.7212842]}},{"type":"Feature","properties":{"id":11997986353,"osm_type":"node","name":"Skansenklinken","category":"dentistry","tags":{"addr:city":"Göteborg","addr:country":"SE","addr:housenumber":"14","addr:postcode":"413 07","addr:street":"Kastellgatan","amenity":"dentist","contact:email":"ahmed.oleiwi@hotmail.com","contact:facebook":"https://www.facebook.com/skansenkliniken/","contact:instagram":"https://www.instagram.com/skansenkliniken","contact:phone":"+46 73 392 00 40","contact:website":"https://www.skansenkliniken.com/","healthcare":"dentist","level":"0","name":"Skansenklinken","opening_hours":"Mo,Su off; Tu-We 10:00-19:00; Th 09:00-16:00; Fr-Sa 10:00-17:00","payment:cash":"yes","payment:credit_cards":"yes","payment:debit_cards":"yes"}},"geometry":{"type":"Point","coordinates":[11.9556767,57.6943855]}},{"type":"Feature","properties":{"id":12452832569,"osm_type":"node","name":"Oris Dental","category":"dentistry","tags":{"amenity":"dentist","healthcare":"dentist","name":"Oris Dental","opening_hours":"Mo-Fr 07:00-21:00"}},"geometry":{"type":"Point","coordinates":[11.9807226,57.7088389]}},{"type":"Feature","properties":{"id":12554216601,"osm_type":"node","name":"Distriktstandvården Frölunda Torg","category":"dentistry","tags":{"addr:city":"Västra frölunda","addr:country":"SE","addr:housenumber":"38","addr:postcode":"42142","addr:street":"Näverlursgatan","amenity":"dentist","branch":"Frölunda Torg","brand":"Distriktstandvården","brand:wikidata":"Q10474535","check_date":"2026-01-28","email":"frolundatorg@distriktstandvarden.se","healthcare":"dentist","healthcare:speciality":"dentist;dental;dentistry;emergency_dental_care;dental_bridges;tooth_bonding;dental_extraction;dental_surgery;dental_crowns;dental_fillings;root_canals;tooth_whitening;dental_implants;dental_splints;tartar_removal;dental_examination","name":"Distriktstandvården Frölunda Torg","opening_hours":"Mo-Th 08:00-18:30; Fr 08:00-13:45","operator":"Distriktstandvården","phone":"+4631471070","website":"https://distriktstandvarden.se/frölunda-torg/","wheelchair":"yes"}},"geometry":{"type":"Point","coordinates":[11.91081,57.651175]}},{"type":"Feature","properties":{"id":12554216701,"osm_type":"node","name":"Distriktstandvården Kvillebäcken","category":"dentistry","tags":{"addr:city":"Göteborg","addr:country":"SE","addr:housenumber":"1D","addr:postcode":"41703","addr:street":"Herkulesgatan","amenity":"dentist","branch":"Kvillebäcken","brand":"Distriktstandvården","brand:wikidata":"Q10474535","check_date":"2026-01-28","email":"kvillebacken@distriktstandvarden.se","healthcare":"dentist","healthcare:speciality":"dentist;dental;dentistry;emergency_dental_care;dental_bridges;tooth_bonding;dental_extraction;dental_surgery;dental_crowns;dental_fillings;root_canals;tooth_whitening;dental_implants;dental_splints;tartar_removal;dental_examination","name":"Distriktstandvården Kvillebäcken","opening_hours":"Mo 08:00-18:15; Tu-We 08:00-16:30; Th 08:00-18:15; Fr 08:00-13:45","operator":"Distriktstandvården","phone":"+4631225880","website":"https://distriktstandvarden.se/kvillebäcken/","wheelchair":"yes"}},"geometry":{"type":"Point","coordinates":[11.951826,57.719831]}},{"type":"Feature","properties":{"id":12723383704,"osm_type":"node","name":"Primär Tandvården","category":"dentistry","tags":{"amenity":"dentist","healthcare":"dentist","name":"Primär Tandvården"}},"geometry":{"type":"Point","coordinates":[12.0717736,57.7200888]}},{"type":"Feature","properties":{"id":12752353866,"osm_type":"node","name":"","category":"dentistry","tags":{"amenity":"dentist","healthcare":"dentist"}},"geometry":{"type":"Point","coordinates":[12.0134729,57.7296265]}},{"type":"Feature","properties":{"id":13109045526,"osm_type":"node","name":"Dentali Tandvård","category":"dentistry","tags":{"addr:city":"Göteborg","addr:housenumber":"2A","addr:postcode":"417 17","addr:street":"Nordanvindsgatan","amenity":"dentist","check_date:opening_hours":"2025-09-28","healthcare":"dentist","name":"Dentali Tandvård","opening_hours:signed":"no"}},"geometry":{"type":"Point","coordinates":[11.9337262,57.7209389]}},{"type":"Feature","properties":{"id":13128384702,"osm_type":"node","name":"Aquadental","category":"dentistry","tags":{"amenity":"dentist","healthcare":"dentist","name":"Aquadental"}},"geometry":{"type":"Point","coordinates":[11.9841997,57.6858631]}},{"type":"Feature","properties":{"id":13145062304,"osm_type":"node","name":"Landalatandläkarna","category":"dentistry","tags":{"addr:housenumber":"3","addr:street":"Kapellplatsen","amenity":"dentist","check_date":"2025-09-15","email":"info@landalatandlakarna.se","healthcare":"dentist","name":"Landalatandläkarna","opening_hours":"Mo-Th 08:00-17:00; Fr 08:00-15:30; Sa-Su off","phone":"+46 31-165 88 0","website":"https://landalatandlakarna.se/"}},"geometry":{"type":"Point","coordinates":[11.9714817,57.6932421]}},{"type":"Feature","properties":{"id":13161544801,"osm_type":"node","name":"Distriktstandvården Partille","category":"dentistry","tags":{"addr:city":"Partille","addr:country":"SE","addr:housenumber":"15","addr:postcode":"43333","addr:street":"Kyrktorget","amenity":"dentist","check_date":"2026-01-28","email":"partille@distriktstandvarden.se","healthcare":"dentist","healthcare:speciality":"dentist;dental;dentistry;emergency_dental_care;dental_bridges;tooth_bonding;dental_extraction;dental_crowns;dental_fillings;root_canals;tooth_whitening;dental_implants;tartar_removal;dental_examination","name":"Distriktstandvården Partille","opening_hours":"Mo 08:00-15:00; Tu 08:00-18:00; We 08:00-14:00; Th 08:00-18:00; Fr 08:00-14:00","operator":"Distriktstandvården","phone":"+4631442700","website":"https://distriktstandvarden.se/partille/","wheelchair":"yes"}},"geometry":{"type":"Point","coordinates":[12.106083,57.739006]}},{"type":"Feature","properties":{"id":13308656040,"osm_type":"node","name":"Folktandvården","category":"dentistry","tags":{"addr:housenumber":"27","addr:street":"Biskopsbogatan","amenity":"dentist","brand":"Folktandvården","brand:wikidata":"Q10497476","healthcare":"dentist","name":"Folktandvården","operator":"Västra Götalandsregionen"}},"geometry":{"type":"Point","coordinates":[12.0109901,57.6618601]}},{"type":"Feature","properties":{"id":13317898912,"osm_type":"node","name":"Folktandvården","category":"dentistry","tags":{"addr:city":"Lindome","addr:housenumber":"5","addr:postcode":"437 30","addr:street":"Almåsgången","amenity":"dentist","branch":"Lindome","brand":"Folktandvården","brand:wikidata":"Q10497476","healthcare":"dentist","name":"Folktandvården","opening_hours":"Mo-Th 07:00-19:00; Fr 07:00-15:00","phone":"+46 10 441 9240","website":"https://folktandvarden.vgregion.se/lindome","wheelchair":"yes"}},"geometry":{"type":"Point","coordinates":[12.0870666,57.5773554]}},{"type":"Feature","properties":{"id":13366959425,"osm_type":"node","name":"Tandhugget","category":"dentistry","tags":{"addr:housenumber":"44","addr:street":"Andra Långgatan","amenity":"dentist","contact:facebook":"https://www.facebook.com/tandhugget","contact:instagram":"https://www.instagram.com/tandhugget/","email":"bokning@tandhugget.se","healthcare":"dentist","name":"Tandhugget","phone":"031-14 13 50","website":"https://www.tandhugget.se/"}},"geometry":{"type":"Point","coordinates":[11.9424675,57.6982699]}},{"type":"Feature","properties":{"id":13366959426,"osm_type":"node","name":"Folktandvården Järntorget","category":"dentistry","tags":{"addr:housenumber":"26","addr:street":"Första Långgatan","amenity":"dentist","healthcare":"dentist","name":"Folktandvården Järntorget","phone":"010 - 441 96 90","website":"https://folktandvarden.vgregion.se/jarntorget"}},"geometry":{"type":"Point","coordinates":[11.9466193,57.6994671]}},{"type":"Feature","properties":{"id":13366959427,"osm_type":"node","name":"Tandläkare Roya Farzini","category":"dentistry","tags":{"addr:housenumber":"4","addr:street":"Första Långgatan","amenity":"dentist","healthcare":"dentist","name":"Tandläkare Roya Farzini","phone":"031-42 62 00","website":"https://www.tandlakarefarzini.se/"}},"geometry":{"type":"Point","coordinates":[11.9510966,57.6999727]}},{"type":"Feature","properties":{"id":13366959428,"osm_type":"node","name":"Tandvårdsgruppen","category":"dentistry","tags":{"addr:housenumber":"12","addr:street":"Prinsgatan","amenity":"dentist","email":"info@teamtandvardsgruppen.se","healthcare":"dentist","name":"Tandvårdsgruppen","phone":"031 - 42 80 90","website":"https://www.teamtandvardsgruppen.se/"}},"geometry":{"type":"Point","coordinates":[11.9481222,57.6977032]}},{"type":"Feature","properties":{"id":13366959429,"osm_type":"node","name":"Beijer Tandläkarpraktik","category":"dentistry","tags":{"addr:housenumber":"26","addr:street":"Lilla Risåsgatan","amenity":"dentist","email":"info@tandlakarebeijer.se","healthcare":"dentist","name":"Beijer Tandläkarpraktik","phone":"031-148272","website":"https://www.tandlakarebeijer.se"}},"geometry":{"type":"Point","coordinates":[11.9530977,57.6957587]}},{"type":"Feature","properties":{"id":13366959430,"osm_type":"node","name":"Diva Tandklinik","category":"dentistry","tags":{"addr:housenumber":"10","addr:street":"Seminariegatan","amenity":"dentist","contact:facebook":"https://www.facebook.com/divatandklinikab","contact:instagram":"https://www.instagram.com/divatandklinik/","email":"info@divatandklinik.se","healthcare":"dentist","name":"Diva Tandklinik","phone":"0739428084","website":"https://divatandklinik.se/"}},"geometry":{"type":"Point","coordinates":[11.9574997,57.6914081]}},{"type":"Feature","properties":{"id":13366959431,"osm_type":"node","name":"Tdl Christina Hellquist-Kanagaraja","category":"dentistry","tags":{"addr:housenumber":"1","addr:street":"Ängemarken","amenity":"dentist","check_date":"2025-12-09","email":"info.hellquist@ptj.se","healthcare":"dentist","name":"Tdl Christina Hellquist-Kanagaraja","phone":"+46 31 187 38 8","website":"https://dittleende.se/"}},"geometry":{"type":"Point","coordinates":[11.9657864,57.6891717]}},{"type":"Feature","properties":{"id":13366959432,"osm_type":"node","name":"Linné tandläkarcenter","category":"dentistry","tags":{"addr:housenumber":"36","addr:street":"Nordostpassagen","amenity":"dentist","check_date":"2025-12-09","email":"info@linnetandlakarcenter.se","healthcare":"dentist","name":"Linné tandläkarcenter","phone":"+46 31-144 00 0","website":"https://linnetandlakarcenter.se/"}},"geometry":{"type":"Point","coordinates":[11.9477408,57.6934753]}},{"type":"Feature","properties":{"id":13366959433,"osm_type":"node","name":"Olivedalstandläkarna","category":"dentistry","tags":{"addr:housenumber":"62","addr:street":"Linnégatan","amenity":"dentist","check_date":"2025-12-09","contact:facebook":"https://www.facebook.com/Olivedalstandlakarna/","contact:instagram":"https://www.instagram.com/olivedalstandlakarna","email":"info@olivedalstandlakarna.se","healthcare":"dentist","level":"1","name":"Olivedalstandläkarna","opening_hours":"Mo 08:00-16:30; Tu,Th 08:00-18:00; We 08:00-17:00; Fr 08:00-15:00; Sa-Su off","phone":"+46 31 142 40 5","website":"https://olivedalstandlakarna.se"}},"geometry":{"type":"Point","coordinates":[11.9530413,57.692791]}},{"type":"Feature","properties":{"id":13366959434,"osm_type":"node","name":"Linnétandvården","category":"dentistry","tags":{"addr:housenumber":"5","addr:street":"Linnégatan","amenity":"dentist","check_date":"2025-12-09","contact:facebook":"https://www.facebook.com/linnetandvardengoteborg/","contact:instagram":"https://www.instagram.com/linnetandvarden","email":"info@linnetandvarden.se","healthcare":"dentist","name":"Linnétandvården","opening_hours":"Mo 07:00-19:00; Tu-We,Fr 07:00-16:00; Th 07:00-17:00; Sa-Su off","phone":"+46 31 140 58 9","website":"https://www.linnetandvarden.se"}},"geometry":{"type":"Point","coordinates":[11.9514237,57.6985333]}},{"type":"Feature","properties":{"id":13446377028,"osm_type":"node","name":"","category":"dentistry","tags":{"amenity":"dentist","healthcare":"dentist"}},"geometry":{"type":"Point","coordinates":[11.9337085,57.699174]}},{"type":"Feature","properties":{"id":13524057493,"osm_type":"node","name":"Folktandvården Mölnlycke","category":"dentistry","tags":{"addr:city":"Mölnlycke","addr:housenumber":"2","addr:street":"Ekdalavägen","amenity":"dentist","brand":"Folktandvården","brand:wikidata":"Q10497476","healthcare":"dentist","level":"1","name":"Folktandvården Mölnlycke","opening_hours":"Mo-Th 07:00-19:00; Fr 07:00-15:10","operator":"Västra Götalandsregionen","website":"https://folktandvarden.vgregion.se/hitta-klinik/allmantandvardskliniker/folktandvarden-molnlycke/"}},"geometry":{"type":"Point","coordinates":[12.1130447,57.6580007]}},{"type":"Feature","properties":{"id":13629411201,"osm_type":"node","name":"Smile Tandvård Göteborg Ett4","category":"dentistry","tags":{"addr:housenumber":"14","addr:postcode":"41126","addr:street":"Erik Dahlbergsgatan","amenity":"dentist","check_date":"2026-03-09","healthcare":"dentist","name":"Smile Tandvård Göteborg Ett4","website":"https://www.smile.se/tandlakare/smile-goteborg-ett4/"}},"geometry":{"type":"Point","coordinates":[11.9683712,57.6987957]}}]}