{"type":"FeatureCollection","features":[{"type":"Feature","properties":{"id":3568631194,"osm_type":"node","name":"Volvo Brandstation","category":"fire_station","tags":{"amenity":"fire_station","name":"Volvo Brandstation"}},"geometry":{"type":"Point","coordinates":[11.8402524,57.719966]}},{"type":"Feature","properties":{"id":715994887,"osm_type":"way","name":"Kortedala brandstation","category":"fire_station","tags":{"alt_name":"Brandstation Kortedala","amenity":"fire_station","contact:website":"http://www.rsgbg.se/","fire_station:type":"main_station","name":"Kortedala brandstation","operator":"Räddningstjänsten Storgöteborg","website":"https://www.rsgbg.se/"}},"geometry":{"type":"Point","coordinates":[12.0265525,57.7581777]}},{"type":"Feature","properties":{"id":1103598175,"osm_type":"way","name":"Lundby brandstation","category":"fire_station","tags":{"alt_name":"Brandstation Lundby","amenity":"fire_station","contact:website":"http://www.rsgbg.se/","fire_station:type":"main_station","name":"Lundby brandstation","operator":"Räddningstjänsten Storgöteborg","website":"https://www.rsgbg.se/"}},"geometry":{"type":"Point","coordinates":[11.9263852,57.711745]}},{"type":"Feature","properties":{"id":1351184172,"osm_type":"way","name":"Lindome brandstation","category":"fire_station","tags":{"alt_name":"Brandstation Lindome","amenity":"fire_station","contact:website":"http://www.rsgbg.se/","fire_station:type:SV":"Räddningsvärn","name":"Lindome brandstation","operator":"Räddningstjänsten Storgöteborg","website":"https://www.rsgbg.se/"}},"geometry":{"type":"Point","coordinates":[12.0502291,57.570351]}},{"type":"Feature","properties":{"id":1351184852,"osm_type":"way","name":"Mölndals brandstation","category":"fire_station","tags":{"alt_name":"Brandstation Mölndal","amenity":"fire_station","contact:website":"http://www.rsgbg.se/","fire_station:type":"main_station","name":"Mölndals brandstation","operator":"Räddningstjänsten Storgöteborg","website":"https://www.rsgbg.se/"}},"geometry":{"type":"Point","coordinates":[12.0210578,57.6578168]}},{"type":"Feature","properties":{"id":1351185740,"osm_type":"way","name":"Frölunda brandstation","category":"fire_station","tags":{"alt_name":"Brandstation Frölunda","amenity":"fire_station","contact:website":"http://www.rsgbg.se/","fire_station:type:SV":"Räddningsvärn","name":"Frölunda brandstation","operator":"Räddningstjänsten Storgöteborg","website":"https://www.rsgbg.se/"}},"geometry":{"type":"Point","coordinates":[11.8993943,57.6596911]}},{"type":"Feature","properties":{"id":1351186521,"osm_type":"way","name":"Gårda brandstation","category":"fire_station","tags":{"alt_name":"Brandstation Gårda","amenity":"fire_station","contact:email":"raddningstjansten@rsgbg.se","contact:website":"http://www.rsgbg.se/","fire_station:type":"main_station","name":"Gårda brandstation","operator":"Räddningstjänsten Storgöteborg","website":"https://www.rsgbg.se/"}},"geometry":{"type":"Point","coordinates":[11.99087,57.7065936]}},{"type":"Feature","properties":{"id":15312381,"osm_type":"relation","name":"Angereds brandstation","category":"fire_station","tags":{"alt_name":"Brandstation Angered","amenity":"fire_station","contact:website":"http://www.rsgbg.se/","fire_station:type":"main_station","name":"Angereds brandstation","operator":"Räddningstjänsten Storgöteborg","type":"multipolygon","website":"https://www.rsgbg.se/"}},"geometry":{"type":"Point","coordinates":[12.0434164,57.7974415]}},{"type":"Feature","properties":{"id":18550248,"osm_type":"relation","name":"Kålltorps brandstation","category":"fire_station","tags":{"alt_name":"Brandstationen Kålltorp","amenity":"fire_station","fire_station:type":"main_station","name":"Kålltorps brandstation","official_name":"Kålltorp station","operator":"Räddningstjänsten Storgöteborg","type":"multipolygon","website":"https://www.rsgbg.se/"}},"geometry":{"type":"Point","coordinates":[12.030591,57.7186945]}}]}