{"type":"FeatureCollection","features":[{"type":"Feature","properties":{"id":1404439870,"osm_type":"node","name":"Loke","category":"historic_landmark","tags":{"attraction":"amusement_ride","name":"Loke","tourism":"attraction"}},"geometry":{"type":"Point","coordinates":[11.9950181,57.6938291]}},{"type":"Feature","properties":{"id":3396502775,"osm_type":"node","name":"Kulturreservatet Gathenhielm","category":"historic_landmark","tags":{"name":"Kulturreservatet Gathenhielm","tourism":"attraction","wikidata":"Q10550026","wikipedia":"sv:Kulturreservatet Gathenhielm"}},"geometry":{"type":"Point","coordinates":[11.9329344,57.6976128]}},{"type":"Feature","properties":{"id":7623946021,"osm_type":"node","name":"Carnegie Övre","category":"historic_landmark","tags":{"historic":"yes","image":"https://fyr.org/wiki/images/thumb/e/e3/Carnegie%C3%96vreGr%C3%A5berget3.jpg/375px-Carnegie%C3%96vreGr%C3%A5berget3.jpg","name":"Carnegie Övre","website":"https://fyr.org/wiki/index.php/Carnegieska_Bruket"}},"geometry":{"type":"Point","coordinates":[11.9212827,57.6914219]}},{"type":"Feature","properties":{"id":8476767169,"osm_type":"node","name":"Naturspot 2","category":"historic_landmark","tags":{"name":"Naturspot 2","tourism":"attraction"}},"geometry":{"type":"Point","coordinates":[11.8939729,57.6100962]}},{"type":"Feature","properties":{"id":11978172069,"osm_type":"node","name":"Kaninlandsbanan","category":"historic_landmark","tags":{"name":"Kaninlandsbanan","tourism":"attraction"}},"geometry":{"type":"Point","coordinates":[11.9936186,57.6951286]}},{"type":"Feature","properties":{"id":12307781273,"osm_type":"node","name":"Luna","category":"historic_landmark","tags":{"attraction":"roller_coaster","name":"Luna","tourism":"attraction"}},"geometry":{"type":"Point","coordinates":[11.9914149,57.6944169]}},{"type":"Feature","properties":{"id":13094828940,"osm_type":"node","name":"","category":"historic_landmark","tags":{"crane:type":"floor-mounted_crane","historic":"yes","level":"3","man_made":"crane"}},"geometry":{"type":"Point","coordinates":[11.9597446,57.7095091]}},{"type":"Feature","properties":{"id":28805433,"osm_type":"way","name":"Ragnhildsholmen","category":"historic_landmark","tags":{"access":"yes","castle_type":"fortress","historic":"castle","historic:civilization":"middle-ages","name":"Ragnhildsholmen","old_name":"Ragnildarholm","ruins:building":"castle","tourism":"attraction","wikidata":"Q4994584","wikipedia":"sv:Ragnhildsholmen"}},"geometry":{"type":"Point","coordinates":[11.939687,57.8451188]}},{"type":"Feature","properties":{"id":44697495,"osm_type":"way","name":"Kronhuset","category":"historic_landmark","tags":{"building":"yes","building:levels":"6","historic":"building","name":"Kronhuset","roof:colour":"#85B3A9","start_date":"1654","website":"https://kronhuset.se/","wikidata":"Q4572534","wikimedia_commons":"File:Kronhuset Gbg.jpg","wikipedia":"sv:Kronhuset"}},"geometry":{"type":"Point","coordinates":[11.9636452,57.7078574]}},{"type":"Feature","properties":{"id":48171218,"osm_type":"way","name":"Spökhotellet Gasten","category":"historic_landmark","tags":{"building":"yes","name":"Spökhotellet Gasten","tourism":"attraction"}},"geometry":{"type":"Point","coordinates":[11.9961839,57.6949876]}},{"type":"Feature","properties":{"id":48171650,"osm_type":"way","name":"Radiobilarna","category":"historic_landmark","tags":{"attraction":"bumper_car","building":"yes","name":"Radiobilarna","tourism":"attraction","wikidata":"Q19978421","wikipedia":"sv:Radiobilarna, Liseberg"}},"geometry":{"type":"Point","coordinates":[11.993732,57.694383]}},{"type":"Feature","properties":{"id":49687880,"osm_type":"way","name":"Spelhuset","category":"historic_landmark","tags":{"building":"yes","name":"Spelhuset","operator":"Liseberg","tourism":"attraction"}},"geometry":{"type":"Point","coordinates":[11.9940874,57.6926098]}},{"type":"Feature","properties":{"id":49687884,"osm_type":"way","name":"Turbo","category":"historic_landmark","tags":{"building":"yes","name":"Turbo","tourism":"attraction"}},"geometry":{"type":"Point","coordinates":[11.9920263,57.693467]}},{"type":"Feature","properties":{"id":52564823,"osm_type":"way","name":"Carlanderska villan","category":"historic_landmark","tags":{"addr:city":"Göteborg","addr:country":"SE","addr:housenumber":"4","addr:postcode":"412 56","addr:street":"Lyckans Väg","building":"yes","historic":"building","name":"Carlanderska villan","website":"https://gamlagoteborg.se/2018/12/17/carlanderska-villan/"}},"geometry":{"type":"Point","coordinates":[11.9813756,57.6949366]}},{"type":"Feature","properties":{"id":105571545,"osm_type":"way","name":"Balder","category":"historic_landmark","tags":{"attraction":"roller_coaster","building":"yes","image":"https://upload.wikimedia.org/wikipedia/commons/3/3b/Balder_rollercoaster.jpg","name":"Balder","operator":"Liseberg","tourism":"attraction","wheelchair":"yes"}},"geometry":{"type":"Point","coordinates":[11.9963702,57.6933389]}},{"type":"Feature","properties":{"id":108655115,"osm_type":"way","name":"Barken Viking","category":"historic_landmark","tags":{"building":"ship","historic":"ship","name":"Barken Viking","seamark:hulk:category":"accommodation;restaurant","seamark:type":"hulk","ship:type":"steel_sailing_vessel","tourism":"attraction","wikidata":"Q540589","wikipedia":"sv:Barken Viking"}},"geometry":{"type":"Point","coordinates":[11.9653501,57.7127308]}},{"type":"Feature","properties":{"id":119259952,"osm_type":"way","name":"Slänggungan","category":"historic_landmark","tags":{"attraction":"swing_carousel","building":"yes","name":"Slänggungan","tourism":"attraction"}},"geometry":{"type":"Point","coordinates":[11.9935071,57.6931153]}},{"type":"Feature","properties":{"id":124062582,"osm_type":"way","name":"Dan Broström","category":"historic_landmark","tags":{"building":"ship","historic":"ship","name":"Dan Broström","seamark:hulk:category":"museum","seamark:type":"hulk","ship:type":"ferry","start_date":"1963","tourism":"attraction"}},"geometry":{"type":"Point","coordinates":[11.9602949,57.7094959]}},{"type":"Feature","properties":{"id":124062586,"osm_type":"way","name":"Ada I","category":"historic_landmark","tags":{"building":"ship","historic":"ship","name":"Ada I","seamark:hulk:category":"museum","seamark:type":"hulk","start_date":"1963","tourism":"attraction"}},"geometry":{"type":"Point","coordinates":[11.9605783,57.7097345]}},{"type":"Feature","properties":{"id":124062590,"osm_type":"way","name":"Flodsprutan II","category":"historic_landmark","tags":{"building":"ship","name":"Flodsprutan II","seamark:hulk:category":"museum","seamark:type":"hulk","ship:type":"fireboat","start_date":"1931","tourism":"attraction"}},"geometry":{"type":"Point","coordinates":[11.9598259,57.7092084]}},{"type":"Feature","properties":{"id":124062591,"osm_type":"way","name":"Fladen","category":"historic_landmark","tags":{"building":"ship","historic":"ship","name":"Fladen","ref":"Nr.29","seamark:hulk:category":"museum","seamark:type":"hulk","ship:type":"lightship","start_date":"1915","tourism":"attraction","wikidata":"Q5456598"}},"geometry":{"type":"Point","coordinates":[11.9600652,57.7091658]}},{"type":"Feature","properties":{"id":124062593,"osm_type":"way","name":"Nordkaparen","category":"historic_landmark","tags":{"building":"ship","historic":"ship","name":"Nordkaparen","seamark:hulk:category":"museum","seamark:type":"hulk","ship:type":"submarine","start_date":"1961","tourism":"attraction","wikidata":"Q10515046","wikipedia":"sv:HMS Nordkaparen (Nor)"}},"geometry":{"type":"Point","coordinates":[11.9596757,57.7092144]}},{"type":"Feature","properties":{"id":124062598,"osm_type":"way","name":"Ada II","category":"historic_landmark","tags":{"building":"ship","historic":"ship","name":"Ada II","seamark:hulk:category":"museum","seamark:type":"hulk","start_date":"1963","tourism":"attraction"}},"geometry":{"type":"Point","coordinates":[11.9599727,57.7092067]}},{"type":"Feature","properties":{"id":124062602,"osm_type":"way","name":"HMS Småland","category":"historic_landmark","tags":{"building":"ship","building:colour":"lightgrey","building:material":"metal","contact:website":"http://www.maritiman.se/fartygsflottan/jagaren-smaland","historic":"ship","manufacturer":"Eriksbergs Mekaniska Verkstad","name":"HMS Småland","ref":"J19","seamark:hulk:category":"museum","seamark:type":"hulk","ship:type":"destroyer","start_date":"1952","tourism":"attraction","wikidata":"Q4352800","wikipedia":"sv:HMS Småland (J19)"}},"geometry":{"type":"Point","coordinates":[11.9597205,57.7094264]}},{"type":"Feature","properties":{"id":126771772,"osm_type":"way","name":"JukeBox","category":"historic_landmark","tags":{"attraction":"amusement_ride","name":"JukeBox","tourism":"attraction","wikidata":"Q10541115"}},"geometry":{"type":"Point","coordinates":[11.9942939,57.693782]}},{"type":"Feature","properties":{"id":127184047,"osm_type":"way","name":"Fisketuren","category":"historic_landmark","tags":{"attraction":"carousel","name":"Fisketuren","source":"local_knowledge;Bing","tourism":"attraction"}},"geometry":{"type":"Point","coordinates":[11.9945499,57.694381]}},{"type":"Feature","properties":{"id":132920371,"osm_type":"way","name":"Klubbland","category":"historic_landmark","tags":{"name":"Klubbland","tourism":"attraction"}},"geometry":{"type":"Point","coordinates":[11.9935082,57.6960469]}},{"type":"Feature","properties":{"id":170086988,"osm_type":"way","name":"Hanghai","category":"historic_landmark","tags":{"attraction":"amusement_ride","name":"Hanghai","tourism":"attraction"}},"geometry":{"type":"Point","coordinates":[11.9929324,57.6925152]}},{"type":"Feature","properties":{"id":170087904,"osm_type":"way","name":"Lisebergshjulet","category":"historic_landmark","tags":{"attraction":"big_wheel","name":"Lisebergshjulet","tourism":"attraction","wheelchair":"yes"}},"geometry":{"type":"Point","coordinates":[11.989793,57.6960288]}},{"type":"Feature","properties":{"id":170949636,"osm_type":"way","name":"Kalmarsund","category":"historic_landmark","tags":{"building":"ship","historic":"ship","name":"Kalmarsund","ref":"13","seamark:hulk:category":"museum","seamark:type":"hulk","ship:type":"minelayer","start_date":"1953","tourism":"attraction","wikidata":"Q10513274","wikipedia":"sv:HMS Kalmarsund (13)"}},"geometry":{"type":"Point","coordinates":[11.960364,57.7098044]}},{"type":"Feature","properties":{"id":170949637,"osm_type":"way","name":"Sölve","category":"historic_landmark","tags":{"building":"ship","historic":"ship","name":"Sölve","seamark:hulk:category":"museum","seamark:type":"hulk","ship:type":"monitor","start_date":"1875","tourism":"attraction","wikidata":"Q4352763","wikipedia":"sv:Sölve (1874)"}},"geometry":{"type":"Point","coordinates":[11.959526,57.7088236]}},{"type":"Feature","properties":{"id":170949638,"osm_type":"way","name":"HMS Hugin","category":"historic_landmark","tags":{"building":"ship","historic":"ship","name":"HMS Hugin","ref":"P151","seamark:hulk:category":"museum","seamark:type":"hulk","ship:type":"patrol_boat","start_date":"1977","tourism":"attraction","wikidata":"Q10513243","wikipedia":"sv:HMS Hugin (P151)"}},"geometry":{"type":"Point","coordinates":[11.960484,57.7097866]}},{"type":"Feature","properties":{"id":170950197,"osm_type":"way","name":"M/S Fryken","category":"historic_landmark","tags":{"building":"ship","historic":"ship","name":"M/S Fryken","seamark:hulk:category":"museum","seamark:type":"hulk","ship:type":"cargo_ship","start_date":"1938","tourism":"attraction","website":"http://www.msfryken.se/","wikidata":"Q28936016"}},"geometry":{"type":"Point","coordinates":[11.9593426,57.7084627]}},{"type":"Feature","properties":{"id":170951188,"osm_type":"way","name":"ESAB IV","category":"historic_landmark","tags":{"building":"ship","historic":"ship","name":"ESAB IV","seamark:hulk:category":"museum","seamark:type":"hulk","ship:type":"workshop_ship","start_date":"1920","tourism":"attraction"}},"geometry":{"type":"Point","coordinates":[11.9607749,57.7097978]}},{"type":"Feature","properties":{"id":170951575,"osm_type":"way","name":"Herkules","category":"historic_landmark","tags":{"building":"ship","historic":"ship","name":"Herkules","seamark:hulk:category":"museum","seamark:type":"hulk","ship:type":"tugboat","start_date":"1939","tourism":"attraction","website":"http://www.herkules.o.se/","wikidata":"Q28936181"}},"geometry":{"type":"Point","coordinates":[11.9589217,57.7081046]}},{"type":"Feature","properties":{"id":170954692,"osm_type":"way","name":"Stormprincess","category":"historic_landmark","tags":{"building":"ship","historic":"ship","name":"Stormprincess","seamark:hulk:category":"museum","seamark:type":"hulk","ship:type":"tugboat","start_date":"1908","tourism":"attraction","wikidata":"Q28936184"}},"geometry":{"type":"Point","coordinates":[11.9605674,57.7096228]}},{"type":"Feature","properties":{"id":179264217,"osm_type":"way","name":"Stora Scenen","category":"historic_landmark","tags":{"building":"yes","name":"Stora Scenen","tourism":"attraction"}},"geometry":{"type":"Point","coordinates":[11.9938939,57.6964489]}},{"type":"Feature","properties":{"id":179432540,"osm_type":"way","name":"Härlanda kyrkoruin","category":"historic_landmark","tags":{"historic":"church","name":"Härlanda kyrkoruin","religion":"christian","ruins:building":"church","tourism":"attraction","was:amenity":"place_of_worship","wikidata":"Q29646093","wikipedia":"sv:Härlanda kyrkoruin"}},"geometry":{"type":"Point","coordinates":[12.022515,57.7197405]}},{"type":"Feature","properties":{"id":194541151,"osm_type":"way","name":"Haga Nygata","category":"historic_landmark","tags":{"highway":"pedestrian","name":"Haga Nygata","smoothness":"intermediate","surface":"sett","tourism":"attraction"}},"geometry":{"type":"Point","coordinates":[11.9552416,57.6986852]}},{"type":"Feature","properties":{"id":217993643,"osm_type":"way","name":"Lilla Lots","category":"historic_landmark","tags":{"name":"Lilla Lots","tourism":"attraction"}},"geometry":{"type":"Point","coordinates":[11.9938701,57.6953261]}},{"type":"Feature","properties":{"id":219335131,"osm_type":"way","name":"Hissningen","category":"historic_landmark","tags":{"attraction":"drop_tower","name":"Hissningen","tourism":"attraction"}},"geometry":{"type":"Point","coordinates":[11.9945987,57.6950881]}},{"type":"Feature","properties":{"id":219335151,"osm_type":"way","name":"Farfars bil","category":"historic_landmark","tags":{"image":"https://upload.wikimedia.org/wikipedia/commons/3/33/Farfars_bil_120605_-_green.jpg","name":"Farfars bil","tourism":"attraction"}},"geometry":{"type":"Point","coordinates":[11.9943796,57.6947315]}},{"type":"Feature","properties":{"id":219469703,"osm_type":"way","name":"Kaffekoppen","category":"historic_landmark","tags":{"attraction":"carousel","building":"yes","name":"Kaffekoppen","roof:shape":"dome","source":"local_knowledge;Bing","tourism":"attraction"}},"geometry":{"type":"Point","coordinates":[11.9941769,57.6953524]}},{"type":"Feature","properties":{"id":219469706,"osm_type":"way","name":"Flygis","category":"historic_landmark","tags":{"building":"yes","name":"Flygis","tourism":"attraction"}},"geometry":{"type":"Point","coordinates":[11.9935971,57.6956426]}},{"type":"Feature","properties":{"id":219469708,"osm_type":"way","name":"Hoppalång","category":"historic_landmark","tags":{"building":"yes","name":"Hoppalång","tourism":"attraction"}},"geometry":{"type":"Point","coordinates":[11.9935562,57.6958963]}},{"type":"Feature","properties":{"id":219469710,"osm_type":"way","name":"Tuta & Kör","category":"historic_landmark","tags":{"building":"yes","name":"Tuta & Kör","tourism":"attraction"}},"geometry":{"type":"Point","coordinates":[11.9938947,57.6956555]}},{"type":"Feature","properties":{"id":219469721,"osm_type":"way","name":"Cyklonen","category":"historic_landmark","tags":{"attraction":"carousel","name":"Cyklonen","tourism":"attraction"}},"geometry":{"type":"Point","coordinates":[11.9942312,57.6955461]}},{"type":"Feature","properties":{"id":219469724,"osm_type":"way","name":"Bushållplatsen","category":"historic_landmark","tags":{"access":"customers","leisure":"playground","name":"Bushållplatsen","tourism":"attraction"}},"geometry":{"type":"Point","coordinates":[11.9944477,57.6956818]}},{"type":"Feature","properties":{"id":219469725,"osm_type":"way","name":"","category":"historic_landmark","tags":{"tourism":"attraction"}},"geometry":{"type":"Point","coordinates":[11.9944431,57.6956788]}},{"type":"Feature","properties":{"id":228011432,"osm_type":"way","name":"S/S Marieholm","category":"historic_landmark","tags":{"building":"ship","historic":"ship","name":"S/S Marieholm","seamark:hulk:category":"floating_restaurant","seamark:type":"hulk","start_date":"1934","tourism":"attraction"}},"geometry":{"type":"Point","coordinates":[11.9613808,57.7102219]}},{"type":"Feature","properties":{"id":233404562,"osm_type":"way","name":"Uppswinget","category":"historic_landmark","tags":{"name":"Uppswinget","tourism":"attraction","wheelchair":"yes"}},"geometry":{"type":"Point","coordinates":[11.992204,57.6946375]}},{"type":"Feature","properties":{"id":240285945,"osm_type":"way","name":"AtmosFear","category":"historic_landmark","tags":{"attraction":"drop_tower","building:part":"yes","height":"116","man_made":"tower","name":"AtmosFear","roof:colour":"lightgray","roof:shape":"pyramidal","tourism":"attraction"}},"geometry":{"type":"Point","coordinates":[11.9907706,57.6953438]}},{"type":"Feature","properties":{"id":242071963,"osm_type":"way","name":"Polketten","category":"historic_landmark","tags":{"building:part":"yes","dance:style":"salsa;bugg;foxtrot;lindy_hop;gammaldans","dance:teaching":"yes","leisure":"dance","name":"Polketten","roof:shape":"dome","tourism":"attraction"}},"geometry":{"type":"Point","coordinates":[11.9954491,57.694722]}},{"type":"Feature","properties":{"id":251071520,"osm_type":"way","name":"Ytterby kyrkoruin","category":"historic_landmark","tags":{"historic":"church","name":"Ytterby kyrkoruin","religion":"christian","ruins:building":"church","tourism":"attraction","was:amenity":"place_of_worship","wikidata":"Q10723821","wikipedia":"sv:Ytterby gamla kyrka"}},"geometry":{"type":"Point","coordinates":[11.9118249,57.8486139]}},{"type":"Feature","properties":{"id":269132346,"osm_type":"way","name":"Haga Nygata","category":"historic_landmark","tags":{"highway":"pedestrian","lit":"yes","name":"Haga Nygata","smoothness":"intermediate","surface":"sett","tourism":"attraction"}},"geometry":{"type":"Point","coordinates":[11.9595812,57.6983379]}},{"type":"Feature","properties":{"id":269132350,"osm_type":"way","name":"Haga Nygata","category":"historic_landmark","tags":{"highway":"pedestrian","lit":"yes","name":"Haga Nygata","surface":"sett","tourism":"attraction"}},"geometry":{"type":"Point","coordinates":[11.9579011,57.6984074]}},{"type":"Feature","properties":{"id":306814849,"osm_type":"way","name":"Mechanica","category":"historic_landmark","tags":{"name":"Mechanica","operator":"Liseberg","tourism":"attraction","wikidata":"Q18397362","wikipedia":"sv:Mechanica"}},"geometry":{"type":"Point","coordinates":[11.9942088,57.6928937]}},{"type":"Feature","properties":{"id":394937344,"osm_type":"way","name":"Lilla scenen","category":"historic_landmark","tags":{"amenity":"theatre","bandstand":"yes","building":"yes","name":"Lilla scenen","tourism":"attraction"}},"geometry":{"type":"Point","coordinates":[11.9954092,57.6946794]}},{"type":"Feature","properties":{"id":553159939,"osm_type":"way","name":"Västra Porten - Smällen","category":"historic_landmark","tags":{"archaeological_site":"tumulus","description":"Gravfält","description:de":"Gräberfeld","description:en":"Grave field","field":"yes","historic":"archaeological_site","name":"Västra Porten - Smällen","tourism":"attraction","wikidata":"Q10508469","wikipedia":"sv:Gravfältet Västra Porten-Stora smällen"}},"geometry":{"type":"Point","coordinates":[11.9118243,57.8578617]}},{"type":"Feature","properties":{"id":613388024,"osm_type":"way","name":"AeroSpin","category":"historic_landmark","tags":{"height":"35","man_made":"tower","name":"AeroSpin","tourism":"attraction"}},"geometry":{"type":"Point","coordinates":[11.9926093,57.6936581]}},{"type":"Feature","properties":{"id":613388049,"osm_type":"way","name":"Blomsterkarusellen","category":"historic_landmark","tags":{"attraction":"carousel","building":"roof","layer":"1","name":"Blomsterkarusellen","tourism":"attraction"}},"geometry":{"type":"Point","coordinates":[11.9919293,57.693865]}},{"type":"Feature","properties":{"id":685311371,"osm_type":"way","name":"Fredrikshamns skans","category":"historic_landmark","tags":{"archaeological_site":"fortification","fortification_type":"sconce","historic":"archaeological_site","name":"Fredrikshamns skans","start_date":"1645","tourism":"attraction","wall":"castle_wall","wikidata":"Q10498771","wikipedia":"sv:Fredrikshamns skans"}},"geometry":{"type":"Point","coordinates":[12.0008642,57.7431755]}},{"type":"Feature","properties":{"id":760789691,"osm_type":"way","name":"Fars Hatt","category":"historic_landmark","tags":{"building":"yes","historic":"yes","image":"https://photos.app.goo.gl/4Y6LTj3DkDw19BBf8","man_made":"tower","name":"Fars Hatt","roof:colour":"#66cdaa","tower:type":"defensive"}},"geometry":{"type":"Point","coordinates":[11.999484,57.8619498]}},{"type":"Feature","properties":{"id":1092193542,"osm_type":"way","name":"Tempus","category":"historic_landmark","tags":{"attraction":"amusement_ride","name":"Tempus","tourism":"attraction"}},"geometry":{"type":"Point","coordinates":[11.9916895,57.6936438]}},{"type":"Feature","properties":{"id":1206478078,"osm_type":"way","name":"Bohus fästning","category":"historic_landmark","tags":{"castle_type":"fortress","facebook":"https://www.facebook.com/bohusfastning/","historic":"castle","image":"https://photos.app.goo.gl/fYbEYq6sHqbiCYhGA","name":"Bohus fästning","ruins":"yes","tourism":"attraction","url":"https://youtu.be/KwcVGiErAps","wall":"castle_wall","website":"https://www.bohusfastning.com/","wikidata":"Q1408860","wikipedia":"sv:Bohus fästning"}},"geometry":{"type":"Point","coordinates":[11.9998599,57.8617598]}},{"type":"Feature","properties":{"id":1304804644,"osm_type":"way","name":"","category":"historic_landmark","tags":{"aircraft:type":"military","historic":"aircraft","manufacturer":"Lockheed","model":"C-130 Hercules","start_date":"20220706","tourism":"attraction","wikidata":"Q15411568"}},"geometry":{"type":"Point","coordinates":[11.8822873,57.7707123]}},{"type":"Feature","properties":{"id":1304804645,"osm_type":"way","name":"","category":"historic_landmark","tags":{"aircraft:type":"military","historic":"aircraft","manufacturer":"Lockheed","model":"C-130 Hercules","start_date":"20220706","tourism":"attraction","wikidata":"Q15411568"}},"geometry":{"type":"Point","coordinates":[11.8824251,57.7707831]}},{"type":"Feature","properties":{"id":3240972,"osm_type":"relation","name":"AtmosFear","category":"historic_landmark","tags":{"attraction":"drop_tower","height":"116","man_made":"tower","name":"AtmosFear","tourism":"attraction","type":"building"}},"geometry":{"type":"Point","coordinates":[11.990777,57.6953455]}},{"type":"Feature","properties":{"id":8670031,"osm_type":"relation","name":"Botaniska trädgården","category":"historic_landmark","tags":{"access":"yes","addr:city":"Göteborg","addr:country":"SE","addr:housenumber":"22A","addr:postcode":"41319","addr:street":"Carl Skottsbergs Gata","alt_name":"Göteborgs botaniska trädgård","contact:facebook":"goteborgs.botaniska.tradgard","contact:instagram":"botaniskatradgarden","contact:phone":"+46 10 473 77 77","contact:website":"https://www.botaniska.se/","dog":"yes","dog:conditional":"no @ Mar 1 - Sep 30","fee":"donation","garden:type":"botanical","leisure":"garden","name":"Botaniska trädgården","name:de":"Göteborgs Botanischer Garten","name:en":"Gothenburg Botanical Garden","name:es":"Jardín botánico de Gotemburgo","name:fi":"Göteborgin kasvitieteellinen puutarha","name:fr":"Jardin botanique de Göteborg","name:pl":"Ogród Botaniczny w Göteborgu","name:pt":"Jardim Botânico de Gotemburgo","name:uk":"Гетеборзький ботанічний сад","name:vi":"Vườn thực vật Göteborg","note":"FIXME Noggrannare gräns","opening_hours":"24/7","operator":"Västra Götalandsregionen","owner":"Västra Götalandsregionen","ownership":"county","protected":"yes","start_date":"1923-07-08","tourism":"attraction","type":"multipolygon","wikidata":"Q956772","wikimedia_commons":"File:Geteborg Ogród Botaniczny.jpg","wikipedia":"sv:Göteborgs botaniska trädgård"}},"geometry":{"type":"Point","coordinates":[11.95295,57.6800891]}},{"type":"Feature","properties":{"id":11310620,"osm_type":"relation","name":"Högspänningen","category":"historic_landmark","tags":{"attraction":"carousel","name":"Högspänningen","tourism":"attraction","type":"multipolygon"}},"geometry":{"type":"Point","coordinates":[11.9936616,57.6954904]}}]}