{"type":"FeatureCollection","features":[{"type":"Feature","properties":{"id":1170431736,"osm_type":"node","name":"Capio Lundby Specialistsjukhus","category":"hospital","tags":{"amenity":"hospital","contact:website":"https://capio.se/hitta-mottagning/specialistvard/lundby-specialistsjukhus/","healthcare":"hospital","name":"Capio Lundby Specialistsjukhus","old_name":"Capio Lundby Närsjukhus","operator":"Capio","operator:wikidata":"Q498606"}},"geometry":{"type":"Point","coordinates":[11.9367279,57.7212244]}},{"type":"Feature","properties":{"id":10784501395,"osm_type":"node","name":"Drottning Silvias barnsjukhus","category":"hospital","tags":{"alt_name":"Barnsjukhuset","amenity":"hospital","check_date":"2024-05-16","emergency":"yes","healthcare":"hospital","healthcare:speciality":"paediatrics","internet_access":"wlan","internet_access:fee":"no","name":"Drottning Silvias barnsjukhus","name:en":"Queen Silvia's Children's Hospital","operator":"Västra Götalandsregionen","operator:type":"public","payment:cash":"yes","payment:credit_cards":"yes","payment:debit_cards":"yes","short_name":"DSBS","source:name":"https://www.sahlgrenska.se/for-dig-som-ar/patient/kartor-over-vara-sjukhus/karta-drottning-silvias-barn--och-ungdomssjukhus/","website":"https://www.sahlgrenska.se/for-dig-som-ar/patient/kartor-over-vara-sjukhus/karta-drottning-silvias-barn--och-ungdomssjukhus/","wheelchair":"yes","wikidata":"Q18288613","wikipedia":"sv:Drottning Silvias barnsjukhus"}},"geometry":{"type":"Point","coordinates":[12.0523649,57.7199341]}},{"type":"Feature","properties":{"id":12946685716,"osm_type":"node","name":"Slottsbergskliniken AB","category":"hospital","tags":{"addr:city":"Västra Frölunda","addr:housenumber":"12","addr:postcode":"421 50","addr:street":"Kontrabasgatan","amenity":"hospital","email":"info@slottsbergskliniken.com","emergency":"no","healthcare":"hospital","name":"Slottsbergskliniken AB","phone":"031 – 89 89 39","website":"https://www.slottsbergskliniken.com/"}},"geometry":{"type":"Point","coordinates":[11.8998095,57.6558907]}},{"type":"Feature","properties":{"id":52031658,"osm_type":"way","name":"Högsbo sjukhus","category":"hospital","tags":{"amenity":"hospital","building":"hospital","building:material":"brick","healthcare":"hospital","name":"Högsbo sjukhus","operator":"Västra Götalandsregionen; Sahlgrenska universitetssjukhuset","roof:colour":"#B67A75"}},"geometry":{"type":"Point","coordinates":[11.9310292,57.6671084]}},{"type":"Feature","properties":{"id":1120427998,"osm_type":"way","name":"Högsbo närsjukhus","category":"hospital","tags":{"amenity":"hospital","building":"hospital","healthcare":"hospital","name":"Högsbo närsjukhus","operator":"Västra Götalandsregionen; Sjukhusen i Väster","roof:colour":"#626E7C"}},"geometry":{"type":"Point","coordinates":[11.9318693,57.6667291]}},{"type":"Feature","properties":{"id":7370484,"osm_type":"relation","name":"Angereds Närsjukhus","category":"hospital","tags":{"addr:country":"SE","addr:housenumber":"1","addr:street":"Halmtorget","amenity":"hospital","building":"hospital","building:levels":"3","healthcare":"hospital","name":"Angereds Närsjukhus","roof:shape":"flat","type":"multipolygon","wikidata":"Q10411783"}},"geometry":{"type":"Point","coordinates":[12.0477693,57.7964307]}},{"type":"Feature","properties":{"id":10757570,"osm_type":"relation","name":"Östra Sjukhuset","category":"hospital","tags":{"amenity":"hospital","emergency":"yes","health_specialty:emergency_medicine":"yes","health_specialty:family_medicine":"yes","health_specialty:intensive_care_medicine":"yes","health_specialty:orthopaedics":"yes","health_specialty:surgery":"yes","healthcare":"hospital","internet_access":"wlan","internet_access:fee":"no","name":"Östra Sjukhuset","opening_hours":"24/7","operator":"Västra Götalandsregionen","operator:type":"public","payment:cash":"yes","payment:credit_cards":"yes","payment:debit_cards":"yes","short_name":"SU/Ö","type":"multipolygon","website":"https://www.sahlgrenska.se/","wheelchair":"yes","wikidata":"Q30302690"}},"geometry":{"type":"Point","coordinates":[12.0515306,57.7206696]}},{"type":"Feature","properties":{"id":12707317,"osm_type":"relation","name":"Mölndals sjukhus","category":"hospital","tags":{"amenity":"hospital","emergency":"yes","health_specialty:emergency_medicine":"yes","health_specialty:family_medicine":"yes","health_specialty:intensive_care_medicine":"yes","health_specialty:orthopaedics":"yes","health_specialty:surgery":"no","healthcare":"hospital","name":"Mölndals sjukhus","opening_hours":"24/7","operator":"Västra Götalandsregionen","short_name":"SU/M","type":"multipolygon","wikidata":"Q22977108","wikipedia":"sv:Mölndals sjukhus"}},"geometry":{"type":"Point","coordinates":[12.0107162,57.6610236]}},{"type":"Feature","properties":{"id":16173152,"osm_type":"relation","name":"Carlanderska sjukhuset","category":"hospital","tags":{"addr:city":"Göteborg","addr:country":"SE","addr:postcode":"412 55","addr:street":"Carlandersplatsen","air_conditioning":"yes","amenity":"hospital","building":"yes","building:colour":"#85552e","contact:facebook":"https://www.facebook.com/carlanderska","contact:linkedin":"https://www.linkedin.com/company/carlanderska-hospital","contact:phone":"+46 31 818 00 0","contact:website":"https://carlanderska.se/","emergency":"no","health_specialty:orthopaedics":"yes","health_specialty:surgery":"yes","healthcare":"hospital","name":"Carlanderska sjukhuset","operator":"Stiftelsen Carlanderska sjukhuset","operator:type":"private","payment:mastercard":"yes","payment:visa":"yes","type":"multipolygon","wheelchair":"yes"}},"geometry":{"type":"Point","coordinates":[11.9894771,57.6923954]}},{"type":"Feature","properties":{"id":16628183,"osm_type":"relation","name":"Rågården","category":"hospital","tags":{"amenity":"hospital","healthcare":"hospital","healthcare:speciality":"forensic_psychiatry","name":"Rågården","note":"approximate boundary","operator":"Sahlgrenska Universitetssjukhuset","operator:type":"public","type":"multipolygon","wikidata":"Q76350503"}},"geometry":{"type":"Point","coordinates":[12.1165951,57.7888241]}},{"type":"Feature","properties":{"id":18627335,"osm_type":"relation","name":"Sahlgrenska Universitetssjukhuset","category":"hospital","tags":{"amenity":"hospital","contact:phone":"+46-31-342 10 00","contact:website":"http://www.sahlgrenska.se/sv/SU/Sahlgrenska-Universitetssjukhuset/","emergency":"yes","health_specialty:cardiothoracic_surgery":"yes","health_specialty:emergency_medicine":"yes","health_specialty:family_medicine":"yes","health_specialty:intensive":"yes","health_specialty:intensive_care_medicine":"yes","health_specialty:neurosurgery":"yes","health_specialty:orthopaedics":"yes","health_specialty:paediatrics":"yes","health_specialty:surgery":"yes","health_specialty:vascular_surgery":"yes","healthcare":"hospital","healthcare:speciality":"gynaecology;psychiatry;ophthalmology;internal;orthopaedics;dermatology;otolaryngology;radiology;surgery;cardiology;physiotherapy;urology;neurology;emergency;plastic_surgery;dialysis;intensive;oncology;clinic;occupational","internet_access":"wlan","internet_access:fee":"no","internet_access:ssid":"VGR Publikt","name":"Sahlgrenska Universitetssjukhuset","name:ar":"مستشفى ساهلغرينسكا الجامعي","name:en":"Sahlgrenska University Hospital","name:es":"Hospital Universitario de Sahlgrenska","name:fr":"Hôpital universitaire Sahlgrenska","name:pt":"Hospital Universitário Sahlgrenska","name:uk":"Сальгренська Університетська Лікарня","name:zh-Hans":"萨赫尔格雷斯卡大学医院","name:zh-Hant":"薩赫爾格雷斯卡大學醫院","opening_hours":"24/7","operator":"Västra Götalandsregionen","operator:type":"government","operator:wikidata":"Q3233447","payment:cash":"yes","payment:credit_cards":"yes","payment:debit_cards":"yes","short_name":"SU/S","type":"multipolygon","wheelchair":"yes","wikidata":"Q3290496","wikipedia":"sv:Sahlgrenska Universitetssjukhuset"}},"geometry":{"type":"Point","coordinates":[11.9613238,57.6827284]}}]}