{"type":"FeatureCollection","features":[{"type":"Feature","properties":{"id":30482977,"osm_type":"node","name":"Gothia Towers","category":"hotel","tags":{"addr:city":"Göteborg","addr:country":"SE","addr:housenumber":"24","addr:postcode":"412 51","addr:street":"Mässans Gata","air_conditioning":"yes","internet_access":"wlan","internet_access:fee":"no","name":"Gothia Towers","payment:cash":"no","rooms":"1200","smoking":"outside","toilets:wheelchair":"yes","tourism":"hotel","website":"https://gothiatowers.com/","wheelchair":"yes","wikidata":"Q10526555"}},"geometry":{"type":"Point","coordinates":[11.9890508,57.6974794]}},{"type":"Feature","properties":{"id":30483077,"osm_type":"node","name":"Radisson Blu Scandinavia","category":"hotel","tags":{"addr:city":"Göteborg","addr:country":"SE","addr:housenumber":"59-65","addr:postcode":"41106","addr:street":"Södra Hamngatan","air_conditioning":"yes","brand":"Radisson Blu","brand:wikidata":"Q7281341","brand:wikipedia":"en:Radisson Blu","image":"https://photos.app.goo.gl/RpgBzZpUz7NYQtUs8","name":"Radisson Blu Scandinavia","phone":"+46 31 758 50 00","rooms":"355","tourism":"hotel","website":"http://www.radissonblu.se/hotell-goteborg","wheelchair":"yes"}},"geometry":{"type":"Point","coordinates":[11.9728138,57.707038]}},{"type":"Feature","properties":{"id":60891328,"osm_type":"node","name":"Scandic Crown","category":"hotel","tags":{"addr:city":"Göteborg","addr:housenumber":"3","addr:postcode":"411 11","addr:street":"Polhemsplatsen","air_conditioning":"yes","brand":"Scandic Hotels","brand:wikidata":"Q129391","contact:email":"crown@scandichotels.com","contact:facebook":"https://www.facebook.com/scandiccrown","contact:instagram":"https://www.instagram.com/scandichotels","contact:phone":"+46 31 751 51 00","contact:website":"https://www.scandichotels.com/hotels/sweden/gothenburg/scandic-crown","internet_access":"wlan","name":"Scandic Crown","rooms":"338","tourism":"hotel","wheelchair":"yes"}},"geometry":{"type":"Point","coordinates":[11.9779952,57.7081633]}},{"type":"Feature","properties":{"id":266780996,"osm_type":"node","name":"Arken Hotel & Art Garden Spa","category":"hotel","tags":{"addr:city":"Göteborg","addr:country":"SE","addr:housenumber":"100","addr:street":"Oljevägen","email":"info@arkenhotel.com","name":"Arken Hotel & Art Garden Spa","operator":"Best Western","phone":"+46 31 726 25 00","rooms":"149","tourism":"hotel","website":"https://www.arkenhotel.com/en"}},"geometry":{"type":"Point","coordinates":[11.8276158,57.696275]}},{"type":"Feature","properties":{"id":285734366,"osm_type":"node","name":"Scandic Europa","category":"hotel","tags":{"addr:country":"SE","addr:housenumber":"21","addr:street":"Nils Ericsonsgatan","brand":"Scandic Hotels","brand:wikidata":"Q129391","internet_access":"wlan","level":"0","name":"Scandic Europa","rooms":"456","toilets:wheelchair":"yes","tourism":"hotel","wheelchair":"yes","wikidata":"Q111410112"}},"geometry":{"type":"Point","coordinates":[11.9705789,57.7081513]}},{"type":"Feature","properties":{"id":522516190,"osm_type":"node","name":"Hotel Örgryte","category":"hotel","tags":{"addr:city":"Göteborg","addr:country":"SE","addr:housenumber":"70","addr:postcode":"41659","addr:street":"Danska Vägen","check_date":"2024-06-12","contact:phone":"+46-31-7078900","contact:website":"http://www.hotelorgryte.se","name":"Hotel Örgryte","payment:cash":"yes","payment:credit_cards":"yes","payment:debit_cards":"yes","reservation":"yes","rooms":"59","smoking":"no","stars":"3","tourism":"hotel"}},"geometry":{"type":"Point","coordinates":[12.0070724,57.7093224]}},{"type":"Feature","properties":{"id":552678006,"osm_type":"node","name":"Hotel Vanilla","category":"hotel","tags":{"check_date":"2026-01-24","internet_access":"wlan","name":"Hotel Vanilla","rooms":"32","tourism":"hotel","website":"https://www.hotelvanilla.se/","wheelchair":"no","wikidata":"Q111875577"}},"geometry":{"type":"Point","coordinates":[11.9669219,57.7051124]}},{"type":"Feature","properties":{"id":563223066,"osm_type":"node","name":"Quality Hotel Winn","category":"hotel","tags":{"beds":"244","name":"Quality Hotel Winn","rooms":"121","tourism":"hotel"}},"geometry":{"type":"Point","coordinates":[11.9807182,57.7304264]}},{"type":"Feature","properties":{"id":565436795,"osm_type":"node","name":"Slottsskogens Vandrahem & Hotell","category":"hotel","tags":{"access":"yes","addr:city":"Göteborg","addr:country":"SE","addr:housenumber":"21","addr:postcode":"41311","addr:street":"Vegagatan","contact:phone":"+46 31-42 65 20","contact:website":"www.sov.nu","entrance":"yes","name":"Slottsskogens Vandrahem & Hotell","tourism":"hostel","wheelchair":"no"}},"geometry":{"type":"Point","coordinates":[11.9479396,57.6925285]}},{"type":"Feature","properties":{"id":642945543,"osm_type":"node","name":"Göteborgs Vandrarhem","category":"hotel","tags":{"addr:city":"Göteborg","addr:country":"SE","addr:housenumber":"23","addr:postcode":"412 63","addr:street":"Mölndalsvägen","check_date":"2026-02-03","contact:phone":"+4631-401050","contact:website":"http://www.goteborgsvandrarhem.se/","description":".","email":"info@goteborgsvandrarhem.se","guest_house":"hostel","internet_access":"wlan","internet_access:fee":"no","level":"1","name":"Göteborgs Vandrarhem","opening_hours":"Mo-Fr 08:00-16:00","operator":"Göteborgs Vandrarhem AB","payment:credit_cards":"yes","reservation":"required","rooms":"47","smoking":"no","tourism":"hostel","wheelchair":"no"}},"geometry":{"type":"Point","coordinates":[11.9943545,57.6890506]}},{"type":"Feature","properties":{"id":707216336,"osm_type":"node","name":"Quality Hotel Waterfront","category":"hotel","tags":{"addr:city":"Göteborg","addr:country":"SE","addr:housenumber":"1","addr:postcode":"41451","addr:street":"Klippan","branch":"Göteborg","check_date":"2024-05-31","contact:phone":"+46-31-720 22 20","internet_access":"yes","name":"Quality Hotel Waterfront","rooms":"151","tourism":"hotel","wheelchair":"limited"}},"geometry":{"type":"Point","coordinates":[11.9076669,57.6904788]}},{"type":"Feature","properties":{"id":779405796,"osm_type":"node","name":"Hostel Snoozemoore","category":"hotel","tags":{"check_date":"2024-05-04","name":"Hostel Snoozemoore","rooms":"18","tourism":"hostel"}},"geometry":{"type":"Point","coordinates":[11.948593,57.718987]}},{"type":"Feature","properties":{"id":810701761,"osm_type":"node","name":"Dockyard Hotel","category":"hotel","tags":{"addr:city":"Västra Frölunda","addr:country":"SE","addr:housenumber":"23","addr:street":"Skeppet Ärans Väg","name":"Dockyard Hotel","toilets:wheelchair":"yes","tourism":"hotel","website":"https://www.dockyardhotel.se/","wheelchair":"yes"}},"geometry":{"type":"Point","coordinates":[11.8938226,57.6857727]}},{"type":"Feature","properties":{"id":831298306,"osm_type":"node","name":"Spar Hotel Gårda","category":"hotel","tags":{"addr:city":"Göteborg","addr:country":"SE","addr:housenumber":"15","addr:postcode":"416 64","addr:street":"Norra Kustbanegatan","name":"Spar Hotel Gårda","rooms":"170","stars":"3","tourism":"hotel"}},"geometry":{"type":"Point","coordinates":[11.9960123,57.7101236]}},{"type":"Feature","properties":{"id":971098113,"osm_type":"node","name":"SGS Veckobostäder","category":"hotel","tags":{"name":"SGS Veckobostäder","tourism":"hotel"}},"geometry":{"type":"Point","coordinates":[11.9920309,57.6873791]}},{"type":"Feature","properties":{"id":1020181708,"osm_type":"node","name":"Spoton","category":"hotel","tags":{"amenity":"bar","name":"Spoton","payment:cryptocurrencies":"no","smoking":"no","tourism":"hostel"}},"geometry":{"type":"Point","coordinates":[11.9922757,57.6910256]}},{"type":"Feature","properties":{"id":1020181933,"osm_type":"node","name":"City Lägenhetshotell","category":"hotel","tags":{"contact:phone":"+46-31-401911","internet_access":"wlan","internet_access:fee":"no","name":"City Lägenhetshotell","smoking":"no","tourism":"hotel"}},"geometry":{"type":"Point","coordinates":[11.9938158,57.6895433]}},{"type":"Feature","properties":{"id":1118800718,"osm_type":"node","name":"Elite Plaza","category":"hotel","tags":{"addr:city":"Göteborg","addr:country":"SE","addr:housenumber":"3","addr:street":"Västra Hamngatan","name":"Elite Plaza","rooms":"127","tourism":"hotel","website":"https://www.elite.se/en/hotels/gothenburg/elite-plaza-hotel-gothenburg/","wikidata":"Q18288974"}},"geometry":{"type":"Point","coordinates":[11.9628279,57.7051298]}},{"type":"Feature","properties":{"id":1211869002,"osm_type":"node","name":"Elite Park Avenue","category":"hotel","tags":{"check_date":"2024-08-18","name":"Elite Park Avenue","rooms":"326","tourism":"hotel"}},"geometry":{"type":"Point","coordinates":[11.9783108,57.6984084]}},{"type":"Feature","properties":{"id":1247235430,"osm_type":"node","name":"Hotell Barken Viking","category":"hotel","tags":{"addr:city":"Göteborg","addr:country":"SE","addr:housenumber":"10","addr:postcode":"411 04","addr:street":"Lilla Bommens Torg","contact:email":"reception@barkenviking.com","contact:phone":"+46 03 163 5800","contact:website":"http://www.barkenviking.com/","internet_access":"wlan","internet_access:fee":"no","internet_access:ssid":"barken","name":"Hotell Barken Viking","rooms":"36","smoking":"no","stars":"3","tourism":"hotel"}},"geometry":{"type":"Point","coordinates":[11.965472,57.7127941]}},{"type":"Feature","properties":{"id":1407679945,"osm_type":"node","name":"Apple Hotel","category":"hotel","tags":{"addr:city":"Göteborg","addr:country":"SE","addr:housenumber":"6","addr:postcode":"416 73","addr:street":"Torpavallsgatan","contact:phone":"+46-31-251100","name":"Apple Hotel","rooms":"116","tourism":"hotel"}},"geometry":{"type":"Point","coordinates":[12.0332872,57.7249434]}},{"type":"Feature","properties":{"id":1448660682,"osm_type":"node","name":"Best Western Tidbloms Hotel","category":"hotel","tags":{"addr:city":"Göteborg","addr:country":"SE","addr:housenumber":"23","addr:postcode":"416 66","addr:street":"Olskroksgatan","air_conditioning":"yes","brand":"Best Western","brand:wikidata":"Q830334","check_date":"2024-05-22","contact:email":"info@tidbloms.se","contact:facebook":"https://www.facebook.com/Tidbloms","contact:phone":"+46317075000","contact:website":"https://tidbloms.se","name":"Best Western Tidbloms Hotel","rooms":"42","tourism":"hotel"}},"geometry":{"type":"Point","coordinates":[12.0007608,57.7177506]}},{"type":"Feature","properties":{"id":1484785242,"osm_type":"node","name":"Aprikosen B&B","category":"hotel","tags":{"addr:city":"Göteborg","addr:country":"SE","addr:housenumber":"5","addr:postcode":"41128","addr:street":"Muraregatan","contact:email":"info@aprikosenbab.se","contact:phone":"+46-31-141 40 50","contact:website":"http://www.aprikosenbab.se/","name":"Aprikosen B&B","tourism":"guest_house"}},"geometry":{"type":"Point","coordinates":[11.9623719,57.6932519]}},{"type":"Feature","properties":{"id":1497180954,"osm_type":"node","name":"Scandic Opalen","category":"hotel","tags":{"addr:city":"Göteborg","addr:country":"SE","addr:housenumber":"73","addr:postcode":"412 52","addr:street":"Engelbrektsgatan","brand":"Scandic Hotels","brand:wikidata":"Q129391","name":"Scandic Opalen","rooms":"354","toilets:wheelchair":"yes","tourism":"hotel","website":"https://www.scandichotels.com/hotels/sweden/gothenburg/scandic-opalen","wheelchair":"yes"}},"geometry":{"type":"Point","coordinates":[11.9848527,57.7014124]}},{"type":"Feature","properties":{"id":1632019490,"osm_type":"node","name":"Avalon Hotel","category":"hotel","tags":{"beds":"202","check_date":"2024-06-02","name":"Avalon Hotel","reservation":"yes","rooms":"101","tourism":"hotel","website":"https://www.avalonhotel.se/","wikidata":"Q4827615"}},"geometry":{"type":"Point","coordinates":[11.9682213,57.703985]}},{"type":"Feature","properties":{"id":1644946523,"osm_type":"node","name":"Home Hotel Odin","category":"hotel","tags":{"addr:city":"Göteborg","addr:country":"SE","addr:housenumber":"8","addr:street":"Odinsgatan","beds":"425","name":"Home Hotel Odin","operator":"Strawberry","rooms":"180","source":"survey","tourism":"hotel","wheelchair":"yes"}},"geometry":{"type":"Point","coordinates":[11.9791458,57.7090456]}},{"type":"Feature","properties":{"id":1679060768,"osm_type":"node","name":"Quality Hotel 11","category":"hotel","tags":{"beds":"512","contact:email":"q.11@choice.se","contact:fax":"+46-317791110","contact:phone":"+46-317791111","contact:website":"http://www.choicehotels.no/choice/en/goteborg-hotel-quality-se032-en","name":"Quality Hotel 11","operator":"Quality Hotel","rooms":"259","source":"survey","tourism":"hotel","wheelchair":"yes"}},"geometry":{"type":"Point","coordinates":[11.913856,57.7011069]}},{"type":"Feature","properties":{"id":1775788878,"osm_type":"node","name":"STF Vandrarhem","category":"hotel","tags":{"addr:city":"Göteborg","addr:country":"SE","addr:housenumber":"10","addr:postcode":"414 63","addr:street":"Stigbergsliden","brand":"STF","brand:wikidata":"Q1492844","contact:website":"http://www.hostel-gothenburg.com/sv/","name":"STF Vandrarhem","operator":"STF","tourism":"hostel"}},"geometry":{"type":"Point","coordinates":[11.9375362,57.6992162]}},{"type":"Feature","properties":{"id":1775789157,"osm_type":"node","name":"KFUM","category":"hotel","tags":{"name":"KFUM","tourism":"hostel"}},"geometry":{"type":"Point","coordinates":[11.9919992,57.7132104]}},{"type":"Feature","properties":{"id":1776553529,"osm_type":"node","name":"Wendelsbergs hotell & vandrarhem","category":"hotel","tags":{"brand":"STF","name":"Wendelsbergs hotell & vandrarhem","tourism":"hostel","website":"https://wendelsberg.com/","wheelchair":"yes"}},"geometry":{"type":"Point","coordinates":[12.1231668,57.6636189]}},{"type":"Feature","properties":{"id":1852953773,"osm_type":"node","name":"Linné Hostel","category":"hotel","tags":{"addr:city":"Göteborg","addr:country":"SE","addr:housenumber":"22","addr:postcode":"41309","addr:street":"Vegagatan","contact:email":"sta@linnehostel.com","contact:phone":"+46 (0)31 10 10 60","contact:website":"http://www.linnehostel.com","name":"Linné Hostel","tourism":"hostel","wheelchair":"limited"}},"geometry":{"type":"Point","coordinates":[11.9483598,57.6943323]}},{"type":"Feature","properties":{"id":1856245115,"osm_type":"node","name":"Vandrarhem","category":"hotel","tags":{"name":"Vandrarhem","tourism":"hostel"}},"geometry":{"type":"Point","coordinates":[11.952766,57.7613635]}},{"type":"Feature","properties":{"id":1870550508,"osm_type":"node","name":"Hotell Onyxen","category":"hotel","tags":{"addr:city":"Göteborg","addr:country":"SE","addr:housenumber":"23","addr:postcode":"412 52","addr:street":"Sten Sturegatan","name":"Hotell Onyxen","rooms":"34","tourism":"hotel","website":"https://www.hotellonyxen.se/"}},"geometry":{"type":"Point","coordinates":[11.9854607,57.6993068]}},{"type":"Feature","properties":{"id":1924201381,"osm_type":"node","name":"Hotell Arena","category":"hotel","tags":{"addr:city":"Göteborg","addr:country":"SE","addr:housenumber":"4","addr:postcode":"41102","addr:street":"Baldersgatan","contact:phone":"+4631158380","internet_access":"yes","internet_access:fee":"no","name":"Hotell Arena","stars":"3","tourism":"hotel","wheelchair":"limited","wifi":"free"}},"geometry":{"type":"Point","coordinates":[11.9859064,57.7091796]}},{"type":"Feature","properties":{"id":1932609751,"osm_type":"node","name":"Scandic Rubinen","category":"hotel","tags":{"brand":"Scandic Hotels","brand:wikidata":"Q129391","check_date":"2024-08-18","name":"Scandic Rubinen","rooms":"292","tourism":"hotel","wheelchair":"yes"}},"geometry":{"type":"Point","coordinates":[11.9762968,57.6997975]}},{"type":"Feature","properties":{"id":1932729472,"osm_type":"node","name":"Hotell Maria Eriksson","category":"hotel","tags":{"name":"Hotell Maria Eriksson","source":"Local knowledge","tourism":"hotel"}},"geometry":{"type":"Point","coordinates":[11.9745062,57.6984833]}},{"type":"Feature","properties":{"id":2033520102,"osm_type":"node","name":"Hotel Bellora","category":"hotel","tags":{"addr:city":"Göteborg","addr:country":"SE","addr:housenumber":"6","addr:postcode":"411 36","addr:street":"Kungsportsavenyen","check_date":"2025-10-12","name":"Hotel Bellora","rooms":"97","stars":"4","tourism":"hotel"}},"geometry":{"type":"Point","coordinates":[11.973828,57.701521]}},{"type":"Feature","properties":{"id":2141492059,"osm_type":"node","name":"Hotel Royal","category":"hotel","tags":{"check_date":"2024-08-27","name":"Hotel Royal","rooms":"76","tourism":"hotel","website":"https://hotel-royal.com/","wheelchair":"no","wikidata":"Q10526563"}},"geometry":{"type":"Point","coordinates":[11.9722323,57.7063606]}},{"type":"Feature","properties":{"id":2151827040,"osm_type":"node","name":"Dorsia","category":"hotel","tags":{"check_date":"2024-08-07","name":"Dorsia","tourism":"hotel"}},"geometry":{"type":"Point","coordinates":[11.9716749,57.7046034]}},{"type":"Feature","properties":{"id":2152022661,"osm_type":"node","name":"Design Apartments","category":"hotel","tags":{"check_date":"2024-08-27","name":"Design Apartments","tourism":"hotel"}},"geometry":{"type":"Point","coordinates":[11.9718646,57.705927]}},{"type":"Feature","properties":{"id":2318390721,"osm_type":"node","name":"Hotel Pigalle","category":"hotel","tags":{"check_date":"2026-04-26","contact:email":"reception@hotelpigalle.se","contact:phone":"+46 31 802521","contact:website":"https://www.hotelpigalle.se/","name":"Hotel Pigalle","rooms":"60","tourism":"hotel","wikidata":"Q111410114"}},"geometry":{"type":"Point","coordinates":[11.970752,57.706954]}},{"type":"Feature","properties":{"id":2394138611,"osm_type":"node","name":"Comfort Hotel Göteborg","category":"hotel","tags":{"addr:city":"Göteborg","addr:country":"SE","addr:housenumber":"1","addr:place":"Skeppsbroplatsen","addr:postcode":"411 21","air_conditioning":"yes","contact:phone":"+4631 752 28 00","internet_access":"wlan","name":"Comfort Hotel Göteborg","opening_hours":"24/7","operator":"Nordic Choice","rooms":"289","tourism":"hotel","website":"https://www.strawberry.se/hotell/sverige/goteborg/comfort-hotel-goteborg/","wheelchair":"yes","wheelchair:description":"At least our room has an electrical door opener a huge bathroom, even a second lowered peephole.","wikidata":"Q111410118"}},"geometry":{"type":"Point","coordinates":[11.9588071,57.7058788]}},{"type":"Feature","properties":{"id":2394138613,"osm_type":"node","name":"Hotel Center","category":"hotel","tags":{"addr:city":"Göteborg","addr:country":"SE","addr:housenumber":"28","addr:postcode":"411 21","addr:street":"Stora Badhusgatan","air_conditioning":"yes","contact:phone":"+46 31 174050","contact:website":"https://www.hotelcenter.se","internet_access":"wlan","name":"Hotel Center","opening_hours":"24/7","stars":"3","tourism":"hotel","wheelchair":"yes"}},"geometry":{"type":"Point","coordinates":[11.956122,57.70348]}},{"type":"Feature","properties":{"id":2394138616,"osm_type":"node","name":"Hotel Riverton","category":"hotel","tags":{"addr:city":"Göteborg","addr:country":"SE","addr:housenumber":"26","addr:street":"Stora Badhusgatan","air_conditioning":"yes","contact:phone":"+46 31 7501000","contact:website":"https://www.riverton.se/","internet_access":"wlan","name":"Hotel Riverton","rooms":"210","stars":"4","tourism":"hotel","wheelchair":"yes","wikidata":"Q111875583"}},"geometry":{"type":"Point","coordinates":[11.9565414,57.7037739]}},{"type":"Feature","properties":{"id":2637968962,"osm_type":"node","name":"Hotell Göta Avenyn","category":"hotel","tags":{"addr:city":"Göteborg","addr:country":"SE","addr:housenumber":"8","addr:postcode":"41136","addr:street":"Lorensbergsgatan","email":"receptionen@cityhotelgbg.se","name":"Hotell Göta Avenyn","rooms":"58","tourism":"hotel","website":"http://cityhotelgbg.se/"}},"geometry":{"type":"Point","coordinates":[11.9763177,57.7005524]}},{"type":"Feature","properties":{"id":2931020601,"osm_type":"node","name":"Hotel Lorensberg","category":"hotel","tags":{"addr:city":"Göteborg","addr:country":"SE","addr:housenumber":"15","addr:postcode":"412 53","addr:street":"Berzeliigatan","check_date":"2026-02-19","name":"Hotel Lorensberg","rooms":"110","tourism":"hotel"}},"geometry":{"type":"Point","coordinates":[11.9834285,57.6988108]}},{"type":"Feature","properties":{"id":3181526661,"osm_type":"node","name":"Le Mat B&B","category":"hotel","tags":{"check_date":"2025-06-04","name":"Le Mat B&B","tourism":"hotel","website":"http://www.lemat.se/goteborg.html"}},"geometry":{"type":"Point","coordinates":[11.976995,57.700083]}},{"type":"Feature","properties":{"id":3228607561,"osm_type":"node","name":"Scandic No. 25","category":"hotel","tags":{"brand":"Scandic Hotels","brand:wikidata":"Q129391","check_date":"2024-09-19","name":"Scandic No. 25","rooms":"112","tourism":"hotel","wheelchair":"yes"}},"geometry":{"type":"Point","coordinates":[11.98121,57.709684]}},{"type":"Feature","properties":{"id":3234360683,"osm_type":"node","name":"Comfort Hotel City","category":"hotel","tags":{"addr:city":"Göteborg","addr:housenumber":"63-65","addr:postcode":"411 07","addr:street":"Drottninggatan","name":"Comfort Hotel City","rooms":"102","tourism":"hotel","website":"https://www.strawberry.se/hotell/sverige/goteborg/comfort-hotel-city/","wikidata":"Q111410116"}},"geometry":{"type":"Point","coordinates":[11.97179,57.706284]}},{"type":"Feature","properties":{"id":3382917840,"osm_type":"node","name":"Spar Hotel Majorna","category":"hotel","tags":{"addr:city":"Göteborg","addr:country":"SE","addr:housenumber":"66-70","addr:postcode":"414 55","addr:street":"Karl Johansgatan","contact:email":"majorna@sparhotel.se","contact:phone":"+46-31-751 07 00","contact:website":"https://www.sparhotel.se/hotell/majorna","internet_access":"wlan","internet_access:fee":"no","name":"Spar Hotel Majorna","operator":"Spar","rooms":"212","smoking":"no","stars":"3","tourism":"hotel"}},"geometry":{"type":"Point","coordinates":[11.9217597,57.6952635]}},{"type":"Feature","properties":{"id":3397575578,"osm_type":"node","name":"Linnéplatsens Hotell & Vandrarhem","category":"hotel","tags":{"addr:city":"Göteborg","addr:country":"SE","addr:housenumber":"8","addr:postcode":"41310","addr:street":"Linnéplatsen","contact:email":"info@boilinne.se","contact:phone":"+46-31-775 75 75","contact:website":"http://www.linneplatsensvandrarhem.se/","name":"Linnéplatsens Hotell & Vandrarhem","reservation":"yes","tourism":"hostel"}},"geometry":{"type":"Point","coordinates":[11.95251,57.6906628]}},{"type":"Feature","properties":{"id":3397610326,"osm_type":"node","name":"Göteborgs Mini-Hotel","category":"hotel","tags":{"addr:city":"Göteborg","addr:country":"SE","addr:housenumber":"31","addr:postcode":"413 27","addr:street":"Tredje Långgatan","contact:email":"info@minihotel.se","contact:phone":"+46 (0)31-24 10 23","contact:website":"http://www.minihotel.se","name":"Göteborgs Mini-Hotel","rooms":"30","tourism":"hostel"}},"geometry":{"type":"Point","coordinates":[11.9458494,57.6983168]}},{"type":"Feature","properties":{"id":3397620360,"osm_type":"node","name":"Masthuggsterrassens Vandrarhem","category":"hotel","tags":{"addr:city":"Göteborg","addr:country":"SE","addr:housenumber":"44","addr:postcode":"413 27","addr:street":"Andra Långgatan","contact:email":"info@mastenvandrarhem.se","contact:phone":"+46-31-42 48 20","contact:website":"http://www.mastenvandrarhem.se","internet_access":"wlan","internet_access:fee":"no","name":"Masthuggsterrassens Vandrarhem","tourism":"hostel"}},"geometry":{"type":"Point","coordinates":[11.9423583,57.6982384]}},{"type":"Feature","properties":{"id":3517229993,"osm_type":"node","name":"Hotel Vasa","category":"hotel","tags":{"addr:city":"Göteborg","addr:country":"SE","addr:housenumber":"6","addr:postcode":"411 25","addr:street":"Viktoriagatan","brand":"Best Western","name":"Hotel Vasa","rooms":"48","tourism":"hotel","website":"https://www.hotelvasa.se/"}},"geometry":{"type":"Point","coordinates":[11.965348,57.69893]}},{"type":"Feature","properties":{"id":3647798420,"osm_type":"node","name":"Surte","category":"hotel","tags":{"addr:city":"Surte","addr:country":"SE","addr:housenumber":"24-26","addr:postcode":"44557","addr:street":"Göteborgsvägen","name":"Surte","tourism":"hotel","url":"http://www.hotelsurte.se","wikidata":"Q112014429"}},"geometry":{"type":"Point","coordinates":[12.0158696,57.8201764]}},{"type":"Feature","properties":{"id":3811026428,"osm_type":"node","name":"Ewa & Maude Hotel","category":"hotel","tags":{"addr:city":"Göteborg","addr:country":"SE","addr:housenumber":"10","addr:postcode":"41319","addr:street":"Askimsgatan","contact:email":"info@emhotel.se","contact:phone":"+46 31 41 41 40","contact:website":"https://www.emhotel.se/","internet_access":"wlan","internet_access:fee":"no","name":"Ewa & Maude Hotel","rooms":"16","smoking":"no","tourism":"hotel"}},"geometry":{"type":"Point","coordinates":[11.954864,57.6833363]}},{"type":"Feature","properties":{"id":3819451857,"osm_type":"node","name":"Hotel Flora","category":"hotel","tags":{"name":"Hotel Flora","rooms":"65","tourism":"hotel","wikidata":"Q111410120"}},"geometry":{"type":"Point","coordinates":[11.965605,57.702793]}},{"type":"Feature","properties":{"id":3862922457,"osm_type":"node","name":"Gothenburg City B&B","category":"hotel","tags":{"contact:website":"http://www.gothenburgcitybb.com/","name":"Gothenburg City B&B","tourism":"guest_house"}},"geometry":{"type":"Point","coordinates":[11.9662359,57.7034068]}},{"type":"Feature","properties":{"id":4459840402,"osm_type":"node","name":"Hotell Allén","category":"hotel","tags":{"addr:city":"Göteborg","addr:country":"SE","addr:housenumber":"10","addr:street":"Parkgatan","internet_access":"wlan","name":"Hotell Allén","tourism":"hotel"}},"geometry":{"type":"Point","coordinates":[11.9765143,57.7036845]}},{"type":"Feature","properties":{"id":4546298989,"osm_type":"node","name":"Kastanjebacken","category":"hotel","tags":{"addr:country":"SE","addr:housenumber":"27","addr:street":"Härlandavägen","name":"Kastanjebacken","name:sv":"Kastanjebacken","tourism":"guest_house","website":"http://utbilding.gu.se"}},"geometry":{"type":"Point","coordinates":[12.0241886,57.7199117]}},{"type":"Feature","properties":{"id":4827107924,"osm_type":"node","name":"First Hotel Kviberg","category":"hotel","tags":{"addr:country":"SE","addr:housenumber":"2","addr:street":"Krutvägen","alt_name":"Kviberg Park Hotel & Conference","internet_access":"wlan","internet_access:fee":"no","name":"First Hotel Kviberg","rooms":"121","toilets:wheelchair":"yes","tourism":"hotel","website":"https://www.firsthotels.se/Vara-Hotell/Hotell-i-Sverige/Goteborg/first-hotel-kviberg-park/","wheelchair":"yes"}},"geometry":{"type":"Point","coordinates":[12.033415,57.7382279]}},{"type":"Feature","properties":{"id":4829133815,"osm_type":"node","name":"Home Hotel Mektagonen","category":"hotel","tags":{"addr:city":"Göteborg","addr:country":"SE","addr:housenumber":"3","addr:postcode":"41285","addr:street":"Falkenbergsgatan","email":"home.mektagonen@strawberry.se","name":"Home Hotel Mektagonen","not:brand:wikidata":"Q10454567","operator":"Best Western","phone":"+46 31-387 90 00","rooms":"149","tourism":"hotel","website":"https://www.strawberry.se/hotell/sverige/goteborg/clarion-collection-hotel-mektagonen/"}},"geometry":{"type":"Point","coordinates":[12.0008841,57.6812674]}},{"type":"Feature","properties":{"id":4882170596,"osm_type":"node","name":"Hotell Eken","category":"hotel","tags":{"air_conditioning":"yes","name":"Hotell Eken","tourism":"hotel"}},"geometry":{"type":"Point","coordinates":[12.053034,57.6015287]}},{"type":"Feature","properties":{"id":4957390656,"osm_type":"node","name":"At Home","category":"hotel","tags":{"addr:city":"Västra Frölunda","addr:country":"SE","addr:housenumber":"13","addr:postcode":"426 76","addr:street":"Göta Älvsgatan","contact:phone":"+46-31-811000","contact:website":"http://athomebab.com/","name":"At Home","tourism":"guest_house"}},"geometry":{"type":"Point","coordinates":[11.8699282,57.6721181]}},{"type":"Feature","properties":{"id":5030793827,"osm_type":"node","name":"Str Vandrahem Wendelsberg","category":"hotel","tags":{"name":"Str Vandrahem Wendelsberg","tourism":"hostel","wheelchair":"yes"}},"geometry":{"type":"Point","coordinates":[12.1210723,57.6643226]}},{"type":"Feature","properties":{"id":7960993045,"osm_type":"node","name":"Backa","category":"hotel","tags":{"air_conditioning":"no","guest_house":"hostel","internet_access":"wlan","internet_access:fee":"customers","name":"Backa","smoking":"outside","tourism":"hostel","wheelchair":"no"}},"geometry":{"type":"Point","coordinates":[11.9498976,57.7272865]}},{"type":"Feature","properties":{"id":9631902017,"osm_type":"node","name":"La Mare Resort","category":"hotel","tags":{"name":"La Mare Resort","phone":"+46730941400","tourism":"hotel"}},"geometry":{"type":"Point","coordinates":[11.9760797,57.7213074]}},{"type":"Feature","properties":{"id":9741681683,"osm_type":"node","name":"","category":"hotel","tags":{"tourism":"hostel"}},"geometry":{"type":"Point","coordinates":[12.0273437,57.7570714]}},{"type":"Feature","properties":{"id":9926125620,"osm_type":"node","name":"Scandic Göteborg Central","category":"hotel","tags":{"addr:city":"Göteborg","addr:country":"SE","addr:housenumber":"7","addr:postcode":"411 04","addr:street":"Vikingsgatan","brand":"Scandic Hotels","brand:wikidata":"Q129391","entrance":"main","name":"Scandic Göteborg Central","rooms":"451","tourism":"hotel","website":"https://www.scandichotels.se/hotell/sverige/goteborg/scandic-goteborg-central"}},"geometry":{"type":"Point","coordinates":[11.9716838,57.7133659]}},{"type":"Feature","properties":{"id":10878512397,"osm_type":"node","name":"","category":"hotel","tags":{"guest_house":"bed_and_breakfast","tourism":"guest_house"}},"geometry":{"type":"Point","coordinates":[12.0013288,57.8660015]}},{"type":"Feature","properties":{"id":11100229680,"osm_type":"node","name":"Jacy'z","category":"hotel","tags":{"addr:city":"Göteborg","addr:country":"SE","addr:housenumber":"10","addr:street":"Drakegatan","name":"Jacy'z","operator":"ESS Group","tourism":"hotel","website":"https://jacyzhotel.com"}},"geometry":{"type":"Point","coordinates":[11.9934218,57.7057342]}},{"type":"Feature","properties":{"id":12216431268,"osm_type":"node","name":"Torpet Mon","category":"hotel","tags":{"guest_house":"bed_and_breakfast","name":"Torpet Mon","tourism":"guest_house","website":"https://torpet-mon.gothenburg-hotel.com/sv/"}},"geometry":{"type":"Point","coordinates":[12.0357426,57.7004754]}},{"type":"Feature","properties":{"id":12585542935,"osm_type":"node","name":"Waterfront Cabins","category":"hotel","tags":{"addr:city":"Göteborg","addr:housenumber":"12","addr:postcode":"417 79","addr:street":"Kvillepiren","name":"Waterfront Cabins","tourism":"hotel","website":"https://en.waterfrontcabins.se/"}},"geometry":{"type":"Point","coordinates":[11.9544008,57.7153059]}},{"type":"Feature","properties":{"id":15531641,"osm_type":"way","name":"Scandic Mölndal","category":"hotel","tags":{"addr:city":"Mölndal","addr:country":"SE","addr:housenumber":"23","addr:postcode":"431 31","addr:street":"Barnhemsgatan","brand":"Scandic Hotels","brand:wikidata":"Q129391","building":"hotel","contact:phone":"+46 31-7515200","contact:website":"www.scandichotels.com","name":"Scandic Mölndal","source":"local_knowledge","tourism":"hotel","wikidata":"Q111410128"}},"geometry":{"type":"Point","coordinates":[12.0146292,57.6536998]}},{"type":"Feature","properties":{"id":27018051,"osm_type":"way","name":"Hotell Villan","category":"hotel","tags":{"addr:city":"Göteborg","addr:housenumber":"2","addr:postcode":"41764","addr:street":"Sjöportsgatan","brand":"Dialog Hotels","building":"hotel","building:colour":"#AFCECD","building:material":"wood","email":"reception.villan@dialoghotels.se","height":"13","name":"Hotell Villan","phone":"+46 31-725 77 77","roof:height":"3.5","roof:material":"roof_tiles","roof:shape":"gambrel","tourism":"hotel","website":"https://dialoghotels.se/en/hotels/hotel-villan","wheelchair":"no"}},"geometry":{"type":"Point","coordinates":[11.915169,57.7011901]}},{"type":"Feature","properties":{"id":33285062,"osm_type":"way","name":"Ibis hotel Göteborg-Mölndal","category":"hotel","tags":{"brand":"Ibis","brand:wikidata":"Q920166","building":"hotel","contact:email":"h2861@accor.com","contact:fax":"+4631879818","contact:phone":"+4631679630","contact:website":"www.ibishotel.se/goteborg-molndal/","name":"Ibis hotel Göteborg-Mölndal","operator":"Accor Hotels","source":"Building outline: Yahoo","tourism":"hotel"}},"geometry":{"type":"Point","coordinates":[11.9950182,57.6478046]}},{"type":"Feature","properties":{"id":36142299,"osm_type":"way","name":"Comfort Hotel Panorama","category":"hotel","tags":{"addr:city":"Göteborg","addr:country":"SE","addr:housenumber":"51,53","addr:postcode":"412 61","addr:street":"Eklandagatan","architect":"Johan Tuvert","beds":"555","brand":"Comfort Hotel","building":"hotel","building:levels":"14","email":"co.panorama@strawberry.se","name":"Comfort Hotel Panorama","phone":"+46 31 767 70 00","rooms":"336","start_date":"1985","tourism":"hotel","website":"https://www.strawberry.se/hotell/sverige/goteborg/comfort-hotel-panorama/"}},"geometry":{"type":"Point","coordinates":[11.9876199,57.689533]}},{"type":"Feature","properties":{"id":71525922,"osm_type":"way","name":"Kvibergs vandrarhem & stugby","category":"hotel","tags":{"building":"yes","name":"Kvibergs vandrarhem & stugby","tourism":"hostel"}},"geometry":{"type":"Point","coordinates":[12.0294283,57.7367123]}},{"type":"Feature","properties":{"id":72231334,"osm_type":"way","name":"Clarion Hotel Post","category":"hotel","tags":{"addr:city":"Göteborg","addr:country":"SE","addr:housename":"Posthuset","addr:housenumber":"10","addr:postcode":"411 03","addr:street":"Drottningtorget","air_conditioning":"yes","bar":"yes","brand":"Clarion","brand:wikidata":"Q10454567","building":"hotel","building:levels":"5","contact:email":"cl.post@choice.se","contact:phone":"+46 31 619000","contact:website":"http://www.clarionpost.se/","image":"https://photos.app.goo.gl/umBqpJsx21TEjJGLA","name":"Clarion Hotel Post","reservation":"yes","roof:colour":"#5E6B71","roof:levels":"1","roof:shape":"many","rooms":"540","stars":"5","tourism":"hotel","wheelchair":"yes","wikidata":"Q3425962"}},"geometry":{"type":"Point","coordinates":[11.975053,57.7081329]}},{"type":"Feature","properties":{"id":79087712,"osm_type":"way","name":"Blå Huset B&B","category":"hotel","tags":{"addr:city":"Västra Frölunda","addr:country":"SE","addr:housenumber":"36","addr:postcode":"426 69","addr:street":"Torgny Segerstedtsgatan","building":"yes","contact:website":"http://www.blahuset.com","internet_access":"wlan","internet_access:fee":"no","name":"Blå Huset B&B","rooms":"4","smoking":"no","tourism":"guest_house"}},"geometry":{"type":"Point","coordinates":[11.8928687,57.6770166]}},{"type":"Feature","properties":{"id":83423839,"osm_type":"way","name":"Nice Bed & Breakfast","category":"hotel","tags":{"addr:city":"Göteborg","addr:country":"SE","addr:housenumber":"18","addr:postcode":"412 61","addr:street":"Utlandagatan","building":"detached","internet_access":"wlan","name":"Nice Bed & Breakfast","tourism":"guest_house","website":"https://www.hotelnice.se/"}},"geometry":{"type":"Point","coordinates":[11.9910833,57.6881946]}},{"type":"Feature","properties":{"id":83669003,"osm_type":"way","name":"Annes Hus","category":"hotel","tags":{"addr:city":"Göteborg","addr:country":"SE","addr:housename":"Annes Hus","addr:housenumber":"35","addr:postcode":"412 61","addr:street":"Hjulmakaregatan","building":"yes","contact:email":"info@annes-hus.o.se","contact:phone":"+46-706209403","contact:website":"http://www.annes-hus.o.se/","name":"Annes Hus","tourism":"hotel"}},"geometry":{"type":"Point","coordinates":[11.9891825,57.687353]}},{"type":"Feature","properties":{"id":87340806,"osm_type":"way","name":"Sankt Jörgen Park Resort","category":"hotel","tags":{"building":"hotel","name":"Sankt Jörgen Park Resort","rooms":"82","source":"Bing","stars":"4","tourism":"hotel"}},"geometry":{"type":"Point","coordinates":[11.9444245,57.7437683]}},{"type":"Feature","properties":{"id":88425703,"osm_type":"way","name":"WOW Apartments","category":"hotel","tags":{"addr:city":"Göteborg","addr:country":"SE","addr:housenumber":"9","addr:postcode":"41127","addr:street":"Föreningsgatan","building":"yes","building:material":"brick","contact:email":"info@wowapartments.se","contact:phone":"+46 764 00 77 11","contact:website":"https://www.wowapartments.se","name":"WOW Apartments","official_name":"WOW Apartments i Göteborg","old_name":"Hotell Lilton","tourism":"guest_house"}},"geometry":{"type":"Point","coordinates":[11.9630106,57.694424]}},{"type":"Feature","properties":{"id":90908498,"osm_type":"way","name":"Hotel Mölndals Bro","category":"hotel","tags":{"addr:city":"Mölndal","addr:country":"SE","addr:housenumber":"5","addr:postcode":"431 33","addr:street":"Nämndemansgatan","building":"hotel","internet_access":"wlan","internet_access:fee":"no","name":"Hotel Mölndals Bro","stars":"4","tourism":"hotel","website":"https://hotelmölndalsbro.se/","wikidata":"Q111875590"}},"geometry":{"type":"Point","coordinates":[12.019985,57.6567417]}},{"type":"Feature","properties":{"id":108654587,"osm_type":"way","name":"Good Morning+ Göteborg City","category":"hotel","tags":{"addr:housenumber":"15B","addr:street":"Gullbergs Strandgata","building":"hotel","name":"Good Morning+ Göteborg City","seamark:hulk:category":"accommodation","seamark:type":"hulk","tourism":"hotel","website":"https://ligula.se/goodmorninghotels/goteborg-city/"}},"geometry":{"type":"Point","coordinates":[11.9729275,57.7161892]}},{"type":"Feature","properties":{"id":158286990,"osm_type":"way","name":"Hotel Poseidon","category":"hotel","tags":{"addr:city":"Göteborg","addr:country":"SE","addr:housenumber":"33","addr:postcode":"411 38","addr:street":"Storgatan","building":"hotel","name":"Hotel Poseidon","rooms":"48","tourism":"hotel","website":"https://www.hotelposeidon.com/"}},"geometry":{"type":"Point","coordinates":[11.969919,57.700138]}},{"type":"Feature","properties":{"id":191613704,"osm_type":"way","name":"Scandic Backadal","category":"hotel","tags":{"addr:city":"Hisings Backa","addr:housenumber":"4","addr:postcode":"42253","addr:street":"Bäckebolsvägen","brand":"Scandic Hotels","brand:wikidata":"Q129391","building":"hotel","internet_access":"yes","internet_access:fee":"no","name":"Scandic Backadal","operator":"Scandic","parking":"garage","phone":"+46 31 7515000","rooms":"236","tourism":"hotel","website":"https://www.scandichotels.se/hotell/sverige/goteborg/scandic-backadal"}},"geometry":{"type":"Point","coordinates":[11.9888472,57.7492939]}},{"type":"Feature","properties":{"id":191913453,"osm_type":"way","name":"","category":"hotel","tags":{"addr:city":"Hisings Backa","addr:country":"SE","addr:housenumber":"127","addr:street":"Gamla Lillhagsvägen","building":"hotel","rooms":"19","stars":"3","tourism":"hotel"}},"geometry":{"type":"Point","coordinates":[11.9523567,57.7457285]}},{"type":"Feature","properties":{"id":191913556,"osm_type":"way","name":"","category":"hotel","tags":{"building":"yes","tourism":"hotel"}},"geometry":{"type":"Point","coordinates":[11.9527642,57.74571]}},{"type":"Feature","properties":{"id":211269516,"osm_type":"way","name":"Lisebergsbyn vandrarhem","category":"hotel","tags":{"air_conditioning":"no","bar":"no","building":"yes","name":"Lisebergsbyn vandrarhem","operator":"Liseberg","smoking":"no","tourism":"hostel","website":"https://www.liseberg.se/boende/lisebergsbyn/vandrarhem/"}},"geometry":{"type":"Point","coordinates":[12.0308188,57.7035298]}},{"type":"Feature","properties":{"id":227002797,"osm_type":"way","name":"Hotell & Vandrarhem 10","category":"hotel","tags":{"addr:country":"SE","addr:housenumber":"64","addr:street":"Göteborgsvägen","building":"hotel","name":"Hotell & Vandrarhem 10","source":"local_knowledge","tourism":"hostel"}},"geometry":{"type":"Point","coordinates":[12.0706,57.7321459]}},{"type":"Feature","properties":{"id":267311351,"osm_type":"way","name":"Hotell Fars Hatt","category":"hotel","tags":{"building":"hotel","check_date":"2022-12-22","name":"Hotell Fars Hatt","tourism":"hotel","wikidata":"Q10494149"}},"geometry":{"type":"Point","coordinates":[11.9962077,57.8648422]}},{"type":"Feature","properties":{"id":461443926,"osm_type":"way","name":"Hotell Kusten","category":"hotel","tags":{"building":"hotel","name":"Hotell Kusten","rooms":"28","tourism":"hotel"}},"geometry":{"type":"Point","coordinates":[11.9177017,57.693674]}},{"type":"Feature","properties":{"id":613927175,"osm_type":"way","name":"Åby Hotel","category":"hotel","tags":{"brand":"Best Western Plus","brand:wikidata":"Q38623383","building":"hotel","name":"Åby Hotel","tourism":"hotel"}},"geometry":{"type":"Point","coordinates":[12.0035267,57.6492067]}},{"type":"Feature","properties":{"id":822309152,"osm_type":"way","name":"Treetop Spa, Hangout & Hotel","category":"hotel","tags":{"building":"yes","name":"Treetop Spa, Hangout & Hotel","tourism":"hotel"}},"geometry":{"type":"Point","coordinates":[11.9524348,57.7455586]}},{"type":"Feature","properties":{"id":822309153,"osm_type":"way","name":"","category":"hotel","tags":{"building":"yes","tourism":"hotel"}},"geometry":{"type":"Point","coordinates":[11.952791,57.7455675]}},{"type":"Feature","properties":{"id":822309154,"osm_type":"way","name":"","category":"hotel","tags":{"building":"yes","tourism":"hotel"}},"geometry":{"type":"Point","coordinates":[11.9528211,57.7455019]}},{"type":"Feature","properties":{"id":822309155,"osm_type":"way","name":"","category":"hotel","tags":{"building":"yes","tourism":"hotel"}},"geometry":{"type":"Point","coordinates":[11.9528611,57.7454328]}},{"type":"Feature","properties":{"id":822309156,"osm_type":"way","name":"","category":"hotel","tags":{"building":"yes","tourism":"hotel"}},"geometry":{"type":"Point","coordinates":[11.9528707,57.7453802]}},{"type":"Feature","properties":{"id":822309157,"osm_type":"way","name":"","category":"hotel","tags":{"building":"yes","tourism":"hotel"}},"geometry":{"type":"Point","coordinates":[11.952699,57.7454225]}},{"type":"Feature","properties":{"id":977074654,"osm_type":"way","name":"Quality Hotel The Weaver","category":"hotel","tags":{"addr:country":"SE","addr:housenumber":"91","addr:street":"Göteborgsvägen","bar":"yes","building":"hotel","name":"Quality Hotel The Weaver","operator":"Nordic Choice Hotels","tourism":"hotel"}},"geometry":{"type":"Point","coordinates":[12.0105855,57.6678426]}},{"type":"Feature","properties":{"id":1055106859,"osm_type":"way","name":"The Pier","category":"hotel","tags":{"addr:city":"Göteborg","addr:country":"SE","addr:housenumber":"5","addr:postcode":"41755","addr:street":"Pumpgatan","brand":"Clarion","brand:wikidata":"Q10454567","building":"hotel","building:colour":"#a49c91","building:levels":"10","name":"The Pier","phone":"+46 31 30 50 130","roof:shape":"flat","rooms":"254","source":"Göteborg stadskarta","tourism":"hotel","website":"https://www.nordicchoicehotels.se/hotell/sverige/goteborg/clarion-hotel-the-pier/"}},"geometry":{"type":"Point","coordinates":[11.9486634,57.7105927]}},{"type":"Feature","properties":{"id":1121930517,"osm_type":"way","name":"","category":"hotel","tags":{"building":"yes","tourism":"hotel"}},"geometry":{"type":"Point","coordinates":[11.9531436,57.7457354]}},{"type":"Feature","properties":{"id":1121930518,"osm_type":"way","name":"","category":"hotel","tags":{"building":"yes","tourism":"hotel"}},"geometry":{"type":"Point","coordinates":[11.953213,57.7456415]}},{"type":"Feature","properties":{"id":1243458002,"osm_type":"way","name":"Clarion Hotel Draken","category":"hotel","tags":{"addr:city":"Göteborg","addr:housenumber":"2","addr:place":"Olof Palmes Plats","addr:postcode":"413 04","amenity":"restaurant","architect":"Erséus Arkitekter","brand":"Clarion","brand:wikidata":"Q10454567","breakfast":"yes","building:colour":"#544033","building:levels":"34","building:min_level":"32","building:part":"hotel","building:roof":"black","contact:email":"cl.draken@strawberry.se","contact:facebook":"https://www.facebook.com/hoteldraken","contact:instagram":"https://www.instagram.com/hoteldraken/","contact:phone":"+46 31 305 01 60","contact:website":"https://www.strawberry.se/hotell/sverige/goteborg/clarion-hotel-draken/","height":"104","image":"https://sv.wikipedia.org/wiki/Clarion_Hotel_Draken#/media/Fil:Hotel_Draken_18_februari_2023.jpg","internet_access":"wlan","internet_access:fee":"no","name":"Clarion Hotel Draken","opening_date":"2023-10-01","operator":"Clarion Hotel","owner":"Fastighets AB Balder","pets_allowed":"yes","roof:colour":"black","rooms":"474","smoking":"no","start_date":"2019","tourism":"hotel","wikidata":"Q111943328","wikipedia":"sv:Clarion Hotel Draken"}},"geometry":{"type":"Point","coordinates":[11.952608,57.7011676]}},{"type":"Feature","properties":{"id":1352425877,"osm_type":"way","name":"Hotel Opera","category":"hotel","tags":{"addr:city":"Göteborg","addr:country":"SE","addr:housenumber":"23","addr:postcode":"41103","addr:street":"Nils Ericsonsgatan","brand":"ProfilHotels","check_date":"2024-06-20","contact:email":"hotelopera@profilhotels.se","contact:fax":"+46 31-80 58 17","contact:phone":"+46 31-80 50 80","contact:website":"https://ligula.se/profilhotels/hotel-opera","internet_access":"wlan","name":"Hotel Opera","operator":"Ligula Hospitality Group","rooms":"198","smoking":"no","tourism":"hotel","wikidata":"Q111410113"}},"geometry":{"type":"Point","coordinates":[11.9711344,57.7078125]}},{"type":"Feature","properties":{"id":1430170872,"osm_type":"way","name":"Hyatt Place Gothenburg Central","category":"hotel","tags":{"addr:city":"Göteborg","addr:housenumber":"4","addr:postcode":"411 03","addr:street":"Nils Ericsonsgatan","air_conditioning":"yes","bar":"yes","brand":"Hyatt Place","brand:wikidata":"Q72629292","building":"yes","contact:facebook":"HyattPlaceGothenburg","internet_access":"yes","internet_access:fee":"no","layer":"2","name":"Hyatt Place Gothenburg Central","not:name":"Scandic Crown;Scandic Hotel","opening_hours":"24/7","operator":"Hyatt","payment:cash":"yes","payment:credit_cards":"yes","payment:maestro":"yes","payment:mastercard":"yes","payment:visa":"yes","phone":"+46 313851234","reservation":"yes","smoking":"no","stars":"4","tourism":"hotel","website":"https://www.hyatt.com/hyatt-place/en-US/gotzg-hyatt-place-gothenburg-central","wheelchair":"yes","wikidata":"Q136300079"}},"geometry":{"type":"Point","coordinates":[11.9724461,57.7091245]}},{"type":"Feature","properties":{"id":1110271,"osm_type":"relation","name":"Hotel Liseberg Heden","category":"hotel","tags":{"addr:city":"Göteborg","addr:country":"SE","addr:housenumber":"1","addr:postcode":"411 39","addr:street":"Sten Sturegatan","building":"hotel","name":"Hotel Liseberg Heden","rooms":"179","toilets:wheelchair":"yes","tourism":"hotel","type":"multipolygon","website":"https://www.liseberg.se/en/home/Accommodation/Hotel/Hotell-Liseberg-Heden/","wheelchair":"yes","wheelchair:description":"Hotel Liseberg Heden has two wheelchair accessible rooms with w/c accessible bathrooms (with shower stools). It is easy to get into a gym and unisex sauna premises in a wheelchair."}},"geometry":{"type":"Point","coordinates":[11.9813433,57.7016448]}},{"type":"Feature","properties":{"id":1229863,"osm_type":"relation","name":"Hotel Eggers","category":"hotel","tags":{"addr:city":"Göteborg","addr:country":"SE","addr:housenumber":"2,4","addr:postcode":"41103","addr:street":"Drottningtorget","building":"hotel","building:colour":"#eecfaf","building:levels":"3","check_date":"2024-06-20","contact:email":"info@hoteleggers.se","contact:facebook":"https://www.facebook.com/HotelEggers/","contact:phone":"+46 31 333 44 40","contact:website":"https://www.hoteleggers.se/","contact:youtube":"https://www.youtube.com/channel/UCPdqHUaF0P7KaBrhUW1xKDQ/featured","image":"https://photos.app.goo.gl/2frPsNVpEfQUyfJ98","name":"Hotel Eggers","roof:levels":"2","roof:shape":"gambrel","rooms":"70","tourism":"hotel","type":"multipolygon","wheelchair":"no","wikidata":"Q10526552"}},"geometry":{"type":"Point","coordinates":[11.9721747,57.7080814]}},{"type":"Feature","properties":{"id":16035471,"osm_type":"relation","name":"Radisson Blu Riverside Hotel","category":"hotel","tags":{"addr:city":"Göteborg","addr:country":"SE","addr:housenumber":"4","addr:postcode":"417 56","addr:street":"Lindholmspiren","brand":"Radisson Blu","brand:wikidata":"Q7281341","brand:wikipedia":"en:Radisson Blu","building":"hotel","building:levels":"8","contact:email":"info.riverside.gothenburg@radissonblu.com","contact:website":"http://radissonblu.com/riversidehotel-gothenburg","internet_access":"wlan","internet_access:fee":"no","name":"Radisson Blu Riverside Hotel","operator":"Radisson Blu","roof:levels":"0","rooms":"265","smoking":"no","source":"Göteborg stadskarta","tourism":"hotel","type":"multipolygon"}},"geometry":{"type":"Point","coordinates":[11.9408738,57.7079264]}},{"type":"Feature","properties":{"id":18299874,"osm_type":"relation","name":"Brasserie X","category":"hotel","tags":{"addr:country":"SE","addr:housenumber":"91","addr:street":"Göteborgsvägen","amenity":"restaurant","bar":"yes","building":"hotel","building:colour":"maroon","name":"Brasserie X","operator":"Nordic Choice Hotels","payment:cryptocurrencies":"no","tourism":"hotel","type":"multipolygon"}},"geometry":{"type":"Point","coordinates":[12.0105442,57.6681603]}}]}