{"type":"FeatureCollection","features":[{"type":"Feature","properties":{"id":360448380,"osm_type":"node","name":"Kållereds bibliotek","category":"library","tags":{"addr:city":"Kållered","addr:country":"SE","addr:housenumber":"9","addr:postcode":"42832","addr:street":"Hagabäcksleden","amenity":"library","name":"Kållereds bibliotek","wikidata":"Q61752232"}},"geometry":{"type":"Point","coordinates":[12.0501321,57.6098754]}},{"type":"Feature","properties":{"id":606965525,"osm_type":"node","name":"Askims Bibliotek","category":"library","tags":{"addr:city":"Askim","addr:housenumber":"5","addr:place":"Askims Torg","addr:postcode":"43643","amenity":"library","name":"Askims Bibliotek","opening_hours":"Mo 11:00-19:00; Tu,We 11:00-17:00; Th 11:00-19:00; Fr 11:00-17:00","website":"https://goteborg.se/wps/portal/enhetssida/askims-bibliotek","wikidata":"Q36796014"}},"geometry":{"type":"Point","coordinates":[11.9373694,57.6335423]}},{"type":"Feature","properties":{"id":611556135,"osm_type":"node","name":"Studietorget Campus Linné","category":"library","tags":{"addr:city":"Göteborg","addr:country":"SE","addr:housenumber":"1D","addr:postcode":"41313","addr:street":"Seminariegatan","amenity":"library","contact:phone":"+46 31 786 18 03","contact:website":"http://www.ub.gu.se/bibliotek/Gcl/","description":"Bibliotek och informationssökning för Campus Linnés institutioner Specialsamling: Iberoamerikanska samlingen","name":"Studietorget Campus Linné","operator:type":"public"}},"geometry":{"type":"Point","coordinates":[11.9560277,57.6914082]}},{"type":"Feature","properties":{"id":672999273,"osm_type":"node","name":"Kortedala Bibliotek","category":"library","tags":{"addr:city":"Göteborg","addr:country":"SE","addr:housenumber":"9","addr:place":"Kortedala Torg","addr:postcode":"41510","amenity":"library","contact:phone":"+46 31 365 30 88","contact:website":"https://goteborg.se/wps/portal/enhetssida/kortedala-bibliotek","name":"Kortedala Bibliotek","opening_hours":"Mo, Tu, Th 10:00-19:00; We, Fr 10:00-17:00; Su 10:00-16:00","wheelchair":"yes","wikidata":"Q61751826"}},"geometry":{"type":"Point","coordinates":[12.0317114,57.7523361]}},{"type":"Feature","properties":{"id":699755959,"osm_type":"node","name":"Högsbo Bibliotek","category":"library","tags":{"amenity":"library","name":"Högsbo Bibliotek","opening_hours":"Mo,Tu,Th 10:00-19:00; We,Fr 10:00-17:00; Sa 10:00-14:00","operator":"Göteborgs Stad","wikidata":"Q61751847"}},"geometry":{"type":"Point","coordinates":[11.9272953,57.6706564]}},{"type":"Feature","properties":{"id":1501502669,"osm_type":"node","name":"Biskopsgårdens biblotek","category":"library","tags":{"access":"yes","amenity":"library","check_date":"2024-06-10","name":"Biskopsgårdens biblotek","operator":"Göteborgs Stad","operator:type":"public","polling_station":"yes"}},"geometry":{"type":"Point","coordinates":[11.8921274,57.7119304]}},{"type":"Feature","properties":{"id":1632019560,"osm_type":"node","name":"Stadsbiblioteket 300m²","category":"library","tags":{"air_conditioning":"yes","amenity":"library","check_date":"2025-11-24","level":"0","name":"Stadsbiblioteket 300m²","opening_hours":"Mo-Fr 08:00-20:00; Sa,Su 10:00-18:00"}},"geometry":{"type":"Point","coordinates":[11.9680365,57.7072926]}},{"type":"Feature","properties":{"id":1764100645,"osm_type":"node","name":"Älvstrandens bibliotek","category":"library","tags":{"addr:city":"Göteborg","addr:country":"SE","addr:housenumber":"6","addr:street":"Diagonalen","amenity":"library","name":"Älvstrandens bibliotek","opening_hours":"Mo,We 11:00-17:00; Tu,Th 11:00-19:00; Fr 11:00-16:00","wikidata":"Q9656831"}},"geometry":{"type":"Point","coordinates":[11.9378138,57.7051524]}},{"type":"Feature","properties":{"id":1824906743,"osm_type":"node","name":"Biblioteket, Kulturhuset Kåken","category":"library","tags":{"amenity":"library","name":"Biblioteket, Kulturhuset Kåken"}},"geometry":{"type":"Point","coordinates":[12.0172036,57.7167816]}},{"type":"Feature","properties":{"id":1853413791,"osm_type":"node","name":"Majornas bibliotek","category":"library","tags":{"access":"yes","addr:city":"Göteborg","addr:country":"SE","addr:housenumber":"5","addr:postcode":"414 54","addr:street":"Chapmans Torg","air_conditioning":"yes","amenity":"library","check_date":"2024-06-10","contact:email":"majorna.bibliotek@majornalinne.goteborg.se","contact:phone":"+46 31 365 95 51","entrance":"yes","name":"Majornas bibliotek","opening_hours":"Mo-Th 10:00-19:00; Fr 10:00-17:00; Sa 11:00-15:00","operator":"Göteborgs Stad","operator:type":"public","polling_station":"yes","wheelchair":"yes","wikidata":"Q26253513"}},"geometry":{"type":"Point","coordinates":[11.9198152,57.6934201]}},{"type":"Feature","properties":{"id":2110450541,"osm_type":"node","name":"Kyrkbyns bibliotek","category":"library","tags":{"addr:city":"Göteborg","addr:country":"SE","addr:housenumber":"4","addr:postcode":"418 73","addr:street":"Kyrkbytorget","amenity":"library","check_date":"2024-06-10","internet_access":"wlan","name":"Kyrkbyns bibliotek","opening_hours":"Mo 11:00-19:00; Tu-We 11:00-16:00; Th 11:00-19:00","phone":"+46 31 366 71 15","polling_station":"yes","website":"https://goteborg.se/wps/portal/enhetssida/kyrkbyns-bibliotek","wheelchair":"yes","wikidata":"Q26253512"}},"geometry":{"type":"Point","coordinates":[11.9074777,57.7120977]}},{"type":"Feature","properties":{"id":2139221302,"osm_type":"node","name":"Stadsbiblioteket 300m2","category":"library","tags":{"addr:city":"Göteborg","addr:country":"SE","addr:housenumber":"32","addr:postcode":"411 06","addr:street":"Östra Hamngatan","air_conditioning":"yes","amenity":"library","contact:email":"300m2@kultur.goteborg.se","contact:phone":"+46 31 368 33 33","contact:website":"https://goteborg.se/wps/portal/enhetssida/stadsbiblioteket-300m2","name":"Stadsbiblioteket 300m2","opening_hours":"Mo-Fr 08:00-19:30; Sa-Su 10:00-17:00","wheelchair":"yes"}},"geometry":{"type":"Point","coordinates":[11.9717071,57.706897]}},{"type":"Feature","properties":{"id":2435077208,"osm_type":"node","name":"Hjällbo bibliotek","category":"library","tags":{"addr:city":"Angered","addr:country":"SE","addr:housenumber":"80","addr:postcode":"424 32","addr:street":"Bergsgårdsgärdet","amenity":"library","internet_access":"wlan","internet_access:ssid":"biblioteket","name":"Hjällbo bibliotek","name:en":"Hjällbo Library","operator":"SDF Angered","wikidata":"Q61751815"}},"geometry":{"type":"Point","coordinates":[12.0198984,57.7691081]}},{"type":"Feature","properties":{"id":2875304655,"osm_type":"node","name":"Västra Frölunda bibliotek","category":"library","tags":{"addr:city":"Västra Frölunda","addr:country":"SE","addr:housenumber":"13","addr:street":"Valthornsgatan","amenity":"library","check_date":"2025-09-11","contact:email":"frolunda.bibliotek@afh.goteborg.se","contact:fax":"+46 31 366 28 50","contact:phone":"+46 31 366 28 40","internet_access":"wlan","internet_access:fee":"no","name":"Västra Frölunda bibliotek","opening_hours":"Mo-Fr 10:00-20:00; Sa,Su 10:00-17:00","operator":"Göteborgs Stad","website":"https://goteborg.se/wps/portal/enhetssida/frolunda-kulturhus/bibliotek","wheelchair":"yes","wikidata":"Q55593241"}},"geometry":{"type":"Point","coordinates":[11.9096695,57.6535631]}},{"type":"Feature","properties":{"id":3037665262,"osm_type":"node","name":"Angereds Bibliotek","category":"library","tags":{"amenity":"library","name":"Angereds Bibliotek","wikidata":"Q36795845"}},"geometry":{"type":"Point","coordinates":[12.0517701,57.7957772]}},{"type":"Feature","properties":{"id":3401991995,"osm_type":"node","name":"Studietorget Hälsovetarbacken","category":"library","tags":{"addr:city":"Göteborg","addr:country":"SE","addr:postcode":"41346","addr:street":"Arvid Wallgrens Backe","air_conditioning":"yes","amenity":"library","contact:phone":"+46 31 786 68 80","contact:website":"http://www.ub.gu.se/bibliotek/GmSt/","description":"Studie- och datorarbetsplatser samt kurslitteratur inom vårdvetenskap","internet_access":"wlan","name":"Studietorget Hälsovetarbacken","opening_hours":"Mo-Fr 08:30-17:00","operator":"Göteborgs Universitet","wheelchair":"yes","wikidata":"Q50598003"}},"geometry":{"type":"Point","coordinates":[11.9554947,57.6869956]}},{"type":"Feature","properties":{"id":3516942493,"osm_type":"node","name":"Lundby bibliotek","category":"library","tags":{"access":"yes","addr:city":"Göteborg","addr:country":"SE","addr:housenumber":"12A","addr:postcode":"417 22","addr:street":"Borstbindaregatan","air_conditioning":"yes","amenity":"library","name":"Lundby bibliotek","opening_hours":"Mo-Th 10:00-19:00; Fr 10:00-17:00; Sa 11:00-15:00","operator:type":"public","polling_station":"yes","wikidata":"Q26253514"}},"geometry":{"type":"Point","coordinates":[11.9468625,57.7209167]}},{"type":"Feature","properties":{"id":3733319220,"osm_type":"node","name":"Guldhedens bibliotek","category":"library","tags":{"access":"yes","air_conditioning":"yes","amenity":"library","check_date:opening_hours":"2026-03-14","internet_access":"wlan","internet_access:fee":"customers","name":"Guldhedens bibliotek","opening_hours":"Mo,Tu,Th 10:00-19:00; We,Fr 10:00-16:00; Sa 10:00-15:00","operator":"Göteborgs Stad","polling_station":"yes","wheelchair":"yes","wikidata":"Q61751859"}},"geometry":{"type":"Point","coordinates":[11.9717114,57.6834651]}},{"type":"Feature","properties":{"id":4408364030,"osm_type":"node","name":"Chalmers bibliotek Lindholmen","category":"library","tags":{"addr:city":"Göteborg","addr:country":"SE","addr:housenumber":"1","addr:postcode":"412 96","addr:street":"Lindholmsplatsen","amenity":"library","email":"kuggen.lib@chalmers.se","name":"Chalmers bibliotek Lindholmen","opening_hours":"Mo-Fr 08:30-17:00","phone":"+46 31 772 57 84","wheelchair":"yes"}},"geometry":{"type":"Point","coordinates":[11.9387719,57.706797]}},{"type":"Feature","properties":{"id":4446861069,"osm_type":"node","name":"Pedagogiska biblioteket","category":"library","tags":{"air_conditioning":"yes","amenity":"library","check_date":"2026-03-06","check_date:opening_hours":"2026-03-06","name":"Pedagogiska biblioteket","opening_hours":"Mo-Th 08:00-20:00; Fr 08:00-19:00; Sa 10:00-16:00","operator":"Göteborgs universitet","operator:type":"public"}},"geometry":{"type":"Point","coordinates":[11.9644333,57.7017896]}},{"type":"Feature","properties":{"id":4665076892,"osm_type":"node","name":"Tuve bibliotek","category":"library","tags":{"addr:city":"Göteborg","addr:country":"SE","addr:housenumber":"5","addr:postcode":"41745","addr:street":"Tuve Torg","amenity":"library","contact:phone":"+46313668050","name":"Tuve bibliotek","opening_hours":"Mo 10:00-19:00; Tu-We 10:00-17:00; Th 10:00-19:00; Fr 10:00-15:00","wikidata":"Q61751873"}},"geometry":{"type":"Point","coordinates":[11.9267781,57.7555529]}},{"type":"Feature","properties":{"id":6427987389,"osm_type":"node","name":"Ytterby bibliotek","category":"library","tags":{"amenity":"library","email":"biblioteket.ytterby@kungalv.se","name":"Ytterby bibliotek","phone":"+46 303 23 80 96","wikidata":"Q61752253"}},"geometry":{"type":"Point","coordinates":[11.9222045,57.8633481]}},{"type":"Feature","properties":{"id":10727736782,"osm_type":"node","name":"Världslitteraturhuset","category":"library","tags":{"addr:city":"Göteborg","addr:country":"SE","addr:housenumber":"11","addr:place":"Gamlestads Torg","addr:postcode":"415 02","amenity":"library","check_date":"2024-06-10","contact:email":"varldslitteraturhuset@kultur.goteborg.se","contact:phone":"+46 31 365 30 80","contact:website":"https://goteborg.se/wps/portal/enhetssida/varldslitteraturhuset/kontakt","level":"2;3","name":"Världslitteraturhuset","opening_hours":"Mo-Th 10:00-19:00, Fr 10:00-17:00, Sa 11:00-15:00","polling_station":"yes","wheelchair":"yes"}},"geometry":{"type":"Point","coordinates":[12.0054965,57.7277411]}},{"type":"Feature","properties":{"id":10754202809,"osm_type":"node","name":"Medicinska biblioteket Östra","category":"library","tags":{"access":"employees","amenity":"library","check_date":"2024-05-16","internet_access":"wlan","internet_access:fee":"no","level":"0","name":"Medicinska biblioteket Östra","opening_hours":"24/7","operator":"Sahlgrenska Universitetssjukhuset","website":"https://www.sahlgrenska.se/forskning-utbildning-innovation/bibliotek/"}},"geometry":{"type":"Point","coordinates":[12.05052,57.7217842]}},{"type":"Feature","properties":{"id":11188866324,"osm_type":"node","name":"Kärra bibliotek","category":"library","tags":{"addr:city":"Hisings Kärra","addr:country":"SE","addr:housenumber":"21","addr:place":"Kärra Centrum","addr:postcode":"425 34","amenity":"library","name":"Kärra bibliotek"}},"geometry":{"type":"Point","coordinates":[11.9884847,57.7943188]}},{"type":"Feature","properties":{"id":11277352552,"osm_type":"node","name":"Backa bibliotek","category":"library","tags":{"addr:city":"Hisings Backa","addr:country":"SE","addr:housenumber":"2","addr:postcode":"42248","addr:street":"Selma Lagerlöfs Torg","amenity":"library","name":"Backa bibliotek","opening_hours":"Mo,We,Th 10:00-19:00; Tu,Fr 10:00-17:00; Sa 11:00-15:00","wikidata":"Q34186967"}},"geometry":{"type":"Point","coordinates":[11.9815305,57.7500044]}},{"type":"Feature","properties":{"id":12094998636,"osm_type":"node","name":"Sparvens Lilla Bibliotek","category":"library","tags":{"access":"yes","air_conditioning":"no","amenity":"library","baby_feeding":"no","books":"children","check_date":"2024-08-06","description":"Unmanned micro library hosted on a pole in Redbergsparken.","internet_access":"no","name":"Sparvens Lilla Bibliotek","opening_hours":"24/7","payment:cards":"no","payment:cash":"no","payment:credit_cards":"no","payment:debit_cards":"no","polling_station":"no","source":"survey","wheelchair":"yes"}},"geometry":{"type":"Point","coordinates":[12.0039334,57.7176384]}},{"type":"Feature","properties":{"id":13136507731,"osm_type":"node","name":"Lindome Bibliotek","category":"library","tags":{"addr:city":"Lindome","addr:postcode":"437 30","addr:street":"Sagbrovägen","amenity":"library","name":"Lindome Bibliotek","opening_hours":"Mo-Th 09:00-19:00; Fr 09:00-17:00; Sa 10:00-14:00","operator":"Mölndals stad","operator:type":"public","website":"https://bibliotek.molndal.se/","wheelchair":"yes"}},"geometry":{"type":"Point","coordinates":[12.0853101,57.5772243]}},{"type":"Feature","properties":{"id":13188793977,"osm_type":"node","name":"Lagerhusets Bibliotek","category":"library","tags":{"access":"yes","addr:city":"Göteborg","addr:country":"SE","amenity":"library","contact:email":"lagerhuset.bibliotek@kultur.goteborg.se","contact:phone":"+46 31 365 80 11","contact:website":"https://goteborg.se/wps/portal/enhetssida/linnestadens-bibliotek","name":"Lagerhusets Bibliotek","old_name":"Linnéstadens bibliotek","opening_hours":"Mo-Th 10:00-19:00; Fr 10:00-17:00; Sa 10:00-14:00","operator":"Göteborgs Stad","operator:type":"public","wheelchair":"yes","wikidata":"Q10562865"}},"geometry":{"type":"Point","coordinates":[11.9535994,57.7020745]}},{"type":"Feature","properties":{"id":13276591113,"osm_type":"node","name":"Medicinska biblioteket Mölndal","category":"library","tags":{"access":"employees","addr:housenumber":"28","addr:street":"Länsmansgatan","amenity":"library","email":"medicinska.biblioteken.su@vgregion.se","internet_access":"wlan","internet_access:fee":"no","level":"0","name":"Medicinska biblioteket Mölndal","opening_hours":"24/7","operator":"Sahlgrenska Universitetssjukhuset","phone":"+46 31 343 10 21","website":"https://www.sahlgrenska.se/forskning-utbildning-innovation/bibliotek/"}},"geometry":{"type":"Point","coordinates":[12.0091616,57.660361]}},{"type":"Feature","properties":{"id":13827752689,"osm_type":"node","name":"Friskväderstorgets bibliotek","category":"library","tags":{"addr:city":"Göteborg","addr:housenumber":"2","addr:postcode":"418 38","addr:street":"Friskväderstorget","amenity":"library","name":"Friskväderstorgets bibliotek","opening_hours":"Tu-Th 13:00-17:00; ","operator":"Göteborgs stad","operator:type":"public","operator:wikidata":"Q52502"}},"geometry":{"type":"Point","coordinates":[11.8925524,57.7237197]}},{"type":"Feature","properties":{"id":24059808,"osm_type":"way","name":"Samhällsvetenskapliga biblioteket","category":"library","tags":{"addr:city":"Göteborg","addr:country":"SE","addr:housenumber":"2 A","addr:postcode":"411 24","addr:street":"Vasagatan","air_conditioning":"yes","amenity":"library","building":"university","check_date":"2026-04-04","name":"Samhällsvetenskapliga biblioteket","name:en":"Social Sciences Library","opening_hours":"Mo-Th 08:00-18:00; Fr 08:00-16:00; Sa-Su off","operator":"Göteborgs universitetsbibliotek","operator:type":"public","phone":"+46 31 786 46 54","roof:colour":"#99B2B9","toilets":"yes","website":"https://www.ub.gu.se/"}},"geometry":{"type":"Point","coordinates":[11.9618786,57.6979352]}},{"type":"Feature","properties":{"id":30301180,"osm_type":"way","name":"Partille Kulturum","category":"library","tags":{"addr:city":"Partille","addr:country":"SE","addr:housenumber":"56","addr:street":"Gamla Kronvägen","amenity":"library","building":"public","name":"Partille Kulturum","website":"https://www.partille.se/Invanarservice/Kultur--Bibliotek/Partille-Kulturum/","wheelchair":"yes"}},"geometry":{"type":"Point","coordinates":[12.1100245,57.7407186]}},{"type":"Feature","properties":{"id":34590068,"osm_type":"way","name":"Biomedicinska biblioteket","category":"library","tags":{"addr:city":"Göteborg","addr:housenumber":"4","addr:postcode":"413 90","addr:street":"Medicinaregatan","air_conditioning":"yes","amenity":"library","building":"yes","building:colour":"#ff9e6b","building:material":"brick","internet_access":"wlan","name":"Biomedicinska biblioteket","opening_hours":"Mo-Th 08:00-19:00; Fr 08:00-18:00; Sa 10:00-16:00","operator":"Göteborgs universitet","phone":"+46 31 786 30 02","website":"https://www.ub.gu.se/sv/bibliotek-och-oppettider/biomedicinska-biblioteket","wheelchair":"yes","wikidata":"Q50597894"}},"geometry":{"type":"Point","coordinates":[11.9614711,57.6839511]}},{"type":"Feature","properties":{"id":34947166,"osm_type":"way","name":"Mölndals Stadsbibliotek, Huvudbiblioteket","category":"library","tags":{"addr:city":"Mölndal","addr:country":"SE","addr:housenumber":"31","addr:postcode":"43130","addr:street":"Bergmansgatan","amenity":"library","building":"yes","contact:email":"molndals.stadsbibliotek@molndal.se","contact:fax":"+4631872713","contact:phone":"+46313151600;+46313151610","contact:website":"https://bibliotek.molndal.se/molndal/","name":"Mölndals Stadsbibliotek, Huvudbiblioteket","opening_hours":"Mo-Th 10:00-20:00; Fr 10:00-18:00; Sa 10:00-15:00"}},"geometry":{"type":"Point","coordinates":[12.0119378,57.6554706]}},{"type":"Feature","properties":{"id":43025679,"osm_type":"way","name":"Mölnlycke bibliotek","category":"library","tags":{"amenity":"library","building":"public","name":"Mölnlycke bibliotek","opening_hours":"Mo-Th 08:00-19:00; Fr 08:00-17:00; Sa 11:00-15:00","toilets:wheelchair":"yes","website":"https://bibliotek.harryda.se/-/molnlycke-bibliotek","wheelchair":"yes"}},"geometry":{"type":"Point","coordinates":[12.118061,57.6584909]}},{"type":"Feature","properties":{"id":49131879,"osm_type":"way","name":"Humanistiska biblioteket","category":"library","tags":{"addr:city":"Göteborg","addr:country":"SE","addr:housenumber":"4","addr:street":"Renströmsgatan","air_conditioning":"yes","amenity":"library","building":"university","building:levels":"3","contact:phone":"+46 31 786 17 45","contact:website":"http://www.ub.gu.se/","name":"Humanistiska biblioteket","opening_hours":"Mo 08:30-20:00; Tu-Th 08:30-20:00; Fr 08:30-18:00; Sa 10:00-17:00","operator":"Göteborgs universitet","roof:levels":"0","wheelchair":"yes"}},"geometry":{"type":"Point","coordinates":[11.9853327,57.6954167]}},{"type":"Feature","properties":{"id":245170427,"osm_type":"way","name":"Ekonomiska biblioteket","category":"library","tags":{"air_conditioning":"yes","amenity":"library","building:part":"yes","name":"Ekonomiska biblioteket","opening_hours":"Mo-Fr 09:00-16:00","operator:type":"public","website":"https://www.ub.gu.se/"}},"geometry":{"type":"Point","coordinates":[11.9610717,57.6973524]}},{"type":"Feature","properties":{"id":370335713,"osm_type":"way","name":"Chalmers Bibliotek Huvudbibliotek","category":"library","tags":{"amenity":"library","building":"university","name":"Chalmers Bibliotek Huvudbibliotek","opening_hours":"Mo-Fr 09:00-20:00; ","operator":"Chalmers Tekniska Högskola","website":"https://www.lib.chalmers.se/"}},"geometry":{"type":"Point","coordinates":[11.9786193,57.6904245]}},{"type":"Feature","properties":{"id":16887895,"osm_type":"relation","name":"Stadsbiblioteket på Götaplatsen","category":"library","tags":{"access":"yes","addr:city":"Göteborg","addr:country":"SE","addr:housenumber":"3","addr:place":"Götaplatsen","air_conditioning":"yes","amenity":"library","building":"public","building:levels":"4","changing_table":"yes","check_date":"2026-04-06","contact:phone":"+46 31 368 33 00","contact:website":"https://goteborg.se/wps/portal/enhetssida/stadsbiblioteket","email":"biblioteken@kultur.goteborg.se","internet_access":"yes","name":"Stadsbiblioteket på Götaplatsen","opening_hours":"Mo-Fr 09:00-21:00; Sa-Su 10:00-18:00","operator:type":"public","polling_station":"yes","roof:levels":"0","toilets":"yes","type":"multipolygon","wheelchair":"yes","wikidata":"Q9656601","wikipedia":"sv:Stadsbiblioteket Göteborg"}},"geometry":{"type":"Point","coordinates":[11.9795702,57.6978979]}}]}