{"type":"FeatureCollection","features":[{"type":"Feature","properties":{"id":26251811,"osm_type":"way","name":"Nordstan","category":"mall","tags":{"addr:city":"Göteborg","addr:country":"SE","addr:housenumber":"1","addr:postcode":"411 05","addr:street":"Nordstans lastgata","air_conditioning":"yes","building":"retail","building:levels":"5","check_date":"2024-06-10","name":"Nordstan","opening_hours":"Mo-Fr 10:00-20:00; Sa-Su 10:00-18:00","polling_station":"yes","shop":"mall","stroller":"yes","toilets":"yes","toilets:wheelchair":"yes","wheelchair":"yes","wikidata":"Q126274","wikipedia":"sv:Nordstan"}},"geometry":{"type":"Point","coordinates":[11.969115,57.708622]}},{"type":"Feature","properties":{"id":28499717,"osm_type":"way","name":"Bäckebol Home Center","category":"mall","tags":{"building":"retail","emergency":"fire_detection_system","extinguishing:medium":"water","extinguishing_system":"sprinkler_system","name":"Bäckebol Home Center","payment:cryptocurrencies":"no","shop":"mall","source":"yahoo"}},"geometry":{"type":"Point","coordinates":[12.0012095,57.7693662]}},{"type":"Feature","properties":{"id":41530654,"osm_type":"way","name":"Länsmanstorget","category":"mall","tags":{"building":"yes","name":"Länsmanstorget","payment:cryptocurrencies":"no","shop":"mall"}},"geometry":{"type":"Point","coordinates":[11.8932066,57.7334321]}},{"type":"Feature","properties":{"id":41896549,"osm_type":"way","name":"Högsbo 421","category":"mall","tags":{"addr:city":"Västra Frölunda","addr:country":"SE","addr:housenumber":"1","addr:street":"Lona Knapes Gata","alt_name":"Köpcentrum 421","architect":"Gert Wingårdh","building":"retail","name":"Högsbo 421","opening_hours":"Mo-Fr 10:00-20:00; Sa 10:00-18:00; Su 11:00-18:00","owner":"Fastighets AB Balder","shop":"mall","short_name":"421","toilets":"yes"}},"geometry":{"type":"Point","coordinates":[11.9488024,57.6509314]}},{"type":"Feature","properties":{"id":45100033,"osm_type":"way","name":"Frölunda Torg","category":"mall","tags":{"building":"retail","contact:email":"info@frolundatorg.se","contact:phone":"+46317343560","contact:website":"https://frolundatorg.se/","dog":"no","layer":"1","name":"Frölunda Torg","opening_hours":"Mo-Fr 10:00-20:00; Sa 10:00-18:00; Su 11:00-17:00","payment:cryptocurrencies":"no","place":"locality","shop":"mall","toilets:wheelchair":"yes","wheelchair":"yes"}},"geometry":{"type":"Point","coordinates":[11.9127833,57.6517374]}},{"type":"Feature","properties":{"id":51872204,"osm_type":"way","name":"","category":"mall","tags":{"building":"commercial","shop":"mall"}},"geometry":{"type":"Point","coordinates":[11.9496336,57.6403333]}},{"type":"Feature","properties":{"id":51873853,"osm_type":"way","name":"","category":"mall","tags":{"building":"retail","shop":"mall"}},"geometry":{"type":"Point","coordinates":[11.9526603,57.6397402]}},{"type":"Feature","properties":{"id":80877749,"osm_type":"way","name":"","category":"mall","tags":{"shop":"mall"}},"geometry":{"type":"Point","coordinates":[12.0513617,57.797472]}},{"type":"Feature","properties":{"id":83732856,"osm_type":"way","name":"Arkaden","category":"mall","tags":{"building":"retail","building:levels":"5","height":"15.5","name":"Arkaden","phone":"+46 31 743 42 00","shop":"mall","website":"https://www.arkadengalleria.se","wikidata":"Q10417998"}},"geometry":{"type":"Point","coordinates":[11.96933,57.7062872]}},{"type":"Feature","properties":{"id":120721041,"osm_type":"way","name":"Glashuset","category":"mall","tags":{"building":"retail","name":"Glashuset","shop":"mall"}},"geometry":{"type":"Point","coordinates":[12.0764065,57.7332104]}},{"type":"Feature","properties":{"id":135470273,"osm_type":"way","name":"Bohus centrum","category":"mall","tags":{"addr:country":"SE","addr:housenumber":"219","addr:street":"Göteborgsvägen","building":"commercial","name":"Bohus centrum","shop":"mall"}},"geometry":{"type":"Point","coordinates":[12.0164985,57.851545]}},{"type":"Feature","properties":{"id":155528191,"osm_type":"way","name":"","category":"mall","tags":{"building":"yes","shop":"mall","source":"Bing Aerial"}},"geometry":{"type":"Point","coordinates":[12.1064242,57.739974]}},{"type":"Feature","properties":{"id":166854846,"osm_type":"way","name":"Angered Centrum","category":"mall","tags":{"building":"yes","name":"Angered Centrum","opening_hours":"Mo-Fr 10:00-19:00; Sa 10:00-17:00; Su 10:00-16:00","shop":"mall","website":"https://angeredcentrum.se/"}},"geometry":{"type":"Point","coordinates":[12.0498754,57.7955784]}},{"type":"Feature","properties":{"id":314185998,"osm_type":"way","name":"Allum","category":"mall","tags":{"changing_table":"yes","changing_table:location":"dedicated_room","layer":"2","name":"Allum","opening_hours":"Mo-Fr 10:00-20:00; PH,Sa,Su 10:00-18:00","shop":"mall","wikidata":"Q10406470"}},"geometry":{"type":"Point","coordinates":[12.1051852,57.7377066]}},{"type":"Feature","properties":{"id":8534995,"osm_type":"relation","name":"","category":"mall","tags":{"building":"yes","payment:cryptocurrencies":"no","shop":"mall","type":"multipolygon"}},"geometry":{"type":"Point","coordinates":[11.9369904,57.633587]}},{"type":"Feature","properties":{"id":10591662,"osm_type":"relation","name":"Eriksberg Köpcenter","category":"mall","tags":{"building":"retail","name":"Eriksberg Köpcenter","payment:cryptocurrencies":"no","shop":"mall","type":"multipolygon"}},"geometry":{"type":"Point","coordinates":[11.9201811,57.7087581]}}]}