{"type":"FeatureCollection","features":[{"type":"Feature","properties":{"id":480761104,"osm_type":"node","name":"Mölndals museum","category":"museum","tags":{"fee":"no","museum":"local","name":"Mölndals museum","opening_hours":"Tu-Su 12:00-16:00","tourism":"museum","website":"https://museum.molndal.se/","wikidata":"Q10593546"}},"geometry":{"type":"Point","coordinates":[12.0320298,57.657641]}},{"type":"Feature","properties":{"id":508572909,"osm_type":"node","name":"Maritiman","category":"museum","tags":{"addr:city":"Göteborg","addr:housenumber":"12","addr:postcode":"411 13","addr:street":"Packhusplatsen","contact:email":"info@maritiman.se","contact:facebook":"https://www.facebook.com/maritimangbg/","contact:instagram":"https://www.instagram.com/maritimangbg","contact:phone":"+46 31 105 95 0","contact:website":"https://www.maritiman.se","contact:youtube":"https://www.youtube.com/channel/UC9z","description":"Fartygsmuseum","description:en":"Exhibition of many old big ships","fee":"yes","museum":"maritime","name":"Maritiman","official_name":"Maritiman - Göteborgs Maritima Centrum","payment:cash":"yes","payment:credit_cards":"yes","payment:debit_cards":"yes","start_date":"1987","tourism":"museum","wikidata":"Q3293750"}},"geometry":{"type":"Point","coordinates":[11.9604717,57.7094385]}},{"type":"Feature","properties":{"id":1629179189,"osm_type":"node","name":"Medicinhistoriska museet","category":"museum","tags":{"addr:city":"Göteborg","addr:country":"SE","addr:housenumber":"11","addr:postcode":"411 10","addr:street":"Östra Hamngatan","air_conditioning":"yes","check_date:opening_hours":"2025-09-06","contact:email":"medicinhistoriska.su@vgregion.se","contact:facebook":"https://www.facebook.com/medicinhistoriska/","contact:instagram":"https://www.instagram.com/medicinhistoriskagbg","contact:phone":"+46 31 342 05 30","contact:website":"https://www.sahlgrenska.se/museum","contact:youtube":"https://www.youtube.com/channel/UC6F5UwnqQeu-eRbHvIshKdQ/","fee":"yes","museum":"science","name":"Medicinhistoriska museet","name:en":"Medical History Museum","opening_hours":"Mo,Sa-Su off; Tu-We,Fr 12:00-16:00; Th 12:00-20:00","operator":"Sahlgrenska Universitetssjukhuset","operator:type":"public","payment:cash":"yes","payment:credit_cards":"yes","payment:debit_cards":"yes","start_date":"1986","toilets":"yes","toilets:menstrual_products":"no","tourism":"museum","wheelchair":"yes","wikidata":"Q18292279","wikipedia":"sv:Medicinhistoriska museet, Göteborg"}},"geometry":{"type":"Point","coordinates":[11.9665919,57.7088902]}},{"type":"Feature","properties":{"id":1852952439,"osm_type":"node","name":"Röhsska museet","category":"museum","tags":{"addr:city":"Göteborg","addr:country":"SE","addr:housenumber":"39","addr:postcode":"411 37","addr:street":"Vasagatan","description":"Museum för konsthantverk och design","description:en":"Museum of fashion, design and decorative arts.","fee":"yes","museum":"design;craft","name":"Röhsska museet","name:en":"Röhsska museet","operator:type":"public","tourism":"museum","website":"https://rohsska.se/","wheelchair":"yes","wikidata":"Q3107443","wikipedia":"sv:Röhsska museet"}},"geometry":{"type":"Point","coordinates":[11.9735149,57.699984]}},{"type":"Feature","properties":{"id":2694347657,"osm_type":"node","name":"Göteborgs spårvägsmuseum","category":"museum","tags":{"addr:city":"Göteborg","addr:country":"SE","addr:housenumber":"2","addr:postcode":"416 48","addr:street":"J Sigfrid Edströms Gata","check_date":"2026-04-26","contact:email":"museum@ringlinien.org","contact:facebook":"https://www.facebook.com/ringlinien","contact:fax":"+46 31 15 95 73","contact:twitter":"https://twitter.com/ringlinien","contact:website":"https://www.ringlinien.org/sv/museum/besoek-museet/","fee":"yes","museum":"railway","name":"Göteborgs spårvägsmuseum","opening_hours":"Su 11:00-14:00; PH off; Aug off","operator":"Spårvägssällskapet Ringlinjen","payment:cash":"yes","payment:credit_cards":"yes","payment:debit_cards":"yes","toilets":"yes","tourism":"museum","wheelchair":"yes"}},"geometry":{"type":"Point","coordinates":[11.9925868,57.7100122]}},{"type":"Feature","properties":{"id":2719449268,"osm_type":"node","name":"Kortedala museum","category":"museum","tags":{"addr:country":"SE","addr:housenumber":"1","addr:street":"Adventsvägen","fee":"no","museum":"local","name":"Kortedala museum","opening_hours":"Su 12:00-15:00","tourism":"museum","website":"https://kortedalamuseum.se","wikidata":"Q10548251","wikipedia":"sv:Kortedala museum"}},"geometry":{"type":"Point","coordinates":[12.035814,57.7582542]}},{"type":"Feature","properties":{"id":3393478041,"osm_type":"node","name":"Hem i Haga","category":"museum","tags":{"addr:city":"Göteborg","addr:country":"SE","addr:housenumber":"7-9","addr:postcode":"413 01","addr:street":"Haga Nygata","check_date":"2026-04-04","contact:facebook":"https://www.facebook.com/goteborgsstadsmuseum/","contact:instagram":"https://www.instagram.com/goteborgsstadsmuseum","contact:website":"http://goteborgsstadsmuseum.se/besok-museet/hem-i-haga","contact:youtube":"https://www.youtube.com/user/goteborgsstadsmuseum","description":"Historiska lägenheter","email":"stadsmuseum@kultur.goteborg.se","fee":"varies","museum":"local","name":"Hem i Haga","operator":"Göteborgs Stadsmuseum","operator:type":"public","tourism":"museum","website":"https://goteborgsstadsmuseum.se/besok-oss/hem-i-haga/","wikidata":"Q28936176"}},"geometry":{"type":"Point","coordinates":[11.9550425,57.6986316]}},{"type":"Feature","properties":{"id":4041921726,"osm_type":"node","name":"Radiomuseet","category":"museum","tags":{"addr:city":"Göteborg","addr:country":"SE","addr:housenumber":"2","addr:postcode":"417 55","addr:street":"Anders Carlssons Gata","contact:email":"info@radiomuseet.se","contact:facebook":"https://www.facebook.com/RadiomuseetGbg/","contact:phone":"+46 31 779 21 01","contact:website":"https://radiomuseet.se/","fee":"yes","museum":"technology","name":"Radiomuseet","opening_hours":"Tu-Su 12:00-15:00; We 12:00-20:00","operator":"Radiohistoriska Föreningen i Västsverige","operator:type":"cooperative","payment:cash":"yes","payment:credit_cards":"yes","payment:debit_cards":"yes","start_date":"1983","toilets":"yes","toilets:menstrual_products":"no","toilets:wheelchair":"yes","tourism":"museum","wheelchair":"yes","wikidata":"Q3330070","wikimedia_commons":"File:RadiomuseetGbg01.jpg"}},"geometry":{"type":"Point","coordinates":[11.9452637,57.7087442]}},{"type":"Feature","properties":{"id":5195663667,"osm_type":"node","name":"Aeroseum","category":"museum","tags":{"addr:city":"Göteborg","addr:country":"SE","addr:housenumber":"50","addr:postcode":"417 46","addr:street":"Nya Bergets Väg","air_conditioning":"yes","changing_table":"yes","check_date":"2026-04-05","contact:facebook":"https://www.facebook.com/aeroseum/","contact:instagram":"https://www.instagram.com/aeroseum","contact:phone":"+46 31 558300","contact:tiktok":"https://www.tiktok.com/@https:","contact:website":"http://www.aeroseum.se","contact:youtube":"https://www.youtube.com/user/Aeroseum","email":"info@aeroseum.se","fee":"yes","internet_access":"wlan","internet_access:fee":"no","location":"underground","museum":"aerospace","name":"Aeroseum","opening_hours":"Mo-Fr 11:00-18:00","payment:cash":"yes","payment:credit_cards":"yes","payment:debit_cards":"yes","start_date":"2005-05-15","subject:wikidata":"Q216916","toilets":"yes","toilets:access":"customers","toilets:fee":"no","toilets:gender_segregated":"yes","toilets:menstrual_products":"no","toilets:wheelchair":"yes","tourism":"museum","wheelchair":"yes","wikimedia_commons":"File:Aeroseum in Gothenburg, Sweden.jpg"}},"geometry":{"type":"Point","coordinates":[11.8805734,57.7707666]}},{"type":"Feature","properties":{"id":10664000190,"osm_type":"node","name":"Gathenhielmska Huset","category":"museum","tags":{"addr:city":"Göteborg","addr:country":"SE","addr:housenumber":"7","addr:postcode":"414 63","addr:street":"Stigbergstorget","email":"info@gathenhielmska.se","museum":"history","name":"Gathenhielmska Huset","tourism":"museum","website":"https://www.gathenhielmska.se/","wikidata":"Q10503375","wikipedia":"sv:Gathenhielmska huset"}},"geometry":{"type":"Point","coordinates":[11.9341299,57.6985833]}},{"type":"Feature","properties":{"id":28219718,"osm_type":"way","name":"Världskulturmuseet","category":"museum","tags":{"addr:city":"Göteborg","addr:country":"SE","addr:housenumber":"54","addr:postcode":"41254","addr:street":"Södra Vägen","air_conditioning":"yes","architect":"Cécile Brisac; Edgar Gonzalez","building":"museum","building:colour":"lightgrey","changing_table":"yes","fee":"no","museum":"history","name":"Världskulturmuseet","name:en":"Museum of World Culture","name:sv":"Världskulturmuseet","opening_hours":"Tu, Th-Su 11:00-17:00; We 11:00-20:00","operator:type":"public","payment:cash":"yes","payment:credit_cards":"yes","payment:debit_cards":"yes","start_date":"2004","toilets":"yes","toilets:menstrual_products":"no","toilets:wheelchair":"yes","tourism":"museum","website":"https://www.varldskulturmuseerna.se/varldskulturmuseet/","wheelchair":"yes","wikidata":"Q378377","wikipedia":"sv:Världskulturmuseet"}},"geometry":{"type":"Point","coordinates":[11.989581,57.6946662]}},{"type":"Feature","properties":{"id":71525915,"osm_type":"way","name":"Idrottsmuseet","category":"museum","tags":{"building":"museum","museum":"sport","name":"Idrottsmuseet","tourism":"museum","wheelchair":"yes","wikidata":"Q3330485"}},"geometry":{"type":"Point","coordinates":[12.0326006,57.7361264]}},{"type":"Feature","properties":{"id":88425705,"osm_type":"way","name":"Annedalshuset","category":"museum","tags":{"addr:city":"Göteborg","addr:country":"SE","addr:housenumber":"14","addr:postcode":"413 12","addr:street":"Brunnsgatan","building":"civic","building:material":"brick","museum":"history","name":"Annedalshuset","roof:orientation":"along","roof:shape":"gabled","tourism":"museum"}},"geometry":{"type":"Point","coordinates":[11.9608276,57.6933176]}},{"type":"Feature","properties":{"id":120323673,"osm_type":"way","name":"Sjöfartsmuseet Akvariet","category":"museum","tags":{"addr:city":"Göteborg","addr:country":"SE","addr:housenumber":"1-3","addr:postcode":"414 59","addr:street":"Karl Johansgatan","air_conditioning":"yes","architect":"Karl Magnus Bengtson","architect:wikidata":"Q5570040","building":"museum","changing_table":"yes","check_date":"2026-04-18","contact:facebook":"https://www.facebook.com/sjofartsmuseetakvarietgoteborg/","contact:instagram":"https://www.instagram.com/sjofartsmuseetakvariet","contact:phone":"+46 31 368 35 50","contact:website":"https://www.sjofartsmuseetakvariet.se/","description":"A museum about the relationship between sea and man and about the marine environment and its life forms.","email":"info.sjofartsmuseetakvariet@kultur.goteborg.se","fee":"yes","museum":"maritime","name":"Sjöfartsmuseet Akvariet","name:da":"Søfartsmuseum Akvariet","name:en":"Maritime Museum & Aquarium","name:sv":"Sjöfartsmuseet Akvariet","official_name":"Sjöfartsmuseet Akvariet","old_name":"Sjöfartsmuseet","opening_hours":"Mo off; Tu,Th 10:00-18:00; We 10:00-20:00; Fr-Su 10:00-17:00","operator":"Göteborgs Stad","operator:type":"public","operator:wikidata":"Q52502","payment:mastercard":"yes","payment:visa":"yes","short_name":"Sjöfartsmuseet","start_date":"1933-07-14","toilets":"yes","toilets:wheelchair":"yes","tourism":"museum","wheelchair":"yes","wikidata":"Q3330639","wikimedia_commons":"Sjöfartsmuseet Akvariet 01 exterior February 2023.jpg","wikipedia":"sv:Sjöfartsmuseet Akvariet","year_of_construction":"1931-1933"}},"geometry":{"type":"Point","coordinates":[11.9320234,57.6991738]}},{"type":"Feature","properties":{"id":143065407,"osm_type":"way","name":"Lilla Änggården","category":"museum","tags":{"addr:city":"Göteborg","addr:country":"SE","addr:housename":"Lilla Änggården","addr:postcode":"41319","addr:street":"Hejderidaregatan","building":"public","contact:website":"http://goteborgsstadsmuseum.se/besok-museet/lilla-anggaden","museum":"local","name":"Lilla Änggården","operator":"Göteborgs Stadsmuseum","tourism":"museum","wikidata":"Q10725885","wikipedia":"sv:Änggården"}},"geometry":{"type":"Point","coordinates":[11.9470877,57.677153]}},{"type":"Feature","properties":{"id":267311380,"osm_type":"way","name":"Hembygdsgården","category":"museum","tags":{"building":"yes","name":"Hembygdsgården","tourism":"museum"}},"geometry":{"type":"Point","coordinates":[11.997298,57.8630124]}},{"type":"Feature","properties":{"id":286840617,"osm_type":"way","name":"Surte Glasbruksmuseum","category":"museum","tags":{"addr:country":"SE","addr:housenumber":"6","addr:street":"Kvarnvägen","alt_name":"Surte Glasbruksmuseet","building":"museum","contact:website":"https://www.glasbruksmuseet.se","museum":"craft","name":"Surte Glasbruksmuseum","tourism":"museum","wikidata":"Q10505284","wikipedia":"sv:Glasbruksmuseet, Surte"}},"geometry":{"type":"Point","coordinates":[12.0139187,57.8294746]}},{"type":"Feature","properties":{"id":477339967,"osm_type":"way","name":"Klippans Ångbåtsbrygga","category":"museum","tags":{"contact:phone":"+4631145401","contact:website":"https://kbbf.se/","leisure":"marina","museum":"maritime","name":"Klippans Ångbåtsbrygga","opening_hours":"24/7","operator":"Klippans Bruksbåtsförening","seamark:harbour:category":"marina","seamark:type":"harbour","tourism":"museum"}},"geometry":{"type":"Point","coordinates":[11.9084025,57.6919514]}},{"type":"Feature","properties":{"id":620567615,"osm_type":"way","name":"Askims hembygdsmuseum","category":"museum","tags":{"museum":"local","name":"Askims hembygdsmuseum","operator":"Askims hembygdsförening","tourism":"museum"}},"geometry":{"type":"Point","coordinates":[11.9417886,57.5939581]}},{"type":"Feature","properties":{"id":1163996658,"osm_type":"way","name":"Göteborgs remfabrik","category":"museum","tags":{"addr:housenumber":"15","addr:street":"Åvägen","building":"yes","museum":"technology","name":"Göteborgs remfabrik","tourism":"museum","was:building":"industrial","website":"https://remfabriken.se/"}},"geometry":{"type":"Point","coordinates":[11.9915824,57.7030216]}},{"type":"Feature","properties":{"id":1164894809,"osm_type":"way","name":"World of Volvo","category":"museum","tags":{"addr:city":"Göteborg","addr:country":"SE","addr:housenumber":"1","addr:postcode":"412 63","addr:street":"Lyckholms Torg","amenity":"conference_centre","architect":"Henning Larsen","building":"museum","building:colour":"white","building:levels":"3","contact:email":"hello@worldofvolvo.com","contact:facebook":"https://www.facebook.com/WorldofVolvo","contact:instagram":"https://www.instagram.com/worldofvolvo","contact:linkedin":"https://www.linkedin.com/company/worldofvolvo","contact:website":"https://www.worldofvolvo.com/","contact:youtube":"https://www.youtube.com/channel/UC-khvwxspXod2v1VD9gew4g","fee":"yes","museum":"car","name":"World of Volvo","note":"location approximate, update as needed","opening_hours":"Mo-Fr 10:00-17:00; Sa-Su 10:00-16:00","operator":"Volvo","roof:material":"grass","start_date":"2024-04-14","tourism":"museum","wikidata":"Q125401260","wikipedia":"sv:World of Volvo"}},"geometry":{"type":"Point","coordinates":[11.9979453,57.6895138]}},{"type":"Feature","properties":{"id":1136809,"osm_type":"relation","name":"Göteborgs stadsmuseum","category":"museum","tags":{"building":"museum","museum":"local","name":"Göteborgs stadsmuseum","name:en":"City Museum of Gothenburg","name:sv":"Göteborgs stadsmuseum","opening_hours":"Fr-Su 10:00-17:00; Tu,Th 10:00-18:00; We 10:00-20:00","roof:colour":"#AAD9C9","tourism":"museum","type":"multipolygon","website":"https://www.stadsmuseum.goteborg.se","wheelchair":"yes","wikidata":"Q3107846"}},"geometry":{"type":"Point","coordinates":[11.9633105,57.7065531]}},{"type":"Feature","properties":{"id":12718757,"osm_type":"relation","name":"Göteborgs Naturhistoriska museum","category":"museum","tags":{"addr:city":"Göteborg","addr:country":"SE","addr:housenumber":"10","addr:postcode":"41311","addr:street":"Museivägen","air_conditioning":"yes","building":"museum","building:colour":"#85552e","building:material":"cement_block","changing_table":"yes","contact:email":"gnm@vgregion.se","contact:facebook":"https://www.facebook.com/goteborgsnaturhistoriskamuseum","contact:instagram":"https://www.instagram.com/goteborgsnaturhistoriskamuseum","contact:phone":"+46 10 441 44 00","contact:website":"https://www.gnm.se/","description":"Välkommen till den biologiska mångfaldens hus","fee":"no","internet_access":"wlan","internet_access:fee":"no","internet_access:ssid":"VGR Publikt","museum":"nature","name":"Göteborgs Naturhistoriska museum","name:de":"Naturhistorisches Museum Göteborg","name:en":"Gothenburg Natural History Museum","opening_hours":"Tu, We, Fr-Su 11:00-17:00; Th 11:00-20:00","operator":"Västra Götalandsregionen","operator:type":"public","payment:mastercard":"yes","payment:visa":"yes","start_date":"1923","toilets":"yes","toilets:menstrual_products":"no","toilets:wheelchair":"yes","tourism":"museum","type":"multipolygon","wheelchair":"yes","wikidata":"Q848411"}},"geometry":{"type":"Point","coordinates":[11.9494256,57.6898887]}},{"type":"Feature","properties":{"id":16887890,"osm_type":"relation","name":"Göteborgs konstmuseum","category":"museum","tags":{"building":"museum","museum":"art","name":"Göteborgs konstmuseum","name:en":"Gothenburg Museum of Art","name:sv":"Göteborgs konstmuseum","opening_hours":"Fr-Su 11:00-17:00; Tu, Th 11:00-18:00; We 11:00-20:00","tourism":"museum","type":"multipolygon","website":"https://goteborgskonstmuseum.se/en/","wheelchair":"yes","wikidata":"Q1992004","wikipedia":"sv:Göteborgs konstmuseum"}},"geometry":{"type":"Point","coordinates":[11.9808058,57.6965697]}},{"type":"Feature","properties":{"id":16887891,"osm_type":"relation","name":"Göteborgs konsthall","category":"museum","tags":{"addr:city":"Göteborg","addr:country":"SE","addr:place":"Götaplatsen","building":"civic","contact:email":"goteborgs.konsthall@kultur.goteborg.se","contact:phone":"+46 31 368 34 50","contact:website":"http://www.konsthallen.goteborg.se/","fee":"no","museum":"art","name":"Göteborgs konsthall","opening_hours":"Tu 11:00-18:00; We 11:00-20:00; Th 11:00-18:00; Fr-Su 11:00-17:00","tourism":"museum","type":"multipolygon","wikidata":"Q3068223","wikipedia":"sv:Göteborgs konsthall"}},"geometry":{"type":"Point","coordinates":[11.9796779,57.6964939]}}]}