{"type":"FeatureCollection","features":[{"type":"Feature","properties":{"id":2033520022,"osm_type":"node","name":"The Parlour","category":"nightclub","tags":{"amenity":"nightclub","check_date":"2024-05-01","fixme":"fix opening hours","name":"The Parlour","opening_hours":"Tu-Fr 16:00+; Sa-Su 12:00+","smoking":"no"}},"geometry":{"type":"Point","coordinates":[11.9731805,57.7018604]}},{"type":"Feature","properties":{"id":2033520146,"osm_type":"node","name":"8IGHT","category":"nightclub","tags":{"amenity":"nightclub","name":"8IGHT","smoking":"no"}},"geometry":{"type":"Point","coordinates":[11.973997,57.701399]}},{"type":"Feature","properties":{"id":2078806850,"osm_type":"node","name":"nau","category":"nightclub","tags":{"amenity":"nightclub","name":"nau"}},"geometry":{"type":"Point","coordinates":[11.973338,57.701168]}},{"type":"Feature","properties":{"id":2168909659,"osm_type":"node","name":"Excet","category":"nightclub","tags":{"air_conditioning":"yes","amenity":"nightclub","check_date":"2023-05-24","internet_access":"wlan","internet_access:fee":"customers","name":"Excet","opening_hours":"Fr 21:00-24:00; Sa 00:00-05:00,22:00-24:00; Su 00:00-05:00","payment:mastercard":"yes","payment:visa":"yes","smoking":"no"}},"geometry":{"type":"Point","coordinates":[11.9735422,57.7005065]}},{"type":"Feature","properties":{"id":2168909932,"osm_type":"node","name":"Valand","category":"nightclub","tags":{"addr:city":"Göteborg","addr:country":"SE","addr:housenumber":"41","addr:postcode":"411 37","addr:street":"Vasagatan","amenity":"nightclub","name":"Valand","smoking":"no"}},"geometry":{"type":"Point","coordinates":[11.9741734,57.7003267]}},{"type":"Feature","properties":{"id":3243182773,"osm_type":"node","name":"Push","category":"nightclub","tags":{"addr:city":"Göteborg","addr:country":"SE","addr:housenumber":"11","addr:postcode":"411 36","addr:street":"Kungsportsavenyen","amenity":"nightclub","contact:facebook":"https://www.facebook.com/pushgbg/","contact:instagram":"https://www.instagram.com/pushgbg","contact:website":"https://www.push.se/","name":"Push","opening_hours":"Mo-Th,Su off; Fr 22:00-03:00; Sa 22:00-04:00","payment:cash":"yes","payment:credit_cards":"yes","payment:debit_cards":"yes","smoking":"no"}},"geometry":{"type":"Point","coordinates":[11.973629,57.700963]}},{"type":"Feature","properties":{"id":3833491532,"osm_type":"node","name":"Lounge(s)","category":"nightclub","tags":{"addr:city":"Göteborg","addr:country":"SE","addr:housenumber":"5","addr:postcode":"411 36","addr:street":"Kungsportsavenyen","amenity":"nightclub","name":"Lounge(s)","smoking":"no"}},"geometry":{"type":"Point","coordinates":[11.9731593,57.7012171]}},{"type":"Feature","properties":{"id":9340380842,"osm_type":"node","name":"Nefertiti Jazz Club","category":"nightclub","tags":{"access":"yes","addr:city":"Göteborg","addr:country":"SE","addr:housenumber":"6","addr:postcode":"41120","addr:street":"Hvitfeldtsplatsen","air_conditioning":"yes","amenity":"nightclub","club":"jazz","contact:email":"info@nefertiti.se","contact:facebook":"https://www.facebook.com/NefertitiGBG/","contact:instagram":"https://www.instagram.com/nefertiti.se","contact:phone":"+46 31 711 40 76","contact:website":"http://www.nefertiti.se/","entrance":"yes","live_music":"yes","music":"live;recorded","music_genre":"jazz","name":"Nefertiti Jazz Club","payment:cash":"yes","payment:credit_cards":"yes","payment:debit_cards":"yes","short_name":"Nefertiti","smoking":"no","wikidata":"Q10595714","wikipedia":"sv:Nefertiti (jazzklubb)"}},"geometry":{"type":"Point","coordinates":[11.9618002,57.7013972]}},{"type":"Feature","properties":{"id":12020155269,"osm_type":"node","name":"Club Deluxe","category":"nightclub","tags":{"addr:city":"Hisings Backa","addr:country":"SE","addr:housenumber":"2","addr:postcode":"42246","addr:street":"Backa Bergögata","amenity":"nightclub","check_date":"2026-04-04","email":"info@clubdeluxe.se","name":"Club Deluxe","opening_hours":"Mo-Th,Su 11:00-20:00; Fr-Sa 11:00-23:30","payment:cash":"yes","payment:credit_cards":"yes","payment:debit_cards":"yes","phone":"+46 31 583 21 4","website":"https://clubdeluxe.se/"}},"geometry":{"type":"Point","coordinates":[11.996694,57.7483964]}},{"type":"Feature","properties":{"id":33608817,"osm_type":"way","name":"Trädgår'n","category":"nightclub","tags":{"addr:housenumber":"11","addr:street":"Nya Allén","air_conditioning":"yes","amenity":"nightclub","building":"yes","contact:email":"info@tradgarn.se","contact:instagram":"https://www.instagram.com/tradgarn_gbg","contact:phone":"+46 31 102 08 0","contact:website":"https://www.tradgarn.se/","name":"Trädgår'n","payment:cash":"no","payment:credit_cards":"yes","payment:debit_cards":"yes","smoking":"no","source":"outline: Yahoo"}},"geometry":{"type":"Point","coordinates":[11.9757352,57.7044398]}}]}