{"type":"FeatureCollection","features":[{"type":"Feature","properties":{"id":10664000181,"osm_type":"node","name":"Gathenhielmska Trädgården","category":"park","tags":{"addr:city":"Göteborg","addr:country":"SE","addr:housenumber":"7","addr:postcode":"414 63","addr:street":"Stigbergstorget","email":"info@gathenhielmska.se","leisure":"park","name":"Gathenhielmska Trädgården","opening_hours":"Mo-Fr 09:00-17:00","operator":"Gathenhielmska Huset","website":"https://www.gathenhielmska.se/om/om-tradgarden/"}},"geometry":{"type":"Point","coordinates":[11.9342721,57.6983548]}},{"type":"Feature","properties":{"id":4769341,"osm_type":"way","name":"Vasaparken","category":"park","tags":{"leisure":"park","name":"Vasaparken","wikidata":"Q7916383","wikipedia":"sv:Vasaparken, Göteborg"}},"geometry":{"type":"Point","coordinates":[11.9720931,57.6983188]}},{"type":"Feature","properties":{"id":4770768,"osm_type":"way","name":"Hagaparken","category":"park","tags":{"leisure":"park","name":"Hagaparken"}},"geometry":{"type":"Point","coordinates":[11.9619026,57.6985941]}},{"type":"Feature","properties":{"id":10136486,"osm_type":"way","name":"Skansparken","category":"park","tags":{"leisure":"park","name":"Skansparken"}},"geometry":{"type":"Point","coordinates":[11.9549973,57.6962399]}},{"type":"Feature","properties":{"id":20166848,"osm_type":"way","name":"","category":"park","tags":{"leisure":"park"}},"geometry":{"type":"Point","coordinates":[11.9277387,57.683856]}},{"type":"Feature","properties":{"id":20166973,"osm_type":"way","name":"","category":"park","tags":{"leisure":"park"}},"geometry":{"type":"Point","coordinates":[11.9291596,57.6842549]}},{"type":"Feature","properties":{"id":22278185,"osm_type":"way","name":"","category":"park","tags":{"leisure":"park"}},"geometry":{"type":"Point","coordinates":[11.9190169,57.6845529]}},{"type":"Feature","properties":{"id":26745751,"osm_type":"way","name":"","category":"park","tags":{"leisure":"park"}},"geometry":{"type":"Point","coordinates":[11.9733468,57.6969486]}},{"type":"Feature","properties":{"id":27388160,"osm_type":"way","name":"Flunsåsparken","category":"park","tags":{"description":"Folkpark / Utomhusteater","leisure":"park","name":"Flunsåsparken","wikidata":"Q10497026"}},"geometry":{"type":"Point","coordinates":[11.927086,57.7234069]}},{"type":"Feature","properties":{"id":27429605,"osm_type":"way","name":"Gubberoparken","category":"park","tags":{"leisure":"park","name":"Gubberoparken"}},"geometry":{"type":"Point","coordinates":[11.9990544,57.7132213]}},{"type":"Feature","properties":{"id":30711572,"osm_type":"way","name":"Kemigården","category":"park","tags":{"leisure":"park","name":"Kemigården"}},"geometry":{"type":"Point","coordinates":[11.9771991,57.6904786]}},{"type":"Feature","properties":{"id":38182292,"osm_type":"way","name":"","category":"park","tags":{"landuse":"grass","leisure":"park"}},"geometry":{"type":"Point","coordinates":[11.9080259,57.719917]}},{"type":"Feature","properties":{"id":41530285,"osm_type":"way","name":"John E Olsons Plats","category":"park","tags":{"leisure":"park","name":"John E Olsons Plats","wikidata":"Q34352524"}},"geometry":{"type":"Point","coordinates":[11.9243432,57.6958825]}},{"type":"Feature","properties":{"id":41688069,"osm_type":"way","name":"Renströmsparken","category":"park","tags":{"leisure":"park","name":"Renströmsparken","wikidata":"Q36815559"}},"geometry":{"type":"Point","coordinates":[11.9834351,57.6949956]}},{"type":"Feature","properties":{"id":52161049,"osm_type":"way","name":"","category":"park","tags":{"leisure":"park"}},"geometry":{"type":"Point","coordinates":[11.8781747,57.6588755]}},{"type":"Feature","properties":{"id":52565524,"osm_type":"way","name":"Deltaparken","category":"park","tags":{"leisure":"park","name":"Deltaparken","natural":"fell"}},"geometry":{"type":"Point","coordinates":[11.9790096,57.6872709]}},{"type":"Feature","properties":{"id":52565619,"osm_type":"way","name":"Chalmerska Vasaparken","category":"park","tags":{"leisure":"park","name":"Chalmerska Vasaparken"}},"geometry":{"type":"Point","coordinates":[11.9758628,57.6934738]}},{"type":"Feature","properties":{"id":56433859,"osm_type":"way","name":"","category":"park","tags":{"leisure":"park"}},"geometry":{"type":"Point","coordinates":[11.9072808,57.6898394]}},{"type":"Feature","properties":{"id":56652040,"osm_type":"way","name":"","category":"park","tags":{"leisure":"park"}},"geometry":{"type":"Point","coordinates":[11.9103608,57.6904661]}},{"type":"Feature","properties":{"id":73850318,"osm_type":"way","name":"Kronhusparken","category":"park","tags":{"leisure":"park","name":"Kronhusparken","wikidata":"Q36815533"}},"geometry":{"type":"Point","coordinates":[11.9626671,57.7075554]}},{"type":"Feature","properties":{"id":83747065,"osm_type":"way","name":"Himlabacken","category":"park","tags":{"leisure":"park","name":"Himlabacken"}},"geometry":{"type":"Point","coordinates":[11.9759689,57.6961012]}},{"type":"Feature","properties":{"id":88407737,"osm_type":"way","name":"Engelska parken","category":"park","tags":{"leisure":"park","name":"Engelska parken"}},"geometry":{"type":"Point","coordinates":[11.9596294,57.6909185]}},{"type":"Feature","properties":{"id":93052274,"osm_type":"way","name":"","category":"park","tags":{"leisure":"park"}},"geometry":{"type":"Point","coordinates":[11.9637722,57.65485]}},{"type":"Feature","properties":{"id":101527938,"osm_type":"way","name":"","category":"park","tags":{"landuse":"grass","leisure":"park"}},"geometry":{"type":"Point","coordinates":[11.9093593,57.7303428]}},{"type":"Feature","properties":{"id":123354983,"osm_type":"way","name":"Trädgårdsföreningen","category":"park","tags":{"access":"yes","alcohol":"no","bicycle":"no","dog":"no","leisure":"park","name":"Trädgårdsföreningen","name:en":"The Garden Society of Gothenburg","opening_hours":"Mo-Fr 07:00-18:00; Sa-Su 09:00-18:00","website":"http://www.tradgardsforeningen.se","wikidata":"Q3141469","wikipedia":"sv:Trädgårdsföreningen, Göteborg"}},"geometry":{"type":"Point","coordinates":[11.9741487,57.7051292]}},{"type":"Feature","properties":{"id":123569258,"osm_type":"way","name":"","category":"park","tags":{"leisure":"park"}},"geometry":{"type":"Point","coordinates":[11.9511018,57.7017814]}},{"type":"Feature","properties":{"id":127928748,"osm_type":"way","name":"","category":"park","tags":{"barrier":"fence","leisure":"park"}},"geometry":{"type":"Point","coordinates":[11.965046,57.704511]}},{"type":"Feature","properties":{"id":132087659,"osm_type":"way","name":"","category":"park","tags":{"leisure":"park"}},"geometry":{"type":"Point","coordinates":[11.9963968,57.6973838]}},{"type":"Feature","properties":{"id":135165945,"osm_type":"way","name":"","category":"park","tags":{"leisure":"park"}},"geometry":{"type":"Point","coordinates":[11.9180208,57.6919484]}},{"type":"Feature","properties":{"id":135259914,"osm_type":"way","name":"","category":"park","tags":{"leisure":"park"}},"geometry":{"type":"Point","coordinates":[11.9237213,57.6950406]}},{"type":"Feature","properties":{"id":138637199,"osm_type":"way","name":"","category":"park","tags":{"leisure":"park"}},"geometry":{"type":"Point","coordinates":[11.9295196,57.6907522]}},{"type":"Feature","properties":{"id":140295444,"osm_type":"way","name":"","category":"park","tags":{"leisure":"park"}},"geometry":{"type":"Point","coordinates":[11.9326337,57.6924835]}},{"type":"Feature","properties":{"id":140413079,"osm_type":"way","name":"","category":"park","tags":{"leisure":"park"}},"geometry":{"type":"Point","coordinates":[11.9249628,57.6610654]}},{"type":"Feature","properties":{"id":140444714,"osm_type":"way","name":"","category":"park","tags":{"leisure":"park"}},"geometry":{"type":"Point","coordinates":[11.9330302,57.6669033]}},{"type":"Feature","properties":{"id":140696399,"osm_type":"way","name":"","category":"park","tags":{"leisure":"park"}},"geometry":{"type":"Point","coordinates":[11.9274462,57.6696361]}},{"type":"Feature","properties":{"id":140709614,"osm_type":"way","name":"","category":"park","tags":{"leisure":"park"}},"geometry":{"type":"Point","coordinates":[11.9283068,57.6590717]}},{"type":"Feature","properties":{"id":141250635,"osm_type":"way","name":"","category":"park","tags":{"leisure":"park"}},"geometry":{"type":"Point","coordinates":[11.9209049,57.6683874]}},{"type":"Feature","properties":{"id":141611238,"osm_type":"way","name":"","category":"park","tags":{"leisure":"park"}},"geometry":{"type":"Point","coordinates":[11.918195,57.6615975]}},{"type":"Feature","properties":{"id":141611250,"osm_type":"way","name":"","category":"park","tags":{"leisure":"park"}},"geometry":{"type":"Point","coordinates":[11.9179275,57.6619575]}},{"type":"Feature","properties":{"id":141612768,"osm_type":"way","name":"","category":"park","tags":{"leisure":"park"}},"geometry":{"type":"Point","coordinates":[11.9157283,57.6584476]}},{"type":"Feature","properties":{"id":143069043,"osm_type":"way","name":"","category":"park","tags":{"leisure":"park"}},"geometry":{"type":"Point","coordinates":[11.946407,57.679046]}},{"type":"Feature","properties":{"id":143069045,"osm_type":"way","name":"","category":"park","tags":{"leisure":"park"}},"geometry":{"type":"Point","coordinates":[11.9488498,57.6793982]}},{"type":"Feature","properties":{"id":143074785,"osm_type":"way","name":"Älvaleken","category":"park","tags":{"leisure":"park","name":"Älvaleken"}},"geometry":{"type":"Point","coordinates":[11.9490045,57.6809738]}},{"type":"Feature","properties":{"id":143479295,"osm_type":"way","name":"Byabacken","category":"park","tags":{"leisure":"park","name":"Byabacken"}},"geometry":{"type":"Point","coordinates":[11.909804,57.7103858]}},{"type":"Feature","properties":{"id":143479304,"osm_type":"way","name":"Grönebacken","category":"park","tags":{"leisure":"park","name":"Grönebacken","source":"Bing"}},"geometry":{"type":"Point","coordinates":[11.9105243,57.7133527]}},{"type":"Feature","properties":{"id":144117136,"osm_type":"way","name":"","category":"park","tags":{"leisure":"park"}},"geometry":{"type":"Point","coordinates":[11.9043933,57.6559895]}},{"type":"Feature","properties":{"id":144117142,"osm_type":"way","name":"","category":"park","tags":{"leisure":"park"}},"geometry":{"type":"Point","coordinates":[11.9040936,57.6568695]}},{"type":"Feature","properties":{"id":144117143,"osm_type":"way","name":"","category":"park","tags":{"leisure":"park"}},"geometry":{"type":"Point","coordinates":[11.9038269,57.6577525]}},{"type":"Feature","properties":{"id":144429719,"osm_type":"way","name":"","category":"park","tags":{"leisure":"park"}},"geometry":{"type":"Point","coordinates":[12.0077799,57.7226806]}},{"type":"Feature","properties":{"id":144464086,"osm_type":"way","name":"","category":"park","tags":{"leisure":"park"}},"geometry":{"type":"Point","coordinates":[11.8902394,57.6570011]}},{"type":"Feature","properties":{"id":144756167,"osm_type":"way","name":"","category":"park","tags":{"leisure":"park"}},"geometry":{"type":"Point","coordinates":[11.891079,57.6564107]}},{"type":"Feature","properties":{"id":145538379,"osm_type":"way","name":"","category":"park","tags":{"leisure":"park"}},"geometry":{"type":"Point","coordinates":[11.8838443,57.6486984]}},{"type":"Feature","properties":{"id":145538386,"osm_type":"way","name":"","category":"park","tags":{"leisure":"park"}},"geometry":{"type":"Point","coordinates":[11.8845821,57.6486594]}},{"type":"Feature","properties":{"id":146656624,"osm_type":"way","name":"","category":"park","tags":{"leisure":"park"}},"geometry":{"type":"Point","coordinates":[11.8951277,57.6480906]}},{"type":"Feature","properties":{"id":146656625,"osm_type":"way","name":"","category":"park","tags":{"leisure":"park"}},"geometry":{"type":"Point","coordinates":[11.8946768,57.6465823]}},{"type":"Feature","properties":{"id":146668097,"osm_type":"way","name":"","category":"park","tags":{"leisure":"park"}},"geometry":{"type":"Point","coordinates":[11.9088476,57.6499967]}},{"type":"Feature","properties":{"id":150910965,"osm_type":"way","name":"","category":"park","tags":{"leisure":"park"}},"geometry":{"type":"Point","coordinates":[11.9054703,57.6729194]}},{"type":"Feature","properties":{"id":154828511,"osm_type":"way","name":"Värdens Park","category":"park","tags":{"leisure":"park","name":"Värdens Park","wikidata":"Q34587011"}},"geometry":{"type":"Point","coordinates":[11.9699056,57.7411668]}},{"type":"Feature","properties":{"id":154828519,"osm_type":"way","name":"","category":"park","tags":{"leisure":"park"}},"geometry":{"type":"Point","coordinates":[11.9725055,57.7299758]}},{"type":"Feature","properties":{"id":157710861,"osm_type":"way","name":"","category":"park","tags":{"leisure":"park"}},"geometry":{"type":"Point","coordinates":[11.9585758,57.699856]}},{"type":"Feature","properties":{"id":157710864,"osm_type":"way","name":"","category":"park","tags":{"leisure":"park"}},"geometry":{"type":"Point","coordinates":[11.9773438,57.7046798]}},{"type":"Feature","properties":{"id":157710866,"osm_type":"way","name":"","category":"park","tags":{"leisure":"park"}},"geometry":{"type":"Point","coordinates":[11.9729305,57.7024508]}},{"type":"Feature","properties":{"id":157710867,"osm_type":"way","name":"","category":"park","tags":{"leisure":"park"}},"geometry":{"type":"Point","coordinates":[11.9780505,57.7058131]}},{"type":"Feature","properties":{"id":158304376,"osm_type":"way","name":"Bältespännarparken","category":"park","tags":{"landuse":"leisure","leisure":"park","name":"Bältespännarparken","wikidata":"Q10438504"}},"geometry":{"type":"Point","coordinates":[11.9719377,57.7030711]}},{"type":"Feature","properties":{"id":158704705,"osm_type":"way","name":"","category":"park","tags":{"leisure":"park"}},"geometry":{"type":"Point","coordinates":[11.9574329,57.6998023]}},{"type":"Feature","properties":{"id":160143506,"osm_type":"way","name":"","category":"park","tags":{"leisure":"park"}},"geometry":{"type":"Point","coordinates":[11.8742861,57.6653506]}},{"type":"Feature","properties":{"id":164680158,"osm_type":"way","name":"Öarna","category":"park","tags":{"leisure":"park","name":"Öarna"}},"geometry":{"type":"Point","coordinates":[11.8999392,57.705531]}},{"type":"Feature","properties":{"id":164680159,"osm_type":"way","name":"","category":"park","tags":{"leisure":"park"}},"geometry":{"type":"Point","coordinates":[11.8980226,57.7047295]}},{"type":"Feature","properties":{"id":164687143,"osm_type":"way","name":"","category":"park","tags":{"leisure":"park"}},"geometry":{"type":"Point","coordinates":[11.9040426,57.7032993]}},{"type":"Feature","properties":{"id":165941593,"osm_type":"way","name":"Traneredsparken","category":"park","tags":{"leisure":"park","name":"Traneredsparken"}},"geometry":{"type":"Point","coordinates":[11.8793187,57.6725843]}},{"type":"Feature","properties":{"id":165941598,"osm_type":"way","name":"","category":"park","tags":{"leisure":"park"}},"geometry":{"type":"Point","coordinates":[11.8793426,57.6725514]}},{"type":"Feature","properties":{"id":166612464,"osm_type":"way","name":"Henriette Nissens Park","category":"park","tags":{"leisure":"park","name":"Henriette Nissens Park"}},"geometry":{"type":"Point","coordinates":[11.9900931,57.7129376]}},{"type":"Feature","properties":{"id":167625693,"osm_type":"way","name":"","category":"park","tags":{"leisure":"park"}},"geometry":{"type":"Point","coordinates":[11.8906852,57.6799308]}},{"type":"Feature","properties":{"id":169770371,"osm_type":"way","name":"Albert Lilienbergs plats","category":"park","tags":{"leisure":"park","name":"Albert Lilienbergs plats"}},"geometry":{"type":"Point","coordinates":[12.0064974,57.6961684]}},{"type":"Feature","properties":{"id":173784778,"osm_type":"way","name":"","category":"park","tags":{"landuse":"grass","leisure":"park"}},"geometry":{"type":"Point","coordinates":[12.0696201,57.7297462]}},{"type":"Feature","properties":{"id":179372305,"osm_type":"way","name":"Solrosparken","category":"park","tags":{"leisure":"park","name":"Solrosparken"}},"geometry":{"type":"Point","coordinates":[12.0286329,57.7169124]}},{"type":"Feature","properties":{"id":179373886,"osm_type":"way","name":"Apslätten","category":"park","tags":{"leisure":"park","name":"Apslätten","wikidata":"Q10416306"}},"geometry":{"type":"Point","coordinates":[12.0289001,57.7088289]}},{"type":"Feature","properties":{"id":179616572,"osm_type":"way","name":"","category":"park","tags":{"leisure":"park"}},"geometry":{"type":"Point","coordinates":[12.0224923,57.7197415]}},{"type":"Feature","properties":{"id":189515059,"osm_type":"way","name":"","category":"park","tags":{"landuse":"grass","leisure":"park","source":"Bing"}},"geometry":{"type":"Point","coordinates":[12.0336783,57.7121664]}},{"type":"Feature","properties":{"id":190668127,"osm_type":"way","name":"","category":"park","tags":{"leisure":"park"}},"geometry":{"type":"Point","coordinates":[12.0156748,57.6538061]}},{"type":"Feature","properties":{"id":204787939,"osm_type":"way","name":"","category":"park","tags":{"leisure":"park"}},"geometry":{"type":"Point","coordinates":[12.0088143,57.7175254]}},{"type":"Feature","properties":{"id":214708326,"osm_type":"way","name":"","category":"park","tags":{"leisure":"park"}},"geometry":{"type":"Point","coordinates":[12.0903497,57.6595358]}},{"type":"Feature","properties":{"id":214807050,"osm_type":"way","name":"","category":"park","tags":{"leisure":"park"}},"geometry":{"type":"Point","coordinates":[11.9674977,57.712295]}},{"type":"Feature","properties":{"id":217947030,"osm_type":"way","name":"","category":"park","tags":{"leisure":"park","opening_hours":"24/7","operator":"Göteborgs Stad"}},"geometry":{"type":"Point","coordinates":[12.0198832,57.7114122]}},{"type":"Feature","properties":{"id":220676998,"osm_type":"way","name":"Sankt Pauli kyrkoplan","category":"park","tags":{"alt_name":"S:t Pauli kyrkoplan","leisure":"park","name":"Sankt Pauli kyrkoplan","official_name":"Sankt Pauli kyrkoplan","wikidata":"Q34352810"}},"geometry":{"type":"Point","coordinates":[12.0031104,57.7145163]}},{"type":"Feature","properties":{"id":226845462,"osm_type":"way","name":"Stadsparken","category":"park","tags":{"leisure":"park","name":"Stadsparken"}},"geometry":{"type":"Point","coordinates":[12.101582,57.73978]}},{"type":"Feature","properties":{"id":229341230,"osm_type":"way","name":"","category":"park","tags":{"leisure":"park"}},"geometry":{"type":"Point","coordinates":[12.0103104,57.6570082]}},{"type":"Feature","properties":{"id":229341231,"osm_type":"way","name":"Stadshusparken","category":"park","tags":{"leisure":"park","name":"Stadshusparken"}},"geometry":{"type":"Point","coordinates":[12.012548,57.6570746]}},{"type":"Feature","properties":{"id":229858072,"osm_type":"way","name":"","category":"park","tags":{"landuse":"forest","leaf_type":"broadleaved","leisure":"park"}},"geometry":{"type":"Point","coordinates":[12.0770842,57.7289366]}},{"type":"Feature","properties":{"id":229858073,"osm_type":"way","name":"","category":"park","tags":{"landuse":"grass","leisure":"park"}},"geometry":{"type":"Point","coordinates":[12.0767303,57.7285787]}},{"type":"Feature","properties":{"id":229858074,"osm_type":"way","name":"","category":"park","tags":{"landuse":"forest","leisure":"park"}},"geometry":{"type":"Point","coordinates":[12.076695,57.7277359]}},{"type":"Feature","properties":{"id":232437626,"osm_type":"way","name":"Seminarieparken","category":"park","tags":{"leisure":"park","name":"Seminarieparken","wikidata":"Q36815569"}},"geometry":{"type":"Point","coordinates":[11.9550121,57.6913929]}},{"type":"Feature","properties":{"id":239755305,"osm_type":"way","name":"","category":"park","tags":{"leisure":"park"}},"geometry":{"type":"Point","coordinates":[12.0472922,57.714877]}},{"type":"Feature","properties":{"id":241178780,"osm_type":"way","name":"Kung Rings Plats","category":"park","tags":{"access":"yes","leisure":"park","name":"Kung Rings Plats"}},"geometry":{"type":"Point","coordinates":[12.0055545,57.7110086]}},{"type":"Feature","properties":{"id":241918252,"osm_type":"way","name":"Wijkandersplatsen","category":"park","tags":{"landuse":"grass","leisure":"park","name":"Wijkandersplatsen","place":"locality"}},"geometry":{"type":"Point","coordinates":[11.9792796,57.6912546]}},{"type":"Feature","properties":{"id":247277627,"osm_type":"way","name":"","category":"park","tags":{"leisure":"park"}},"geometry":{"type":"Point","coordinates":[12.0209917,57.7155302]}},{"type":"Feature","properties":{"id":255530794,"osm_type":"way","name":"","category":"park","tags":{"leisure":"park"}},"geometry":{"type":"Point","coordinates":[12.0113052,57.7172249]}},{"type":"Feature","properties":{"id":271913263,"osm_type":"way","name":"Billdals park","category":"park","tags":{"leisure":"park","name":"Billdals park","wikidata":"Q34339324"}},"geometry":{"type":"Point","coordinates":[11.9459751,57.584836]}},{"type":"Feature","properties":{"id":275902197,"osm_type":"way","name":"","category":"park","tags":{"leisure":"park"}},"geometry":{"type":"Point","coordinates":[12.0687068,57.8030492]}},{"type":"Feature","properties":{"id":284249841,"osm_type":"way","name":"","category":"park","tags":{"leisure":"park"}},"geometry":{"type":"Point","coordinates":[12.0173806,57.8217728]}},{"type":"Feature","properties":{"id":290729378,"osm_type":"way","name":"Eriksbo fritidspark","category":"park","tags":{"leisure":"park","name":"Eriksbo fritidspark"}},"geometry":{"type":"Point","coordinates":[12.038846,57.7699792]}},{"type":"Feature","properties":{"id":293393219,"osm_type":"way","name":"","category":"park","tags":{"landuse":"grass","leisure":"park"}},"geometry":{"type":"Point","coordinates":[12.001484,57.6608652]}},{"type":"Feature","properties":{"id":294034735,"osm_type":"way","name":"","category":"park","tags":{"leisure":"park"}},"geometry":{"type":"Point","coordinates":[11.9994383,57.6545026]}},{"type":"Feature","properties":{"id":311515998,"osm_type":"way","name":"","category":"park","tags":{"leisure":"park"}},"geometry":{"type":"Point","coordinates":[12.0174423,57.8209186]}},{"type":"Feature","properties":{"id":332730959,"osm_type":"way","name":"","category":"park","tags":{"leisure":"park"}},"geometry":{"type":"Point","coordinates":[11.8939313,57.7111698]}},{"type":"Feature","properties":{"id":332730960,"osm_type":"way","name":"","category":"park","tags":{"leisure":"park"}},"geometry":{"type":"Point","coordinates":[11.8940309,57.7116953]}},{"type":"Feature","properties":{"id":332730961,"osm_type":"way","name":"","category":"park","tags":{"leisure":"park"}},"geometry":{"type":"Point","coordinates":[11.8946126,57.7118485]}},{"type":"Feature","properties":{"id":332730962,"osm_type":"way","name":"","category":"park","tags":{"leisure":"park"}},"geometry":{"type":"Point","coordinates":[11.8939581,57.7120867]}},{"type":"Feature","properties":{"id":332730963,"osm_type":"way","name":"","category":"park","tags":{"leisure":"park"}},"geometry":{"type":"Point","coordinates":[11.8942247,57.7121304]}},{"type":"Feature","properties":{"id":340446618,"osm_type":"way","name":"","category":"park","tags":{"leisure":"park"}},"geometry":{"type":"Point","coordinates":[11.9155295,57.6911654]}},{"type":"Feature","properties":{"id":367272986,"osm_type":"way","name":"Vasaplatsen","category":"park","tags":{"leisure":"park","name":"Vasaplatsen","wikidata":"Q7916386","wikipedia":"sv:Vasaplatsen, Göteborg"}},"geometry":{"type":"Point","coordinates":[11.9697297,57.6993854]}},{"type":"Feature","properties":{"id":421118206,"osm_type":"way","name":"Lindholmstorget","category":"park","tags":{"leisure":"park","name":"Lindholmstorget"}},"geometry":{"type":"Point","coordinates":[11.9313564,57.7051807]}},{"type":"Feature","properties":{"id":428147219,"osm_type":"way","name":"","category":"park","tags":{"leisure":"park"}},"geometry":{"type":"Point","coordinates":[11.905706,57.7191338]}},{"type":"Feature","properties":{"id":433450905,"osm_type":"way","name":"","category":"park","tags":{"leisure":"park"}},"geometry":{"type":"Point","coordinates":[11.9085425,57.696829]}},{"type":"Feature","properties":{"id":442930324,"osm_type":"way","name":"","category":"park","tags":{"leisure":"park"}},"geometry":{"type":"Point","coordinates":[12.046286,57.6635743]}},{"type":"Feature","properties":{"id":468559888,"osm_type":"way","name":"","category":"park","tags":{"leisure":"park"}},"geometry":{"type":"Point","coordinates":[11.9486054,57.7164]}},{"type":"Feature","properties":{"id":468716558,"osm_type":"way","name":"Strandparken","category":"park","tags":{"leisure":"park","name":"Strandparken","wikidata":"Q36813679"}},"geometry":{"type":"Point","coordinates":[11.9901702,57.8655787]}},{"type":"Feature","properties":{"id":471981016,"osm_type":"way","name":"","category":"park","tags":{"leisure":"park"}},"geometry":{"type":"Point","coordinates":[12.0108059,57.7330147]}},{"type":"Feature","properties":{"id":471981046,"osm_type":"way","name":"","category":"park","tags":{"leisure":"park"}},"geometry":{"type":"Point","coordinates":[12.0091255,57.7322229]}},{"type":"Feature","properties":{"id":471982524,"osm_type":"way","name":"","category":"park","tags":{"leisure":"park"}},"geometry":{"type":"Point","coordinates":[12.0136268,57.6525937]}},{"type":"Feature","properties":{"id":478094392,"osm_type":"way","name":"","category":"park","tags":{"leisure":"park"}},"geometry":{"type":"Point","coordinates":[12.0692185,57.8076519]}},{"type":"Feature","properties":{"id":491126860,"osm_type":"way","name":"","category":"park","tags":{"leisure":"park"}},"geometry":{"type":"Point","coordinates":[11.9741293,57.6952834]}},{"type":"Feature","properties":{"id":496998627,"osm_type":"way","name":"Furuplatsen","category":"park","tags":{"leaf_type":"needleleaved","leisure":"park","name":"Furuplatsen","natural":"wood"}},"geometry":{"type":"Point","coordinates":[11.9744866,57.6860776]}},{"type":"Feature","properties":{"id":504659509,"osm_type":"way","name":"","category":"park","tags":{"leisure":"park"}},"geometry":{"type":"Point","coordinates":[11.9426379,57.721734]}},{"type":"Feature","properties":{"id":517022090,"osm_type":"way","name":"Flatås park","category":"park","tags":{"leisure":"park","name":"Flatås park"}},"geometry":{"type":"Point","coordinates":[11.929298,57.6631434]}},{"type":"Feature","properties":{"id":517703772,"osm_type":"way","name":"","category":"park","tags":{"leisure":"park"}},"geometry":{"type":"Point","coordinates":[11.993269,57.6991924]}},{"type":"Feature","properties":{"id":519087075,"osm_type":"way","name":"","category":"park","tags":{"leisure":"park"}},"geometry":{"type":"Point","coordinates":[11.948823,57.7193414]}},{"type":"Feature","properties":{"id":519087076,"osm_type":"way","name":"","category":"park","tags":{"leisure":"park"}},"geometry":{"type":"Point","coordinates":[11.9474434,57.7193295]}},{"type":"Feature","properties":{"id":519087077,"osm_type":"way","name":"","category":"park","tags":{"leisure":"park"}},"geometry":{"type":"Point","coordinates":[11.9478573,57.7193234]}},{"type":"Feature","properties":{"id":519087078,"osm_type":"way","name":"","category":"park","tags":{"leisure":"park"}},"geometry":{"type":"Point","coordinates":[11.9482707,57.7193117]}},{"type":"Feature","properties":{"id":519087079,"osm_type":"way","name":"","category":"park","tags":{"leisure":"park"}},"geometry":{"type":"Point","coordinates":[11.9482494,57.7191454]}},{"type":"Feature","properties":{"id":520102390,"osm_type":"way","name":"","category":"park","tags":{"leisure":"park"}},"geometry":{"type":"Point","coordinates":[12.1097107,57.657599]}},{"type":"Feature","properties":{"id":529895461,"osm_type":"way","name":"","category":"park","tags":{"leisure":"park"}},"geometry":{"type":"Point","coordinates":[11.9714227,57.6878786]}},{"type":"Feature","properties":{"id":531983111,"osm_type":"way","name":"","category":"park","tags":{"leisure":"park"}},"geometry":{"type":"Point","coordinates":[11.9928488,57.6978075]}},{"type":"Feature","properties":{"id":531983113,"osm_type":"way","name":"","category":"park","tags":{"leisure":"park"}},"geometry":{"type":"Point","coordinates":[11.9940717,57.6978934]}},{"type":"Feature","properties":{"id":536393318,"osm_type":"way","name":"","category":"park","tags":{"leisure":"park"}},"geometry":{"type":"Point","coordinates":[11.9922761,57.6901845]}},{"type":"Feature","properties":{"id":543471522,"osm_type":"way","name":"Stadsparken","category":"park","tags":{"leisure":"park","name":"Stadsparken"}},"geometry":{"type":"Point","coordinates":[12.1110987,57.7415777]}},{"type":"Feature","properties":{"id":547529338,"osm_type":"way","name":"","category":"park","tags":{"leisure":"park"}},"geometry":{"type":"Point","coordinates":[11.9347997,57.7319557]}},{"type":"Feature","properties":{"id":547996666,"osm_type":"way","name":"","category":"park","tags":{"leisure":"park"}},"geometry":{"type":"Point","coordinates":[11.9715578,57.7286823]}},{"type":"Feature","properties":{"id":550415870,"osm_type":"way","name":"","category":"park","tags":{"leisure":"park"}},"geometry":{"type":"Point","coordinates":[11.9881759,57.6878557]}},{"type":"Feature","properties":{"id":551274355,"osm_type":"way","name":"","category":"park","tags":{"access":"private","leisure":"park"}},"geometry":{"type":"Point","coordinates":[12.0219147,57.6552074]}},{"type":"Feature","properties":{"id":552174733,"osm_type":"way","name":"","category":"park","tags":{"leisure":"park"}},"geometry":{"type":"Point","coordinates":[12.0151061,57.6575347]}},{"type":"Feature","properties":{"id":552174734,"osm_type":"way","name":"Aktivitetspark","category":"park","tags":{"leisure":"park","name":"Aktivitetspark"}},"geometry":{"type":"Point","coordinates":[12.0127896,57.6493311]}},{"type":"Feature","properties":{"id":553592961,"osm_type":"way","name":"","category":"park","tags":{"leisure":"park"}},"geometry":{"type":"Point","coordinates":[12.0179809,57.7904089]}},{"type":"Feature","properties":{"id":553753062,"osm_type":"way","name":"","category":"park","tags":{"leisure":"park"}},"geometry":{"type":"Point","coordinates":[11.9975161,57.7141187]}},{"type":"Feature","properties":{"id":562544755,"osm_type":"way","name":"","category":"park","tags":{"leisure":"park"}},"geometry":{"type":"Point","coordinates":[11.9181149,57.7114019]}},{"type":"Feature","properties":{"id":590833155,"osm_type":"way","name":"","category":"park","tags":{"leisure":"park"}},"geometry":{"type":"Point","coordinates":[11.931297,57.7069202]}},{"type":"Feature","properties":{"id":598991575,"osm_type":"way","name":"Rundradioparken","category":"park","tags":{"leisure":"park","name":"Rundradioparken"}},"geometry":{"type":"Point","coordinates":[11.9270228,57.6553701]}},{"type":"Feature","properties":{"id":599450117,"osm_type":"way","name":"Segerstedtska Parken","category":"park","tags":{"leisure":"park","name":"Segerstedtska Parken"}},"geometry":{"type":"Point","coordinates":[11.9632767,57.6956857]}},{"type":"Feature","properties":{"id":601735879,"osm_type":"way","name":"","category":"park","tags":{"leisure":"park"}},"geometry":{"type":"Point","coordinates":[11.924933,57.6848936]}},{"type":"Feature","properties":{"id":611161591,"osm_type":"way","name":"","category":"park","tags":{"leisure":"park"}},"geometry":{"type":"Point","coordinates":[11.9024978,57.7110497]}},{"type":"Feature","properties":{"id":612007671,"osm_type":"way","name":"","category":"park","tags":{"leisure":"park"}},"geometry":{"type":"Point","coordinates":[11.9404691,57.7292573]}},{"type":"Feature","properties":{"id":612253833,"osm_type":"way","name":"","category":"park","tags":{"leisure":"park"}},"geometry":{"type":"Point","coordinates":[11.9409394,57.7311361]}},{"type":"Feature","properties":{"id":613056544,"osm_type":"way","name":"","category":"park","tags":{"leisure":"park"}},"geometry":{"type":"Point","coordinates":[11.9940273,57.6933374]}},{"type":"Feature","properties":{"id":613056545,"osm_type":"way","name":"","category":"park","tags":{"leisure":"park"}},"geometry":{"type":"Point","coordinates":[11.993796,57.6934287]}},{"type":"Feature","properties":{"id":613056546,"osm_type":"way","name":"","category":"park","tags":{"leisure":"park"}},"geometry":{"type":"Point","coordinates":[11.993973,57.693595]}},{"type":"Feature","properties":{"id":613056547,"osm_type":"way","name":"","category":"park","tags":{"leisure":"park"}},"geometry":{"type":"Point","coordinates":[11.9941875,57.6923216]}},{"type":"Feature","properties":{"id":623831641,"osm_type":"way","name":"","category":"park","tags":{"leisure":"park"}},"geometry":{"type":"Point","coordinates":[11.964403,57.7018973]}},{"type":"Feature","properties":{"id":623831642,"osm_type":"way","name":"","category":"park","tags":{"leisure":"park"}},"geometry":{"type":"Point","coordinates":[11.9637418,57.7024225]}},{"type":"Feature","properties":{"id":623831643,"osm_type":"way","name":"","category":"park","tags":{"leisure":"park"}},"geometry":{"type":"Point","coordinates":[11.9634682,57.7020607]}},{"type":"Feature","properties":{"id":633884510,"osm_type":"way","name":"","category":"park","tags":{"leisure":"park"}},"geometry":{"type":"Point","coordinates":[11.9893818,57.7114646]}},{"type":"Feature","properties":{"id":633884511,"osm_type":"way","name":"","category":"park","tags":{"leisure":"park"}},"geometry":{"type":"Point","coordinates":[11.9902257,57.7103197]}},{"type":"Feature","properties":{"id":645702790,"osm_type":"way","name":"","category":"park","tags":{"leisure":"park"}},"geometry":{"type":"Point","coordinates":[11.9864811,57.6873845]}},{"type":"Feature","properties":{"id":665353324,"osm_type":"way","name":"","category":"park","tags":{"leisure":"park"}},"geometry":{"type":"Point","coordinates":[11.9907712,57.708894]}},{"type":"Feature","properties":{"id":665370840,"osm_type":"way","name":"","category":"park","tags":{"leisure":"park"}},"geometry":{"type":"Point","coordinates":[11.9923895,57.7109773]}},{"type":"Feature","properties":{"id":675790048,"osm_type":"way","name":"Eriksbergsparken","category":"park","tags":{"leisure":"park","name":"Eriksbergsparken"}},"geometry":{"type":"Point","coordinates":[11.9108972,57.6987595]}},{"type":"Feature","properties":{"id":675790050,"osm_type":"way","name":"Vassparken","category":"park","tags":{"leisure":"park","name":"Vassparken"}},"geometry":{"type":"Point","coordinates":[11.9115946,57.6985075]}},{"type":"Feature","properties":{"id":685606331,"osm_type":"way","name":"Hammarparken","category":"park","tags":{"leisure":"park","name":"Hammarparken"}},"geometry":{"type":"Point","coordinates":[12.0338072,57.7798142]}},{"type":"Feature","properties":{"id":711368956,"osm_type":"way","name":"","category":"park","tags":{"leisure":"park"}},"geometry":{"type":"Point","coordinates":[12.0190469,57.7235742]}},{"type":"Feature","properties":{"id":739432910,"osm_type":"way","name":"Sten Johanssons Plats","category":"park","tags":{"addr:city":"Göteborg","addr:country":"SE","addr:postcode":"415 01","addr:street":"Brahegatan","leisure":"park","name":"Sten Johanssons Plats"}},"geometry":{"type":"Point","coordinates":[12.0128486,57.7311089]}},{"type":"Feature","properties":{"id":756354468,"osm_type":"way","name":"","category":"park","tags":{"leisure":"park"}},"geometry":{"type":"Point","coordinates":[11.9719961,57.7306222]}},{"type":"Feature","properties":{"id":777092487,"osm_type":"way","name":"","category":"park","tags":{"leisure":"park"}},"geometry":{"type":"Point","coordinates":[11.9647707,57.7069421]}},{"type":"Feature","properties":{"id":798501733,"osm_type":"way","name":"Park Lagmansgatan","category":"park","tags":{"leisure":"park","name":"Park Lagmansgatan"}},"geometry":{"type":"Point","coordinates":[12.0275522,57.7147104]}},{"type":"Feature","properties":{"id":800836376,"osm_type":"way","name":"","category":"park","tags":{"leisure":"park"}},"geometry":{"type":"Point","coordinates":[11.9704141,57.6916554]}},{"type":"Feature","properties":{"id":819435834,"osm_type":"way","name":"","category":"park","tags":{"leisure":"park"}},"geometry":{"type":"Point","coordinates":[11.9189348,57.6906214]}},{"type":"Feature","properties":{"id":868319123,"osm_type":"way","name":"","category":"park","tags":{"leisure":"park"}},"geometry":{"type":"Point","coordinates":[11.9754181,57.6927481]}},{"type":"Feature","properties":{"id":887024495,"osm_type":"way","name":"","category":"park","tags":{"leisure":"park"}},"geometry":{"type":"Point","coordinates":[11.9269102,57.6822901]}},{"type":"Feature","properties":{"id":890794987,"osm_type":"way","name":"Munkebäcksparken","category":"park","tags":{"leisure":"park","name":"Munkebäcksparken","operator":"Göteborgs Stad"}},"geometry":{"type":"Point","coordinates":[12.0272599,57.7201237]}},{"type":"Feature","properties":{"id":966283410,"osm_type":"way","name":"","category":"park","tags":{"leisure":"park","opening_hours":"24/7"}},"geometry":{"type":"Point","coordinates":[12.0306171,57.7317633]}},{"type":"Feature","properties":{"id":977074609,"osm_type":"way","name":"","category":"park","tags":{"leisure":"park"}},"geometry":{"type":"Point","coordinates":[12.0103456,57.6703608]}},{"type":"Feature","properties":{"id":996019091,"osm_type":"way","name":"Triangelparken","category":"park","tags":{"check_date":"2024-08-12","leisure":"park","name":"Triangelparken","note":"The park is being rebuilt and enlarged. Bikes are re-routed south of the construction site.","opening_date":"2025","operator":"Mölndals stad","website":"https://www.molndal.se/startsida/arkiv/servicemeddelande/servicemeddelanden/2024-07-08-vi-bygger-om-triangelparken.html"}},"geometry":{"type":"Point","coordinates":[12.0524363,57.6096438]}},{"type":"Feature","properties":{"id":1032865666,"osm_type":"way","name":"","category":"park","tags":{"leisure":"park"}},"geometry":{"type":"Point","coordinates":[12.0102119,57.6914702]}},{"type":"Feature","properties":{"id":1050705898,"osm_type":"way","name":"","category":"park","tags":{"leisure":"park"}},"geometry":{"type":"Point","coordinates":[11.9714297,57.6968557]}},{"type":"Feature","properties":{"id":1057992681,"osm_type":"way","name":"Jubileumsparken","category":"park","tags":{"construction":"park","leisure":"park","name":"Jubileumsparken"}},"geometry":{"type":"Point","coordinates":[11.9571631,57.7169881]}},{"type":"Feature","properties":{"id":1087263681,"osm_type":"way","name":"Bergfeltska trädgården","category":"park","tags":{"access":"yes","fee":"no","leisure":"park","name":"Bergfeltska trädgården","start_date":"~1650"}},"geometry":{"type":"Point","coordinates":[11.9923004,57.8662994]}},{"type":"Feature","properties":{"id":1097344475,"osm_type":"way","name":"Brattåsparken","category":"park","tags":{"leisure":"park","name":"Brattåsparken"}},"geometry":{"type":"Point","coordinates":[12.0537158,57.6110829]}},{"type":"Feature","properties":{"id":1111360319,"osm_type":"way","name":"","category":"park","tags":{"leisure":"park"}},"geometry":{"type":"Point","coordinates":[12.1108436,57.6931436]}},{"type":"Feature","properties":{"id":1115814758,"osm_type":"way","name":"","category":"park","tags":{"leisure":"park"}},"geometry":{"type":"Point","coordinates":[11.9950418,57.8652642]}},{"type":"Feature","properties":{"id":1170048792,"osm_type":"way","name":"Fästningsparken","category":"park","tags":{"leisure":"park","name":"Fästningsparken"}},"geometry":{"type":"Point","coordinates":[12.000388,57.8619832]}},{"type":"Feature","properties":{"id":1208118786,"osm_type":"way","name":"Fårhagen","category":"park","tags":{"leisure":"park","name":"Fårhagen"}},"geometry":{"type":"Point","coordinates":[11.936924,57.5662436]}},{"type":"Feature","properties":{"id":1212767217,"osm_type":"way","name":"","category":"park","tags":{"leisure":"park"}},"geometry":{"type":"Point","coordinates":[11.9088194,57.6861033]}},{"type":"Feature","properties":{"id":1213430189,"osm_type":"way","name":"","category":"park","tags":{"leisure":"park"}},"geometry":{"type":"Point","coordinates":[11.915853,57.7244975]}},{"type":"Feature","properties":{"id":1270430919,"osm_type":"way","name":"","category":"park","tags":{"leisure":"park"}},"geometry":{"type":"Point","coordinates":[11.894044,57.7113959]}},{"type":"Feature","properties":{"id":1270430920,"osm_type":"way","name":"","category":"park","tags":{"leisure":"park"}},"geometry":{"type":"Point","coordinates":[11.8939542,57.7118203]}},{"type":"Feature","properties":{"id":1342551056,"osm_type":"way","name":"Slottsskogsvallens entrépark","category":"park","tags":{"leisure":"park","name":"Slottsskogsvallens entrépark","opening_hours":"24/7","website":"https://goteborg.se/wps/portal/start/uppleva-och-gora/idrott-motion-och-friluftsliv/motion-och-halsa/utomhusmotion/hitta-utegym-och-utetraning?id=6940"}},"geometry":{"type":"Point","coordinates":[11.940451,57.6793965]}},{"type":"Feature","properties":{"id":1353394473,"osm_type":"way","name":"Hisingsparken","category":"park","tags":{"leisure":"park","name":"Hisingsparken","opening_hours":"24/7","operator":"Göteborgs Stad","website":"https://goteborg.se/wps/portal/start/uppleva-och-gora/parker-och-lekplatser/naturomraden/hitta-naturomraden?id=3738","wikidata":"Q10524557"}},"geometry":{"type":"Point","coordinates":[11.9112788,57.7421207]}},{"type":"Feature","properties":{"id":1370623132,"osm_type":"way","name":"","category":"park","tags":{"leisure":"park"}},"geometry":{"type":"Point","coordinates":[11.9212166,57.6958013]}},{"type":"Feature","properties":{"id":1503681595,"osm_type":"way","name":"Opalparken","category":"park","tags":{"leisure":"park","name":"Opalparken"}},"geometry":{"type":"Point","coordinates":[11.8986534,57.6433614]}},{"type":"Feature","properties":{"id":2108732,"osm_type":"relation","name":"Kungsparken","category":"park","tags":{"alt_name":"Kungsportsparken","leisure":"park","name":"Kungsparken","place":"locality","type":"multipolygon","wikidata":"Q10550357"}},"geometry":{"type":"Point","coordinates":[11.9670301,57.7015213]}},{"type":"Feature","properties":{"id":3855128,"osm_type":"relation","name":"Månadsparken","category":"park","tags":{"leisure":"park","name":"Månadsparken","type":"multipolygon"}},"geometry":{"type":"Point","coordinates":[12.0326803,57.7469124]}},{"type":"Feature","properties":{"id":6768040,"osm_type":"relation","name":"","category":"park","tags":{"leisure":"park","type":"multipolygon"}},"geometry":{"type":"Point","coordinates":[11.8857467,57.7230987]}},{"type":"Feature","properties":{"id":7518371,"osm_type":"relation","name":"","category":"park","tags":{"landuse":"grass","leisure":"park","type":"multipolygon"}},"geometry":{"type":"Point","coordinates":[12.041645,57.6592191]}},{"type":"Feature","properties":{"id":7518806,"osm_type":"relation","name":"","category":"park","tags":{"leisure":"park","type":"multipolygon"}},"geometry":{"type":"Point","coordinates":[11.9403382,57.7156307]}},{"type":"Feature","properties":{"id":7534615,"osm_type":"relation","name":"Åbybergsparken","category":"park","tags":{"leisure":"park","name":"Åbybergsparken","type":"multipolygon"}},"geometry":{"type":"Point","coordinates":[12.0089473,57.6544154]}},{"type":"Feature","properties":{"id":8537793,"osm_type":"relation","name":"","category":"park","tags":{"leisure":"park","type":"multipolygon"}},"geometry":{"type":"Point","coordinates":[11.9166023,57.6858213]}},{"type":"Feature","properties":{"id":8653580,"osm_type":"relation","name":"","category":"park","tags":{"leisure":"park","type":"multipolygon"}},"geometry":{"type":"Point","coordinates":[11.9329891,57.6811201]}},{"type":"Feature","properties":{"id":10167968,"osm_type":"relation","name":"Överåsparken","category":"park","tags":{"leisure":"park","name":"Överåsparken","type":"multipolygon","wikidata":"Q34348588"}},"geometry":{"type":"Point","coordinates":[11.9988302,57.7049699]}},{"type":"Feature","properties":{"id":10168150,"osm_type":"relation","name":"Mühlenbocks Park","category":"park","tags":{"leisure":"park","name":"Mühlenbocks Park","type":"multipolygon"}},"geometry":{"type":"Point","coordinates":[11.9984993,57.7066274]}},{"type":"Feature","properties":{"id":10476001,"osm_type":"relation","name":"Officersparken","category":"park","tags":{"alt_name":"Transchellska trädgården","landuse":"grass","leisure":"park","name":"Officersparken","type":"multipolygon"}},"geometry":{"type":"Point","coordinates":[11.8921241,57.6826169]}},{"type":"Feature","properties":{"id":10476738,"osm_type":"relation","name":"","category":"park","tags":{"leisure":"park","type":"multipolygon"}},"geometry":{"type":"Point","coordinates":[12.0025778,57.7170261]}},{"type":"Feature","properties":{"id":10476742,"osm_type":"relation","name":"Lorensbergsparken","category":"park","tags":{"leisure":"park","name":"Lorensbergsparken","type":"multipolygon"}},"geometry":{"type":"Point","coordinates":[11.9796008,57.6988804]}},{"type":"Feature","properties":{"id":10523765,"osm_type":"relation","name":"Lekplats 320","category":"park","tags":{"leisure":"park","name":"Lekplats 320","operator":"Göteborgs Stad","type":"multipolygon"}},"geometry":{"type":"Point","coordinates":[12.0680516,57.8063006]}},{"type":"Feature","properties":{"id":10604612,"osm_type":"relation","name":"Adventsparken","category":"park","tags":{"leisure":"park","name":"Adventsparken","type":"multipolygon"}},"geometry":{"type":"Point","coordinates":[12.0350104,57.7595942]}},{"type":"Feature","properties":{"id":10605405,"osm_type":"relation","name":"","category":"park","tags":{"leisure":"park","type":"multipolygon"}},"geometry":{"type":"Point","coordinates":[12.0502344,57.740115]}},{"type":"Feature","properties":{"id":10752946,"osm_type":"relation","name":"","category":"park","tags":{"leisure":"park","type":"multipolygon"}},"geometry":{"type":"Point","coordinates":[12.0088593,57.7291249]}},{"type":"Feature","properties":{"id":10753240,"osm_type":"relation","name":"Olssons trädgård","category":"park","tags":{"description":"Ur detaljplanen: \"Olssons park är en anlagd stadsdelspark med en damm, sittplatser, en skulptur och planteringa\"","leisure":"park","name":"Olssons trädgård","type":"multipolygon"}},"geometry":{"type":"Point","coordinates":[11.9666366,57.6896524]}},{"type":"Feature","properties":{"id":10753258,"osm_type":"relation","name":"Kolonigatans koloniträdgårdar","category":"park","tags":{"leisure":"park","name":"Kolonigatans koloniträdgårdar","type":"multipolygon"}},"geometry":{"type":"Point","coordinates":[11.9706316,57.6897049]}},{"type":"Feature","properties":{"id":10765085,"osm_type":"relation","name":"","category":"park","tags":{"leisure":"park","type":"multipolygon"}},"geometry":{"type":"Point","coordinates":[12.0173362,57.7326175]}},{"type":"Feature","properties":{"id":11307026,"osm_type":"relation","name":"","category":"park","tags":{"leisure":"park","type":"multipolygon"}},"geometry":{"type":"Point","coordinates":[11.8985917,57.7249961]}},{"type":"Feature","properties":{"id":11307260,"osm_type":"relation","name":"","category":"park","tags":{"leisure":"park","type":"multipolygon"}},"geometry":{"type":"Point","coordinates":[11.9610695,57.7564183]}},{"type":"Feature","properties":{"id":11307884,"osm_type":"relation","name":"","category":"park","tags":{"landuse":"grass","leisure":"park","type":"multipolygon"}},"geometry":{"type":"Point","coordinates":[11.9283213,57.7212863]}},{"type":"Feature","properties":{"id":11310097,"osm_type":"relation","name":"","category":"park","tags":{"leisure":"park","type":"multipolygon"}},"geometry":{"type":"Point","coordinates":[11.9500953,57.7252991]}},{"type":"Feature","properties":{"id":11317622,"osm_type":"relation","name":"Färjenäsparken","category":"park","tags":{"leisure":"park","name":"Färjenäsparken","type":"multipolygon","wikidata":"Q5511478"}},"geometry":{"type":"Point","coordinates":[11.9025656,57.6972172]}},{"type":"Feature","properties":{"id":11665998,"osm_type":"relation","name":"","category":"park","tags":{"leisure":"park","type":"multipolygon"}},"geometry":{"type":"Point","coordinates":[12.0188342,57.6506971]}},{"type":"Feature","properties":{"id":12706356,"osm_type":"relation","name":"Åbykullen","category":"park","tags":{"leisure":"park","name":"Åbykullen","type":"multipolygon"}},"geometry":{"type":"Point","coordinates":[12.0086763,57.6514419]}},{"type":"Feature","properties":{"id":14616156,"osm_type":"relation","name":"","category":"park","tags":{"leisure":"park","type":"multipolygon"}},"geometry":{"type":"Point","coordinates":[12.0067906,57.6983285]}},{"type":"Feature","properties":{"id":14645196,"osm_type":"relation","name":"Maskinparken","category":"park","tags":{"leisure":"park","name":"Maskinparken","operator":"Göteborgs Stad","type":"multipolygon"}},"geometry":{"type":"Point","coordinates":[11.943824,57.7087092]}},{"type":"Feature","properties":{"id":14645328,"osm_type":"relation","name":"Fjärdingsparken","category":"park","tags":{"leisure":"park","name":"Fjärdingsparken","type":"multipolygon"}},"geometry":{"type":"Point","coordinates":[11.9410528,57.7239498]}},{"type":"Feature","properties":{"id":14645378,"osm_type":"relation","name":"Sörhallsberget","category":"park","tags":{"leisure":"park","name":"Sörhallsberget","type":"multipolygon"}},"geometry":{"type":"Point","coordinates":[11.9232075,57.7039659]}},{"type":"Feature","properties":{"id":14645379,"osm_type":"relation","name":"Sörhallsparken","category":"park","tags":{"leisure":"park","name":"Sörhallsparken","type":"multipolygon","wikidata":"Q34339083"}},"geometry":{"type":"Point","coordinates":[11.9229575,57.7050048]}},{"type":"Feature","properties":{"id":14645674,"osm_type":"relation","name":"","category":"park","tags":{"leisure":"park","type":"multipolygon"}},"geometry":{"type":"Point","coordinates":[11.9973756,57.6973313]}},{"type":"Feature","properties":{"id":14646275,"osm_type":"relation","name":"","category":"park","tags":{"leisure":"park","noname":"yes","type":"multipolygon"}},"geometry":{"type":"Point","coordinates":[11.8528775,57.6686486]}},{"type":"Feature","properties":{"id":14648966,"osm_type":"relation","name":"","category":"park","tags":{"leisure":"park","type":"multipolygon"}},"geometry":{"type":"Point","coordinates":[11.9569157,57.7023745]}},{"type":"Feature","properties":{"id":14665751,"osm_type":"relation","name":"","category":"park","tags":{"leisure":"park","type":"multipolygon"}},"geometry":{"type":"Point","coordinates":[11.9496082,57.7193041]}},{"type":"Feature","properties":{"id":14666902,"osm_type":"relation","name":"","category":"park","tags":{"leisure":"park","type":"multipolygon"}},"geometry":{"type":"Point","coordinates":[11.9332863,57.6974262]}},{"type":"Feature","properties":{"id":14694416,"osm_type":"relation","name":"","category":"park","tags":{"leisure":"park","type":"multipolygon"}},"geometry":{"type":"Point","coordinates":[11.9900817,57.7143799]}},{"type":"Feature","properties":{"id":14737235,"osm_type":"relation","name":"","category":"park","tags":{"leisure":"park","type":"multipolygon"}},"geometry":{"type":"Point","coordinates":[12.0081245,57.6232431]}},{"type":"Feature","properties":{"id":15023830,"osm_type":"relation","name":"Slottsskogen","category":"park","tags":{"leisure":"park","name":"Slottsskogen","name:de":"Schlosswald","name:sv":"Slottsskogen","official_name":"Slottsskogsparken","type":"multipolygon","website":"https://goteborg.se/slottsskogen","wikidata":"Q3288521","wikipedia":"sv:Slottsskogen"}},"geometry":{"type":"Point","coordinates":[11.9416831,57.6870673]}},{"type":"Feature","properties":{"id":15058039,"osm_type":"relation","name":"Fogelbergsparken","category":"park","tags":{"leisure":"park","name":"Fogelbergsparken","type":"multipolygon","wikidata":"Q36815519"}},"geometry":{"type":"Point","coordinates":[11.9646384,57.6962584]}},{"type":"Feature","properties":{"id":15258586,"osm_type":"relation","name":"","category":"park","tags":{"leisure":"park","type":"multipolygon"}},"geometry":{"type":"Point","coordinates":[11.9954959,57.728132]}},{"type":"Feature","properties":{"id":15258747,"osm_type":"relation","name":"Bellevueparken","category":"park","tags":{"leisure":"park","name":"Bellevueparken","type":"multipolygon"}},"geometry":{"type":"Point","coordinates":[12.0270775,57.7311241]}},{"type":"Feature","properties":{"id":15345511,"osm_type":"relation","name":"","category":"park","tags":{"leisure":"park","noname":"yes","operator":"Göteborgs Stad","type":"multipolygon"}},"geometry":{"type":"Point","coordinates":[11.8496885,57.6641591]}},{"type":"Feature","properties":{"id":16173150,"osm_type":"relation","name":"Carlandersparken","category":"park","tags":{"leisure":"park","name":"Carlandersparken","type":"multipolygon","wikidata":"Q34337191"}},"geometry":{"type":"Point","coordinates":[11.9882364,57.6925487]}},{"type":"Feature","properties":{"id":16203244,"osm_type":"relation","name":"Bäckparken","category":"park","tags":{"leisure":"park","name":"Bäckparken","surface":"grass","type":"multipolygon"}},"geometry":{"type":"Point","coordinates":[11.9736278,57.8696103]}},{"type":"Feature","properties":{"id":16203245,"osm_type":"relation","name":"Älvparken","category":"park","tags":{"leisure":"park","name":"Älvparken","type":"multipolygon"}},"geometry":{"type":"Point","coordinates":[11.9754598,57.86652]}},{"type":"Feature","properties":{"id":16356460,"osm_type":"relation","name":"Kvarndammsparken","category":"park","tags":{"leisure":"park","name":"Kvarndammsparken","type":"multipolygon"}},"geometry":{"type":"Point","coordinates":[12.0391664,57.7205073]}}]}