{"type":"FeatureCollection","features":[{"type":"Feature","properties":{"id":313791873,"osm_type":"node","name":"Apoteket Björnen","category":"pharmacy","tags":{"amenity":"pharmacy","brand":"Apoteket","brand:wikidata":"Q1785637","check_date":"2024-05-17","contact:phone":"+46771450450","healthcare":"pharmacy","name":"Apoteket Björnen","operator":"Apoteket AB","payment:cash":"yes","payment:credit_cards":"yes","payment:debit_cards":"yes"}},"geometry":{"type":"Point","coordinates":[12.0466672,57.7145769]}},{"type":"Feature","properties":{"id":313889758,"osm_type":"node","name":"Kronans Apotek","category":"pharmacy","tags":{"amenity":"pharmacy","branch":"Göteborg Majorna Linné","brand":"Kronans Apotek","brand:wikidata":"Q10549422","brand:wikipedia":"sv:Kronans Droghandel","contact:phone":"+46771450450","contact:website":"https://www.kronansapotek.se/","healthcare":"pharmacy","name":"Kronans Apotek","opening_hours":"Mo-Fr 09:30-18:00; Sa 10:00-14:00","operator":"Kronans Apotek AB"}},"geometry":{"type":"Point","coordinates":[11.9208328,57.6872316]}},{"type":"Feature","properties":{"id":495985842,"osm_type":"node","name":"Kronans Apotek","category":"pharmacy","tags":{"addr:city":"Göteborg","addr:country":"SE","addr:housenumber":"9","addr:postcode":"41745","addr:street":"Tuve Torg","amenity":"pharmacy","branch":"Tuve Torg","brand":"Kronans Apotek","brand:wikidata":"Q10549422","dispensing":"yes","drive_through":"no","healthcare":"pharmacy","name":"Kronans Apotek","operator":"Kronans Apotek"}},"geometry":{"type":"Point","coordinates":[11.9271593,57.75556]}},{"type":"Feature","properties":{"id":571187408,"osm_type":"node","name":"Kronans Apotek","category":"pharmacy","tags":{"amenity":"pharmacy","brand":"Kronans Apotek","brand:wikidata":"Q10549422","dispensing":"yes","drive_through":"no","healthcare":"pharmacy","name":"Kronans Apotek","opening_hours":"Mo-Fr 09:00-19:00","operator":"Kronan","payment:cash":"yes","payment:mastercard":"yes","payment:visa":"yes","wheelchair":"yes"}},"geometry":{"type":"Point","coordinates":[11.9528265,57.6402134]}},{"type":"Feature","properties":{"id":611553135,"osm_type":"node","name":"Kronans Apotek","category":"pharmacy","tags":{"amenity":"pharmacy","brand":"Kronans Apotek","brand:wikidata":"Q10549422","healthcare":"pharmacy","name":"Kronans Apotek","opening_hours":"Mo-Fr 09:00-18:00; Sa 10:00-14:00","operator":"Kronans Droghandel Apotek AB","owner":"Admenta Sweden AB","website":"https://www.kronansapotek.se/hitta-apotek/kronans-apotek-molndals-galleria-1893/"}},"geometry":{"type":"Point","coordinates":[12.0150285,57.6548692]}},{"type":"Feature","properties":{"id":656256321,"osm_type":"node","name":"Kronans Apotek","category":"pharmacy","tags":{"addr:city":"Göteborg","addr:country":"SE","addr:housenumber":"2","addr:postcode":"415 01","addr:street":"Treriksgatan","amenity":"pharmacy","branch":"Göteborg Gamlestan","brand":"Kronans Apotek","brand:wikidata":"Q10549422","brand:wikipedia":"sv:Kronans Droghandel","contact:phone":"+46771612612","contact:website":"https://www.kronansapotek.se/","dispensing":"yes","healthcare":"pharmacy","name":"Kronans Apotek","opening_hours":"Mo-Fr 09:00-18:30, Sa 09:00-14:00","operator":"Kronans Apotek AB"}},"geometry":{"type":"Point","coordinates":[12.0139261,57.7299783]}},{"type":"Feature","properties":{"id":664040903,"osm_type":"node","name":"Apotek Kronan","category":"pharmacy","tags":{"amenity":"pharmacy","name":"Apotek Kronan","opening_hours":"Mo-Fr 09:00-19:00; Sa 10:00-14:00"}},"geometry":{"type":"Point","coordinates":[12.0518395,57.7973362]}},{"type":"Feature","properties":{"id":709070806,"osm_type":"node","name":"Kronans Apotek","category":"pharmacy","tags":{"amenity":"pharmacy","brand":"Kronans Apotek","brand:wikidata":"Q10549422","healthcare":"pharmacy","name":"Kronans Apotek","opening_hours":"Mo-Fr 10:00-19:00; Sa 10:00-16:00; Su 11:00-16:00"}},"geometry":{"type":"Point","coordinates":[11.920599,57.709138]}},{"type":"Feature","properties":{"id":745599535,"osm_type":"node","name":"Apotek Hjärtat","category":"pharmacy","tags":{"amenity":"pharmacy","brand":"Apotek Hjärtat","brand:wikidata":"Q10416114","brand:wikipedia":"sv:Apotek Hjärtat","fixme":"vilken kedja tillhör detta apotek?","healthcare":"pharmacy","name":"Apotek Hjärtat","opening_hours":"Mo-Fr 08:30-20:00; Sa 10:00-16:00; Su 10:00-15:00","operator":"Apotek Hjärtat AB"}},"geometry":{"type":"Point","coordinates":[12.0495983,57.7954176]}},{"type":"Feature","properties":{"id":759324399,"osm_type":"node","name":"Almen","category":"pharmacy","tags":{"amenity":"pharmacy","healthcare":"pharmacy","name":"Almen"}},"geometry":{"type":"Point","coordinates":[12.0877571,57.577147]}},{"type":"Feature","properties":{"id":792686447,"osm_type":"node","name":"Apoteket Tallen","category":"pharmacy","tags":{"amenity":"pharmacy","brand":"Apoteket","contact:phone":"+46771450450","dispensing":"yes","healthcare":"pharmacy","name":"Apoteket Tallen","opening_hours":"Mo-Fr 09:00-18:00","operator":"Apoteket AB (publ)"}},"geometry":{"type":"Point","coordinates":[12.0701331,57.7200991]}},{"type":"Feature","properties":{"id":794682896,"osm_type":"node","name":"Apoteksgruppen","category":"pharmacy","tags":{"amenity":"pharmacy","branch":"Göteborg Västra Frölunda","brand":"Apoteksgruppen","brand:wikidata":"Q10416129","brand:wikipedia":"sv:Apoteksgruppen","contact:website":"https://www.apoteksgruppen.se/apotek/vastra-frolunda/apoteksgruppen-vastra-frolunda-langedragsvagen/","healthcare":"pharmacy","name":"Apoteksgruppen"}},"geometry":{"type":"Point","coordinates":[11.8717051,57.6701475]}},{"type":"Feature","properties":{"id":799454672,"osm_type":"node","name":"Apoteket Ekorren","category":"pharmacy","tags":{"amenity":"pharmacy","branch":"Göteborg Kortedala","brand":"Apoteket","brand:wikidata":"Q1785637","contact:phone":"+46771450450","healthcare":"pharmacy","name":"Apoteket Ekorren","operator":"Apoteket AB"}},"geometry":{"type":"Point","coordinates":[12.0315753,57.7515758]}},{"type":"Feature","properties":{"id":1052406177,"osm_type":"node","name":"Kronans Apotek","category":"pharmacy","tags":{"amenity":"pharmacy","brand":"Kronans Apotek","brand:wikidata":"Q10549422","brand:wikipedia":"sv:Kronans Droghandel","dispensing":"yes","drive_through":"no","healthcare":"pharmacy","name":"Kronans Apotek","opening_hours":"Mo-Fr 10:00-18:00; Sa,Su off","operator":"Kronans Apotek AB","payment:mastercard":"yes","payment:visa":"yes","website":"https://www.kronansapotek.se/","wheelchair":"yes"}},"geometry":{"type":"Point","coordinates":[11.9718791,57.6836924]}},{"type":"Feature","properties":{"id":1170673484,"osm_type":"node","name":"Kronans Apotek","category":"pharmacy","tags":{"addr:city":"Göteborg","addr:country":"SE","addr:street":"Wieselgrensplatsen","amenity":"pharmacy","brand":"Kronans Apotek","brand:wikidata":"Q10549422","dispensing":"yes","drive_through":"no","healthcare":"pharmacy","name":"Kronans Apotek","opening_hours":"Mo-Fr 08:30-18:30; Sa 10:00-14:00"}},"geometry":{"type":"Point","coordinates":[11.9370332,57.7216501]}},{"type":"Feature","properties":{"id":1211871493,"osm_type":"node","name":"Apoteket","category":"pharmacy","tags":{"access":"yes","addr:city":"Göteborg","addr:country":"SE","addr:housenumber":"16","addr:postcode":"413 04","addr:street":"Linnégatan","amenity":"pharmacy","branch":"Göteborg Majorna Linné","brand":"Apoteket","brand:wikidata":"Q1785637","contact:phone":"+46771450450","contact:website":"https://www.apoteket.se/apotek/apoteket-svanen-goteborg/","dispensing":"yes","drive_through":"no","entrance":"yes","healthcare":"pharmacy","name":"Apoteket","opening_hours":"Mo-Fr 08:00-19:00; Sa 10:00-16:00; Su 11:00-16:00","operator":"Apoteket AB","payment:cash":"yes","payment:credit_cards":"yes","payment:debit_cards":"yes","wheelchair":"yes"}},"geometry":{"type":"Point","coordinates":[11.9516259,57.6979446]}},{"type":"Feature","properties":{"id":1232295053,"osm_type":"node","name":"Apoteket","category":"pharmacy","tags":{"addr:city":"Göteborg","addr:country":"SE","addr:housenumber":"34 C","addr:postcode":"41137","addr:street":"Engelbrektsgatan","amenity":"pharmacy","branch":"Biet","brand":"Apoteket","brand:wikidata":"Q1785637","contact:phone":"+46771450450","healthcare":"pharmacy","name":"Apoteket","opening_hours":"Mo-Fr 08:30-19:00; Sa 10:00-15:00","operator":"Apoteket AB"}},"geometry":{"type":"Point","coordinates":[11.979085,57.6996249]}},{"type":"Feature","properties":{"id":1498397727,"osm_type":"node","name":"DOZ Apotek","category":"pharmacy","tags":{"addr:city":"Göteborg","addr:country":"SE","addr:housenumber":"10","addr:postcode":"411 01","addr:street":"Friggagatan","amenity":"pharmacy","branch":"Göteborg","brand":"DOZ Apotek","brand:wikidata":"Q10475311","contact:phone":"+46 31 364 11 90","contact:website":"https://www.lloydsapotek.se/","healthcare":"pharmacy","name":"DOZ Apotek","opening_hours":"Mo-Fr 09:30-19:00; Sa 10:00-16:00; Su 11:00-16:00","operator":"LloydsApotek AB","wheelchair":"yes"}},"geometry":{"type":"Point","coordinates":[11.9867136,57.7108024]}},{"type":"Feature","properties":{"id":1501519973,"osm_type":"node","name":"Apoteket Höstvädersgatan","category":"pharmacy","tags":{"amenity":"pharmacy","branch":"Göteborg Biskopsgården","brand":"Apoteket","brand:wikidata":"Q1785637","contact:phone":"+46771450450","dispensing":"no","healthcare":"pharmacy","name":"Apoteket Höstvädersgatan","opening_hours":"Mo-Fr 08:00-18:00; Sa 10:00-14:00","operator":"Apoteket AB"}},"geometry":{"type":"Point","coordinates":[11.8938721,57.7136717]}},{"type":"Feature","properties":{"id":1594538097,"osm_type":"node","name":"Apoteket Korpen","category":"pharmacy","tags":{"addr:city":"Göteborg","addr:country":"SE","addr:housenumber":"4","addr:postcode":"416 65","addr:street":"Redbergsvägen","amenity":"pharmacy","branch":"Göteborg","brand":"Apoteket","brand:wikidata":"Q1785637","check_date":"2024-06-20","contact:phone":"+46771450450","healthcare":"pharmacy","name":"Apoteket Korpen","opening_hours":"Mo-Fr 08:00-19:00; Sa 10:00-15:00","operator":"Apoteket AB"}},"geometry":{"type":"Point","coordinates":[11.9971641,57.7145322]}},{"type":"Feature","properties":{"id":1594772834,"osm_type":"node","name":"Kronans Apotek","category":"pharmacy","tags":{"addr:city":"Göteborg","addr:country":"SE","addr:housenumber":"45","addr:street":"Östra Hamngatan","amenity":"pharmacy","branch":"Göteborg","brand":"Kronans Apotek","brand:wikidata":"Q10549422","brand:wikipedia":"sv:Kronans Droghandel","contact:phone":"+46771612612","contact:website":"https://www.kronansapotek.se/","dispensing":"yes","drive_through":"no","healthcare":"pharmacy","name":"Kronans Apotek","opening_hours":"Mo-Fr 09:00-19:00, Sa 10:00-17:00, Su 12:00-16:00","operator":"Kronans Apotek AB","payment:credit_cards":"yes","payment:debit_cards":"yes","payment:mastercard":"yes","payment:visa":"yes","wheelchair":"yes"}},"geometry":{"type":"Point","coordinates":[11.968815,57.704334]}},{"type":"Feature","properties":{"id":1639994288,"osm_type":"node","name":"Apoteksgruppen","category":"pharmacy","tags":{"addr:city":"Göteborg","addr:country":"SE","addr:housenumber":"7","addr:postcode":"41673","addr:street":"Munkebäckstorget","amenity":"pharmacy","branch":"Göteborg","brand":"Apoteksgruppen","brand:wikidata":"Q10416129","brand:wikipedia":"sv:Apoteksgruppen","contact:phone":"+46 31 19 24 70","healthcare":"pharmacy","name":"Apoteksgruppen","operator":"Apoteksgruppen Detaljist AB","payment:cash":"yes","payment:credit_cards":"yes","payment:debit_cards":"yes"}},"geometry":{"type":"Point","coordinates":[12.0263073,57.719188]}},{"type":"Feature","properties":{"id":1648799655,"osm_type":"node","name":"Apotek Hjärtat","category":"pharmacy","tags":{"amenity":"pharmacy","brand":"Apotek Hjärtat","brand:wikidata":"Q10416114","healthcare":"pharmacy","name":"Apotek Hjärtat","operator":"Apotek Hjärtat","source":"survey"}},"geometry":{"type":"Point","coordinates":[11.9280611,57.6709111]}},{"type":"Feature","properties":{"id":1763043091,"osm_type":"node","name":"Apotek Hjärtat","category":"pharmacy","tags":{"amenity":"pharmacy","brand":"Apotek Hjärtat","brand:wikidata":"Q10416114","dispensing":"yes","healthcare":"pharmacy","name":"Apotek Hjärtat","opening_hours":"Mo-Fr 07:00-20:00; Sa-Su 09:00-18:00"}},"geometry":{"type":"Point","coordinates":[11.9298768,57.709966]}},{"type":"Feature","properties":{"id":1878033682,"osm_type":"node","name":"Apoteket","category":"pharmacy","tags":{"addr:city":"Göteborg","addr:country":"SE","addr:housenumber":"54","addr:street":"Uddeholmsgatan","amenity":"pharmacy","branch":"Göteborg","brand":"Apoteket","brand:wikidata":"Q1785637","contact:phone":"+46771450450","contact:website":"https://apoteksinfo.nu/apotek/apoteket_%C3%B6stra_sjukhuset_g%C3%B6teborg-576","dispensing":"yes","drive_through":"no","healthcare":"pharmacy","level":"0","name":"Apoteket","opening_hours":"Mo-Su 08:00-22:00","operator":"Apoteket AB","payment:mastercard":"yes","payment:visa":"yes","wheelchair":"yes"}},"geometry":{"type":"Point","coordinates":[12.0484915,57.7220401]}},{"type":"Feature","properties":{"id":2039206468,"osm_type":"node","name":"Apotek Hjärtat","category":"pharmacy","tags":{"amenity":"pharmacy","branch":"Göteborg","brand":"Apotek Hjärtat","brand:wikidata":"Q10416114","brand:wikipedia":"sv:Apotek Hjärtat","check_date":"2025-05-14","contact:phone":"+46771405405","contact:website":"https://www.apotekhjartat.se/","dispensing":"yes","drive_through":"no","healthcare":"pharmacy","level":"0","name":"Apotek Hjärtat","opening_hours":"Mo-Fr 09:30-19:00; Sa 10:00-17:00; Su 12:00-16:00","operator":"Apotek Hjärtat AB","payment:credit_cards":"yes","payment:debit_cards":"yes","wheelchair":"yes"}},"geometry":{"type":"Point","coordinates":[11.9653953,57.7041893]}},{"type":"Feature","properties":{"id":2144107240,"osm_type":"node","name":"Apoteket Kungsgatan","category":"pharmacy","tags":{"amenity":"pharmacy","branch":"Göteborg","brand":"Apoteket","brand:wikidata":"Q1785637","contact:phone":"+46771450450","healthcare":"pharmacy","name":"Apoteket Kungsgatan","opening_hours":"Mo-Fr 08:00-18:00; Sa 11:00-16:00; Su 11:00-16:00","operator":"Apoteket AB"}},"geometry":{"type":"Point","coordinates":[11.9619503,57.703794]}},{"type":"Feature","properties":{"id":2165234246,"osm_type":"node","name":"Kronans Apotek","category":"pharmacy","tags":{"amenity":"pharmacy","healthcare":"pharmacy","name":"Kronans Apotek"}},"geometry":{"type":"Point","coordinates":[11.9542235,57.7237494]}},{"type":"Feature","properties":{"id":2466676051,"osm_type":"node","name":"Apoteket","category":"pharmacy","tags":{"addr:city":"Göteborg","addr:country":"SE","addr:housenumber":"1-8","addr:street":"Nils Ericsonsplatsen","amenity":"pharmacy","branch":"Göteborg","brand":"Apoteket","brand:wikidata":"Q1785637","check_date":"2026-04-02","contact:phone":"+46771450450","contact:website":"http://www.apoteket.se","drive_through":"no","healthcare":"pharmacy","level":"0","name":"Apoteket","opening_hours":"Mo-Fr 06:00-22:00; Sa,Su 10:00-20:00","operator":"Apoteket AB","wheelchair":"yes"}},"geometry":{"type":"Point","coordinates":[11.972446,57.709049]}},{"type":"Feature","properties":{"id":2466676086,"osm_type":"node","name":"Apoteket","category":"pharmacy","tags":{"amenity":"pharmacy","branch":"Göteborg","brand":"Apoteket","brand:wikidata":"Q1785637","check_date":"2026-04-02","check_date:opening_hours":"2024-08-19","contact:phone":"+46771450450","drive_through":"no","healthcare":"pharmacy","level":"0","name":"Apoteket","opening_hours":"Mo-Fr 06:00-22:00; Sa 08:00-20:00; Su 08:00-20:00","operator":"Apoteket AB (publ)"}},"geometry":{"type":"Point","coordinates":[11.973003,57.709431]}},{"type":"Feature","properties":{"id":2638582161,"osm_type":"node","name":"Apotek Hjärtat","category":"pharmacy","tags":{"amenity":"pharmacy","brand":"Apotek Hjärtat","brand:wikidata":"Q10416114","brand:wikipedia":"sv:Apotek Hjärtat","contact:phone":"+46771405405","healthcare":"pharmacy","name":"Apotek Hjärtat","opening_hours":"Mo-Fr 09:30-19:00; Sa 10:00-18:00; Su 11:00-16:00","operator":"Apotek Hjärtat AB"}},"geometry":{"type":"Point","coordinates":[11.9770865,57.6992849]}},{"type":"Feature","properties":{"id":2931042801,"osm_type":"node","name":"Apoteket","category":"pharmacy","tags":{"addr:city":"Göteborg","addr:country":"SE","addr:housenumber":"1","addr:street":"Korsvägen","amenity":"pharmacy","branch":"Göteborg","brand":"Apoteket","brand:wikidata":"Q1785637","check_date":"2025-11-16","contact:phone":"+46771450450","contact:website":"https://www.apoteket.se/apotek/apoteket-korsvagen-goteborg/","drive_through":"no","healthcare":"pharmacy","name":"Apoteket","opening_hours":"Mo-Fr 10:00-19:00; Sa-Su 11:00-16:00","operator":"Apoteket AB","payment:mastercard":"yes","payment:visa":"yes","wheelchair":"yes"}},"geometry":{"type":"Point","coordinates":[11.986098,57.697027]}},{"type":"Feature","properties":{"id":2931103801,"osm_type":"node","name":"Apoteket","category":"pharmacy","tags":{"amenity":"pharmacy","brand":"Apoteket","brand:wikidata":"Q1785637","check_date":"2023-05-15","contact:phone":"+46771450450","healthcare":"pharmacy","name":"Apoteket","opening_hours":"Mo-Fr 09:00-19:00; Sa 10:00-17:00; Su 11:00-17:00","operator":"Apoteket AB","payment:mastercard":"yes","payment:visa":"yes","wheelchair":"yes"}},"geometry":{"type":"Point","coordinates":[11.951942,57.722073]}},{"type":"Feature","properties":{"id":3167183174,"osm_type":"node","name":"Kronans Apotek","category":"pharmacy","tags":{"amenity":"pharmacy","brand":"Kronans Apotek","brand:wikidata":"Q10549422","brand:wikipedia":"sv:Kronans Droghandel","contact:phone":"+46771612612","contact:website":"https://www.kronansapotek.se/","dispensing":"yes","healthcare":"pharmacy","name":"Kronans Apotek","opening_hours":"Mo-Fr 08:30-18:00","operator":"Kronans Apotek AB"}},"geometry":{"type":"Point","coordinates":[11.9486126,57.7209872]}},{"type":"Feature","properties":{"id":3709157525,"osm_type":"node","name":"Apotek Hjärtat Kyrkbytorget","category":"pharmacy","tags":{"amenity":"pharmacy","dispensing":"yes","healthcare":"pharmacy","name":"Apotek Hjärtat Kyrkbytorget","opening_hours":"Mo-Fr 09:00-18:30; Sa 10:00-14:00","wheelchair":"yes"}},"geometry":{"type":"Point","coordinates":[11.908007,57.711661]}},{"type":"Feature","properties":{"id":4325561191,"osm_type":"node","name":"Apoteksgruppen","category":"pharmacy","tags":{"amenity":"pharmacy","brand":"Apoteksgruppen","brand:wikidata":"Q10416129","brand:wikipedia":"sv:Apoteksgruppen","healthcare":"pharmacy","name":"Apoteksgruppen","wheelchair":"yes"}},"geometry":{"type":"Point","coordinates":[11.9157709,57.7011829]}},{"type":"Feature","properties":{"id":4344676065,"osm_type":"node","name":"Apotek Hjärtat","category":"pharmacy","tags":{"amenity":"pharmacy","brand":"Apotek Hjärtat","brand:wikidata":"Q10416114","brand:wikipedia":"sv:Apotek Hjärtat","check_date":"2024-12-01","contact:phone":"+46771405405","contact:website":"http://www.apotekhjartat.se","drive_through":"no","healthcare":"pharmacy","name":"Apotek Hjärtat","opening_hours":"Mo-Fr 10:00-19:00; Sa 11:00-15:00; Su 11:00-15:00","operator":"Apotek Hjärtat AB","payment:cash":"yes","payment:credit_cards":"yes","payment:debit_cards":"yes","wheelchair":"yes"}},"geometry":{"type":"Point","coordinates":[11.9934116,57.6983259]}},{"type":"Feature","properties":{"id":4520817391,"osm_type":"node","name":"Apotek Hjärtat","category":"pharmacy","tags":{"amenity":"pharmacy","brand":"Apotek Hjärtat","brand:wikidata":"Q10416114","brand:wikipedia":"sv:Apotek Hjärtat","contact:phone":"+46771405405","healthcare":"pharmacy","level":"0","name":"Apotek Hjärtat","operator":"Apotek Hjärtat AB"}},"geometry":{"type":"Point","coordinates":[11.911279,57.6507277]}},{"type":"Feature","properties":{"id":5056792698,"osm_type":"node","name":"","category":"pharmacy","tags":{"amenity":"pharmacy","healthcare":"pharmacy"}},"geometry":{"type":"Point","coordinates":[11.9180002,57.861194]}},{"type":"Feature","properties":{"id":5382449350,"osm_type":"node","name":"DOZ Apotek","category":"pharmacy","tags":{"amenity":"pharmacy","brand":"DOZ Apotek","brand:wikidata":"Q10475311","dispensing":"yes","healthcare":"pharmacy","level":"0","name":"DOZ Apotek","operator":"DOZ Apotek AB"}},"geometry":{"type":"Point","coordinates":[12.1130857,57.6582631]}},{"type":"Feature","properties":{"id":5893750100,"osm_type":"node","name":"Apotek Hjärtat","category":"pharmacy","tags":{"addr:city":"Mölndal","addr:country":"SE","addr:housenumber":"9","addr:postcode":"431 30","addr:street":"Brogatan","amenity":"pharmacy","brand":"Apotek Hjärtat","brand:wikidata":"Q10416114","brand:wikipedia":"sv:Apotek Hjärtat","contact:phone":"+46771405405","dispensing":"yes","drive_through":"no","healthcare":"pharmacy","name":"Apotek Hjärtat","opening_hours":"Mo-Fr 09:00-18:00; Sa 10:00-15:00","operator":"Apotek Hjärtat Retail AB","owner":"ICA Gruppen AB","website":"https://www.apotekhjartat.se/hitta-apotek-hjartat/apotek-hjartat-molndal-centrum"}},"geometry":{"type":"Point","coordinates":[12.0158625,57.6555466]}},{"type":"Feature","properties":{"id":6302316126,"osm_type":"node","name":"Kronans Apotek","category":"pharmacy","tags":{"amenity":"pharmacy","brand":"Kronans Apotek","brand:wikidata":"Q10549422","dispensing":"yes","healthcare":"pharmacy","name":"Kronans Apotek","opening_hours":"Mo-Fr 09:00-18:00"}},"geometry":{"type":"Point","coordinates":[12.0719218,57.7564403]}},{"type":"Feature","properties":{"id":7095906385,"osm_type":"node","name":"Kronans Apotek","category":"pharmacy","tags":{"amenity":"pharmacy","brand":"Kronans","brand:wikidata":"Q10416129","brand:wikipedia":"sv:Kronans Apotek","check_date":"2025-09-04","dispensing":"yes","drive_through":"no","fixme":"brand:wiki-datataggen inte korrekt efter byte av namn och kedja","healthcare":"pharmacy","name":"Kronans Apotek","opening_hours":"Mo-Fr 08:00-19:00; Sa 10:00-15:00; Su 11:00-15:00","payment:cash":"yes","payment:credit_cards":"yes","payment:debit_cards":"yes","phone":"+46771 612612","wheelchair":"yes"}},"geometry":{"type":"Point","coordinates":[11.9717537,57.6929461]}},{"type":"Feature","properties":{"id":8454202426,"osm_type":"node","name":"Apoteksgruppen","category":"pharmacy","tags":{"addr:city":"Göteborg","addr:country":"SE","addr:housenumber":"72","addr:postcode":"414 55","addr:street":"Karl Johansgatan","amenity":"pharmacy","brand":"Apoteksgruppen","brand:wikidata":"Q10416129","brand:wikipedia":"sv:Apoteksgruppen","dispensing":"yes","healthcare":"pharmacy","name":"Apoteksgruppen","operator":"Apoteksgruppen"}},"geometry":{"type":"Point","coordinates":[11.9208026,57.6948583]}},{"type":"Feature","properties":{"id":8906854617,"osm_type":"node","name":"Lloyds Apotek Bohus","category":"pharmacy","tags":{"addr:city":"Bohus","addr:country":"SE","addr:housenumber":"219","addr:postcode":"44537","addr:street":"Göteborgsvägen","amenity":"pharmacy","dispensing":"yes","healthcare":"pharmacy","name":"Lloyds Apotek Bohus","operator":"Lloyds Apotek","phone":"+46 303-40 45 00"}},"geometry":{"type":"Point","coordinates":[12.0168596,57.8513805]}},{"type":"Feature","properties":{"id":9911497052,"osm_type":"node","name":"Kronans Apotek","category":"pharmacy","tags":{"addr:country":"SE","addr:housenumber":"50","addr:street":"Gamla Kronvägen","amenity":"pharmacy","branch":"Partille Kyrktorget","brand":"Kronans Apotek","brand:wikidata":"Q10549422","brand:wikipedia":"sv:Kronans Droghandel","healthcare":"pharmacy","name":"Kronans Apotek","operator":"Kronans Apotek","website":"https://www.kronansapotek.se/hitta-apotek/kronans-apotek-partille-kyrkotorget-2108/"}},"geometry":{"type":"Point","coordinates":[12.107719,57.7400739]}},{"type":"Feature","properties":{"id":9915384238,"osm_type":"node","name":"Apotek Hjärtat","category":"pharmacy","tags":{"access":"yes","addr:city":"Göteborg","addr:country":"SE","addr:housenumber":"62","addr:postcode":"41308","addr:street":"Linnégatan","amenity":"pharmacy","brand":"Apotek Hjärtat","brand:wikidata":"Q10416114","brand:wikipedia":"sv:Apotek Hjärtat","contact:facebook":"https://www.facebook.com/apotekhjartat","contact:instagram":"https://www.instagram.com/apotekhjartat","contact:phone":"+46771405405","contact:website":"http://www.apotekhjartat.se/","dispensing":"yes","drive_through":"no","entrance":"yes","healthcare":"pharmacy","level":"0","name":"Apotek Hjärtat","opening_hours":"Mo-Fr 08:30-19:00; Sa 10:00-15:00; Su 11:00-15:00","operator":"Apotek Hjärtat AB","payment:mastercard":"yes","payment:visa":"yes","wheelchair":"limited"}},"geometry":{"type":"Point","coordinates":[11.9530033,57.6927438]}},{"type":"Feature","properties":{"id":10282980097,"osm_type":"node","name":"Apoteksgruppen","category":"pharmacy","tags":{"amenity":"pharmacy","name":"Apoteksgruppen","operator":"Apoteksgruppen"}},"geometry":{"type":"Point","coordinates":[11.9322485,57.6570069]}},{"type":"Feature","properties":{"id":10647347725,"osm_type":"node","name":"Doz","category":"pharmacy","tags":{"amenity":"pharmacy","healthcare":"pharmacy","name":"Doz","opening_hours":"Mo-Fr 08:30-19:00; Sa 10:00-16:00; Su 10:30-16:00","toilets:wheelchair":"no","wheelchair":"yes"}},"geometry":{"type":"Point","coordinates":[11.9432075,57.698513]}},{"type":"Feature","properties":{"id":10820206183,"osm_type":"node","name":"Kronans Apotek","category":"pharmacy","tags":{"addr:city":"Partille","addr:country":"SE","addr:housenumber":"31-37","addr:street":"Gamla Kronvägen","amenity":"pharmacy","brand":"Kronans Apotek","brand:wikidata":"Q10549422","dispensing":"yes","healthcare":"pharmacy","name":"Kronans Apotek","opening_hours":"Mo-Fr 10:00-19:00; Sa 10:00-17:00; Su 11:00-17:00","website":"https://www.kronansapotek.se/hitta-apotek/kronans-apotek-partille-port-1917"}},"geometry":{"type":"Point","coordinates":[12.1211957,57.7403836]}},{"type":"Feature","properties":{"id":10820368231,"osm_type":"node","name":"Apoteksgruppen","category":"pharmacy","tags":{"amenity":"pharmacy","brand":"Apoteksgruppen","brand:wikidata":"Q10416129","healthcare":"pharmacy","name":"Apoteksgruppen","opening_hours":"Mo-Fr 08:00-20:00; Sa 09:00-20:00; Su 10:00-20:00","survey:date":"2024-12-01"}},"geometry":{"type":"Point","coordinates":[12.0007762,57.6824056]}},{"type":"Feature","properties":{"id":10820368236,"osm_type":"node","name":"","category":"pharmacy","tags":{"amenity":"pharmacy","healthcare":"pharmacy"}},"geometry":{"type":"Point","coordinates":[12.0045664,57.6801737]}},{"type":"Feature","properties":{"id":10827085696,"osm_type":"node","name":"Apoteket Express Gamlestaden","category":"pharmacy","tags":{"addr:country":"SE","addr:housenumber":"7","addr:place":"Gamlestads Torg","amenity":"pharmacy","brand":"Apoteket","brand:wikidata":"Q1785637","dispensing":"yes","drive_through":"no","healthcare":"pharmacy","name":"Apoteket Express Gamlestaden","opening_hours":"Mo-Fr 07:00-19:00","operator":"Apoteket"}},"geometry":{"type":"Point","coordinates":[12.0048515,57.7279513]}},{"type":"Feature","properties":{"id":10827117140,"osm_type":"node","name":"Apotek Hjärtat","category":"pharmacy","tags":{"addr:city":"Västra Frölunda","addr:country":"SE","addr:housenumber":"1","addr:postcode":"42132","addr:street":"Lona Knapes Gata","amenity":"pharmacy","brand":"Apotek Hjärtat","brand:wikidata":"Q10416114","healthcare":"pharmacy","name":"Apotek Hjärtat","operator":"ICA Maxi Högsbo"}},"geometry":{"type":"Point","coordinates":[11.948726,57.6510847]}},{"type":"Feature","properties":{"id":10827128207,"osm_type":"node","name":"Apoteksgruppen","category":"pharmacy","tags":{"addr:city":"Västra Frölunda","addr:country":"SE","addr:housenumber":"9","addr:postcode":"42164","addr:street":"Opaltorget","amenity":"pharmacy","branch":"Västra Frölunda Opaltorget","brand":"Apoteksgruppen","brand:wikidata":"Q10416129","healthcare":"pharmacy","name":"Apoteksgruppen","opening_hours":"Mo-Fr 08:30-18:00","operator":"Apoteksgruppen"}},"geometry":{"type":"Point","coordinates":[11.9003055,57.641243]}},{"type":"Feature","properties":{"id":10827136436,"osm_type":"node","name":"Kronans Apotek","category":"pharmacy","tags":{"addr:city":"Göteborg","addr:country":"SE","addr:housenumber":"5","addr:postcode":"41346","addr:street":"Blå stråket","amenity":"pharmacy","branch":"Sahlgrenska","brand":"Kronans Apotek","brand:wikidata":"Q10549422","check_date":"2024-06-02","healthcare":"pharmacy","name":"Kronans Apotek","opening_hours":"Mo-Fr 08:00-18:00","operator":"Kronan","payment:cash":"yes","payment:credit_cards":"yes","payment:debit_cards":"yes","wheelchair":"yes"}},"geometry":{"type":"Point","coordinates":[11.9616729,57.6825747]}},{"type":"Feature","properties":{"id":10827149135,"osm_type":"node","name":"Kronans Apotek","category":"pharmacy","tags":{"addr:city":"Askim","addr:country":"SE","addr:housenumber":"2","addr:postcode":"43633","addr:street":"Hantverksvägen","amenity":"pharmacy","branch":"Askim","brand":"Kronans Apotek","brand:wikidata":"Q10549422","healthcare":"pharmacy","name":"Kronans Apotek","opening_hours":"Mo-Fr 09:00-19:00","operator":"Kronan"}},"geometry":{"type":"Point","coordinates":[11.9493516,57.6427512]}},{"type":"Feature","properties":{"id":10827168919,"osm_type":"node","name":"Apoteket","category":"pharmacy","tags":{"addr:city":"Västra Frölunda","addr:postcode":"42142","addr:street":"Frölunda Torg","amenity":"pharmacy","branch":"Förlunda Torg","brand":"Apoteket","brand:wikidata":"Q1785637","healthcare":"pharmacy","name":"Apoteket","opening_hours":"Mo-Sa 09:00-20:00","operator":"Apoteket"}},"geometry":{"type":"Point","coordinates":[11.911568,57.6519906]}},{"type":"Feature","properties":{"id":11245263532,"osm_type":"node","name":"Apotek Hjärtat","category":"pharmacy","tags":{"amenity":"pharmacy","brand":"Apotek Hjärtat","brand:wikidata":"Q10416114","healthcare":"pharmacy","name":"Apotek Hjärtat"}},"geometry":{"type":"Point","coordinates":[12.0006764,57.7701195]}},{"type":"Feature","properties":{"id":11245263534,"osm_type":"node","name":"Kronans Apotek","category":"pharmacy","tags":{"amenity":"pharmacy","brand":"Kronans Apotek","brand:wikidata":"Q10549422","healthcare":"pharmacy","name":"Kronans Apotek"}},"geometry":{"type":"Point","coordinates":[12.00023,57.769387]}},{"type":"Feature","properties":{"id":11365677219,"osm_type":"node","name":"Kronans Apotek","category":"pharmacy","tags":{"addr:city":"Hisings Backa","addr:housenumber":"11","addr:postcode":"42248","addr:street":"Selma Lagerlöfs Torg","amenity":"pharmacy","brand":"Kronans Apotek","brand:wikidata":"Q10549422","healthcare":"pharmacy","name":"Kronans Apotek","opening_hours":"Mo-Fr 09:00-18:00; Sa 09:30-13:30"}},"geometry":{"type":"Point","coordinates":[11.9827464,57.7494404]}},{"type":"Feature","properties":{"id":13128376446,"osm_type":"node","name":"Kronans Apotek","category":"pharmacy","tags":{"amenity":"pharmacy","brand":"Kronans Apotek","brand:wikidata":"Q10549422","healthcare":"pharmacy","name":"Kronans Apotek","opening_hours":"Mo-Fr 08:30-18:00; Sa 10:00-14:00; Su off"}},"geometry":{"type":"Point","coordinates":[11.9846065,57.685931]}},{"type":"Feature","properties":{"id":13136453255,"osm_type":"node","name":"Apoteket","category":"pharmacy","tags":{"addr:city":"Lindome","addr:housenumber":"7","addr:postcode":"437 30","addr:street":"Almåsgången","amenity":"pharmacy","brand":"Apoteket","brand:wikidata":"Q1785637","dispensing":"yes","drive_through":"no","healthcare":"pharmacy","name":"Apoteket","opening_hours":"Mo-Fr 08:00-18:00; Sa 10:00-14:00","operator":"Apoteket AB (556138-6532)","website":"https://www.apoteket.se/apotek/apoteket-lindome-lindome/?utm_source=google&utm_medium=organic&utm_campaign=store_listing"}},"geometry":{"type":"Point","coordinates":[12.0876754,57.5770117]}},{"type":"Feature","properties":{"id":13308656033,"osm_type":"node","name":"Apoteket","category":"pharmacy","tags":{"amenity":"pharmacy","brand":"Apoteket","brand:wikidata":"Q1785637","dispensing":"yes","healthcare":"pharmacy","level":"0","name":"Apoteket"}},"geometry":{"type":"Point","coordinates":[12.0124982,57.6611481]}},{"type":"Feature","properties":{"id":13543823836,"osm_type":"node","name":"Kronans Apotek","category":"pharmacy","tags":{"addr:city":"Mölnlycke","addr:housenumber":"4A","addr:postcode":"435 30","addr:street":"Biblioteksgatan","amenity":"pharmacy","brand":"Kronans Apotek","brand:wikidata":"Q10549422","dispensing":"yes","healthcare":"pharmacy","name":"Kronans Apotek","opening_hours":"Mo-Fr 08:30-18:30; Sa 10:00-15:00","website":"https://www.kronansapotek.se/hitta-apotek/kronans-apotek-molnlycke-centrum-2168/"}},"geometry":{"type":"Point","coordinates":[12.1173812,57.6581807]}},{"type":"Feature","properties":{"id":13565614301,"osm_type":"node","name":"","category":"pharmacy","tags":{"amenity":"pharmacy","healthcare":"pharmacy"}},"geometry":{"type":"Point","coordinates":[12.0006816,57.6864518]}},{"type":"Feature","properties":{"id":184770670,"osm_type":"way","name":"Apotek Hjärtat","category":"pharmacy","tags":{"amenity":"pharmacy","branch":"Göteborg","brand":"Apotek Hjärtat","brand:wikidata":"Q10416114","brand:wikipedia":"sv:Apotek Hjärtat","check_date":"2026-04-02","check_date:opening_hours":"2024-01-03","contact:phone":"+46771405405","dispensing":"yes","drive_through":"no","healthcare":"pharmacy","level":"0","name":"Apotek Hjärtat","opening_hours":"Mo-Fr 07:00-22:00; Sa-Su 08:00-22:00","operator":"Apotek Hjärtat AB","payment:cash":"yes","payment:credit_cards":"yes","payment:debit_cards":"yes"}},"geometry":{"type":"Point","coordinates":[11.9697102,57.7079785]}},{"type":"Feature","properties":{"id":1352425916,"osm_type":"way","name":"Apoteket Express","category":"pharmacy","tags":{"amenity":"pharmacy","brand":"Apoteket","brand:wikidata":"Q1785637","healthcare":"pharmacy","level":"0","name":"Apoteket Express","opening_hours":"Mo-Fr 10:00-20:00; Sa-Su 11:00-16:00","operator":"Apoteket AB"}},"geometry":{"type":"Point","coordinates":[11.9678122,57.7079308]}}]}