{"type":"FeatureCollection","features":[{"type":"Feature","properties":{"id":611549769,"osm_type":"node","name":"Bifrost Moské","category":"place_of_worship","tags":{"amenity":"place_of_worship","name":"Bifrost Moské","religion":"muslim"}},"geometry":{"type":"Point","coordinates":[11.9918922,57.6587585]}},{"type":"Feature","properties":{"id":829488228,"osm_type":"node","name":"Betlehemskyrkan","category":"place_of_worship","tags":{"addr:city":"Göteborg","addr:postcode":"411 26","addr:street":"Vasagatan","air_conditioning":"yes","amenity":"place_of_worship","check_date":"2026-04-02","denomination":"Uniting_Church_in_Sweden","email":"info@betlehemskyrkan.se","name":"Betlehemskyrkan","phone":"+46 31 339 30 60","polling_station":"no","religion":"christian","website":"https://www.betlehemskyrkan.se/","wikidata":"Q10429011"}},"geometry":{"type":"Point","coordinates":[11.9676667,57.6985597]}},{"type":"Feature","properties":{"id":1314062143,"osm_type":"node","name":"Friluftskyrkan","category":"place_of_worship","tags":{"air_conditioning":"no","amenity":"place_of_worship","baby_feeding":"no","check_date":"2026-01-30","covered":"no","denomination":"nondenominational","internet_access":"no","location":"outdoor","name":"Friluftskyrkan","polling_station":"no","religion":"christian","seasonal":"summer","website":"https://goteborg.se/wps/portal/enhetssida/slottsskogen/om-parken/friluftskyrkan","wheelchair":"yes"}},"geometry":{"type":"Point","coordinates":[11.9493012,57.6859585]}},{"type":"Feature","properties":{"id":1619157606,"osm_type":"node","name":"Hillsong","category":"place_of_worship","tags":{"amenity":"place_of_worship","check_date":"2025-09-30","denomination":"pentecostal","name":"Hillsong","religion":"christian","source":"Local Knowledge and Bing"}},"geometry":{"type":"Point","coordinates":[12.0048063,57.713973]}},{"type":"Feature","properties":{"id":2039206479,"osm_type":"node","name":"Evangeliska Brödraförsamlingen","category":"place_of_worship","tags":{"addr:city":"Göteborg","addr:country":"SE","addr:housenumber":"45","addr:street":"Kungsgatan","amenity":"place_of_worship","check_date":"2025-09-28","denomination":"moravian","name":"Evangeliska Brödraförsamlingen","religion":"christian"}},"geometry":{"type":"Point","coordinates":[11.9666995,57.7043949]}},{"type":"Feature","properties":{"id":2168909869,"osm_type":"node","name":"Lutherska Missionskyrkan","category":"place_of_worship","tags":{"amenity":"place_of_worship","contact:website":"http://lutherska.nu/","denomination":"mission_covenant_church_of_sweden","name":"Lutherska Missionskyrkan","religion":"christian","wheelchair":"no","wikidata":"Q10571052"}},"geometry":{"type":"Point","coordinates":[11.9629661,57.6977995]}},{"type":"Feature","properties":{"id":2392374377,"osm_type":"node","name":"Frälsningsarmén Centrumkåren","category":"place_of_worship","tags":{"addr:city":"Göteborg","addr:housenumber":"9","addr:postcode":"413 01","addr:street":"Södra Allégatan","amenity":"place_of_worship","branch":"Centrumkåren Haga Mölndal","denomination":"salvation_army","email":"centrumkaren@fralsningsarmen.se","name":"Frälsningsarmén Centrumkåren","phone":"+46 73 920 38 32","religion":"christian","website":"https://www.fralsningsarmen.se/centrumkaren/"}},"geometry":{"type":"Point","coordinates":[11.9593694,57.6994419]}},{"type":"Feature","properties":{"id":2638431206,"osm_type":"node","name":"Baptistkyrkan Tabernaklet","category":"place_of_worship","tags":{"addr:city":"Göteborg","addr:country":"SE","addr:housenumber":"4","addr:postcode":"411 34","addr:street":"Götabergsgatan","amenity":"place_of_worship","contact:phone":"+46 31 132 22 0","contact:website":"https://www.tabernaklet.se/","denomination":"baptist","name":"Baptistkyrkan Tabernaklet","operator":"Göteborgs Baptistförsamling","religion":"christian","wikidata":"Q19978886"}},"geometry":{"type":"Point","coordinates":[11.9706585,57.7004655]}},{"type":"Feature","properties":{"id":3323261861,"osm_type":"node","name":"Sankt Matteuskyrkan","category":"place_of_worship","tags":{"amenity":"place_of_worship","denomination":"pentecostal","name":"Sankt Matteuskyrkan","religion":"christian"}},"geometry":{"type":"Point","coordinates":[11.947413,57.716039]}},{"type":"Feature","properties":{"id":3525875201,"osm_type":"node","name":"Alsalam Moske","category":"place_of_worship","tags":{"amenity":"place_of_worship","name":"Alsalam Moske","operator":"Förening för islamisk välgörenhet","religion":"muslim"}},"geometry":{"type":"Point","coordinates":[12.0207454,57.7297444]}},{"type":"Feature","properties":{"id":3530960736,"osm_type":"node","name":"Bellevue Moské","category":"place_of_worship","tags":{"amenity":"place_of_worship","check_date":"2025-07-27","name":"Bellevue Moské","religion":"muslim","wikidata":"Q4022295"}},"geometry":{"type":"Point","coordinates":[12.0234202,57.730184]}},{"type":"Feature","properties":{"id":5589839121,"osm_type":"node","name":"Kyrkan i Norges Hus","category":"place_of_worship","tags":{"amenity":"place_of_worship","contact:website":"https://norgeshus.se/kyrkan-i-norges-hus/","denomination":"lutheran","name":"Kyrkan i Norges Hus","religion":"christian"}},"geometry":{"type":"Point","coordinates":[11.9861054,57.7029334]}},{"type":"Feature","properties":{"id":5822392153,"osm_type":"node","name":"","category":"place_of_worship","tags":{"addr:country":"SE","addr:street":"Godvädersgatan","amenity":"place_of_worship","religion":"muslim"}},"geometry":{"type":"Point","coordinates":[11.890889,57.7247255]}},{"type":"Feature","properties":{"id":7920219947,"osm_type":"node","name":"Equmeniakyrkan Majorna","category":"place_of_worship","tags":{"amenity":"place_of_worship","denomination":"uniting_church_in_sweden","name":"Equmeniakyrkan Majorna","religion":"christian","wheelchair":"limited"}},"geometry":{"type":"Point","coordinates":[11.9193614,57.6933541]}},{"type":"Feature","properties":{"id":11203677165,"osm_type":"node","name":"Sjukhuskyrkan","category":"place_of_worship","tags":{"addr:city":"Göteborg","addr:country":"SE","addr:housenumber":"11","addr:street":"Diagnosvägen","amenity":"place_of_worship","denomination":"ecumenism","level":"0","name":"Sjukhuskyrkan","operator":"Sjukhuskyrkan","operator:wikidata":"Q10669260","religion":"christian","website":"https://www.svenskakyrkan.se/orgryte/sjukhuskyrkan"}},"geometry":{"type":"Point","coordinates":[12.0502071,57.7212471]}},{"type":"Feature","properties":{"id":12347867544,"osm_type":"node","name":"Matteuskyrkan i Majorna","category":"place_of_worship","tags":{"amenity":"place_of_worship","name":"Matteuskyrkan i Majorna","religion":"christian","website":"https://www.matteuskyrkan.se/"}},"geometry":{"type":"Point","coordinates":[11.9313464,57.6973355]}},{"type":"Feature","properties":{"id":24059735,"osm_type":"way","name":"Göteborgs domkyrka","category":"place_of_worship","tags":{"addr:country":"SE","addr:housenumber":"10B","addr:street":"Västra Hamngatan","amenity":"place_of_worship","building":"cathedral","denomination":"lutheran","email":"gbg.domkyrko.forsamling@svenskakyrkan.se","loc_name":"Domkyrkan","name":"Göteborgs domkyrka","name:de":"Dom zu Göteborg","name:en":"Gothenburg Cathedral","name:fr":"Cathédrale de Göteborg","name:it":"Cattedrale di Göteborg","name:pt":"Catedral de Gotemburgo","name:sv":"Göteborgs domkyrka","official_name":"Gustavi Domkyrka","opening_hours":"Mo-Fr 10:00-18:30; Sa-Su 10:00-16:00","operator":"Svenska kyrkan","parish":"Göteborgs domkyrkoförsamling","phone":"+46 31 731 61 30","religion":"christian","start_date":"1815","website":"https://www.svenskakyrkan.se/gbgdomkyrko/domkyrkan","wikidata":"Q1236650","wikimedia_commons":"File:Göteborgs domkyrka september 2011.jpg","wikipedia":"sv:Göteborgs domkyrka"}},"geometry":{"type":"Point","coordinates":[11.9653,57.7045375]}},{"type":"Feature","properties":{"id":27141910,"osm_type":"way","name":"Lundby nya kyrka","category":"place_of_worship","tags":{"amenity":"place_of_worship","building":"church","denomination":"lutheran","name":"Lundby nya kyrka","operator":"Svenska kyrkan","parish":"Lundby församling","religion":"christian","seamark:building:function":"church","seamark:type":"building","wikidata":"Q10570769","wikipedia":"sv:Lundby nya kyrka"}},"geometry":{"type":"Point","coordinates":[11.9151082,57.7071807]}},{"type":"Feature","properties":{"id":28454297,"osm_type":"way","name":"Högsbo kyrka","category":"place_of_worship","tags":{"addr:city":"Göteborg","addr:country":"SE","addr:housenumber":"61","addr:postcode":"414 80","addr:street":"Bankogatan","amenity":"place_of_worship","building":"church","denomination":"lutheran","name":"Högsbo kyrka","operator":"Svenska kyrkan","parish":"Högsbo församling","religion":"christian","wikidata":"Q10532359","wikipedia":"sv:Högsbo kyrka"}},"geometry":{"type":"Point","coordinates":[11.9304024,57.671383]}},{"type":"Feature","properties":{"id":28562919,"osm_type":"way","name":"Masthuggskyrkan","category":"place_of_worship","tags":{"addr:city":"Göteborg","addr:country":"SE","addr:housenumber":"15","addr:postcode":"41463","addr:street":"Storebackegatan","amenity":"place_of_worship","architect":"Sigfrid Ericson","building":"church","building:material":"brick","capacity:persons":"1050","check_date":"2024-06-10","denomination":"lutheran","email":"carljohan.pastorat@svenskakyrkan.se","height":"60 m","name":"Masthuggskyrkan","name:de":"Masthuggskirche","name:en":"Masthugg Church","name:no":"Masthuggskirken","name:pl":"Kościół Masthugget","name:pt":"Igreja de Masthugget","name:ru":"Церковь Мастугг","name:sv":"Masthuggskyrkan","opening_hours":"Mo,We,Fr-Su 10:00-16:00; Tu 10:00-18:00; Th 10:00-14:00","operator":"Svenska kyrkan","parish":"Masthuggs församling","phone":"+46 31 731 92 00","religion":"christian","start_date":"1914","website":"https://www.svenskakyrkan.se/carl-johans-pastorat/masthugg/masthuggskyrkan","wikidata":"Q1833969","wikimedia_commons":"File:Masthugget Church KDH 070405.jpg","wikipedia":"sv:Masthuggskyrkan"}},"geometry":{"type":"Point","coordinates":[11.9374637,57.6971231]}},{"type":"Feature","properties":{"id":28669440,"osm_type":"way","name":"Brämaregårdens kyrka","category":"place_of_worship","tags":{"addr:city":"Göteborg","addr:country":"SE","addr:housenumber":"26","addr:postcode":"417 03","addr:street":"Hisingsgatan","amenity":"place_of_worship","building":"church","denomination":"lutheran","name":"Brämaregårdens kyrka","old_name":"Brämaregårdens kapell","operator":"Svenska kyrkan","parish":"Lundby församling","religion":"christian","wikidata":"Q10436936","wikipedia":"sv:Brämaregårdens kyrka"}},"geometry":{"type":"Point","coordinates":[11.9444007,57.7185798]}},{"type":"Feature","properties":{"id":30391798,"osm_type":"way","name":"Carl Johans kyrka","category":"place_of_worship","tags":{"addr:city":"Göteborg","addr:country":"SE","addr:housenumber":"3","addr:street":"Carl Johans Kyrkoplan","amenity":"place_of_worship","building":"church","denomination":"lutheran","name":"Carl Johans kyrka","operator":"Svenska kyrkan","parish":"Carl Johans församling","religion":"christian","seamark:building:function":"church","seamark:type":"building","wikidata":"Q10443066","wikipedia":"sv:Carl Johans kyrka"}},"geometry":{"type":"Point","coordinates":[11.92311,57.6962524]}},{"type":"Feature","properties":{"id":30392232,"osm_type":"way","name":"Sankt Johannes kyrka","category":"place_of_worship","tags":{"amenity":"place_of_worship","building":"church","denomination":"lutheran","name":"Sankt Johannes kyrka","operator":"Göteborgs kyrkliga stadsmission","operator:type":"private","religion":"christian","seamark:building:function":"church","seamark:type":"building","wikidata":"Q10659401","wikipedia":"sv:S:t Johanneskyrkan, Göteborg"}},"geometry":{"type":"Point","coordinates":[11.9392144,57.6987864]}},{"type":"Feature","properties":{"id":30392445,"osm_type":"way","name":"Oscar Fredriks kyrka","category":"place_of_worship","tags":{"addr:housenumber":"1A","addr:street":"Oscar Fredriks Kyrkogata","amenity":"place_of_worship","building":"church","building:colour":"#865e6e","building:material":"brick","check_date":"2026-04-02","contact:facebook":"https://www.facebook.com/oscarfredrikskyrka/","contact:instagram":"https://www.instagram.com/oscarfredrikskyrka","contact:website":"http://www.svenskakyrkan.se/default.aspx?id=661295","denomination":"lutheran","email":"carljohan.pastorat@svenskakyrkan.se","height":"60","name":"Oscar Fredriks kyrka","operator":"Svenska kyrkan","parish":"Oscar Fredriks församling","phone":"+46 31-731 92 00","religion":"christian","roof:material":"copper","start_date":"1893","wikidata":"Q606334","wikipedia":"sv:Oscar Fredriks kyrka"}},"geometry":{"type":"Point","coordinates":[11.9471877,57.6966288]}},{"type":"Feature","properties":{"id":32597479,"osm_type":"way","name":"Bergsjöns kyrka","category":"place_of_worship","tags":{"addr:city":"Göteborg","addr:country":"SE","addr:housenumber":"5A","addr:postcode":"415 19","addr:street":"Rymdtorget","amenity":"place_of_worship","building":"church","denomination":"lutheran","name":"Bergsjöns kyrka","operator":"Svenska kyrkan","operator:type":"religious","parish":"Bergsjöns församling","religion":"christian","wikidata":"Q10428525"}},"geometry":{"type":"Point","coordinates":[12.0687018,57.756782]}},{"type":"Feature","properties":{"id":34346445,"osm_type":"way","name":"Biskopsgårdens kyrka","category":"place_of_worship","tags":{"addr:country":"SE","addr:housenumber":"8","addr:street":"Vårvädersgatan","amenity":"place_of_worship","building":"church","building:colour":"#CDA46D","building:levels":"1","denomination":"lutheran","name":"Biskopsgårdens kyrka","old_name":"Södra Biskopsgårdens kyrka","operator":"Svenska kyrkan","parish":"Lundby församling","religion":"christian","roof:colour":"#009999","source":"building outline: Yahoo","wikidata":"Q10430096","wikipedia":"sv:Biskopsgårdens kyrka"}},"geometry":{"type":"Point","coordinates":[11.8912111,57.7116625]}},{"type":"Feature","properties":{"id":34590578,"osm_type":"way","name":"Annedalskyrkan","category":"place_of_worship","tags":{"amenity":"place_of_worship","building":"church","building:colour":"#85552e","building:material":"brick","check_date":"2026-01-30","contact:website":"https://www.svenskakyrkan.se/annedal","denomination":"lutheran","email":"annedal.forsamling@svenskakyrkan.se","name":"Annedalskyrkan","operator":"Svenska kyrkan","parish":"Annedals församling","religion":"christian","wikidata":"Q10300318","wikipedia":"sv:Annedalskyrkan"}},"geometry":{"type":"Point","coordinates":[11.9540219,57.687158]}},{"type":"Feature","properties":{"id":35558003,"osm_type":"way","name":"Råda kyrka","category":"place_of_worship","tags":{"amenity":"place_of_worship","building":"church","denomination":"lutheran","name":"Råda kyrka","operator":"Svenska kyrkan","religion":"christian","wikidata":"Q10658640"}},"geometry":{"type":"Point","coordinates":[12.1069251,57.6606745]}},{"type":"Feature","properties":{"id":37648189,"osm_type":"way","name":"Tyska kyrkan","category":"place_of_worship","tags":{"addr:city":"Göteborg","addr:country":"SE","addr:housenumber":"16","addr:postcode":"41114","addr:street":"Norra Hamngatan","amenity":"place_of_worship","building":"church","building:colour":"#ffe0a0","contact:email":"tyska.forsamling@svenskakyrkan.se","contact:phone":"+46-31-731 61 92","contact:website":"http://www.svenskakyrkan.se/tyska","denomination":"lutheran","description:de":"Gotteshaus der deutschen evangelisch-lutherischen Christinengemeinde zu Göteborg","height":"15","name":"Tyska kyrkan","official_name":"Christinæ kyrka","official_name:de":"Christinenkirche","opening_hours":"Mo-Fr 12:00-16:00; Su 10:00-12:00","operator":"Svenska kyrkan","parish":"Tyska S:ta Gertruds församling","religion":"christian","wikidata":"Q877360","wikipedia":"sv:Tyska kyrkan, Göteborg"}},"geometry":{"type":"Point","coordinates":[11.9648841,57.706713]}},{"type":"Feature","properties":{"id":40795032,"osm_type":"way","name":"Glöstorpskyrkan","category":"place_of_worship","tags":{"amenity":"place_of_worship","building":"church","denomination":"lutheran","name":"Glöstorpskyrkan","operator":"Svenska kyrkan","parish":"Tuve-Säve församling","religion":"christian","wikidata":"Q10506431","wikipedia":"sv:Glöstorpskyrkan"}},"geometry":{"type":"Point","coordinates":[11.9271431,57.7542944]}},{"type":"Feature","properties":{"id":40929953,"osm_type":"way","name":"Toltorpskyrkan","category":"place_of_worship","tags":{"amenity":"place_of_worship","building":"church","denomination":"lutheran","name":"Toltorpskyrkan","operator":"Svenska kyrkan","parish":"Fässbergs församling","religion":"christian","source":"Yahoo","wikidata":"Q10699397"}},"geometry":{"type":"Point","coordinates":[11.9800862,57.673084]}},{"type":"Feature","properties":{"id":40929955,"osm_type":"way","name":"Bifrostkyrkan","category":"place_of_worship","tags":{"amenity":"place_of_worship","building":"church","building:colour":"beige","denomination":"lutheran","name":"Bifrostkyrkan","religion":"christian","source":"Yahoo","wheelchair":"yes"}},"geometry":{"type":"Point","coordinates":[11.9979983,57.6619281]}},{"type":"Feature","properties":{"id":41175063,"osm_type":"way","name":"Kungsladugårds kyrka","category":"place_of_worship","tags":{"amenity":"place_of_worship","building":"church","denomination":"lutheran","name":"Kungsladugårds kyrka","operator":"Svenska kyrkan","parish":"Carl Johans församling","religion":"christian","wikidata":"Q10550339"}},"geometry":{"type":"Point","coordinates":[11.9272702,57.6810107]}},{"type":"Feature","properties":{"id":41687490,"osm_type":"way","name":"Landala kapell","category":"place_of_worship","tags":{"amenity":"place_of_worship","building":"church","contact:facebook":"https://www.facebook.com/CentroGbg","contact:instagram":"https://www.instagram.com/centrogbg","contact:website":"https://centro.nu/","denomination":"lutheran","name":"Landala kapell","operator":"Evangeliska Fosterlands-Stiftelsen","religion":"christian","wikidata":"Q10553793","wikipedia":"sv:Landala kapell"}},"geometry":{"type":"Point","coordinates":[11.973362,57.6919047]}},{"type":"Feature","properties":{"id":50731853,"osm_type":"way","name":"Allhelgonakyrkan","category":"place_of_worship","tags":{"amenity":"place_of_worship","building":"church","denomination":"lutheran","name":"Allhelgonakyrkan","operator":"Svenska kyrkan","parish":"Kortedala församling","religion":"christian","wikidata":"Q4581039"}},"geometry":{"type":"Point","coordinates":[12.0373694,57.7580339]}},{"type":"Feature","properties":{"id":51051836,"osm_type":"way","name":"Länsmansgårdens kyrka","category":"place_of_worship","tags":{"amenity":"place_of_worship","building":"church","denomination":"lutheran","name":"Länsmansgårdens kyrka","operator":"Svenska kyrkan","parish":"Lundby församling","religion":"christian","source":"Yahoo WMS","wikidata":"Q10571943","wikipedia":"sv:Länsmansgårdens kyrka"}},"geometry":{"type":"Point","coordinates":[11.892596,57.7329807]}},{"type":"Feature","properties":{"id":51932307,"osm_type":"way","name":"Mikaelskyrkan","category":"place_of_worship","tags":{"addr:country":"SE","addr:housenumber":"5","addr:street":"Askims Backaväg","amenity":"place_of_worship","building":"church","denomination":"lutheran","name":"Mikaelskyrkan","operator":"Svenska kyrkan","parish":"Askims församling","religion":"christian","wikidata":"Q10585163","wikipedia":"sv:Mikaelskyrkan, Göteborg"}},"geometry":{"type":"Point","coordinates":[11.9397119,57.6370209]}},{"type":"Feature","properties":{"id":52059392,"osm_type":"way","name":"Kaverös kyrka","category":"place_of_worship","tags":{"addr:country":"SE","addr:housenumber":"4","addr:street":"Orkestergatan","amenity":"place_of_worship","building":"church","denomination":"lutheran","name":"Kaverös kyrka","operator":"Svenska kyrkan","parish":"Högsbo församling","religion":"christian","wikidata":"Q10544501","wikipedia":"sv:Kaverös kyrka"}},"geometry":{"type":"Point","coordinates":[11.9236324,57.6621432]}},{"type":"Feature","properties":{"id":52431064,"osm_type":"way","name":"Sankt Paulus av Korset","category":"place_of_worship","tags":{"addr:city":"Angered","addr:country":"SE","addr:housenumber":"4","addr:street":"Titteridammstigen","amenity":"place_of_worship","building":"church","contact:phone":"+46 31 330 10 00","contact:website":"stpaulus.se","denomination":"roman_catholic","name":"Sankt Paulus av Korset","name:en":"Saint Paul of the Cross Catholic Assembly","operator":"S:t Paulus av Korset katolska församling i Angered","religion":"christian","short_name":"S:t Paulus av Korset"}},"geometry":{"type":"Point","coordinates":[12.0574158,57.8000217]}},{"type":"Feature","properties":{"id":56298401,"osm_type":"way","name":"Åkeredskyrkan","category":"place_of_worship","tags":{"addr:city":"Västra Frölunda","addr:country":"SE","addr:housenumber":"41","addr:street":"Cinnobergatan","amenity":"place_of_worship","building":"church","denomination":"evangelical","name":"Åkeredskyrkan","religion":"christian"}},"geometry":{"type":"Point","coordinates":[11.8965759,57.6301806]}},{"type":"Feature","properties":{"id":56433663,"osm_type":"way","name":"Sankta Birgittas kapell","category":"place_of_worship","tags":{"addr:housenumber":"2","addr:street":"Klippan","amenity":"place_of_worship","building":"chapel","check_date":"2024-06-09","denomination":"lutheran","name":"Sankta Birgittas kapell","operator":"Svenska kyrkan","parish":"Carl Johans församling","religion":"christian","seamark:building:function":"chapel","seamark:type":"building","start_date":"1856-1857","website":"https://www.svenskakyrkan.se/carl-johans-pastorat/carljohan/sta-birgittas-kapell","wikidata":"Q10661517","wikipedia":"sv:Sankta Birgittas kapell, Göteborg"}},"geometry":{"type":"Point","coordinates":[11.9096159,57.6911444]}},{"type":"Feature","properties":{"id":57381715,"osm_type":"way","name":"Näsets kyrka","category":"place_of_worship","tags":{"addr:city":"Västra Frölunda","addr:country":"SE","addr:housenumber":"6","addr:street":"Hammarvägen","amenity":"place_of_worship","building":"detached","denomination":"lutheran","name":"Näsets kyrka","operator":"Svenska kyrkan","parish":"Näsets församling","religion":"christian","wikidata":"Q10605333","wikipedia":"sv:Näsets kyrka"}},"geometry":{"type":"Point","coordinates":[11.89877,57.6249645]}},{"type":"Feature","properties":{"id":59054109,"osm_type":"way","name":"Tynnereds kyrka","category":"place_of_worship","tags":{"addr:country":"SE","addr:housenumber":"1","addr:street":"Turkosgatan","amenity":"place_of_worship","building":"church","denomination":"lutheran","name":"Tynnereds kyrka","operator":"Svenska kyrkan","parish":"Tynnereds församling","religion":"christian","wikidata":"Q10707229","wikipedia":"sv:Tynnereds kyrka"}},"geometry":{"type":"Point","coordinates":[11.8995721,57.6501469]}},{"type":"Feature","properties":{"id":59054129,"osm_type":"way","name":"Pingstkyrkan","category":"place_of_worship","tags":{"addr:city":"Västra Frölunda","addr:country":"SE","addr:housenumber":"3","addr:postcode":"421 50","addr:street":"Diamantgatan","amenity":"place_of_worship","building":"church","denomination":"pentecostal","name":"Pingstkyrkan","religion":"christian"}},"geometry":{"type":"Point","coordinates":[11.9048593,57.6514583]}},{"type":"Feature","properties":{"id":59178215,"osm_type":"way","name":"Syrisk-Ortodoxa kyrkan","category":"place_of_worship","tags":{"addr:country":"SE","addr:housenumber":"24","addr:street":"Björkhöjdsgatan","amenity":"place_of_worship","building":"church","denomination":"orthodox","name":"Syrisk-Ortodoxa kyrkan","religion":"christian"}},"geometry":{"type":"Point","coordinates":[11.8940923,57.653067]}},{"type":"Feature","properties":{"id":59307494,"osm_type":"way","name":"New Life Göteborg","category":"place_of_worship","tags":{"addr:country":"SE","addr:housenumber":"4","addr:street":"Lilla Grevegårdsvägen","amenity":"place_of_worship","building":"church","denomination":"lutheran","name":"New Life Göteborg","old_name":"Björkhöjdskyrkan","parish":"Församlingen New Life Göteborg","religion":"christian"}},"geometry":{"type":"Point","coordinates":[11.8897118,57.6494612]}},{"type":"Feature","properties":{"id":59565441,"osm_type":"way","name":"Grevegårdens kyrka","category":"place_of_worship","tags":{"addr:country":"SE","addr:housenumber":"28","addr:street":"Lingonvägen","amenity":"place_of_worship","building":"church","denomination":"lutheran","name":"Grevegårdens kyrka","parish":"Tynnereds församling","religion":"christian","wikidata":"Q10508731","wikipedia":"sv:Grevegårdens kyrka"}},"geometry":{"type":"Point","coordinates":[11.8864417,57.6551724]}},{"type":"Feature","properties":{"id":59730335,"osm_type":"way","name":"Equmeniakyrkan Fiskebäck","category":"place_of_worship","tags":{"addr:city":"Västra Frölunda","addr:country":"SE","addr:housenumber":"2","addr:street":"Aprikosgatan","amenity":"place_of_worship","building":"church","denomination":"lutheran","name":"Equmeniakyrkan Fiskebäck","religion":"christian","short_name":"Fiskebäckskyrkan"}},"geometry":{"type":"Point","coordinates":[11.8701177,57.6483643]}},{"type":"Feature","properties":{"id":59984130,"osm_type":"way","name":"Fiskebäcks Missionskyrka","category":"place_of_worship","tags":{"addr:city":"Västra Frölunda","addr:country":"SE","addr:housenumber":"16","addr:postcode":"426 54","addr:street":"Citrusgatan","amenity":"place_of_worship","building":"yes","denomination":"uniting_church_in_sweden","name":"Fiskebäcks Missionskyrka","religion":"christian"}},"geometry":{"type":"Point","coordinates":[11.8735023,57.653921]}},{"type":"Feature","properties":{"id":60449259,"osm_type":"way","name":"Furåsens kyrka","category":"place_of_worship","tags":{"addr:country":"SE","addr:housenumber":"23","addr:street":"Furåsgläntan","amenity":"place_of_worship","building":"church","denomination":"lutheran","name":"Furåsens kyrka","operator":"Svenska kyrkan","parish":"Älvsborgs församling","religion":"christian","wikidata":"Q10500255","wikipedia":"sv:Furåsens kyrka"}},"geometry":{"type":"Point","coordinates":[11.8728027,57.6604741]}},{"type":"Feature","properties":{"id":70766155,"osm_type":"way","name":"Skårs kyrka","category":"place_of_worship","tags":{"amenity":"place_of_worship","building":"church","denomination":"lutheran","name":"Skårs kyrka","operator":"Svenska kyrkan","parish":"Örgryte församling","ref:bbr":"21300000010722","religion":"christian","source":"Bing;www.bebyggelseregistret.raa.se","start_date":"1959","wikidata":"Q10671199","wikipedia":"sv:Skårs kyrka"}},"geometry":{"type":"Point","coordinates":[12.006665,57.6908574]}},{"type":"Feature","properties":{"id":72618913,"osm_type":"way","name":"Gunnareds kyrka","category":"place_of_worship","tags":{"amenity":"place_of_worship","building":"church","denomination":"lutheran","name":"Gunnareds kyrka","operator":"Svenska kyrkan","parish":"Angereds församling","religion":"christian","wheelchair":"yes","wikidata":"Q10510853","wikipedia":"sv:Gunnareds kyrka"}},"geometry":{"type":"Point","coordinates":[12.0496816,57.7988714]}},{"type":"Feature","properties":{"id":77681432,"osm_type":"way","name":"Älvsborgs kyrka","category":"place_of_worship","tags":{"addr:city":"Västra Frölunda","addr:country":"SE","addr:housenumber":"6","addr:postcode":"426 71","addr:street":"Hagens Kapellväg","amenity":"place_of_worship","building":"church","denomination":"lutheran","name":"Älvsborgs kyrka","old_name":"Hagens kapell","operator":"Svenska kyrkan","parish":"Älvsborgs församling","religion":"christian","seamark:building:function":"church","seamark:type":"building","wikidata":"Q10725747","wikipedia":"sv:Älvsborgs kyrka"}},"geometry":{"type":"Point","coordinates":[11.8843905,57.6756068]}},{"type":"Feature","properties":{"id":79519701,"osm_type":"way","name":"Nasirmoskén","category":"place_of_worship","tags":{"addr:city":"Västra Frölunda","addr:housenumber":"1","addr:postcode":"41482","addr:street":"Tolvskillingsgatan","alt_name":"Nasir Moskén;Masjid Nasir","alt_name:ur":"ناصر مسجد","amenity":"place_of_worship","building":"mosque","check_date":"2025-11-26","denomination":"ahmadiyya","name":"Nasirmoskén","name:en":"Nasir Mosque","name:ur":"مسجد ناصر","religion":"muslim","wikidata":"Q10594637","wikipedia":"sv:Nasirmoskén"}},"geometry":{"type":"Point","coordinates":[11.9141762,57.6765499]}},{"type":"Feature","properties":{"id":79890598,"osm_type":"way","name":"Göteborgs moské","category":"place_of_worship","tags":{"amenity":"place_of_worship","building":"mosque","name":"Göteborgs moské","religion":"muslim","source:outline":"Bing","wikidata":"Q7737392","wikipedia":"sv:Göteborgs moské"}},"geometry":{"type":"Point","coordinates":[11.943863,57.7145362]}},{"type":"Feature","properties":{"id":79895761,"osm_type":"way","name":"Rambergskyrkan","category":"place_of_worship","tags":{"addr:city":"Göteborg","addr:country":"SE","addr:housenumber":"27","addr:postcode":"417 09","addr:street":"Övre Hallegatan","amenity":"place_of_worship","building":"church","denomination":"uniting_church_in_sweden","name":"Rambergskyrkan","religion":"christian","source":"Yahoo","website":"https://equmeniakyrkan.se/rambergskyrkan/","wikidata":"Q10649010","wikipedia":"sv:Rambergskyrkan"}},"geometry":{"type":"Point","coordinates":[11.9389575,57.7197119]}},{"type":"Feature","properties":{"id":81302345,"osm_type":"way","name":"Flatåskyrkan","category":"place_of_worship","tags":{"addr:country":"SE","addr:housenumber":"59","addr:street":"Svängrumsgatan","amenity":"place_of_worship","building":"yes","denomination":"uniting_church_in_sweden","name":"Flatåskyrkan","religion":"christian","roof:colour":"#565E6B","wikidata":"Q10496552","wikipedia":"sv:Flatåskyrkan"}},"geometry":{"type":"Point","coordinates":[11.9316064,57.6635154]}},{"type":"Feature","properties":{"id":81369707,"osm_type":"way","name":"Jesu Kristi Kyrka av Sista Dagars Heliga","category":"place_of_worship","tags":{"addr:city":"Västra Frölunda","addr:country":"SE","addr:housenumber":"6","addr:postcode":"42143","addr:street":"Gnistgatan","amenity":"place_of_worship","building":"church","denomination":"mormon","denomination:wikidata":"Q42504","name":"Jesu Kristi Kyrka av Sista Dagars Heliga","religion":"christian","website":"https://www.lds.org/"}},"geometry":{"type":"Point","coordinates":[11.9236651,57.6540708]}},{"type":"Feature","properties":{"id":81634374,"osm_type":"way","name":"Västra Frölunda kyrka","category":"place_of_worship","tags":{"amenity":"place_of_worship","building":"church","denomination":"lutheran","name":"Västra Frölunda kyrka","operator":"Svenska kyrkan","parish":"Västra Frölunda församling","religion":"christian","seamark:building:function":"church","seamark:type":"building","wikidata":"Q10718229","wikipedia":"sv:Västra Frölunda kyrka"}},"geometry":{"type":"Point","coordinates":[11.9216258,57.6488566]}},{"type":"Feature","properties":{"id":83724145,"osm_type":"way","name":"Göteborgs synagoga","category":"place_of_worship","tags":{"addr:housenumber":"12","addr:street":"Östra Larmgatan","amenity":"place_of_worship","building":"synagogue","building:levels":"2","check_date":"2024-05-17","email":"jf@jfgbg.se","name":"Göteborgs synagoga","operator":"Judiska Församlingen Göteborg","polling_station":"no","religion":"jewish","roof:levels":"0","roof:shape":"hipped","website":"https://judiskaforsamlingen.se/synagogan.php","wikidata":"Q2915211"}},"geometry":{"type":"Point","coordinates":[11.9722595,57.7056088]}},{"type":"Feature","properties":{"id":83775168,"osm_type":"way","name":"Sankt Jakobs kyrka","category":"place_of_worship","tags":{"addr:city":"Göteborg","addr:country":"SE","addr:housenumber":"4","addr:postcode":"411 38","addr:street":"Parkgatan","alt_name":"S:t Jakobs kyrka","amenity":"place_of_worship","building":"church","contact:phone":"+46 31 711 37 00","contact:website":"http://www.stjakob.se/","denomination":"uniting_church_in_sweden","name":"Sankt Jakobs kyrka","religion":"christian"}},"geometry":{"type":"Point","coordinates":[11.9748303,57.7031434]}},{"type":"Feature","properties":{"id":83775202,"osm_type":"way","name":"Kristus konungens katolska kyrka","category":"place_of_worship","tags":{"addr:city":"Göteborg","addr:country":"SE","addr:housenumber":"14","addr:postcode":"41138","addr:street":"Parkgatan","amenity":"place_of_worship","building":"church","contact:email":"exp@kristuskonungen.se","contact:fax":"+46-31-13 20 09","contact:phone":"+46-31-711 92 64","contact:website":"http://www.kristuskonungen.se/","denomination":"roman_catholic","name":"Kristus konungens katolska kyrka","name:en":"Christ the King Assembly","official_name":"Kristus Konungens Katolska Kyrka i Göteborg","religion":"christian","wikidata":"Q1789436"}},"geometry":{"type":"Point","coordinates":[11.9778419,57.7042933]}},{"type":"Feature","properties":{"id":84618584,"osm_type":"way","name":"Johannebergs Equmeniakyrka","category":"place_of_worship","tags":{"addr:city":"Göteborg","addr:country":"SE","addr:housenumber":"17","addr:postcode":"412 59","addr:street":"Pilbågsgatan","amenity":"place_of_worship","building":"yes","denomination":"uniting_church_in_sweden","name":"Johannebergs Equmeniakyrka","religion":"christian","roof:shape":"gabled"}},"geometry":{"type":"Point","coordinates":[11.9863338,57.6848343]}},{"type":"Feature","properties":{"id":84872295,"osm_type":"way","name":"Saint Andrew's Church","category":"place_of_worship","tags":{"addr:city":"Göteborg","addr:country":"SE","addr:housename":"St Andrews","addr:housenumber":"2","addr:street":"Hvitfeldtsplatsen","amenity":"place_of_worship","building":"church","contact:email":"info@standrews.se","contact:facebook":"https://www.facebook.com/standrewsgbg","contact:phone":"+46-31-144773","contact:website":"http://www.standrews.se/","denomination":"anglican","description:en":"St Andrew’s is an Anglican (Church of England) congregation in full communion with the Church of Sweden","name":"Saint Andrew's Church","name:sv":"Engelska kyrkan","official_name":"Saint Andrew's Church","religion":"christian","short_name:en":"St. Andrews's Church","start_date":"1857","wikidata":"Q10660188","wikipedia":"sv:Saint Andrew's Church, Göteborg"}},"geometry":{"type":"Point","coordinates":[11.9617973,57.7020864]}},{"type":"Feature","properties":{"id":85816461,"osm_type":"way","name":"Askims kyrka","category":"place_of_worship","tags":{"addr:country":"SE","addr:housenumber":"1","addr:street":"Skalldalsvägen","amenity":"place_of_worship","building":"church","denomination":"lutheran","name":"Askims kyrka","operator":"Svenska kyrkan","parish":"Askims församling","religion":"christian","wikidata":"Q10300320","wikipedia":"sv:Askims kyrka"}},"geometry":{"type":"Point","coordinates":[11.9413069,57.6162334]}},{"type":"Feature","properties":{"id":88407706,"osm_type":"way","name":"Saronkyrkan","category":"place_of_worship","tags":{"addr:housenumber":"3","addr:postcode":"413 12","addr:street":"Brunnsgatan","air_conditioning":"yes","amenity":"place_of_worship","building":"church","building:colour":"tan","building:material":"cement_block","check_date":"2026-01-30","denomination":"evangelical","email":"info@saron.se","name":"Saronkyrkan","phone":"+46 31 741 12 00","religion":"christian","roof:shape":"pyramidal","website":"https://saron.se/","wheelchair":"yes","wikidata":"Q36859911"}},"geometry":{"type":"Point","coordinates":[11.9586478,57.6930429]}},{"type":"Feature","properties":{"id":89617793,"osm_type":"way","name":"Fågelbergskyrkan","category":"place_of_worship","tags":{"amenity":"place_of_worship","building":"church","denomination":"lutheran","name":"Fågelbergskyrkan","operator":"Svenska kyrkan","parish":"Stensjöns församling","religion":"christian","wikidata":"Q10500914"}},"geometry":{"type":"Point","coordinates":[12.0344624,57.6441158]}},{"type":"Feature","properties":{"id":93216206,"osm_type":"way","name":"Lundby gamla kyrka","category":"place_of_worship","tags":{"amenity":"place_of_worship","building":"church","denomination":"lutheran","name":"Lundby gamla kyrka","operator":"Svenska kyrkan","parish":"Lundby församling","religion":"christian","wikidata":"Q6704116","wikipedia":"sv:Lundby gamla kyrka"}},"geometry":{"type":"Point","coordinates":[11.9149987,57.7127428]}},{"type":"Feature","properties":{"id":93780996,"osm_type":"way","name":"Toleredskyrkan","category":"place_of_worship","tags":{"addr:country":"SE","addr:housenumber":"2","addr:street":"Vinlandsgatan","amenity":"place_of_worship","building":"church","denomination":"lutheran","name":"Toleredskyrkan","operator":"Svenska kyrkan","parish":"Tolereds församling","religion":"christian","wikidata":"Q10699340","wikipedia":"sv:Toleredskyrkan"}},"geometry":{"type":"Point","coordinates":[11.9192254,57.731385]}},{"type":"Feature","properties":{"id":94516359,"osm_type":"way","name":"Backa kyrka","category":"place_of_worship","tags":{"amenity":"place_of_worship","building":"church","denomination":"lutheran","name":"Backa kyrka","operator":"Svenska kyrkan","parish":"Backa församling","religion":"christian","wikidata":"Q10424138"}},"geometry":{"type":"Point","coordinates":[11.9812218,57.7440972]}},{"type":"Feature","properties":{"id":95081176,"osm_type":"way","name":"Backadalskyrkan","category":"place_of_worship","tags":{"addr:country":"SE","addr:housenumber":"1A","addr:street":"Rimmaregatan","amenity":"place_of_worship","building":"yes","denomination":"evangelical","name":"Backadalskyrkan","religion":"christian","wikidata":"Q36791622"}},"geometry":{"type":"Point","coordinates":[11.9827124,57.7481569]}},{"type":"Feature","properties":{"id":95344035,"osm_type":"way","name":"Fridhems kapell","category":"place_of_worship","tags":{"amenity":"place_of_worship","building":"chapel","denomination":"lutheran","name":"Fridhems kapell","operator":"Svenska kyrkan","parish":"Göteborgs begravningssamfällighet","religion":"christian","wikidata":"Q117750585"}},"geometry":{"type":"Point","coordinates":[11.9775456,57.7646077]}},{"type":"Feature","properties":{"id":96043866,"osm_type":"way","name":"Jehovas Vittnens Rikets sal","category":"place_of_worship","tags":{"addr:city":"Göteborg","addr:country":"SE","addr:housenumber":"1A","addr:postcode":"418 77","addr:street":"Dysiksgatan","amenity":"place_of_worship","building":"yes","building:levels":"1","denomination":"jehovahs_witness","name":"Jehovas Vittnens Rikets sal","religion":"christian","roof:orientation":"along","roof:shape":"gabled","website":"https://www.jw.org/","wheelchair":"yes"}},"geometry":{"type":"Point","coordinates":[11.9038427,57.707348]}},{"type":"Feature","properties":{"id":96945234,"osm_type":"way","name":"Stensjö kyrka","category":"place_of_worship","tags":{"amenity":"place_of_worship","building":"church","denomination":"lutheran","name":"Stensjö kyrka","operator":"Svenska kyrkan","parish":"Stensjöns församling","religion":"christian"}},"geometry":{"type":"Point","coordinates":[12.0341733,57.6627307]}},{"type":"Feature","properties":{"id":100607419,"osm_type":"way","name":"Fässbergs kapell","category":"place_of_worship","tags":{"addr:country":"SE","addr:housenumber":"22","addr:street":"Stubbåkersgatan","amenity":"place_of_worship","building":"chapel","denomination":"lutheran","name":"Fässbergs kapell","parish":"Fässbergs församling","religion":"christian"}},"geometry":{"type":"Point","coordinates":[11.985559,57.6535633]}},{"type":"Feature","properties":{"id":100718997,"osm_type":"way","name":"Fässbergs kyrka","category":"place_of_worship","tags":{"amenity":"place_of_worship","building":"church","denomination":"lutheran","name":"Fässbergs kyrka","operator":"Svenska kyrkan","parish":"Fässbergs församling","religion":"christian","wikidata":"Q10500891"}},"geometry":{"type":"Point","coordinates":[12.0097969,57.6561941]}},{"type":"Feature","properties":{"id":101841791,"osm_type":"way","name":"Pingst Mölndal","category":"place_of_worship","tags":{"amenity":"place_of_worship","building":"yes","contact:website":"https://molndal.pingst.se/","denomination":"pentecostal","name":"Pingst Mölndal","religion":"christian"}},"geometry":{"type":"Point","coordinates":[12.01124,57.6510114]}},{"type":"Feature","properties":{"id":102216614,"osm_type":"way","name":"Utby kyrka","category":"place_of_worship","tags":{"amenity":"place_of_worship","building":"church","denomination":"lutheran","name":"Utby kyrka","operator":"Svenska kyrkan","parish":"Nylöse församling","religion":"christian","wikidata":"Q10711433","wikipedia":"sv:Utby kyrka, Göteborgs stift"}},"geometry":{"type":"Point","coordinates":[12.0500323,57.7400925]}},{"type":"Feature","properties":{"id":102738189,"osm_type":"way","name":"Jesu Kristi Kyrka av Sista Dagars Heliga, Utby","category":"place_of_worship","tags":{"amenity":"place_of_worship","building":"yes","denomination":"mormon","name":"Jesu Kristi Kyrka av Sista Dagars Heliga, Utby","religion":"christian"}},"geometry":{"type":"Point","coordinates":[12.0535026,57.7393811]}},{"type":"Feature","properties":{"id":103893277,"osm_type":"way","name":"Grekisk Ortodoxa kyrkan i Göteborg","category":"place_of_worship","tags":{"amenity":"place_of_worship","building":"yes","denomination":"greek_orthodox","name":"Grekisk Ortodoxa kyrkan i Göteborg","religion":"christian"}},"geometry":{"type":"Point","coordinates":[11.9390898,57.726553]}},{"type":"Feature","properties":{"id":106947984,"osm_type":"way","name":"Norra Biskopsgårdens kyrka","category":"place_of_worship","tags":{"addr:country":"SE","addr:housenumber":"1","addr:street":"Önskevädersgatan","amenity":"place_of_worship","building":"church","building:colour":"#660000","building:levels":"3","denomination":"lutheran","name":"Norra Biskopsgårdens kyrka","operator":"Stadsmissionen;Finska församlingen","religion":"christian","roof:colour":"#778899","wikidata":"Q18292576","wikipedia":"sv:Norra Biskopsgårdens kyrka"}},"geometry":{"type":"Point","coordinates":[11.8959265,57.7192831]}},{"type":"Feature","properties":{"id":113515260,"osm_type":"way","name":"Krokslättskyrkan","category":"place_of_worship","tags":{"addr:country":"SE","addr:housenumber":"17","addr:street":"Åbäcksgatan","amenity":"place_of_worship","building":"church","denomination":"lutheran","name":"Krokslättskyrkan","operator":"Svenska kyrkan","parish":"Fässbergs församling","religion":"christian","wikidata":"Q10549394"}},"geometry":{"type":"Point","coordinates":[12.0043432,57.6731364]}},{"type":"Feature","properties":{"id":115941553,"osm_type":"way","name":"Kortedalakyrkan","category":"place_of_worship","tags":{"amenity":"place_of_worship","building":"church","denomination":"missionskyrkan","name":"Kortedalakyrkan","religion":"christian","wikidata":"Q10548254","wikipedia":"sv:Kortedalakyrkan"}},"geometry":{"type":"Point","coordinates":[12.0345112,57.7515064]}},{"type":"Feature","properties":{"id":116285720,"osm_type":"way","name":"Buråskyrkan","category":"place_of_worship","tags":{"amenity":"place_of_worship","building":"church","denomination":"lutheran","name":"Buråskyrkan","operator":"Svenska kyrkan","parish":"Johannebergs församling","religion":"christian","wikidata":"Q10437992","wikipedia":"sv:Buråskyrkan"}},"geometry":{"type":"Point","coordinates":[11.9892226,57.6813551]}},{"type":"Feature","properties":{"id":116438616,"osm_type":"way","name":"Hagakyrkan","category":"place_of_worship","tags":{"amenity":"place_of_worship","building":"church","building:material":"brick","check_date":"2025-08-18","denomination":"lutheran","name":"Hagakyrkan","operator":"Svenska kyrkan","parish":"Göteborgs Haga församling","religion":"christian","roof:colour":"#70797E","wikidata":"Q5638502","wikipedia":"sv:Hagakyrkan, Göteborg"}},"geometry":{"type":"Point","coordinates":[11.9621786,57.6990189]}},{"type":"Feature","properties":{"id":118385944,"osm_type":"way","name":"","category":"place_of_worship","tags":{"addr:country":"SE","addr:housenumber":"10","addr:street":"Krokslättsgatan","amenity":"place_of_worship","building":"church","religion":"christian"}},"geometry":{"type":"Point","coordinates":[12.0051687,57.6748899]}},{"type":"Feature","properties":{"id":132549730,"osm_type":"way","name":"Hjällbo kyrka","category":"place_of_worship","tags":{"addr:city":"Angered","addr:country":"SE","addr:housenumber":"79","addr:postcode":"424 32","addr:street":"Bergsgårdsgärdet","amenity":"place_of_worship","building":"church","denomination":"lutheran","name":"Hjällbo kyrka","operator":"Svenska kyrkan","parish":"Hjällbos församling","religion":"christian","wikidata":"Q10524836","wikipedia":"sv:Hjällbo kyrka"}},"geometry":{"type":"Point","coordinates":[12.0213901,57.7694067]}},{"type":"Feature","properties":{"id":134622006,"osm_type":"way","name":"Immanuelförsamlingen","category":"place_of_worship","tags":{"addr:city":"Göteborg","addr:housenumber":"49","addr:postcode":"41744","addr:street":"Glöstorpsvägen","amenity":"place_of_worship","building":"church","denomination":"lutheran","name":"Immanuelförsamlingen","religion":"christian","service_times":"Sundays 11am","website":"https://immanuelforsamlingen.se"}},"geometry":{"type":"Point","coordinates":[11.924473,57.7538905]}},{"type":"Feature","properties":{"id":134765119,"osm_type":"way","name":"Makedoniska Ortodoxa kyrkan","category":"place_of_worship","tags":{"addr:country":"SE","addr:housenumber":"2","addr:street":"Atmosfärgatan","amenity":"place_of_worship","building":"church","denomination":"orthodox","name":"Makedoniska Ortodoxa kyrkan","religion":"christian"}},"geometry":{"type":"Point","coordinates":[12.062034,57.7509433]}},{"type":"Feature","properties":{"id":135187048,"osm_type":"way","name":"Linneakyrkan","category":"place_of_worship","tags":{"addr:city":"Göteborg","addr:housenumber":"35","addr:postcode":"413 08","addr:street":"Linnégatan","amenity":"place_of_worship","building":"yes","building:colour":"#ff9e6b","building:name":"Linnéahuset","contact:email":"info@linneahuset.se","contact:facebook":"https://www.facebook.com/linneakyrkan/","contact:instagram":"https://www.instagram.com/linneakyrkan","contact:phone":"+46-31-14 93 00","contact:website":"https://www.linneakyrkan.se/","description":"Bethelförsamlingen","name":"Linneakyrkan","religion":"christian"}},"geometry":{"type":"Point","coordinates":[11.9514368,57.6947799]}},{"type":"Feature","properties":{"id":136451211,"osm_type":"way","name":"Nylöse kyrka","category":"place_of_worship","tags":{"amenity":"place_of_worship","building":"church","denomination":"lutheran","name":"Nylöse kyrka","operator":"Svenska kyrkan","parish":"Nylöse församling","religion":"christian","wikidata":"Q10604789","wikipedia":"sv:Nylöse kyrka"}},"geometry":{"type":"Point","coordinates":[12.0072465,57.7358291]}},{"type":"Feature","properties":{"id":137720407,"osm_type":"way","name":"Kungälvs kyrka","category":"place_of_worship","tags":{"addr:city":"Kungälv","addr:country":"SE","addr:housenumber":"2","addr:street":"Kyrkogatan","amenity":"place_of_worship","building":"church","check_date":"2022-12-22","denomination":"lutheran","name":"Kungälvs kyrka","operator":"Svenska kyrkan","parish":"Kungälv-Ytterby församling","religion":"christian","wikidata":"Q10550418","wikipedia":"sv:Kungälvs kyrka"}},"geometry":{"type":"Point","coordinates":[11.9951281,57.8651022]}},{"type":"Feature","properties":{"id":141292664,"osm_type":"way","name":"Finska Pingstkyrkan","category":"place_of_worship","tags":{"addr:country":"SE","addr:housenumber":"19","addr:street":"Redbergsvägen","amenity":"place_of_worship","architect":"Sten Branzell","building":"yes","building:architecture":"functionalism","building:colour":"yellow","denomination":"pentecostal","email":"marcus.saukkonen@gmail.com","fixme":"Vad är egentligen korrekt namn att tagga på denna kyrka? Skyltat på utsidan på svenska står det Göteborgskyrkan, finska Helluntaikirkko. Församlingen heter Göteborgin soumalainen helluntaiseurakunta.","name":"Finska Pingstkyrkan","old_name":"Biografen Flamman","phone":"+46 73 092 52 91","religion":"christian","start_date":"1935","was:amenity":"cinema","website":"https://www.finskapingstgoteborg.se"}},"geometry":{"type":"Point","coordinates":[12.0016849,57.7146212]}},{"type":"Feature","properties":{"id":142778772,"osm_type":"way","name":"Björlanda kyrka","category":"place_of_worship","tags":{"amenity":"place_of_worship","building":"church","denomination":"lutheran","name":"Björlanda kyrka","operator":"Svenska kyrkan","parish":"Torslanda-Björlanda församling","religion":"christian","seamark:building:function":"church","seamark:type":"building","wikidata":"Q4919696","wikipedia":"sv:Björlanda kyrka"}},"geometry":{"type":"Point","coordinates":[11.8245529,57.7614479]}},{"type":"Feature","properties":{"id":143074778,"osm_type":"way","name":"Den Danske Kirke","category":"place_of_worship","tags":{"addr:city":"Göteborg","addr:country":"SE","addr:housenumber":"8","addr:postcode":"413 19","addr:street":"Thorild Wulffsgatan","amenity":"place_of_worship","architect":"Ingrid Wallberg","building":"yes","contact:website":"http://www.dkig.se/","denomination":"lutheran","name":"Den Danske Kirke","religion":"christian"}},"geometry":{"type":"Point","coordinates":[11.9497239,57.6815404]}},{"type":"Feature","properties":{"id":146302036,"osm_type":"way","name":"Sankt Pauli kyrka","category":"place_of_worship","tags":{"addr:country":"SE","addr:housenumber":"1","addr:street":"Sankt Pauli Kyrkoplan","amenity":"place_of_worship","building":"church","contact:facebook":"https://www.facebook.com/sanktpauliforsamling","contact:website":"https://www.svenskakyrkan.se/orgryte/sankt-pauli-forsamling","denomination":"lutheran","name":"Sankt Pauli kyrka","operator":"Svenska kyrkan","parish":"Sankt Pauli församling","religion":"christian","short_name":"S:t Pauli kyrka","wikidata":"Q10661460","wikipedia":"sv:Sankt Pauli kyrka, Göteborg"}},"geometry":{"type":"Point","coordinates":[12.0035158,57.7143557]}},{"type":"Feature","properties":{"id":148186720,"osm_type":"way","name":"Redbergskyrkan","category":"place_of_worship","tags":{"amenity":"place_of_worship","building":"church","contact:website":"http://redbergskyrkan.se/wordpress/","denomination":"Missionskyrkan/GF-kyrkan","name":"Redbergskyrkan","religion":"christian"}},"geometry":{"type":"Point","coordinates":[12.0138682,57.7182426]}},{"type":"Feature","properties":{"id":148207995,"osm_type":"way","name":"Härlanda kyrka","category":"place_of_worship","tags":{"amenity":"place_of_worship","building":"church","denomination":"lutheran","name":"Härlanda kyrka","operator":"Svenska kyrkan","parish":"Härlanda församling","religion":"christian","wikidata":"Q10531677","wikipedia":"sv:Härlanda kyrka"}},"geometry":{"type":"Point","coordinates":[12.0236769,57.7193281]}},{"type":"Feature","properties":{"id":148315980,"osm_type":"way","name":"Örgryte nya kyrka","category":"place_of_worship","tags":{"addr:country":"SE","addr:housenumber":"2","addr:street":"Herrgårdsgatan","amenity":"place_of_worship","building":"church","denomination":"lutheran","email":"orgryte.forsamling@svenskakyrkan.se","name":"Örgryte nya kyrka","operator":"Svenska kyrkan","parish":"Örgryte församling","religion":"christian","wikidata":"Q10727566","wikipedia":"sv:Örgryte nya kyrka"}},"geometry":{"type":"Point","coordinates":[12.0054455,57.702887]}},{"type":"Feature","properties":{"id":150284908,"osm_type":"way","name":"Brunnsbokyrkan","category":"place_of_worship","tags":{"amenity":"place_of_worship","building":"church","denomination":"lutheran","name":"Brunnsbokyrkan","operator":"Svenska kyrkan","parish":"Backa församling","religion":"christian","source":"Bing Aerial","wikidata":"Q10436447","wikipedia":"sv:Brunnsbokyrkan"}},"geometry":{"type":"Point","coordinates":[11.9700965,57.7280531]}},{"type":"Feature","properties":{"id":157687000,"osm_type":"way","name":"Örgryte gamla kyrka","category":"place_of_worship","tags":{"amenity":"place_of_worship","building":"church","denomination":"lutheran","name":"Örgryte gamla kyrka","parish":"Örgryte församling","religion":"christian"}},"geometry":{"type":"Point","coordinates":[11.9968944,57.6985433]}},{"type":"Feature","properties":{"id":158771463,"osm_type":"way","name":"Johanneskyrkan","category":"place_of_worship","tags":{"addr:city":"Lindome","addr:housenumber":"29","addr:postcode":"437 32","addr:street":"Annestorpsvägen","amenity":"place_of_worship","building":"church","denomination":"lutheran","name":"Johanneskyrkan","phone":"+46 31 99 00 87","religion":"christian","website":"https://johanneskyrkan.com/"}},"geometry":{"type":"Point","coordinates":[12.0928175,57.5837668]}},{"type":"Feature","properties":{"id":170090234,"osm_type":"way","name":"Sävedalens kyrka","category":"place_of_worship","tags":{"amenity":"place_of_worship","building":"church","denomination":"lutheran","name":"Sävedalens kyrka","operator":"Svenska kyrkan","religion":"christian","wikidata":"Q10688251"}},"geometry":{"type":"Point","coordinates":[12.0715607,57.7283238]}},{"type":"Feature","properties":{"id":173791914,"osm_type":"way","name":"Missionskyrkan","category":"place_of_worship","tags":{"addr:country":"SE","addr:housenumber":"8","addr:street":"Skolvägen","amenity":"place_of_worship","building":"yes","check_date":"2026-04-23","denomination":"mission_covenant_church_of_sweden","name":"Missionskyrkan","religion":"christian"}},"geometry":{"type":"Point","coordinates":[12.0702905,57.7316407]}},{"type":"Feature","properties":{"id":174644442,"osm_type":"way","name":"Sankt Olofs kapell","category":"place_of_worship","tags":{"amenity":"place_of_worship","building":"chapel","check_date":"2024-06-07","denomination":"lutheran","name":"Sankt Olofs kapell","operator":"Svenska kyrkan","parish":"Göteborgs begravningssamfällighet","religion":"christian","website":"https://www.svenskakyrkan.se/gbs/sanktolofs/sanktsigrfrid/kapell"}},"geometry":{"type":"Point","coordinates":[12.0186824,57.7404973]}},{"type":"Feature","properties":{"id":174644443,"osm_type":"way","name":"Sankt Sigfrids kapell","category":"place_of_worship","tags":{"amenity":"place_of_worship","building":"chapel","denomination":"lutheran","name":"Sankt Sigfrids kapell","operator":"Svenska kyrkan","parish":"Göteborgs begravningssamfällighet","phone":"+46 31 731 80","polling_station":"no","religion":"christian","website":"https://www.svenskakyrkan.se/gbs/sanktolofs/sanktsigrfrid/kapell","wheelchair":"yes"}},"geometry":{"type":"Point","coordinates":[12.0183799,57.740673]}},{"type":"Feature","properties":{"id":174913043,"osm_type":"way","name":"Kärra kyrka","category":"place_of_worship","tags":{"addr:country":"SE","addr:housenumber":"4","addr:street":"Kärra Kapellväg","amenity":"place_of_worship","building":"church","denomination":"lutheran","name":"Kärra kyrka","operator":"Svenska kyrkan","parish":"Tuve-Säve församling","religion":"christian","wikidata":"Q10551885","wikipedia":"sv:Kärra kyrka"}},"geometry":{"type":"Point","coordinates":[11.9919576,57.7912044]}},{"type":"Feature","properties":{"id":180600645,"osm_type":"way","name":"Rikets sal","category":"place_of_worship","tags":{"amenity":"place_of_worship","building":"yes","denomination":"jehovahs_witness","name":"Rikets sal","religion":"christian"}},"geometry":{"type":"Point","coordinates":[12.0358296,57.7256749]}},{"type":"Feature","properties":{"id":182376860,"osm_type":"way","name":"Öjersjökyrkan","category":"place_of_worship","tags":{"addr:country":"SE","addr:housenumber":"40","addr:street":"Hålsjövägen","amenity":"place_of_worship","building":"church","denomination":"lutheran","name":"Öjersjökyrkan","operator":"Svenska kyrkan","religion":"christian","wikidata":"Q10727202"}},"geometry":{"type":"Point","coordinates":[12.1092919,57.6866921]}},{"type":"Feature","properties":{"id":189944012,"osm_type":"way","name":"Tuve kyrka","category":"place_of_worship","tags":{"amenity":"place_of_worship","building":"church","denomination":"lutheran","name":"Tuve kyrka","operator":"Svenska kyrkan","parish":"Tuve-Säve församling","religion":"christian","wikidata":"Q7857139","wikipedia":"sv:Tuve kyrka"}},"geometry":{"type":"Point","coordinates":[11.9331144,57.7659934]}},{"type":"Feature","properties":{"id":191746589,"osm_type":"way","name":"Nyapostolistiska kyrkan","category":"place_of_worship","tags":{"amenity":"place_of_worship","building":"yes","denomination":"new_apostolic","name":"Nyapostolistiska kyrkan","religion":"christian"}},"geometry":{"type":"Point","coordinates":[11.9786398,57.7276711]}},{"type":"Feature","properties":{"id":195005074,"osm_type":"way","name":"Mariakyrkan","category":"place_of_worship","tags":{"addr:city":"Göteborg","addr:housenumber":"3","addr:postcode":"411 01","addr:street":"Lilla Stampgatan","amenity":"place_of_worship","architect":"Carl Wilhelm Carlberg","building":"church","building:colour":"white","check_date":"2024-06-17","contact:website":"https://www.svenskakyrkan.se/gbgdomkyrko/mariakyrkan","denomination":"lutheran","name":"Mariakyrkan","old_name":"Fattighuskyrkan","operator":"Svenska kyrkan","parish":"Göteborgs domkyrkoförsamling","religion":"christian","source":"Yahoo","start_date":"1815","wikidata":"Q10577235","wikimedia_commons":"File:Mariakyrkan September 2012.jpg","wikipedia":"sv:Mariakyrkan, Göteborg"}},"geometry":{"type":"Point","coordinates":[11.9876806,57.7077709]}},{"type":"Feature","properties":{"id":195606634,"osm_type":"way","name":"Björkekärrs kyrka","category":"place_of_worship","tags":{"addr:country":"SE","addr:housenumber":"1","addr:street":"Sörensens Gata","amenity":"place_of_worship","building":"church","denomination":"lutheran","email":"bjorkekarr.forsamling@svenskakyrkan.se","name":"Björkekärrs kyrka","operator":"Svenska kyrkan","parish":"Björkekärrs församling","religion":"christian","wikidata":"Q10430552","wikipedia":"sv:Björkekärrs kyrka"}},"geometry":{"type":"Point","coordinates":[12.0469161,57.714002]}},{"type":"Feature","properties":{"id":196225246,"osm_type":"way","name":"Sankt Josefs kapell","category":"place_of_worship","tags":{"addr:city":"Göteborg","addr:country":"SE","addr:housenumber":"5","addr:postcode":"415 05","addr:street":"Regementsvägen","amenity":"place_of_worship","building":"church","denomination":"catholic","name":"Sankt Josefs kapell","operator":"Kristus Konungens Katolska Församling","religion":"christian","short_name":"St Josefs kapell"}},"geometry":{"type":"Point","coordinates":[12.025999,57.7358367]}},{"type":"Feature","properties":{"id":196228292,"osm_type":"way","name":"","category":"place_of_worship","tags":{"amenity":"place_of_worship","building":"yes","denomination":"jehovahs_witness","religion":"christian"}},"geometry":{"type":"Point","coordinates":[12.0276029,57.7562391]}},{"type":"Feature","properties":{"id":196312114,"osm_type":"way","name":"Säve kyrka","category":"place_of_worship","tags":{"amenity":"place_of_worship","building":"church","contact:website":"https://www.svenskakyrkan.se/tuve-save/save-kyrka","denomination":"lutheran","name":"Säve kyrka","operator":"Svenska kyrkan","parish":"Tuve-Säve församling","religion":"christian","wikidata":"Q7665791","wikipedia":"sv:Säve kyrka"}},"geometry":{"type":"Point","coordinates":[11.9183988,57.8029112]}},{"type":"Feature","properties":{"id":198376869,"osm_type":"way","name":"Ansgarskyrkan","category":"place_of_worship","tags":{"addr:country":"SE","addr:housenumber":"4","addr:street":"Enedalsvägen","amenity":"place_of_worship","building":"church","denomination":"lutheran","name":"Ansgarskyrkan","operator":"Svenska kyrkan","religion":"christian","wikidata":"Q60968444"}},"geometry":{"type":"Point","coordinates":[12.0764889,57.7151963]}},{"type":"Feature","properties":{"id":212772503,"osm_type":"way","name":"Sankt Guirguis kyrka","category":"place_of_worship","tags":{"amenity":"place_of_worship","building":"chapel","denomination":"coptic_orthodox","name":"Sankt Guirguis kyrka","religion":"christian"}},"geometry":{"type":"Point","coordinates":[12.0331539,57.7896738]}},{"type":"Feature","properties":{"id":213511474,"osm_type":"way","name":"Sankt Johannes","category":"place_of_worship","tags":{"amenity":"place_of_worship","building":"church","denomination":"orthodox","name":"Sankt Johannes","religion":"christian","short_name":"St: Johannes"}},"geometry":{"type":"Point","coordinates":[12.02457,57.7721902]}},{"type":"Feature","properties":{"id":214218461,"osm_type":"way","name":"","category":"place_of_worship","tags":{"amenity":"place_of_worship","building":"yes","religion":"christian"}},"geometry":{"type":"Point","coordinates":[12.1129239,57.6586214]}},{"type":"Feature","properties":{"id":215096306,"osm_type":"way","name":"Chùa Phật Quang","category":"place_of_worship","tags":{"addr:city":"Angered","addr:housenumber":"12","addr:postcode":"424 34","addr:street":"Nedre Hjällbogärdet","amenity":"place_of_worship","building":"yes","name":"Chùa Phật Quang","opening_hours":"Mo-Su 09:00-16:00","phone":"+46 720148869","religion":"buddhist","website":"https://www.facebook.com/pages/Phat-Quang-Tempel/141293055959649"}},"geometry":{"type":"Point","coordinates":[12.0373022,57.7679985]}},{"type":"Feature","properties":{"id":215583068,"osm_type":"way","name":"Angereds kyrka","category":"place_of_worship","tags":{"amenity":"place_of_worship","building":"church","denomination":"lutheran","name":"Angereds kyrka","operator":"Svenska kyrkan","parish":"Angereds församling","religion":"christian","wikidata":"Q10411780","wikipedia":"sv:Angereds kyrka"}},"geometry":{"type":"Point","coordinates":[12.1011534,57.7867996]}},{"type":"Feature","properties":{"id":221344465,"osm_type":"way","name":"","category":"place_of_worship","tags":{"amenity":"place_of_worship","building":"yes","religion":"jewish"}},"geometry":{"type":"Point","coordinates":[12.0175431,57.712282]}},{"type":"Feature","properties":{"id":222852164,"osm_type":"way","name":"Östra kapellet","category":"place_of_worship","tags":{"addr:city":"Göteborg","addr:housenumber":"7","addr:postcode":"416 57","addr:street":"Nobelplatsen","amenity":"place_of_worship","architect":"J H Strömberg","building":"chapel","contact:email":"gbg.begravningssamfallighet@svenskakyrkan.se","contact:phone":"+46 31 731 80 80","contact:website":"https://www.svenskakyrkan.se/gbs/ostrakapellet","denomination":"lutheran","name":"Östra kapellet","operator":"Svenska kyrkan","parish":"Göteborgs begravningssamfällighet","religion":"christian","start_date":"1861"}},"geometry":{"type":"Point","coordinates":[12.0074387,57.7151612]}},{"type":"Feature","properties":{"id":225835034,"osm_type":"way","name":"Vallhamrakyrkan","category":"place_of_worship","tags":{"amenity":"place_of_worship","building":"yes","denomination":"lutheran","name":"Vallhamrakyrkan","religion":"christian"}},"geometry":{"type":"Point","coordinates":[12.0801467,57.7221]}},{"type":"Feature","properties":{"id":239300846,"osm_type":"way","name":"Partille kyrka","category":"place_of_worship","tags":{"amenity":"place_of_worship","building":"church","denomination":"lutheran","name":"Partille kyrka","operator":"Svenska kyrkan","religion":"christian","wikidata":"Q10621389"}},"geometry":{"type":"Point","coordinates":[12.1045244,57.7396856]}},{"type":"Feature","properties":{"id":240827499,"osm_type":"way","name":"Lindome kyrka","category":"place_of_worship","tags":{"addr:city":"Lindome","addr:country":"SE","addr:housenumber":"15","addr:postcode":"437 35","addr:street":"Barnsjövägen","amenity":"place_of_worship","building":"church","denomination":"lutheran","name":"Lindome kyrka","operator":"Svenska kyrkan","parish":"Lindome församling","religion":"christian","wikidata":"Q10562603"}},"geometry":{"type":"Point","coordinates":[12.1092883,57.5774837]}},{"type":"Feature","properties":{"id":246677216,"osm_type":"way","name":"Apelgårdens kyrka","category":"place_of_worship","tags":{"amenity":"place_of_worship","building":"church","denomination":"lutheran","name":"Apelgårdens kyrka","operator":"Svenska kyrkan","parish":"Kållereds församling","religion":"christian","wikidata":"Q49102495"}},"geometry":{"type":"Point","coordinates":[12.0341282,57.606057]}},{"type":"Feature","properties":{"id":246682578,"osm_type":"way","name":"Ekenkyrkan","category":"place_of_worship","tags":{"addr:city":"Kållered","addr:country":"SE","addr:housenumber":"2","addr:postcode":"428 37","addr:street":"Heljeredsvägen","amenity":"place_of_worship","building":"yes","name":"Ekenkyrkan","religion":"christian"}},"geometry":{"type":"Point","coordinates":[12.0399538,57.6087447]}},{"type":"Feature","properties":{"id":251067209,"osm_type":"way","name":"Ytterby kyrka","category":"place_of_worship","tags":{"amenity":"place_of_worship","building":"church","denomination":"lutheran","name":"Ytterby kyrka","operator":"Svenska kyrkan","parish":"Kungälv-Ytterby församling","religion":"christian","wikidata":"Q10723822"}},"geometry":{"type":"Point","coordinates":[11.9210819,57.8615709]}},{"type":"Feature","properties":{"id":271043995,"osm_type":"way","name":"Harestads kyrka","category":"place_of_worship","tags":{"amenity":"place_of_worship","building":"church","denomination":"lutheran","name":"Harestads kyrka","operator":"Svenska kyrkan","parish":"Harestads församling","religion":"christian","wikidata":"Q10518089"}},"geometry":{"type":"Point","coordinates":[11.8376678,57.8174219]}},{"type":"Feature","properties":{"id":274131892,"osm_type":"way","name":"Smyrna Gårdsten","category":"place_of_worship","tags":{"amenity":"place_of_worship","building":"yes","denomination":"pentecostal","name":"Smyrna Gårdsten","religion":"christian","wheelchair":"yes"}},"geometry":{"type":"Point","coordinates":[12.0316516,57.8091403]}},{"type":"Feature","properties":{"id":274827130,"osm_type":"way","name":"Billdals kyrka","category":"place_of_worship","tags":{"addr:city":"Billdal","addr:housenumber":"1","addr:postcode":"42738","addr:street":"Billdals Kyrkväg","amenity":"place_of_worship","building":"church","denomination":"lutheran","name":"Billdals kyrka","operator":"Svenska kyrkan","parish":"Askims församling","religion":"christian","wikidata":"Q10429614","wikipedia":"sv:Billdals kyrka"}},"geometry":{"type":"Point","coordinates":[11.9425365,57.5758153]}},{"type":"Feature","properties":{"id":277126646,"osm_type":"way","name":"Pingstkyrkan","category":"place_of_worship","tags":{"addr:country":"SE","addr:housenumber":"4","addr:street":"Letsegårdsängen","amenity":"place_of_worship","building":"church","denomination":"pentecostal","name":"Pingstkyrkan","operator":"Elimförsamlingen i Billdal","religion":"christian"}},"geometry":{"type":"Point","coordinates":[11.9621719,57.5766027]}},{"type":"Feature","properties":{"id":284275489,"osm_type":"way","name":"Surte kyrka","category":"place_of_worship","tags":{"amenity":"place_of_worship","building":"church","denomination":"lutheran","name":"Surte kyrka","operator":"Svenska kyrkan","religion":"christian","wikidata":"Q10684172"}},"geometry":{"type":"Point","coordinates":[12.0141377,57.8325437]}},{"type":"Feature","properties":{"id":291353441,"osm_type":"way","name":"Rikets sal","category":"place_of_worship","tags":{"addr:city":"Västra Frölunda","addr:country":"SE","addr:housenumber":"1B","addr:postcode":"42148","addr:street":"Topasgatan","amenity":"place_of_worship","building":"yes","denomination":"jehovahs_witness","name":"Rikets sal","religion":"christian"}},"geometry":{"type":"Point","coordinates":[11.9152748,57.6467368]}},{"type":"Feature","properties":{"id":299628796,"osm_type":"way","name":"Kullavikskyrka","category":"place_of_worship","tags":{"addr:country":"SE","addr:housenumber":"17","addr:street":"Kyviks Äng","alt_name":"Kullavikskyrkan","amenity":"place_of_worship","building":"church","denomination":"lutheran","name":"Kullavikskyrka","operator":"Svenska kyrkan","parish":"Särö pastorat","religion":"christian","wikidata":"Q18291444","wikipedia":"sv:Kullavikskyrkan"}},"geometry":{"type":"Point","coordinates":[11.9456939,57.5471478]}},{"type":"Feature","properties":{"id":321964332,"osm_type":"way","name":"Sankt Matteus kapell","category":"place_of_worship","tags":{"addr:city":"Göteborg","addr:country":"SE","addr:housenumber":"24","addr:postcode":"414 74","addr:street":"Sven Brolids Väg","amenity":"place_of_worship","building":"chapel","denomination":"lutheran","name":"Sankt Matteus kapell","operator":"Svenska kyrkan","parish":"Göteborgs begravningssamfällighet","religion":"christian"}},"geometry":{"type":"Point","coordinates":[11.9176389,57.6819293]}},{"type":"Feature","properties":{"id":370335718,"osm_type":"way","name":"Vasakyrkan","category":"place_of_worship","tags":{"addr:city":"Göteborg","addr:country":"SE","addr:housenumber":"1","addr:postcode":"41127","addr:street":"Vasa Kyrkoplan","amenity":"place_of_worship","building":"church","denomination":"lutheran","email":"vasa.forsamling@svenskakyrkan.se","name":"Vasakyrkan","operator":"Svenska kyrkan","parish":"Vasa församling","phone":"+46 31 731 61 30","religion":"christian","source":"Göteborg stadskarta","website":"https://www.svenskakyrkan.se/vasa/vasakyrkan","wikidata":"Q7916318","wikipedia":"sv:Vasakyrkan, Göteborg"}},"geometry":{"type":"Point","coordinates":[11.9734267,57.6969604]}},{"type":"Feature","properties":{"id":396329788,"osm_type":"way","name":"Furulundskyrkan","category":"place_of_worship","tags":{"amenity":"place_of_worship","building":"church","contact:website":"http://furulundskyrkan.se/","denomination":"lutheran","name":"Furulundskyrkan","operator":"Svenska kyrkan","religion":"christian","wikidata":"Q10500245"}},"geometry":{"type":"Point","coordinates":[12.1271749,57.7258942]}},{"type":"Feature","properties":{"id":428180145,"osm_type":"way","name":"Rödbo kyrka","category":"place_of_worship","tags":{"addr:city":"Kungälv","addr:country":"SE","addr:street":"Vedbackavägen","amenity":"place_of_worship","building":"church","denomination":"lutheran","name":"Rödbo kyrka","operator":"Svenska kyrkan","parish":"Tuve-Säve församling","religion":"christian","wikidata":"Q10658884","wikipedia":"sv:Rödbo kyrka"}},"geometry":{"type":"Point","coordinates":[11.9943238,57.8562955]}},{"type":"Feature","properties":{"id":626755352,"osm_type":"way","name":"Kållereds kyrka","category":"place_of_worship","tags":{"addr:city":"Kållered","addr:country":"SE","addr:housenumber":"23","addr:postcode":"42830","addr:street":"Norra Kyrkvägen","amenity":"place_of_worship","building":"church","denomination":"lutheran","name":"Kållereds kyrka","operator":"Svenska kyrkan","parish":"Kållereds församling","religion":"christian","wikidata":"Q10552012"}},"geometry":{"type":"Point","coordinates":[12.0554999,57.6061757]}},{"type":"Feature","properties":{"id":675616031,"osm_type":"way","name":"Sankta Maria kyrkan","category":"place_of_worship","tags":{"addr:city":"Göteborg","addr:country":"SE","addr:housenumber":"1","addr:postcode":"415 20","addr:street":"Meteorgatan","amenity":"place_of_worship","building":"church","name":"Sankta Maria kyrkan","religion":"christian","website":"https://sv-se.facebook.com/sankta.maria.kyrkan/","wikidata":"Q106328973"}},"geometry":{"type":"Point","coordinates":[12.0737713,57.7541695]}},{"type":"Feature","properties":{"id":688856798,"osm_type":"way","name":"","category":"place_of_worship","tags":{"amenity":"place_of_worship","building":"yes","religion":"christian"}},"geometry":{"type":"Point","coordinates":[11.8999766,57.6417371]}},{"type":"Feature","properties":{"id":966802009,"osm_type":"way","name":"Centrumkyrkan","category":"place_of_worship","tags":{"addr:city":"Kållered","addr:country":"SE","addr:housenumber":"75","addr:postcode":"42830","addr:street":"Gamla Riksvägen","amenity":"place_of_worship","building":"yes","denomination":"lutheran","name":"Centrumkyrkan","operator":"Svenska kyrkan","parish":"Kållereds församling","religion":"christian"}},"geometry":{"type":"Point","coordinates":[12.0505875,57.6088052]}},{"type":"Feature","properties":{"id":1136294150,"osm_type":"way","name":"Frihamnskyrkan","category":"place_of_worship","tags":{"addr:city":"Göteborg","addr:country":"SE","addr:housenumber":"14","addr:postcode":"417 70","addr:street":"Frihamnen","amenity":"place_of_worship","building":"church","building:levels":"8","denomination":"pentecostal","name":"Frihamnskyrkan","operator":"Smyrnakyrkan Göteborg","phone":"+46 (0)31-7992700","religion":"christian","website":"https://www.smyrna.se/","wikidata":"Q117280414"}},"geometry":{"type":"Point","coordinates":[11.9605477,57.7164762]}},{"type":"Feature","properties":{"id":1601321,"osm_type":"relation","name":"Johannebergskyrkan","category":"place_of_worship","tags":{"amenity":"place_of_worship","building":"church","check_date":"2025-10-09","denomination":"lutheran","name":"Johannebergskyrkan","operator":"Svenska kyrkan","parish":"Johannebergs församling","religion":"christian","type":"multipolygon","wikidata":"Q10540469","wikipedia":"sv:Johannebergskyrkan"}},"geometry":{"type":"Point","coordinates":[11.9804137,57.6910971]}},{"type":"Feature","properties":{"id":1606221,"osm_type":"relation","name":"Guldhedskyrkan","category":"place_of_worship","tags":{"amenity":"place_of_worship","building":"church","denomination":"lutheran","name":"Guldhedskyrkan","operator":"Svenska kyrkan","parish":"Annedals församling","phone":"+46 31 731 61 30","religion":"christian","type":"multipolygon","website":"https://www.svenskakyrkan.se/annedal/om-guldhedskyrkan","wheelchair":"yes","wikidata":"Q10510524","wikipedia":"sv:Guldhedskyrkan"}},"geometry":{"type":"Point","coordinates":[11.973058,57.6852404]}},{"type":"Feature","properties":{"id":2637569,"osm_type":"relation","name":"Serbisk-ortodoxa kyrkan i Göteborg","category":"place_of_worship","tags":{"amenity":"place_of_worship","building":"church","denomination":"serbian_orthodox","name":"Serbisk-ortodoxa kyrkan i Göteborg","old_name":"Vårfrukyrkan","religion":"christian","type":"multipolygon","wikidata":"Q10718866","wikipedia":"sv:Vårfrukyrkan, Göteborg"}},"geometry":{"type":"Point","coordinates":[12.0282657,57.7482422]}},{"type":"Feature","properties":{"id":2846130,"osm_type":"relation","name":"Mariakyrkan","category":"place_of_worship","tags":{"amenity":"place_of_worship","building":"yes","name":"Mariakyrkan","religion":"christian","type":"multipolygon","wheelchair":"yes"}},"geometry":{"type":"Point","coordinates":[12.0295874,57.7816178]}},{"type":"Feature","properties":{"id":16095298,"osm_type":"relation","name":"New Life","category":"place_of_worship","tags":{"amenity":"place_of_worship","building":"yes","building:colour":"lightgrey","denomination":"baptist","name":"New Life","religion":"christian","type":"multipolygon","website":"https://www.newlife.nu/"}},"geometry":{"type":"Point","coordinates":[12.027808,57.733131]}}]}