{"type":"FeatureCollection","features":[{"type":"Feature","properties":{"id":293704481,"osm_type":"node","name":"Polisen Hisingen","category":"police","tags":{"addr:city":"Göteborg","addr:country":"SE","addr:housenumber":"5","addr:postcode":"417 02","addr:street":"Vågmästaregatan","amenity":"police","branch":"Vågmästareplatsen","name":"Polisen Hisingen","opening_hours":"Mo-We 09:00-15:00; Th 12:00-19:00; Fr 09:00-15:00"}},"geometry":{"type":"Point","coordinates":[11.9456885,57.7201055]}},{"type":"Feature","properties":{"id":1481203149,"osm_type":"node","name":"Polisen Göteborg City","category":"police","tags":{"addr:city":"Göteborg","addr:country":"SE","addr:housenumber":"28","addr:postcode":"411 01","addr:street":"Stampgatan","amenity":"police","contact:instagram":"https://www.instagram.com/polisengoteborgcity","contact:website":"https://polisen.se/om-polisen/kontakt/polisstationer/vastra-gotaland/goteborg-city/","name":"Polisen Göteborg City","wheelchair":"yes"}},"geometry":{"type":"Point","coordinates":[11.9841449,57.7077164]}},{"type":"Feature","properties":{"id":8177192399,"osm_type":"node","name":"Polisen Göteborg Nordost Hjällbo","category":"police","tags":{"addr:city":"Angered","addr:country":"SE","addr:housenumber":"1","addr:postcode":"424 33","addr:street":"Hjällbo Lillgata","amenity":"police","name":"Polisen Göteborg Nordost Hjällbo"}},"geometry":{"type":"Point","coordinates":[12.0293311,57.7724238]}},{"type":"Feature","properties":{"id":1381749,"osm_type":"relation","name":"Polisstation Mölndal","category":"police","tags":{"addr:city":"Mölndal","addr:housenumber":"3","addr:postcode":"43135","addr:street":"Torggatan","amenity":"police","building":"yes","name":"Polisstation Mölndal","type":"multipolygon"}},"geometry":{"type":"Point","coordinates":[12.0193998,57.6595001]}},{"type":"Feature","properties":{"id":1840376,"osm_type":"relation","name":"Polisen Göteborg","category":"police","tags":{"addr:city":"Göteborg","addr:country":"SE","addr:street":"Ernst Fontells Plats","amenity":"police","architect":"Arkitektkontoret Backström & Renius","building":"public","name":"Polisen Göteborg","start_date":"1967","type":"multipolygon"}},"geometry":{"type":"Point","coordinates":[11.9823012,57.7059237]}}]}