{"type":"FeatureCollection","features":[{"type":"Feature","properties":{"id":10592597034,"osm_type":"node","name":"Partille gymnasium","category":"school_high","tags":{"addr:city":"Partille","addr:country":"SE","addr:housenumber":"56","addr:postcode":"433 33","addr:street":"Gamla Kronvägen","amenity":"school","grades":"10-12","isced:level":"3","name":"Partille gymnasium","operator":"Partille kommun","operator:type":"public","website":"https://prod.partillegymnasium.se/"}},"geometry":{"type":"Point","coordinates":[12.1104649,57.7408049]}},{"type":"Feature","properties":{"id":1057984225,"osm_type":"way","name":"Polhemsgymnasiet","category":"school_high","tags":{"amenity":"school","check_date":"2024-08-08","isced:level":"3","name":"Polhemsgymnasiet"}},"geometry":{"type":"Point","coordinates":[11.936863,57.7042929]}},{"type":"Feature","properties":{"id":1057984226,"osm_type":"way","name":"Ester Mosessons gymnasium","category":"school_high","tags":{"amenity":"school","check_date":"2024-06-12","email":"info.mosesson@educ.goteborg.se","grades":"10-12","isced:level":"3","name":"Ester Mosessons gymnasium","phone":"+46 31 367 22 00","website":"https://goteborg.se/wps/portal/enhetssida/ester-mosessons-gymnasium"}},"geometry":{"type":"Point","coordinates":[11.9365942,57.7053252]}},{"type":"Feature","properties":{"id":1057984227,"osm_type":"way","name":"Bräckegymnasiet","category":"school_high","tags":{"amenity":"school","isced:level":"3","name":"Bräckegymnasiet","website":"https://goteborg.se/wps/portal/enhetssida/brackegymnasiet"}},"geometry":{"type":"Point","coordinates":[11.9359988,57.7066818]}},{"type":"Feature","properties":{"id":1132962582,"osm_type":"way","name":"Lindholmens tekniska gymnasium","category":"school_high","tags":{"amenity":"school","check_date":"2025-08-14","grades":"10-12","isced:level":"3","name":"Lindholmens tekniska gymnasium","operator":"Göteborgs Stad","operator:type":"public","source":"Göteborg stadskarta","website":"https://goteborg.se/wps/portal/enhetssida/lindholmens-tekniska-gymnasium"}},"geometry":{"type":"Point","coordinates":[11.9349964,57.7048998]}}]}