{"type":"FeatureCollection","features":[{"type":"Feature","properties":{"id":4364986335,"osm_type":"node","name":"JumpYard","category":"stadium","tags":{"addr:city":"Göteborg","addr:country":"SE","addr:housenumber":"4C","addr:postcode":"41673","addr:street":"Torpavallsgatan","leisure":"stadium","name":"JumpYard","name:en":"JumpYard","name:sv":"JumpYard","opening_hours":"Mo-Th 10:00-21:00; Fr 10:00-22:00; Sa 09:00-22:00; Su 09:00-21:00","sport":"gymnastics","website":"https://www.jumpyard.se/goteborg/","wheelchair":"yes"}},"geometry":{"type":"Point","coordinates":[12.0301894,57.7242386]}},{"type":"Feature","properties":{"id":13893118,"osm_type":"way","name":"Ullevi","category":"stadium","tags":{"leisure":"stadium","name":"Ullevi","name:da":"Ullevi","name:de":"Ullevi","name:en":"Ullevi","name:sv":"Ullevi","name:uk":"Уллеві","sport":"multi","start_date":"1958","website":"http://www.ullevi.se/","wheelchair":"yes","wikidata":"Q824352","wikipedia":"sv:Ullevi"}},"geometry":{"type":"Point","coordinates":[11.9873286,57.7059257]}},{"type":"Feature","properties":{"id":26788758,"osm_type":"way","name":"Skarpe Nord","category":"stadium","tags":{"addr:city":"Kungälv","addr:country":"SE","addr:housenumber":"1","addr:street":"Simbadsgatan","leisure":"stadium","name":"Skarpe Nord","sport":"bandy;soccer","wikidata":"Q4421610","wikipedia":"sv:Skarpe Nord"}},"geometry":{"type":"Point","coordinates":[11.9725204,57.8667296]}},{"type":"Feature","properties":{"id":104112635,"osm_type":"way","name":"Gamla Ullevi","category":"stadium","tags":{"capacity":"18416","leisure":"stadium","name":"Gamla Ullevi","owner":"Higab","sport":"soccer","start_date":"2009-04-05","wikidata":"Q165944","wikipedia":"sv:Gamla Ullevi"}},"geometry":{"type":"Point","coordinates":[11.9801227,57.7062613]}},{"type":"Feature","properties":{"id":247405953,"osm_type":"way","name":"Partille Arena","category":"stadium","tags":{"building":"yes","leisure":"stadium","name":"Partille Arena","sport":"multi","wikidata":"Q26256882","wikipedia":"sv:Partille Arena"}},"geometry":{"type":"Point","coordinates":[12.117043,57.7399061]}},{"type":"Feature","properties":{"id":1174311046,"osm_type":"way","name":"Scandinavium","category":"stadium","tags":{"architect":"Poul Hultberg","building":"yes","building:colour":"lightgrey","leisure":"stadium","name":"Scandinavium","sport":"multi","start_date":"1970","website":"http://www.scandinavium.se/","wheelchair":"yes","wikidata":"Q1138447","wikipedia":"sv:Scandinavium"}},"geometry":{"type":"Point","coordinates":[11.987659,57.6992779]}},{"type":"Feature","properties":{"id":9233481,"osm_type":"relation","name":"Nordic Wellness Arena","category":"stadium","tags":{"building":"grandstand","leisure":"stadium","name":"Nordic Wellness Arena","old_name":"Rambergsvallen","sport":"soccer","type":"multipolygon","wikidata":"Q18822195","wikipedia":"sv:Nordic Wellness Arena"}},"geometry":{"type":"Point","coordinates":[11.9306757,57.7191615]}}]}