{"type":"FeatureCollection","features":[{"type":"Feature","properties":{"id":287502949,"osm_type":"node","name":"Biopalatset","category":"theatre","tags":{"amenity":"cinema","check_date":"2025-08-09","name":"Biopalatset","wheelchair":"yes","wikidata":"Q10429815"}},"geometry":{"type":"Point","coordinates":[11.966847,57.703422]}},{"type":"Feature","properties":{"id":441312205,"osm_type":"node","name":"Göteborgsoperan","category":"theatre","tags":{"addr:country":"SE","addr:street":"Christina Nilssons Gata","amenity":"theatre","contact:website":"http://opera.se/","live_music":"yes","music_genre":"opera;classical","name":"Göteborgsoperan","name:en":"The Gothenburg Opera","name:fr":"Opéra de Göteborg","name:sv":"Göteborgsoperan","theatre:type":"opera_house","wikidata":"Q2510029","wikipedia":"sv:Göteborgsoperan"}},"geometry":{"type":"Point","coordinates":[11.9632601,57.7106919]}},{"type":"Feature","properties":{"id":461591076,"osm_type":"node","name":"Hagabion","category":"theatre","tags":{"addr:city":"Göteborg","addr:country":"SE","addr:housenumber":"21","addr:postcode":"413 04","addr:street":"Linnégatan","amenity":"cinema","email":"info@hagabion.se","name":"Hagabion","payment:cash":"yes","payment:credit_cards":"yes","payment:debit_cards":"yes","phone":"+46 31 42 88 10","screen":"3","website":"https://hagabion.se/","wheelchair":"limited","wikidata":"Q10515893","wikipedia":"sv:Hagabion"}},"geometry":{"type":"Point","coordinates":[11.9506304,57.6964655]}},{"type":"Feature","properties":{"id":623005566,"osm_type":"node","name":"Roy","category":"theatre","tags":{"addr:city":"Göteborg","addr:country":"SE","addr:housenumber":"45","addr:postcode":"411 36","addr:street":"Kungsportsavenyen","amenity":"cinema","contact:email":"info@bioroy.se","contact:facebook":"https://www.facebook.com/bioroy/","contact:instagram":"https://www.instagram.com/bioroy","contact:phone":"+46 31 208 01 1","contact:website":"https://www.bioroy.se/","name":"Roy","old_name":"Royal","payment:cash":"yes","payment:credit_cards":"yes","payment:debit_cards":"yes","screen":"1","wikidata":"Q10657470"}},"geometry":{"type":"Point","coordinates":[11.9781648,57.6978299]}},{"type":"Feature","properties":{"id":630732489,"osm_type":"node","name":"Angereds Teater","category":"theatre","tags":{"amenity":"theatre","name":"Angereds Teater","wikidata":"Q4568313"}},"geometry":{"type":"Point","coordinates":[12.0509939,57.795765]}},{"type":"Feature","properties":{"id":1477742339,"osm_type":"node","name":"Pelikanteatern","category":"theatre","tags":{"access":"yes","addr:city":"Göteborg","addr:country":"SE","addr:housenumber":"23","addr:postcode":"414 69","addr:street":"Kungsladugårdsgatan","amenity":"theatre","contact:email":"info@pelikanteatern.se","contact:phone":"+46 31 828 30 78","entrance":"yes","name":"Pelikanteatern","website":"https://pelikanteatern.se"}},"geometry":{"type":"Point","coordinates":[11.9258065,57.6842344]}},{"type":"Feature","properties":{"id":1641602356,"osm_type":"node","name":"Hagateatern","category":"theatre","tags":{"amenity":"theatre","check_date":"2024-06-27","name":"Hagateatern"}},"geometry":{"type":"Point","coordinates":[11.9547037,57.6998193]}},{"type":"Feature","properties":{"id":1740311229,"osm_type":"node","name":"Capitol","category":"theatre","tags":{"addr:city":"Göteborg","addr:country":"SE","addr:housenumber":"1","addr:postcode":"411 22","addr:street":"Skanstorget","air_conditioning":"yes","amenity":"cinema","architect":"Nils Olsson","capacity":"224","check_date":"2026-04-04","cinema:3D":"no","cinema:IMAX":"no","contact:email":"capitolgbg@gmail.com","contact:facebook":"https://www.facebook.com/capitolgbg","contact:instagram":"https://www.instagram.com/capitolgbg","contact:phone":"+46 31 711 43 44","contact:website":"http://www.capitolgbg.se/","dog":"yes","dog:conditional":"monthly","drive_in":"no","name":"Capitol","open_air":"no","operator":"Biografmaskinisterna vid Skanstorget ekonomisk förening","payment:cash":"yes","payment:credit_cards":"yes","payment:debit_cards":"yes","screen":"2","start_date":"1941-11-21","wheelchair":"limited","wikidata":"Q10441996","wikipedia":"sv:Capitol, Göteborg"}},"geometry":{"type":"Point","coordinates":[11.9594391,57.6958768]}},{"type":"Feature","properties":{"id":1916246714,"osm_type":"node","name":"Backa Teater","category":"theatre","tags":{"addr:country":"SE","addr:housenumber":"1C","addr:street":"Lärdomsgatan","amenity":"theatre","check_date":"2024-06-12","name":"Backa Teater","start_date":"1978","wikidata":"Q3468341"}},"geometry":{"type":"Point","coordinates":[11.9360436,57.7059179]}},{"type":"Feature","properties":{"id":2050500645,"osm_type":"node","name":"Folkteatern","category":"theatre","tags":{"addr:city":"Göteborg","addr:country":"SE","addr:housenumber":"1","addr:place":"Olof Palmes Plats","air_conditioning":"yes","amenity":"theatre","contact:email":"info@folkteatern.se","contact:facebook":"https://www.facebook.com/FolkteaternGbg/","contact:instagram":"https://www.instagram.com/folkteaterngbg","contact:phone":"+46 31 607 57 5","contact:website":"https://www.folkteatern.se/","name":"Folkteatern","theatre:genre":"drama;comedy","toilets:wheelchair":"yes","wheelchair":"yes","wikidata":"Q721246"}},"geometry":{"type":"Point","coordinates":[11.9520331,57.7009059]}},{"type":"Feature","properties":{"id":2151827053,"osm_type":"node","name":"Kungsportshuset","category":"theatre","tags":{"addr:city":"Göteborg","addr:country":"SE","addr:housenumber":"18","addr:postcode":"411 07","addr:street":"Östra Larmgatan","amenity":"events_venue","check_date":"2026-04-18","email":"info@kungsportshuset.se","name":"Kungsportshuset","website":"https://kungsportshuset.se/"}},"geometry":{"type":"Point","coordinates":[11.9710855,57.7048641]}},{"type":"Feature","properties":{"id":2298474142,"osm_type":"node","name":"Draken","category":"theatre","tags":{"amenity":"cinema","check_date":"2024-06-04","name":"Draken","wheelchair":"limited","wikidata":"Q428408","wikimedia_commons":"File:Draken,_Cinema-01.JPG"}},"geometry":{"type":"Point","coordinates":[11.9535543,57.7011]}},{"type":"Feature","properties":{"id":2638431667,"osm_type":"node","name":"Teater Jaguar","category":"theatre","tags":{"addr:city":"Göteborg","addr:country":"SE","addr:housenumber":"3","addr:postcode":"411 24","addr:street":"Storgatan","amenity":"theatre","check_date":"2026-04-04","contact:email":"kontoret@teaterjaguar.se","contact:facebook":"https://www.facebook.com/jaguarteater/","contact:instagram":"https://www.instagram.com/teaterjaguar","contact:phone":"+46 73 515 48 51","contact:vimeo":"http://vimeo.com/search?q=teater+jaguar","contact:website":"https://www.teaterjaguar.se/","contact:youtube":"http://www.youtube.com/user/TeaterJaguar","name":"Teater Jaguar","payment:cash":"yes","payment:credit_cards":"yes","payment:debit_cards":"yes","start_date":"1987"}},"geometry":{"type":"Point","coordinates":[11.9636146,57.6989877]}},{"type":"Feature","properties":{"id":2696785649,"osm_type":"node","name":"Atalante","category":"theatre","tags":{"addr:city":"Göteborg","addr:country":"SE","addr:housenumber":"1","addr:postcode":"411 22","addr:street":"Övre Husargatan","air_conditioning":"yes","amenity":"theatre","check_date":"2026-04-04","contact:email":"atalante@atalante.org","contact:facebook":"https://www.facebook.com/atalantegbg/","contact:instagram":"https://www.instagram.com/atalantegbg","contact:phone":"+46 31 711 82 00","contact:website":"https://www.atalante.org/","name":"Atalante","opening_hours":"Mo-Fr 09:00-17:00; Sa-Su off","start_date":"1987","toilets:wheelchair":"no","wheelchair":"limited","wikidata":"Q10421088","wikipedia":"sv:Atalante (scen)"}},"geometry":{"type":"Point","coordinates":[11.957684,57.695056]}},{"type":"Feature","properties":{"id":2706729035,"osm_type":"node","name":"Teater Stationen","category":"theatre","tags":{"addr:city":"Göteborg","addr:country":"SE","addr:housenumber":"42","addr:postcode":"415 13","addr:street":"Årstidsgatan","amenity":"theatre","name":"Teater Stationen","website":"https://www.stationen.nu/"}},"geometry":{"type":"Point","coordinates":[12.0410184,57.761932]}},{"type":"Feature","properties":{"id":3192032461,"osm_type":"node","name":"Göteborg Wind Orchestra","category":"theatre","tags":{"amenity":"concert_hall","name":"Göteborg Wind Orchestra","website":"https://www.gwo.se/"}},"geometry":{"type":"Point","coordinates":[11.963425,57.707801]}},{"type":"Feature","properties":{"id":3375861219,"osm_type":"node","name":"Gothenburg English Studio Theatre","category":"theatre","tags":{"access":"yes","addr:city":"Göteborg","addr:country":"SE","addr:housenumber":"10 BV","addr:postcode":"414 54","addr:street":"Chapmans Torg","amenity":"theatre","contact:email":"info@gest.se","contact:phone":"+46 31 42 52 65","contact:website":"https://www.gest.se/","name":"Gothenburg English Studio Theatre","short_name":"GEST","theatre:genre":"drama","wikidata":"Q10507665"}},"geometry":{"type":"Point","coordinates":[11.9187974,57.6936326]}},{"type":"Feature","properties":{"id":3592103293,"osm_type":"node","name":"Pustervik","category":"theatre","tags":{"addr:city":"Göteborg","addr:country":"SE","addr:housenumber":"12","addr:postcode":"413 01","addr:street":"Järntorgsgatan","air_conditioning":"yes","amenity":"theatre","contact:facebook":"https://www.facebook.com/pustervik","contact:instagram":"https://www.instagram.com/pustervik","contact:twitter":"https://twitter.com/pustervik","contact:website":"https://pustervik.nu/","name":"Pustervik","opening_hours":"We-Th 17:00-23:00; Fr-Sa 17:00-03:00","payment:cash":"no","payment:credit_cards":"yes","payment:debit_cards":"yes","theatre:genre":"political;stand_up_comedy;cabaret"}},"geometry":{"type":"Point","coordinates":[11.954223,57.700447]}},{"type":"Feature","properties":{"id":3843671349,"osm_type":"node","name":"Göta","category":"theatre","tags":{"amenity":"cinema","name":"Göta","opening_hours":"Mo-Su 12:30+","operator":"SF Bio","website":"http://www.sf.se/biografer/Goteborg---Fs-Gota/","wikidata":"Q10512721"}},"geometry":{"type":"Point","coordinates":[11.9785335,57.6973893]}},{"type":"Feature","properties":{"id":5901566806,"osm_type":"node","name":"Kulturtemplet","category":"theatre","tags":{"amenity":"arts_centre","name":"Kulturtemplet","opening_hours":"closed"}},"geometry":{"type":"Point","coordinates":[11.9231164,57.6907125]}},{"type":"Feature","properties":{"id":6174820435,"osm_type":"node","name":"Amandas teater","category":"theatre","tags":{"addr:city":"Göteborg","addr:country":"SE","addr:housenumber":"61B","addr:postcode":"411 13","addr:street":"Nordostpassagen","amenity":"theatre","contact:phone":"+46317115296","contact:website":"http://www.amanda.nu","name":"Amandas teater","operator":"Sångensemblen Amanda","wheelchair":"no"}},"geometry":{"type":"Point","coordinates":[11.9474008,57.6916445]}},{"type":"Feature","properties":{"id":9697999217,"osm_type":"node","name":"Medborgarskolan","category":"theatre","tags":{"addr:city":"Göteborg","addr:country":"SE","addr:housenumber":"10","addr:street":"Knipplagatan","amenity":"arts_centre","name":"Medborgarskolan","operator":"Medborgarskolan","website":"https://www.medborgarskolan.se"}},"geometry":{"type":"Point","coordinates":[11.9061233,57.6815014]}},{"type":"Feature","properties":{"id":10115215840,"osm_type":"node","name":"Fängelset","category":"theatre","tags":{"addr:city":"Göteborg","addr:country":"SE","addr:housenumber":"2","addr:postcode":"41652","addr:street":"Kålltorpsgatan","amenity":"events_venue","name":"Fängelset"}},"geometry":{"type":"Point","coordinates":[12.0162129,57.7163052]}},{"type":"Feature","properties":{"id":10548305178,"osm_type":"node","name":"Ateljé Stillagatan","category":"theatre","tags":{"amenity":"arts_centre","name":"Ateljé Stillagatan","website":"https://klasparknas.se/ateljen_stillagatan/"}},"geometry":{"type":"Point","coordinates":[11.9180149,57.6841718]}},{"type":"Feature","properties":{"id":10579794886,"osm_type":"node","name":"Diggiloo - Göteborg","category":"theatre","tags":{"addr:city":"Göteborg","addr:country":"SE","addr:housenumber":"25","addr:postcode":"41655","addr:street":"Skatåsvägen","amenity":"events_venue","internet_access":"no","name":"Diggiloo - Göteborg","operator":"Krall Entertainment","website":"https://diggiloo.com"}},"geometry":{"type":"Point","coordinates":[12.0401885,57.7038341]}},{"type":"Feature","properties":{"id":10689322332,"osm_type":"node","name":"Folkuniversitetet Art College","category":"theatre","tags":{"amenity":"arts_centre","name":"Folkuniversitetet Art College"}},"geometry":{"type":"Point","coordinates":[11.9349329,57.698977]}},{"type":"Feature","properties":{"id":10721169089,"osm_type":"node","name":"Göteborgs dramatiska teater","category":"theatre","tags":{"amenity":"theatre","name":"Göteborgs dramatiska teater"}},"geometry":{"type":"Point","coordinates":[11.9368896,57.6995883]}},{"type":"Feature","properties":{"id":10743303154,"osm_type":"node","name":"Fängelset","category":"theatre","tags":{"addr:city":"Göteborg","addr:country":"SE","addr:housenumber":"2","addr:postcode":"41652","addr:street":"Kålltorpsgatan","amenity":"events_venue","name":"Fängelset"}},"geometry":{"type":"Point","coordinates":[12.0161912,57.7163497]}},{"type":"Feature","properties":{"id":11062878798,"osm_type":"node","name":"Kasperteatern","category":"theatre","tags":{"air_conditioning":"no","amenity":"theatre","check_date":"2024-11-01","name":"Kasperteatern","wheelchair":"yes"}},"geometry":{"type":"Point","coordinates":[11.9479261,57.6874788]}},{"type":"Feature","properties":{"id":11234241139,"osm_type":"node","name":"Redbergsteatern","category":"theatre","tags":{"amenity":"theatre","name":"Redbergsteatern"}},"geometry":{"type":"Point","coordinates":[12.0032624,57.7163279]}},{"type":"Feature","properties":{"id":11917696243,"osm_type":"node","name":"Dice Theater","category":"theatre","tags":{"addr:city":"Göteborg","addr:housenumber":"62","addr:postcode":"41455","addr:street":"Karl Johansgatan","amenity":"theatre","name":"Dice Theater","website":"https://dicetheater.com/"}},"geometry":{"type":"Point","coordinates":[11.9224513,57.6954845]}},{"type":"Feature","properties":{"id":11933227169,"osm_type":"node","name":"Monument 031","category":"theatre","tags":{"addr:housenumber":"6","addr:street":"Stålverksgatan","amenity":"events_venue","contact:facebook":"monument031","contact:instagram":"monument031","contact:website":"https://monument031.com","name":"Monument 031"}},"geometry":{"type":"Point","coordinates":[11.9768154,57.7217152]}},{"type":"Feature","properties":{"id":11993254994,"osm_type":"node","name":"Ateljé Risåsgayan 12B","category":"theatre","tags":{"addr:city":"Göteborg","addr:housenumber":"12B","addr:postcode":"413 07","addr:street":"Risåsgatan","amenity":"arts_centre","name":"Ateljé Risåsgayan 12B"}},"geometry":{"type":"Point","coordinates":[11.9549505,57.6947249]}},{"type":"Feature","properties":{"id":12402917685,"osm_type":"node","name":"Haga Konserthall","category":"theatre","tags":{"amenity":"theatre","name":"Haga Konserthall"}},"geometry":{"type":"Point","coordinates":[11.963261,57.6993251]}},{"type":"Feature","properties":{"id":13368951826,"osm_type":"node","name":"On Air","category":"theatre","tags":{"addr:housenumber":"14","addr:street":"Övre Husargatan","amenity":"events_venue","check_date":"2025-12-12","level":"0","name":"On Air","phone":"+46 31 446 99 6","smoking":"no","website":"https://www.onairgameshows.com"}},"geometry":{"type":"Point","coordinates":[11.9569477,57.6932405]}},{"type":"Feature","properties":{"id":13523918985,"osm_type":"node","name":"Skogen","category":"theatre","tags":{"addr:city":"Göteborg","addr:housenumber":"3","addr:postcode":"41318","addr:street":"Masthuggsterrassen","amenity":"arts_centre","name":"Skogen","website":"https://www.skogen.pm/"}},"geometry":{"type":"Point","coordinates":[11.9438928,57.6977611]}},{"type":"Feature","properties":{"id":13523918986,"osm_type":"node","name":"Cinnober","category":"theatre","tags":{"addr:city":"Göteborg","addr:housenumber":"3","addr:postcode":"413 18","addr:street":"Masthuggsterrassen","amenity":"theatre","name":"Cinnober"}},"geometry":{"type":"Point","coordinates":[11.9437901,57.6977422]}},{"type":"Feature","properties":{"id":13523918987,"osm_type":"node","name":"Mathuggsteatern","category":"theatre","tags":{"addr:city":"Göteborg","addr:housenumber":"3","addr:postcode":"413 18","addr:street":"Masthuggsterrassen","amenity":"theatre","name":"Mathuggsteatern","website":"https://www.masthuggsteatern.se/"}},"geometry":{"type":"Point","coordinates":[11.9436104,57.6977035]}},{"type":"Feature","properties":{"id":13598100802,"osm_type":"node","name":"Göteborg Bildverkstad","category":"theatre","tags":{"addr:housenumber":"6","addr:street":"Klippan","amenity":"arts_centre","name":"Göteborg Bildverkstad"}},"geometry":{"type":"Point","coordinates":[11.9098542,57.6914432]}},{"type":"Feature","properties":{"id":28360729,"osm_type":"way","name":"Göteborgs Stadsteater","category":"theatre","tags":{"addr:city":"Göteborg","addr:country":"SE","addr:place":"Götaplatsen","amenity":"theatre","architect":"Carl Bergsten","building":"civic","contact:email":"info@stadsteatern.goteborg.se","contact:phone":"+46 31 708 70 00","contact:website":"http://www.stadsteatern.goteborg.se/","name":"Göteborgs Stadsteater","start_date":"1934","wikidata":"Q3118440","wikipedia":"sv:Göteborgs stadsteater"}},"geometry":{"type":"Point","coordinates":[11.9807865,57.6974976]}},{"type":"Feature","properties":{"id":28360753,"osm_type":"way","name":"Lorensbergsteatern","category":"theatre","tags":{"addr:housenumber":"1","addr:street":"Karl Gerhards plats","amenity":"theatre","building":"civic","check_date":"2026-04-06","email":"info@lorensbergsteatern.se","name":"Lorensbergsteatern","payment:cash":"no","payment:credit_cards":"yes","payment:debit_cards":"yes","phone":"+46 31 708 62 00","start_date":"1916-10-27","toilets:wheelchair":"yes","wheelchair":"yes","wikidata":"Q10569774","wikipedia":"sv:Lorensbergsteatern"}},"geometry":{"type":"Point","coordinates":[11.9800623,57.6982063]}},{"type":"Feature","properties":{"id":40330178,"osm_type":"way","name":"Stora Teatern","category":"theatre","tags":{"addr:city":"Göteborg","addr:country":"SE","addr:housenumber":"1","addr:place":"Kungsparken","addr:postcode":"411 36","air_conditioning":"yes","alt_name":"Storan","amenity":"theatre","building":"civic","building:levels":"3","check_date":"2024-06-13","contact:email":"biljett@storateatern.se","contact:facebook":"https://www.facebook.com/StoraTeatern/","contact:instagram":"https://www.instagram.com/stora_teatern","contact:phone":"+46 31 368 32 99","contact:soundcloud":"https://soundcloud.com/stora-teatern","contact:spotify":"https://open.spotify.com/show/6AFpTe7EEBVCpTkrYFZDXq","contact:twitter":"https://twitter.com/stora_teatern","contact:website":"http://goteborg.se/wps/portal/storat","contact:youtube":"https://www.youtube.com/user/Storateatern","name":"Stora Teatern","name:sv":"Stora Teatern","opening_hours":"Mo-Fr 12:00-18:00; Sa 10:00-14:00; Su off","operator":"Göteborgs Stadsteater AB","roof:levels":"1","roof:shape":"many","start_date":"1859","wikidata":"Q3288744","wikimedia_commons":"File:Stora Teatern - KMB - 16001000010748.jpg"}},"geometry":{"type":"Point","coordinates":[11.9706652,57.7025378]}},{"type":"Feature","properties":{"id":41269418,"osm_type":"way","name":"Röda Sten Konsthall","category":"theatre","tags":{"addr:city":"Göteborg","addr:country":"SE","addr:housenumber":"1","addr:place":"Röda Sten","addr:postcode":"414 51","amenity":"arts_centre","building":"yes","building:colour":"red","building:levels":"4","building:material":"brick","contact:email":"info@rodastenkonsthall.se","contact:phone":"+46 31 12 08 16","contact:website":"http://www.rodasten.com/","name":"Röda Sten Konsthall","roof:colour":"black","roof:shape":"flat","wikidata":"Q18332357","wikipedia":"sv:Röda Sten konsthall"}},"geometry":{"type":"Point","coordinates":[11.9016288,57.689173]}},{"type":"Feature","properties":{"id":48171208,"osm_type":"way","name":"Lisebergsteatern","category":"theatre","tags":{"amenity":"theatre","building":"yes","building:levels":"1","name":"Lisebergsteatern","operator":"Liseberg","website":"https://www.liseberg.se/parken/lisebergs-scener/lisebergsteatern/","wikidata":"Q10563202"}},"geometry":{"type":"Point","coordinates":[11.9905534,57.6965006]}},{"type":"Feature","properties":{"id":72054382,"osm_type":"way","name":"Musikens Hus","category":"theatre","tags":{"addr:city":"Göteborg","addr:country":"SE","addr:housenumber":"13","addr:postcode":"41462","addr:street":"Djurgårdsgatan","amenity":"theatre","building":"civic","building:levels":"4","contact:email":"info@musikenshus.se","contact:fax":"+46 31 12 15 84","contact:phone":"+46 31 12 15 83","contact:website":"http://www.musikenshus.se/","description":"Ett levande Kulturhus där människor med olika bakgrund och från olika delar av staden/världen möts och trivs. Konsertlokal och Danslokal","name":"Musikens Hus","note":"change to arts_centre when rendering will be ok","operator":"Ekonomisk förening","roof:levels":"1","wheelchair":"yes"}},"geometry":{"type":"Point","coordinates":[11.9306924,57.6978496]}},{"type":"Feature","properties":{"id":72054402,"osm_type":"way","name":"Kulturhuset Oceanen","category":"theatre","tags":{"addr:city":"Göteborg","addr:country":"SE","addr:housenumber":"8","addr:postcode":"41463","addr:street":"Stigbergstorget","amenity":"theatre","building":"public","contact:email":"info@oceanen.com","contact:phone":"+46 31 14 71 00","contact:website":"http://oceanen.com","description":"Kulturhuset Oceanen är hyresvärd för ett trettiotal kulturproducerande verksamheter","name":"Kulturhuset Oceanen","note":"change to arts_centre when rendering will be ok","operator":"Fristående förening","roof:shape":"hipped","short_name":"Oceanen"}},"geometry":{"type":"Point","coordinates":[11.9336353,57.6984071]}},{"type":"Feature","properties":{"id":87936431,"osm_type":"way","name":"Brewhouse","category":"theatre","tags":{"addr:city":"Göteborg","addr:country":"SE","addr:housenumber":"24","addr:postcode":"412 51","addr:street":"Åvägen","amenity":"events_venue","building":"yes","contact:email":"info@brewhouse.se","contact:phone":"+46 31 83 41 00","contact:website":"https://brewhouse.se","name":"Brewhouse","opening_hours":"Mo-Fr 08:00-12:00, 13:00-16:00 || \"by appointment\"","payment:cash":"yes","payment:mastercard":"yes","payment:visa":"yes","wheelchair":"yes"}},"geometry":{"type":"Point","coordinates":[11.992515,57.7003539]}},{"type":"Feature","properties":{"id":87959502,"osm_type":"way","name":"Filmstaden Bergakungen","category":"theatre","tags":{"addr:city":"Göteborg","addr:country":"SE","addr:housenumber":"16B","addr:postcode":"41140","addr:street":"Skånegatan","amenity":"cinema","building":"commercial","contact:website":"http://www.sf.se/biografer/goteborg-filmstaden-bergakungen/","name":"Filmstaden Bergakungen","roof:shape":"flat","wheelchair":"yes","wikidata":"Q4891419"}},"geometry":{"type":"Point","coordinates":[11.9867747,57.7024284]}},{"type":"Feature","properties":{"id":92890410,"osm_type":"way","name":"Teater Buratino","category":"theatre","tags":{"amenity":"theatre","building":"yes","name":"Teater Buratino"}},"geometry":{"type":"Point","coordinates":[12.02321,57.7185256]}},{"type":"Feature","properties":{"id":179264221,"osm_type":"way","name":"Kaninscenen","category":"theatre","tags":{"amenity":"theatre","bandstand":"yes","building":"yes","name":"Kaninscenen"}},"geometry":{"type":"Point","coordinates":[11.9930975,57.6956598]}},{"type":"Feature","properties":{"id":394937344,"osm_type":"way","name":"Lilla scenen","category":"theatre","tags":{"amenity":"theatre","bandstand":"yes","building":"yes","name":"Lilla scenen","tourism":"attraction"}},"geometry":{"type":"Point","coordinates":[11.9954092,57.6946794]}},{"type":"Feature","properties":{"id":940788563,"osm_type":"way","name":"","category":"theatre","tags":{"amenity":"events_venue","lit":"yes","surface":"fine_gravel"}},"geometry":{"type":"Point","coordinates":[11.9768639,57.702117]}},{"type":"Feature","properties":{"id":1210523597,"osm_type":"way","name":"","category":"theatre","tags":{"amenity":"theatre","building":"yes"}},"geometry":{"type":"Point","coordinates":[12.0686166,57.7758821]}},{"type":"Feature","properties":{"id":1272841244,"osm_type":"way","name":"","category":"theatre","tags":{"amenity":"theatre","internet_access":"no","outdoor":"yes","theatre:type":"amphi"}},"geometry":{"type":"Point","coordinates":[12.0031618,57.7176092]}},{"type":"Feature","properties":{"id":1353100421,"osm_type":"way","name":"Aftonstjärnan","category":"theatre","tags":{"addr:housenumber":"2","addr:street":"Plåtslagaregatan","amenity":"theatre","building":"yes","name":"Aftonstjärnan","opening_hours":"Mo-Fr 12:00-18:00; Sa 10:00-14:00","operator":"Aftonstjärnans kulturförening","website":"https://aftonstjarnan.se/"}},"geometry":{"type":"Point","coordinates":[11.9328012,57.7069492]}},{"type":"Feature","properties":{"id":1436519416,"osm_type":"way","name":"","category":"theatre","tags":{"amenity":"theatre","theatre:type":"amphi"}},"geometry":{"type":"Point","coordinates":[11.9700388,57.7069574]}},{"type":"Feature","properties":{"id":1503681594,"osm_type":"way","name":"","category":"theatre","tags":{"amenity":"theatre","theatre:type":"amphi"}},"geometry":{"type":"Point","coordinates":[11.8991277,57.6426531]}},{"type":"Feature","properties":{"id":16887885,"osm_type":"relation","name":"Göteborgs Konserthus","category":"theatre","tags":{"addr:city":"Göteborg","addr:country":"SE","addr:housenumber":"8","addr:place":"Götaplatsen","amenity":"theatre","building":"civic","check_date":"2026-04-06","contact:email":"biljett@gso.se","contact:facebook":"https://www.facebook.com/GothenburgSymphonyOrchestra/","contact:instagram":"https://www.instagram.com/goteborgssymfoniker","contact:linkedin":"https://www.linkedin.com/company/goteborgs-symfoniker-ab","contact:phone":"+46 31 726 53 10","contact:spotify":"https://open.spotify.com/artist/1XaPI6thQ3zTKqIU6sCvd2","contact:website":"http://www.gso.se/","contact:youtube":"https://www.youtube.com/user/Nationalorkestern","live_music":"yes","music_genre":"philharmonic;chamber_music","name":"Göteborgs Konserthus","theatre:genre":"philharmonic;chamber_music","type":"multipolygon","wikidata":"Q657966","wikipedia":"sv:Göteborgs konserthus"}},"geometry":{"type":"Point","coordinates":[11.9786221,57.6967338]}}]}