{"type":"FeatureCollection","features":[{"type":"Feature","properties":{"id":12955969166,"osm_type":"node","name":"Göteborgs Universitet IT-enheten","category":"university","tags":{"addr:city":"Göteborg","addr:housenumber":"4","addr:postcode":"41120","addr:street":"Rosenlundsgatan","amenity":"university","education":"university","name":"Göteborgs Universitet IT-enheten","operator":"Göteborgs Universitet","operator:type":"university"}},"geometry":{"type":"Point","coordinates":[11.9563246,57.7015272]}},{"type":"Feature","properties":{"id":13140815301,"osm_type":"node","name":"Församlingsfakulteten","category":"university","tags":{"addr:housenumber":"3","addr:street":"Ekmansgatan","amenity":"university","education":"university","name":"Församlingsfakulteten","name:en":"Lutheran School of Theology","operator":"Peter Isaac Béens utbildningsstiftelse","website":"https://ffg.se/"}},"geometry":{"type":"Point","coordinates":[11.9782649,57.6957988]}},{"type":"Feature","properties":{"id":22661277,"osm_type":"way","name":"Göteborgs universitet","category":"university","tags":{"addr:city":"Göteborg","addr:country":"SE","addr:housenumber":"5","addr:postcode":"41124","addr:street":"Universitetsplatsen","amenity":"university","building":"university","building:levels":"3","description":"Göteborgs universitets huvudbyggnad","name":"Göteborgs universitet","name:en":"University of Gothenburg","name:is":"Gautaborgarháskóli","operator:type":"public","roof:levels":"1","roof:shape":"hipped","source":"Bing Aerial","website":"https://www.gu.se/","wikidata":"Q10709722"}},"geometry":{"type":"Point","coordinates":[11.9712635,57.698561]}},{"type":"Feature","properties":{"id":115040389,"osm_type":"way","name":"Chalmers Innovation","category":"university","tags":{"addr:city":"Göteborg","addr:country":"SE","addr:housenumber":"1E","addr:street":"Holtermansgatan","amenity":"university","building":"university","name":"Chalmers Innovation","operator":"Chalmers Tekniska Högskola"}},"geometry":{"type":"Point","coordinates":[11.972279,57.6905919]}},{"type":"Feature","properties":{"id":14094361,"osm_type":"relation","name":"Chalmers Tekniska Högskola","category":"university","tags":{"amenity":"university","education":"university","name":"Chalmers Tekniska Högskola","name:de":"Technische Hochschule Chalmers","name:en":"Chalmers University of Technology","name:sv":"Chalmers Tekniska Högskola","short_name":"CTH;Chalmers","type":"multipolygon","website":"https://www.chalmers.se/","wikidata":"Q836805"}},"geometry":{"type":"Point","coordinates":[11.9589694,57.6962291]}},{"type":"Feature","properties":{"id":20594990,"osm_type":"relation","name":"University of Gothenburg","category":"university","tags":{"amenity":"university","education":"university","name":"University of Gothenburg","short_name":"GU","type":"multipolygon","website":"https://www.gu.se"}},"geometry":{"type":"Point","coordinates":[11.9698693,57.689082]}}]}