{"type":"FeatureCollection","features":[{"type":"Feature","properties":{"id":1043043598,"osm_type":"node","name":"Blå Stjärnans Djursjukhus","category":"veterinary","tags":{"addr:city":"Göteborg","addr:country":"SE","addr:housenumber":"4","addr:postcode":"417 07","addr:street":"Gjutjärnsgatan","amenity":"veterinary","name":"Blå Stjärnans Djursjukhus","website":"https://www.blastjarnan.se/"}},"geometry":{"type":"Point","coordinates":[11.964331,57.7199105]}},{"type":"Feature","properties":{"id":2488731356,"osm_type":"node","name":"Evidensia Djursjukhuset Göteborg","category":"veterinary","tags":{"addr:city":"Göteborg","addr:country":"SE","addr:housenumber":"6","addr:postcode":"416 59","addr:street":"Ingeborgsgatan","amenity":"veterinary","contact:phone":"+46 31 21 40 40","contact:website":"https://evidensia.se/djursjukhuset-goteborg","name":"Evidensia Djursjukhuset Göteborg","opening_hours":"Mo-Fr 07:00-21:00; Sa-Su 09:00-21:00","operator":"Evidensia","payment:cash":"yes","payment:credit_cards":"yes","payment:debit_cards":"yes"}},"geometry":{"type":"Point","coordinates":[12.005733,57.7098182]}},{"type":"Feature","properties":{"id":3235053254,"osm_type":"node","name":"Djurkliniken i Partille","category":"veterinary","tags":{"addr:city":"Partille","addr:country":"SE","addr:housenumber":"10","addr:postcode":"433 33","addr:street":"Gamla Kronvägen","amenity":"veterinary","contact:phone":"+46 31-44 68 42","contact:website":"https://djurklinikenipartille.se/","name":"Djurkliniken i Partille","veterinary":"clinic"}},"geometry":{"type":"Point","coordinates":[12.094554,57.7362783]}},{"type":"Feature","properties":{"id":4794748312,"osm_type":"node","name":"Husdjurshälsan","category":"veterinary","tags":{"addr:city":"Västra Frölunda","addr:country":"SE","addr:housenumber":"6","addr:postcode":"42130","addr:street":"J A Wettergrens Gata","amenity":"veterinary","name":"Husdjurshälsan","website":"https://www.husdjurshalsan.se/"}},"geometry":{"type":"Point","coordinates":[11.9399952,57.6667128]}},{"type":"Feature","properties":{"id":4955831073,"osm_type":"node","name":"Evidensia Djurkliniken Frölunda","category":"veterinary","tags":{"addr:city":"Västra Frölunda","addr:housenumber":"70","addr:postcode":"426 69","addr:street":"Torgny Segerstedtsgatan","amenity":"veterinary","contact:website":"https://evidensia.se/klinik/evidensia-djurkliniken-frolunda/","name":"Evidensia Djurkliniken Frölunda"}},"geometry":{"type":"Point","coordinates":[11.8840367,57.6745277]}},{"type":"Feature","properties":{"id":5168549460,"osm_type":"node","name":"Tassarnas djurklinik","category":"veterinary","tags":{"addr:city":"Göteborg","addr:country":"SE","addr:housenumber":"43","addr:postcode":"414 64","addr:street":"Djurgårdsgatan","amenity":"veterinary","name":"Tassarnas djurklinik","opening_hours":"Mo-Fr 07:00-17:00"}},"geometry":{"type":"Point","coordinates":[11.9343257,57.6948383]}},{"type":"Feature","properties":{"id":9847423243,"osm_type":"node","name":"Tuve Djurklinik","category":"veterinary","tags":{"addr:country":"SE","addr:housenumber":"105","addr:street":"Gunnestorpsvägen","amenity":"veterinary","entrance":"yes","name":"Tuve Djurklinik","opening_hours":"Mo-Fr 09:00-18:00; PH closed"}},"geometry":{"type":"Point","coordinates":[11.9286108,57.7498107]}},{"type":"Feature","properties":{"id":9911337997,"osm_type":"node","name":"Sävedalens Veterinärklinik Evidensia","category":"veterinary","tags":{"addr:city":"Sävedalen","addr:country":"SE","addr:housenumber":"74","addr:postcode":"433 63","addr:street":"Göteborgsvägen","amenity":"veterinary","name":"Sävedalens Veterinärklinik Evidensia","operator":"Evidensia","website":"https://evidensia.se/klinik/savedalens-veterinarklinik/"}},"geometry":{"type":"Point","coordinates":[12.0723808,57.7327347]}},{"type":"Feature","properties":{"id":10677019518,"osm_type":"node","name":"AniCura Västra djursjukhuset","category":"veterinary","tags":{"amenity":"veterinary","name":"AniCura Västra djursjukhuset"}},"geometry":{"type":"Point","coordinates":[11.9429272,57.6492502]}},{"type":"Feature","properties":{"id":11154440774,"osm_type":"node","name":"Kongahälla Djursjukvård","category":"veterinary","tags":{"amenity":"veterinary","name":"Kongahälla Djursjukvård","opening_hours":"Mo-Fr 08:00-17:00"}},"geometry":{"type":"Point","coordinates":[11.9272845,57.8642373]}},{"type":"Feature","properties":{"id":13448576065,"osm_type":"node","name":"Evidensia Djurkliniken Kållered","category":"veterinary","tags":{"addr:city":"Kållered","addr:housenumber":"39A","addr:postcode":"428 36","addr:street":"Bangårdsvägen","amenity":"veterinary","name":"Evidensia Djurkliniken Kållered","opening_hours":"Mo-Fr 07:00-18:00","phone":"+46 31 795 90 70","website":"https://evidensia.se/klinik/evidensia-djurkliniken-kallered","wheelchair":"yes"}},"geometry":{"type":"Point","coordinates":[12.0474152,57.6114407]}},{"type":"Feature","properties":{"id":13584546426,"osm_type":"node","name":"Din veterinär City","category":"veterinary","tags":{"addr:housenumber":"14-16","addr:street":"Anders Personsgatan","amenity":"veterinary","check_date":"2026-02-20","contact:facebook":"https://www.facebook.com/veterinardrommen/","contact:instagram":"https://www.instagram.com/din_veterinar_goteborg","email":"Info@dinvetgbg.se","name":"Din veterinär City","opening_hours":"Mo-Th 08:00-17:00; Fr 08:00-16:00; Sa-Su off","operator":"Din Veterinär","payment:credit_cards":"yes","payment:debit_cards":"yes","phone":"+46 31 971 46 0","website":"https://www.dinveterinargoteborg.se","wheelchair":"yes"}},"geometry":{"type":"Point","coordinates":[11.9949016,57.7103039]}},{"type":"Feature","properties":{"id":122562857,"osm_type":"way","name":"Evidensia Djurkliniken Mölndal","category":"veterinary","tags":{"addr:country":"SE","addr:housenumber":"6","addr:street":"Lantbruksgatan","amenity":"veterinary","building":"commercial","name":"Evidensia Djurkliniken Mölndal","operator":"Evidensia","phone":"+46 31 417100","website":"https://evidensia.se"}},"geometry":{"type":"Point","coordinates":[11.9899635,57.6657048]}},{"type":"Feature","properties":{"id":18316822,"osm_type":"relation","name":"Blå Stjärnans Djursjukhus Göteborg","category":"veterinary","tags":{"addr:city":"Mölndal","addr:housenumber":"1A","addr:postcode":"431 37","addr:street":"Bergfotsgatan","amenity":"veterinary","building":"yes","name":"Blå Stjärnans Djursjukhus Göteborg","operator":"Svenska Blå Stjärnan","type":"multipolygon"}},"geometry":{"type":"Point","coordinates":[12.0175836,57.6681428]}}]}