{"type":"FeatureCollection","features":[{"type":"Feature","properties":{"id":448643499,"osm_type":"node","name":"Hammarskogs herrgård","category":"castle","tags":{"historic":"castle","name":"Hammarskogs herrgård"}},"geometry":{"type":"Point","coordinates":[17.5622845,59.769467]}},{"type":"Feature","properties":{"id":12073169208,"osm_type":"node","name":"Sunnersta Fornborg","category":"castle","tags":{"board_type":"history","historic":"fort","information":"board","name":"Sunnersta Fornborg","ref:SE:raa":"Uppsala 411:1","ruins":"yes","tourism":"information"}},"geometry":{"type":"Point","coordinates":[17.660878,59.7940195]}},{"type":"Feature","properties":{"id":24433739,"osm_type":"way","name":"Uppsala slott","category":"castle","tags":{"addr:city":"Uppsala","addr:country":"SE","addr:housenumber":"1","addr:street":"Drottning Christinas väg","building":"yes","castle_type":"stately","comment":"Here's hoping bings images of central Uppsala are well adjusted.","description:en":"Large castle built in 1549 and extensively rebuilt after a fire in 1702. Today is the governors's residence and houses 3 museums. (Source: sv.Wikipedia)","fee":"yes","historic":"castle","name":"Uppsala slott","name:fi":"Uppsalan linna","name:ko":"웁살라 성","name:sv":"Uppsala slott","roof:colour":"black","roof:material":"metal","source":"Bing","start_date":"1500s","wheelchair":"limited","wikidata":"Q1475894","wikimedia_commons":"Category:Uppsala_slott","wikipedia":"sv:Uppsala slott"}},"geometry":{"type":"Point","coordinates":[17.6352021,59.8536332]}},{"type":"Feature","properties":{"id":387218150,"osm_type":"way","name":"Sjöö slott","category":"castle","tags":{"building":"yes","historic":"castle","name":"Sjöö slott","wikidata":"Q7533630","wikipedia":"se:Sjö slott"}},"geometry":{"type":"Point","coordinates":[17.5082921,59.7176304]}},{"type":"Feature","properties":{"id":2841758,"osm_type":"relation","name":"Skoklosters slott","category":"castle","tags":{"building":"yes","historic":"castle","name":"Skoklosters slott","name:cs":"Zámek Skokloster","name:en":"Skokloster Castle","name:pl":"Zamek Skokloster","type":"multipolygon","wikidata":"Q1891413","wikipedia":"sv:Skoklosters slott"}},"geometry":{"type":"Point","coordinates":[17.6213589,59.7030787]}}]}