{"type":"FeatureCollection","features":[{"type":"Feature","properties":{"id":5559398712,"osm_type":"node","name":"Gamla kyrkogården","category":"cemetery","tags":{"amenity":"grave_yard","name":"Gamla kyrkogården"}},"geometry":{"type":"Point","coordinates":[17.625201,59.8556712]}},{"type":"Feature","properties":{"id":13833854377,"osm_type":"node","name":"Minneslund","category":"cemetery","tags":{"amenity":"grave_yard","name":"Minneslund"}},"geometry":{"type":"Point","coordinates":[17.689012,59.8760866]}},{"type":"Feature","properties":{"id":25830197,"osm_type":"way","name":"","category":"cemetery","tags":{"amenity":"grave_yard","religion":"christian","wikidata":"Q65679623"}},"geometry":{"type":"Point","coordinates":[17.6323661,59.8999908]}},{"type":"Feature","properties":{"id":28132889,"osm_type":"way","name":"Hammarby kyrkogård","category":"cemetery","tags":{"landuse":"cemetery","name":"Hammarby kyrkogård","wikidata":"Q19977795","wikipedia":"sv:Hammarby kyrkogård"}},"geometry":{"type":"Point","coordinates":[17.6429627,59.8261358]}},{"type":"Feature","properties":{"id":28276210,"osm_type":"way","name":"","category":"cemetery","tags":{"landuse":"cemetery","religion":"christian","wikidata":"Q115303497"}},"geometry":{"type":"Point","coordinates":[17.7994494,59.7109306]}},{"type":"Feature","properties":{"id":32053420,"osm_type":"way","name":"Berthåga kyrkogård","category":"cemetery","tags":{"landuse":"cemetery","name":"Berthåga kyrkogård","wikidata":"Q10428784","wikipedia":"sv:Berthåga kyrkogård"}},"geometry":{"type":"Point","coordinates":[17.5764104,59.8582545]}},{"type":"Feature","properties":{"id":33708857,"osm_type":"way","name":"","category":"cemetery","tags":{"landuse":"cemetery","wikidata":"Q115303553"}},"geometry":{"type":"Point","coordinates":[17.6885751,59.876339]}},{"type":"Feature","properties":{"id":34145618,"osm_type":"way","name":"","category":"cemetery","tags":{"landuse":"cemetery","religion":"christian","wikidata":"Q115303525"}},"geometry":{"type":"Point","coordinates":[17.5234254,59.8485582]}},{"type":"Feature","properties":{"id":35111041,"osm_type":"way","name":"","category":"cemetery","tags":{"landuse":"cemetery","religion":"christian"}},"geometry":{"type":"Point","coordinates":[17.5001052,59.8840853]}},{"type":"Feature","properties":{"id":78628787,"osm_type":"way","name":"Ulleråkers kyrkogård","category":"cemetery","tags":{"description":"Old cemetery originally used for patients and staff of Ulleråkers mental asylum.","landuse":"cemetery","name":"Ulleråkers kyrkogård","website":"https://www.svenskakyrkan.se/uppsalakyrkogardar/ullerakers-kyrkogard","wikidata":"Q115303552"}},"geometry":{"type":"Point","coordinates":[17.6453147,59.8321963]}},{"type":"Feature","properties":{"id":126092471,"osm_type":"way","name":"","category":"cemetery","tags":{"amenity":"grave_yard","barrier":"wall","wikidata":"Q115303432"}},"geometry":{"type":"Point","coordinates":[17.5944497,59.7874846]}},{"type":"Feature","properties":{"id":175806919,"osm_type":"way","name":"","category":"cemetery","tags":{"amenity":"grave_yard","source":"Bing","wikidata":"Q116973531"}},"geometry":{"type":"Point","coordinates":[17.5298394,59.9459843]}},{"type":"Feature","properties":{"id":184650267,"osm_type":"way","name":"Gamla kyrkogården","category":"cemetery","tags":{"landuse":"cemetery","name":"Gamla kyrkogården","source":"yahoo","wikidata":"Q4353116"}},"geometry":{"type":"Point","coordinates":[17.6227882,59.8543321]}},{"type":"Feature","properties":{"id":212713501,"osm_type":"way","name":"","category":"cemetery","tags":{"landuse":"cemetery","wikidata":"Q115303542"}},"geometry":{"type":"Point","coordinates":[17.623115,59.7046075]}},{"type":"Feature","properties":{"id":225665393,"osm_type":"way","name":"","category":"cemetery","tags":{"amenity":"grave_yard","wikidata":"Q115303473"}},"geometry":{"type":"Point","coordinates":[17.7453946,59.8331129]}},{"type":"Feature","properties":{"id":244093022,"osm_type":"way","name":"","category":"cemetery","tags":{"amenity":"grave_yard","wikidata":"Q115303495"}},"geometry":{"type":"Point","coordinates":[17.6836566,59.7325771]}},{"type":"Feature","properties":{"id":263787096,"osm_type":"way","name":"","category":"cemetery","tags":{"amenity":"grave_yard","religion":"christian","wikidata":"Q115303428"}},"geometry":{"type":"Point","coordinates":[17.5731579,59.759669]}},{"type":"Feature","properties":{"id":263973599,"osm_type":"way","name":"","category":"cemetery","tags":{"amenity":"grave_yard","wikidata":"Q115303499"}},"geometry":{"type":"Point","coordinates":[17.7293848,59.7047981]}},{"type":"Feature","properties":{"id":264734851,"osm_type":"way","name":"","category":"cemetery","tags":{"amenity":"grave_yard","wikidata":"Q115303433"}},"geometry":{"type":"Point","coordinates":[17.5106176,59.7524692]}},{"type":"Feature","properties":{"id":273455016,"osm_type":"way","name":"","category":"cemetery","tags":{"amenity":"grave_yard"}},"geometry":{"type":"Point","coordinates":[17.6066848,59.9557281]}},{"type":"Feature","properties":{"id":387224514,"osm_type":"way","name":"","category":"cemetery","tags":{"amenity":"grave_yard","wikidata":"Q115303447"}},"geometry":{"type":"Point","coordinates":[17.4876327,59.7102627]}},{"type":"Feature","properties":{"id":575985488,"osm_type":"way","name":"","category":"cemetery","tags":{"amenity":"grave_yard","wikidata":"Q115303471"}},"geometry":{"type":"Point","coordinates":[17.5146376,59.9982995]}},{"type":"Feature","properties":{"id":890479947,"osm_type":"way","name":"","category":"cemetery","tags":{"amenity":"grave_yard","wikidata":"Q115303560"}},"geometry":{"type":"Point","coordinates":[17.7215091,60.0117165]}},{"type":"Feature","properties":{"id":1018637073,"osm_type":"way","name":"Muslimska kvarteret","category":"cemetery","tags":{"landuse":"cemetery","name":"Muslimska kvarteret","religion":"muslim"}},"geometry":{"type":"Point","coordinates":[17.5714965,59.8592287]}},{"type":"Feature","properties":{"id":1385769084,"osm_type":"way","name":"","category":"cemetery","tags":{"amenity":"grave_yard"}},"geometry":{"type":"Point","coordinates":[17.4961185,59.923604]}}]}