{"type":"FeatureCollection","features":[{"type":"Feature","properties":{"id":2782501333,"osm_type":"node","name":"","category":"community_centre","tags":{"amenity":"community_centre","description":"Bygdegård"}},"geometry":{"type":"Point","coordinates":[17.6034137,59.9551849]}},{"type":"Feature","properties":{"id":4345435866,"osm_type":"node","name":"","category":"community_centre","tags":{"amenity":"community_centre","community_centre:for":"juvenile"}},"geometry":{"type":"Point","coordinates":[17.6380426,59.8943004]}},{"type":"Feature","properties":{"id":4362453263,"osm_type":"node","name":"Hyresgästernas Kvarterlokal","category":"community_centre","tags":{"amenity":"community_centre","name":"Hyresgästernas Kvarterlokal","opening_hours":"\"Kontakta lokala hyresgäst föreningen Blenda\""}},"geometry":{"type":"Point","coordinates":[17.6317351,59.8660664]}},{"type":"Feature","properties":{"id":4816416591,"osm_type":"node","name":"Kulturoasen","category":"community_centre","tags":{"addr:city":"Uppsala","addr:country":"SE","addr:housenumber":"190","addr:postcode":"752 63","addr:street":"Hågavägen","amenity":"community_centre","name":"Kulturoasen","operator":"Kulturhjältarna Uppsala"}},"geometry":{"type":"Point","coordinates":[17.5763292,59.8381131]}},{"type":"Feature","properties":{"id":5480082001,"osm_type":"node","name":"Träffpunkt Storgatan 11","category":"community_centre","tags":{"amenity":"community_centre","check_date":"2026-04-30","community_centre:for":"senior","description":"Aktivitetshus för äldre","name":"Träffpunkt Storgatan 11","opening_hours":"Mo-Th 08:00-17:00; Fr 08:00-16:00","operator":"Uppsala Pensionärsföreningars Samarbetsråd","short_name":"Träffpunkten","website":"http://www.storgatan11.se/"}},"geometry":{"type":"Point","coordinates":[17.6406792,59.8629319]}},{"type":"Feature","properties":{"id":6312576784,"osm_type":"node","name":"Kollaboratoriet Uppsala","category":"community_centre","tags":{"addr:city":"Uppsala","addr:country":"SE","addr:housenumber":"19","addr:postcode":"75320","addr:street":"Östra Ågatan","amenity":"community_centre","description":"A physical space located in central Uppsala overlooking the river. A multi-purpose space for different types of activities and events – collaborations, crossing boundaries, and developing ideas for a better world.","email":"kollaboratorietuppsala@gmail.com","level":"0","name":"Kollaboratoriet Uppsala","note":"Kollaboratoriet Uppsala is supported by CEMUS (Center for Environment and Development Studies) and Uppsala University.","operator":"Uppsala Universitet","source":"local knowledge","website":"http://www.kollaboratorietuppsala.se/","wheelchair":"yes"}},"geometry":{"type":"Point","coordinates":[17.63555,59.8591842]}},{"type":"Feature","properties":{"id":6940169897,"osm_type":"node","name":"Gränby allaktivitetshus","category":"community_centre","tags":{"addr:city":"Uppsala","addr:housenumber":"1","addr:street":"Liljefors torg","amenity":"community_centre","check_date":"2024-07-30","name":"Gränby allaktivitetshus","operator":"Uppsala komun","operator:type":"public","phone":"+46 76 511 33 12","website":"https://allaktivitetshus.uppsala.se/"}},"geometry":{"type":"Point","coordinates":[17.6574766,59.8716295]}},{"type":"Feature","properties":{"id":9418755099,"osm_type":"node","name":"Datorföreningen Update","category":"community_centre","tags":{"addr:city":"Uppsala","addr:country":"SE","addr:housenumber":"65","addr:postcode":"753 33","addr:street":"Svartbäcksgatan","amenity":"community_centre","changing_table":"no","check_date":"2026-04-12","check_date:opening_hours":"2026-04-12","contact:mastodon":"@dfupdate@social.linux.pizza","email":"styrelsen@dfupdate.se","leisure":"hackerspace","name":"Datorföreningen Update","name:en":"Update Computer Club","name:sv":"Datorföreningen Update","opening_hours:url":"https://dfupdate.se","operator":"Datorföreningen Update","operator:type":"community","toilets":"yes","website":"https://www.dfupdate.se/","wheelchair":"limited"}},"geometry":{"type":"Point","coordinates":[17.6295177,59.8676472]}},{"type":"Feature","properties":{"id":10082434190,"osm_type":"node","name":"Kupolen","category":"community_centre","tags":{"amenity":"community_centre","community_centre":"youth_centre","name":"Kupolen"}},"geometry":{"type":"Point","coordinates":[17.7953066,59.7225851]}},{"type":"Feature","properties":{"id":12030677927,"osm_type":"node","name":"Vaksala hembygdsförening","category":"community_centre","tags":{"addr:housenumber":"10","addr:street":"Vaksala Kyrkväg","amenity":"community_centre","check_date":"2024-07-03","email":"vaksalahbf@winb.se","level":"0","name":"Vaksala hembygdsförening","name:sv":"Vaksala hembygdsförening","phone":"+46 70 534 55 59","website":"https://www.hembygd.se/vaksala"}},"geometry":{"type":"Point","coordinates":[17.6851348,59.8774328]}},{"type":"Feature","properties":{"id":12059417108,"osm_type":"node","name":"Treklangen Fritidsklubb","category":"community_centre","tags":{"amenity":"community_centre","check_date":"2024-07-17","community_centre":"youth_centre","name":"Treklangen Fritidsklubb"}},"geometry":{"type":"Point","coordinates":[17.6307086,59.8074896]}},{"type":"Feature","properties":{"id":12096415251,"osm_type":"node","name":"Äldrecenter","category":"community_centre","tags":{"amenity":"community_centre","check_date":"2024-08-07","community_centre:for":"elderly","level":"-1","name":"Äldrecenter","operator":"Samariterhemmet","operator:type":"private"}},"geometry":{"type":"Point","coordinates":[17.646231,59.8548084]}},{"type":"Feature","properties":{"id":12145462576,"osm_type":"node","name":"ABF","category":"community_centre","tags":{"addr:housenumber":"22b","addr:street":"Sankt Persgatan","amenity":"community_centre","check_date":"2024-08-30","contact:website":"https://www.abf.se","name":"ABF","operator":"Arbetarnas Bildningsförbund","operator:type":"ngo"}},"geometry":{"type":"Point","coordinates":[17.6421569,59.8621567]}},{"type":"Feature","properties":{"id":12547096791,"osm_type":"node","name":"","category":"community_centre","tags":{"amenity":"community_centre","community_centre":"community_hall","community_centre:for":"residents"}},"geometry":{"type":"Point","coordinates":[17.6572918,59.8872597]}},{"type":"Feature","properties":{"id":12871738157,"osm_type":"node","name":"Kulturhuset Leoparden","category":"community_centre","tags":{"amenity":"community_centre","check_date":"2026-04-28","community_centre":"cultural_centre","contact:instagram":"leopard.en","name":"Kulturhuset Leoparden","opening_hours":"Mo-Fr 15:00-20:00"}},"geometry":{"type":"Point","coordinates":[17.6340995,59.8610871]}},{"type":"Feature","properties":{"id":13458877963,"osm_type":"node","name":"Uppsala Stadsmissions Ungdomsverksamhet","category":"community_centre","tags":{"amenity":"community_centre","community_centre":"youth_centre","name":"Uppsala Stadsmissions Ungdomsverksamhet","operator":"Uppsala Stadsmission","operator:type":"charitable","website":"https://uppsalastadsmission.se/verksamheter/ungdomsverksamhet/"}},"geometry":{"type":"Point","coordinates":[17.6399608,59.8600947]}},{"type":"Feature","properties":{"id":13469216635,"osm_type":"node","name":"Ungdomens hus","category":"community_centre","tags":{"addr:city":"Uppsala","addr:housenumber":"25","addr:street":"Studentvägen","amenity":"community_centre","community_centre":"youth_centre","name":"Ungdomens hus","note":"Detta är troligen en temporär plats tills det gamla huset är renoverat eller man har hittat en ny lokal. Gamla Spegeln har bland annat diskuterats.","opening_hours":"Mo-Fr 14:00-21:00","operator":"Ungdomens hus","website":"https://www.ungdomenshus.net/"}},"geometry":{"type":"Point","coordinates":[17.6139213,59.8541757]}},{"type":"Feature","properties":{"id":13646508287,"osm_type":"node","name":"Lindbackens fritidsgård","category":"community_centre","tags":{"addr:city":"Uppsala","addr:housenumber":"1","addr:postcode":"75471","addr:street":"Hagtorpsvägen","amenity":"community_centre","community_centre":"youth_centre","name":"Lindbackens fritidsgård"}},"geometry":{"type":"Point","coordinates":[17.7396327,59.9116631]}},{"type":"Feature","properties":{"id":13671714556,"osm_type":"node","name":"Stenens Ungdomsfritids","category":"community_centre","tags":{"amenity":"community_centre","community_centre":"youth_centre","name":"Stenens Ungdomsfritids"}},"geometry":{"type":"Point","coordinates":[17.5896162,59.8507618]}},{"type":"Feature","properties":{"id":13673670321,"osm_type":"node","name":"","category":"community_centre","tags":{"amenity":"community_centre"}},"geometry":{"type":"Point","coordinates":[17.701323,59.8130376]}},{"type":"Feature","properties":{"id":13850481327,"osm_type":"node","name":"Träffpunkt Svartbäcken","category":"community_centre","tags":{"amenity":"community_centre","community_centre":"social_centre","name":"Träffpunkt Svartbäcken","operator":"Uppsala kommun","operator:type":"government","website":"https://www.uppsala.se/kultur-idrott-fritid/plats/traffpunkter-65/traffpunkt-svartbacken/"}},"geometry":{"type":"Point","coordinates":[17.6228809,59.8704712]}},{"type":"Feature","properties":{"id":13946217545,"osm_type":"node","name":"Vattholma fritidsklubb och fritidsgård","category":"community_centre","tags":{"addr:city":"Vattholma","addr:housenumber":"4","addr:postcode":"743 50","addr:street":"Malmvågsvägen","amenity":"community_centre","community_centre":"youth_centre","name":"Vattholma fritidsklubb och fritidsgård","operator":"Uppsala kommun","operator:type":"government","website":"https://fritidsgardar.uppsala.se/kontakt/"}},"geometry":{"type":"Point","coordinates":[17.7343886,60.0165465]}},{"type":"Feature","properties":{"id":32780361,"osm_type":"way","name":"Uthgård","category":"community_centre","tags":{"addr:city":"Uppsala","addr:country":"SE","addr:postcode":"75237","addr:street":"Polacksbacken","amenity":"community_centre","amenity_1":"cafe","building":"yes","building:levels":"2","name":"Uthgård","opening_hours":"Mo-Fr 09:00-17:15","operator":"UTN","ref":"73","roof:shape":"hipped","smoking":"outside","website":"https://www.utn.se/sv"}},"geometry":{"type":"Point","coordinates":[17.6513458,59.8405227]}},{"type":"Feature","properties":{"id":33707334,"osm_type":"way","name":"Uplands nation","category":"community_centre","tags":{"access":"private","addr:city":"Uppsala","addr:country":"SE","addr:housenumber":"11","addr:postcode":"753 11","addr:street":"Sankt Larsgatan","amenity":"community_centre","building":"yes","building:colour":"chocolate","building:levels":"2","community_centre:for":"student","contact:facebook":"https://www.facebook.com/uplandsnation","name":"Uplands nation","roof:colour":"firebrick","website":"https://www.uplandsnation.se/","wikidata":"Q7898369","wikipedia":"sv:Uplands nation"}},"geometry":{"type":"Point","coordinates":[17.6295658,59.8598086]}},{"type":"Feature","properties":{"id":34725024,"osm_type":"way","name":"","category":"community_centre","tags":{"amenity":"community_centre","building":"yes","community_centre":"börje_bygdegård"}},"geometry":{"type":"Point","coordinates":[17.5324666,59.8800095]}},{"type":"Feature","properties":{"id":52071474,"osm_type":"way","name":"Fyrisgården","category":"community_centre","tags":{"addr:city":"Uppsala","addr:country":"SE","addr:housenumber":"58","addr:postcode":"75333","addr:street":"Svartbäcksgatan","amenity":"community_centre","building":"yes","email":"exp@fyrisgarden.se","name":"Fyrisgården","opening_hours":"\"Café Cato open Wednesdays 10-12. Other irregular activities listed at https://fyrisgarden.se/aktiviteter/\"","phone":"+46 18 238744","source":"bing","website":"https://fyrisgarden.se/"}},"geometry":{"type":"Point","coordinates":[17.625517,59.8679488]}},{"type":"Feature","properties":{"id":94611412,"osm_type":"way","name":"","category":"community_centre","tags":{"amenity":"community_centre","building":"yes","community_centre":"club_home","source":"bing","sport":"orienteering"}},"geometry":{"type":"Point","coordinates":[17.6105828,59.828022]}},{"type":"Feature","properties":{"id":107289464,"osm_type":"way","name":"Liljekonvaljeholmen","category":"community_centre","tags":{"amenity":"community_centre","name":"Liljekonvaljeholmen"}},"geometry":{"type":"Point","coordinates":[17.6636235,59.8059927]}},{"type":"Feature","properties":{"id":134890824,"osm_type":"way","name":"","category":"community_centre","tags":{"amenity":"community_centre","building":"yes","building:colour":"red","building:levels":"1","building:material":"wood","operator":"Svenska kyrkan","operator:type":"religious","operator:wikidata":"Q749243","roof:colour":"red","roof:material":"roof_tiles","roof:shape":"gabled"}},"geometry":{"type":"Point","coordinates":[17.6361396,59.8982845]}},{"type":"Feature","properties":{"id":166963886,"osm_type":"way","name":"","category":"community_centre","tags":{"addr:city":"Uppsala","addr:country":"SE","addr:housenumber":"3C","addr:street":"Seminariegatan","amenity":"community_centre","building":"yes","description":"Kvarterslokal"}},"geometry":{"type":"Point","coordinates":[17.6162352,59.869005]}},{"type":"Feature","properties":{"id":221131148,"osm_type":"way","name":"Raststället","category":"community_centre","tags":{"addr:city":"Knivsta","addr:country":"SE","addr:housenumber":"2a","addr:postcode":"74142","addr:street":"Häradsvägen","amenity":"community_centre","building":"yes","name":"Raststället"}},"geometry":{"type":"Point","coordinates":[17.7939399,59.7250254]}},{"type":"Feature","properties":{"id":221472182,"osm_type":"way","name":"","category":"community_centre","tags":{"amenity":"community_centre","building":"amenity","level":"1"}},"geometry":{"type":"Point","coordinates":[17.7672964,59.722072]}},{"type":"Feature","properties":{"id":228807320,"osm_type":"way","name":"","category":"community_centre","tags":{"amenity":"community_centre","building":"yes"}},"geometry":{"type":"Point","coordinates":[17.5327732,59.8498762]}},{"type":"Feature","properties":{"id":264583811,"osm_type":"way","name":"Blåklintens hyresgästlokal","category":"community_centre","tags":{"addr:housenumber":"3","addr:street":"Järneksgatan","amenity":"community_centre","building":"detached","building:levels":"1","building:material":"wood","check_date":"2024-07-04","community_centre:for":"neighbourhood","internet_access":"no","name":"Blåklintens hyresgästlokal","name:sv":"Blåklintens hyresgästlokal","opening_hours":"off","roof:levels":"0","roof:shape":"gabled","wheelchair":"yes"}},"geometry":{"type":"Point","coordinates":[17.6807685,59.8615957]}},{"type":"Feature","properties":{"id":378956736,"osm_type":"way","name":"","category":"community_centre","tags":{"amenity":"community_centre","building":"yes","community_centre":"parish_hall","denomination":"lutheran","description":"Församlingsgård","office":"religion","religion":"christian"}},"geometry":{"type":"Point","coordinates":[17.5291864,59.947608]}},{"type":"Feature","properties":{"id":491539315,"osm_type":"way","name":"","category":"community_centre","tags":{"amenity":"community_centre","building":"residential","community_centre":"åkerby_bygdegård"}},"geometry":{"type":"Point","coordinates":[17.4969244,59.9229924]}},{"type":"Feature","properties":{"id":525685707,"osm_type":"way","name":"","category":"community_centre","tags":{"amenity":"community_centre","building":"yes","description":"Kvarterslokal"}},"geometry":{"type":"Point","coordinates":[17.6718737,59.8717097]}},{"type":"Feature","properties":{"id":1173582238,"osm_type":"way","name":"Knivsta Centrum för Idrott och Kultur - CIK","category":"community_centre","tags":{"addr:city":"Knivsta","addr:country":"SE","addr:housenumber":"31","addr:postcode":"74140","addr:street":"Parkvägen","amenity":"community_centre","building":"yes","name":"Knivsta Centrum för Idrott och Kultur - CIK","opening_hours":"Mo-Fr 08:00-21:00; Sa 08:00-20:00; Sa 09:00-21:00","website":"https://cik.knivsta.se"}},"geometry":{"type":"Point","coordinates":[17.7921279,59.72139]}},{"type":"Feature","properties":{"id":1222299305,"osm_type":"way","name":"Tunets fritidsgård","category":"community_centre","tags":{"addr:city":"Uppsala","addr:housenumber":"74","addr:postcode":"75334","addr:street":"Swedenborgsgatan","amenity":"community_centre","building":"school","building:levels":"1","community_centre":"youth_centre","name":"Tunets fritidsgård","roof:shape":"flat"}},"geometry":{"type":"Point","coordinates":[17.6278184,59.8770546]}}]}