{"type":"FeatureCollection","features":[{"type":"Feature","properties":{"id":359404298,"osm_type":"node","name":"Eriksbergstandläkarna","category":"dentistry","tags":{"amenity":"dentist","healthcare":"dentist","name":"Eriksbergstandläkarna"}},"geometry":{"type":"Point","coordinates":[17.606601,59.8429431]}},{"type":"Feature","properties":{"id":359404516,"osm_type":"node","name":"Folktandvården","category":"dentistry","tags":{"addr:city":"Uppsala","addr:street":"Västertorg","amenity":"dentist","brand":"Folktandvården","brand:wikidata":"Q10497476","brand:wikipedia":"sv:Folktandvården","healthcare":"dentist","name":"Folktandvården","opening_hours":"Mo-Fr 07:30-19:00","website":"https://www.1177.se/hitta-vard/kontaktkort/Folktandvarden-Vastertorg-Folktandvarden-Region-Uppsala/"}},"geometry":{"type":"Point","coordinates":[17.6018633,59.8409164]}},{"type":"Feature","properties":{"id":3655571526,"osm_type":"node","name":"Folktandvården","category":"dentistry","tags":{"amenity":"dentist","brand":"Folktandvården","brand:wikidata":"Q10497476","brand:wikipedia":"sv:Folktandvården","healthcare":"dentist","name":"Folktandvården","opening_hours":"Mo,Tu 07:00-19:00; We-Fr 07:30-17:00"}},"geometry":{"type":"Point","coordinates":[17.7855338,59.7242809]}},{"type":"Feature","properties":{"id":4339473678,"osm_type":"node","name":"Samariten-tandläkarna","category":"dentistry","tags":{"amenity":"dentist","healthcare":"dentist","name":"Samariten-tandläkarna"}},"geometry":{"type":"Point","coordinates":[17.6459469,59.8555087]}},{"type":"Feature","properties":{"id":4340094566,"osm_type":"node","name":"","category":"dentistry","tags":{"amenity":"dentist","healthcare":"dentist"}},"geometry":{"type":"Point","coordinates":[17.6220693,59.8627017]}},{"type":"Feature","properties":{"id":4345058825,"osm_type":"node","name":"Tandklinik","category":"dentistry","tags":{"amenity":"dentist","check_date:opening_hours":"2021-01-30","healthcare":"dentist","name":"Tandklinik","opening_hours":"Mo-Fr 09:30-18:00"}},"geometry":{"type":"Point","coordinates":[17.6470191,59.8623879]}},{"type":"Feature","properties":{"id":4345062212,"osm_type":"node","name":"Fålhagen Tandvård","category":"dentistry","tags":{"amenity":"dentist","check_date":"2024-08-29","email":"info.falhagentand@ptj.se","healthcare":"dentist","name":"Fålhagen Tandvård","opening_hours":"Mo,Tu 07:00-16:00; We 07:00-15:00; Th 07:00-17:00; Fr 07:00-15:00","phone":"+46-18-13 80 29","website":"https://www.ptj.se/falhagen-tandvard/"}},"geometry":{"type":"Point","coordinates":[17.6494581,59.8613356]}},{"type":"Feature","properties":{"id":4362448828,"osm_type":"node","name":"Tand Vårds Huset","category":"dentistry","tags":{"amenity":"dentist","healthcare":"dentist","name":"Tand Vårds Huset"}},"geometry":{"type":"Point","coordinates":[17.6183946,59.8214929]}},{"type":"Feature","properties":{"id":4362538266,"osm_type":"node","name":"Aroskliniken","category":"dentistry","tags":{"amenity":"dentist","check_date":"2025-07-29","healthcare":"dentist","name":"Aroskliniken"}},"geometry":{"type":"Point","coordinates":[17.6709514,59.8678601]}},{"type":"Feature","properties":{"id":4839189447,"osm_type":"node","name":"Knivsta tandvård","category":"dentistry","tags":{"addr:city":"Knivsta","addr:country":"SE","addr:housenumber":"10e","addr:postcode":"74140","addr:street":"Forsbyvägen","amenity":"dentist","entrance":"shop","healthcare":"dentist","name":"Knivsta tandvård"}},"geometry":{"type":"Point","coordinates":[17.7928137,59.7232079]}},{"type":"Feature","properties":{"id":4933931594,"osm_type":"node","name":"Folktandvården","category":"dentistry","tags":{"amenity":"dentist","brand":"Folktandvården","brand:wikidata":"Q10497476","brand:wikipedia":"sv:Folktandvården","check_date":"2026-03-10","healthcare":"dentist","name":"Folktandvården"}},"geometry":{"type":"Point","coordinates":[17.6437528,59.8565778]}},{"type":"Feature","properties":{"id":8537276961,"osm_type":"node","name":"Distriktstandvården","category":"dentistry","tags":{"addr:city":"Uppsala","addr:country":"SE","addr:housenumber":"39","addr:postcode":"75322","addr:street":"Östra Ågatan","amenity":"dentist","branch":"Östra Ågatan","brand":"Distriktstandvården","brand:wikidata":"Q10474535","check_date":"2026-01-28","email":"ostra.agatan@distriktstandvarden.se","healthcare":"dentist","healthcare:speciality":"dentist;dental;dentistry;emergency_dental_care;dental_bridges;tooth_bonding;dental_extraction;dental_surgery;dental_crowns;dental_fillings;root_canals;tooth_whitening;dental_implants;dental_splints;tartar_removal;dental_examination","name":"Distriktstandvården","opening_hours":"Mo-Fr 07:30-16:50","operator":"Distriktstandvården","phone":"+4618138012","wheelchair":"yes"}},"geometry":{"type":"Point","coordinates":[17.639661,59.857003]}},{"type":"Feature","properties":{"id":8537292563,"osm_type":"node","name":"Distriktstandvården","category":"dentistry","tags":{"addr:city":"Uppsala","addr:country":"SE","addr:housenumber":"6","addr:postcode":"75319","addr:street":"Hamnesplanaden","addr:unit":"Ing 41 C","amenity":"dentist","branch":"Hamnesplanaden","brand":"Distriktstandvården","brand:wikidata":"Q10474535","check_date":"2026-01-28","email":"hamnesplanaden@distriktstandvarden.se","healthcare":"dentist","healthcare:speciality":"dentist;dental;dentistry;emergency_dental_care;dental_bridges;tooth_bonding;dental_extraction;dental_surgery;dental_crowns;dental_fillings;root_canals;tooth_whitening;dental_implants;dental_splints;tartar_removal;dental_examination","name":"Distriktstandvården","opening_hours":"Mo-Fr 07:45-17:00","operator":"Distriktstandvården","phone":"+4618132323","website":"https://distriktstandvarden.se/hamnesplanaden/","wheelchair":"yes"}},"geometry":{"type":"Point","coordinates":[17.646336,59.854181]}},{"type":"Feature","properties":{"id":10036385199,"osm_type":"node","name":"City Tandvård","category":"dentistry","tags":{"amenity":"dentist","check_date":"2024-07-23","email":"citytandvard@ptj.se","healthcare":"dentist","name":"City Tandvård","phone":"+46 18 124 21 0","website":"https://www.ptj.se/city-tandvard-uppsala/"}},"geometry":{"type":"Point","coordinates":[17.6347875,59.8604649]}},{"type":"Feature","properties":{"id":11528210458,"osm_type":"node","name":"Folktandvården","category":"dentistry","tags":{"amenity":"dentist","branch":"Årsta","brand":"Folktandvården","brand:wikidata":"Q10497476","check_date":"2026-02-24","healthcare":"dentist","name":"Folktandvården"}},"geometry":{"type":"Point","coordinates":[17.6835007,59.8658876]}},{"type":"Feature","properties":{"id":11678819805,"osm_type":"node","name":"Folktandvården","category":"dentistry","tags":{"addr:housenumber":"14","addr:street":"Stationsgatan","amenity":"dentist","branch":"Stationen","brand":"Folktandvården","brand:wikidata":"Q10497476","check_date":"2024-07-07","healthcare":"dentist","name":"Folktandvården","website":"https://www.1177.se/Uppsala-lan/hitta-vard/kontaktkort/Folktandvarden-Stationen/"}},"geometry":{"type":"Point","coordinates":[17.6491895,59.8583398]}},{"type":"Feature","properties":{"id":11906567582,"osm_type":"node","name":"RosenDental","category":"dentistry","tags":{"addr:city":"Uppsala","addr:housenumber":"88A","addr:postcode":"752 55","addr:street":"Torgny Segerstedts allé","amenity":"dentist","check_date":"2026-03-10","check_date:opening_hours":"2026-03-10","email":"info.rosendental@ptj.se","healthcare":"dentist","level":"0","name":"RosenDental","opening_hours":"Mo, We-Th 08:00-16:00; Tu 09:00-18:00; Fr 08:00-14:00","phone":"+46184749905","website":"https://www.ptj.se/rosendental/"}},"geometry":{"type":"Point","coordinates":[17.6337152,59.8347671]}},{"type":"Feature","properties":{"id":12054916900,"osm_type":"node","name":"Stjärndentallab","category":"dentistry","tags":{"amenity":"dentist","check_date":"2025-08-23","healthcare":"dentist","level":"0","name":"Stjärndentallab"}},"geometry":{"type":"Point","coordinates":[17.6313865,59.8636592]}},{"type":"Feature","properties":{"id":12079679434,"osm_type":"node","name":"Sturepraktiken","category":"dentistry","tags":{"amenity":"dentist","check_date":"2025-10-20","contact:phone":"+46 18 124 31 2","contact:website":"https://sturepraktiken.se","healthcare":"dentist","healthcare:speciality":"dentist;dentistry","level":"0","name":"Sturepraktiken"}},"geometry":{"type":"Point","coordinates":[17.6287365,59.8615218]}},{"type":"Feature","properties":{"id":12598574952,"osm_type":"node","name":"Folktandvården","category":"dentistry","tags":{"amenity":"dentist","branch":"Seminariet","brand":"Folktandvården","brand:wikidata":"Q10497476","healthcare":"dentist","name":"Folktandvården","wheelchair":"yes"}},"geometry":{"type":"Point","coordinates":[17.6186833,59.8681184]}}]}