{"type":"FeatureCollection","features":[{"type":"Feature","properties":{"id":124109617,"osm_type":"way","name":"","category":"fire_station","tags":{"addr:country":"SE","addr:housenumber":"2","addr:street":"Ärentunavägen","amenity":"fire_station","building":"yes","ref":"Station 23130"}},"geometry":{"type":"Point","coordinates":[17.6992968,59.9648611]}},{"type":"Feature","properties":{"id":264359874,"osm_type":"way","name":"Brandstation Viktoria","category":"fire_station","tags":{"alt_name":"Fyrislunds brandstation","amenity":"fire_station","building":"yes","name":"Brandstation Viktoria"}},"geometry":{"type":"Point","coordinates":[17.7133742,59.8455182]}},{"type":"Feature","properties":{"id":1462828054,"osm_type":"way","name":"Bärby brandstation","category":"fire_station","tags":{"addr:city":"Uppsala","addr:housenumber":"1","addr:postcode":"75337","addr:street":"Garnisonsvägen","amenity":"fire_station","name":"Bärby brandstation","operator":"Uppsala brandförsvar"}},"geometry":{"type":"Point","coordinates":[17.6170306,59.8865447]}}]}