{"type":"FeatureCollection","features":[{"type":"Feature","properties":{"id":359391723,"osm_type":"node","name":"Hemköp Uppsala Västertorg","category":"grocery","tags":{"addr:city":"Uppsala","addr:country":"SE","addr:housenumber":"3","addr:postcode":"75243","addr:street":"Västertorg","brand":"Hemköp","brand:wikidata":"Q10521746","brand:wikipedia":"sv:Hemköp","check_date:opening_hours":"2025-05-22","name":"Hemköp Uppsala Västertorg","opening_hours":"Mo-Fr 07:00-22:00; Sa-Su 08:00-22:00","operator":"Hemköp","phone":"018-520350","shop":"supermarket","website":"https://www.hemkop.se/butik/4592"}},"geometry":{"type":"Point","coordinates":[17.6020126,59.8410953]}},{"type":"Feature","properties":{"id":359391952,"osm_type":"node","name":"Coop Västertorg","category":"grocery","tags":{"addr:city":"Uppsala","addr:country":"SE","addr:housenumber":"1","addr:postcode":"75243","addr:street":"Västertorg","brand":"Coop","brand:wikidata":"Q106684510","check_date:opening_hours":"2025-05-22","name":"Coop Västertorg","opening_hours":"Mo-Fr 07:00-22:00; Sa-Su 08:00-22:00","operator":"Coop","phone":"+46 10-7412690","shop":"supermarket","website":"https://www.coop.se/butiker-erbjudanden/coop-konsum/coop-konsum-vastertorg/"}},"geometry":{"type":"Point","coordinates":[17.6031679,59.8409811]}},{"type":"Feature","properties":{"id":385355882,"osm_type":"node","name":"ICA Supermarket Luthagens livs","category":"grocery","tags":{"brand":"ICA Supermarket","brand:wikidata":"Q1663776","check_date":"2025-08-04","check_date:opening_hours":"2025-08-04","email":"luthagenslivs@supermarket.ica.se","name":"ICA Supermarket Luthagens livs","opening_hours":"Mo-Su 07:00-23:00","operator":"ICA","payment:cash":"yes","phone":"+46 18 565656","shop":"supermarket","website":"https://www.ica.se/butiker/supermarket/uppsala/ica-supermarket-luthagens-livs-1495/start/","wheelchair":"yes"}},"geometry":{"type":"Point","coordinates":[17.6272446,59.8614265]}},{"type":"Feature","properties":{"id":390438550,"osm_type":"node","name":"Lidl","category":"grocery","tags":{"brand":"Lidl","brand:wikidata":"Q151954","brand:wikipedia":"en:Lidl","name":"Lidl","opening_hours":"Mo-Fr 08:00-21:00; Sa 08:00-20:00; Su 09:00-20:00","payment:coins":"yes","payment:mastercard":"yes","payment:notes":"yes","payment:visa":"yes","payment:visa_debit":"yes","payment:visa_electron":"yes","shop":"supermarket","wheelchair":"yes"}},"geometry":{"type":"Point","coordinates":[17.6559352,59.870758]}},{"type":"Feature","properties":{"id":412064914,"osm_type":"node","name":"Maxi ICA Stormarknad Stenhagen Uppsala","category":"grocery","tags":{"brand":"Maxi ICA Stormarknad","brand:wikidata":"Q1663776","brand:wikipedia":"sv:Ica","check_date:opening_hours":"2025-03-30","name":"Maxi ICA Stormarknad Stenhagen Uppsala","opening_hours":"Mo-Su 08:00-22:00","operator":"ICA","payment:cash":"yes","shop":"supermarket","short_name":"ICA Maxi","website":"https://www.ica.se/butiker/maxi/uppsala/maxi-ica-stormarknad-uppsala-9699/start/","wheelchair":"yes"}},"geometry":{"type":"Point","coordinates":[17.5599509,59.8488507]}},{"type":"Feature","properties":{"id":441028191,"osm_type":"node","name":"ICA Folkes Livs","category":"grocery","tags":{"addr:city":"Uppsala","addr:country":"SE","addr:housenumber":"8","addr:street":"Rackarbergsgatan","brand":"ICA Nära","brand:wikidata":"Q1663776","check_date:opening_hours":"2024-02-23","email":"agneta.johnsen@nara.ica.se","name":"ICA Folkes Livs","opening_hours":"24/7","operator":"ICA","phone":"+46 18 544915","shop":"supermarket","website":"https://www.ica.se/butiker/nara/uppsala/ica-folkes-livs-1498/start/"}},"geometry":{"type":"Point","coordinates":[17.6183741,59.8558401]}},{"type":"Feature","properties":{"id":469340148,"osm_type":"node","name":"ICA Torgkassen","category":"grocery","tags":{"brand":"ICA Supermarket","brand:wikidata":"Q1663776","brand:wikipedia":"sv:Ica","check_date":"2024-06-29","check_date:opening_hours":"2022-03-17","name":"ICA Torgkassen","opening_hours":"Mo-Su,PH 07:00-23:00","shop":"supermarket","wheelchair":"yes"}},"geometry":{"type":"Point","coordinates":[17.6462107,59.8623261]}},{"type":"Feature","properties":{"id":469341797,"osm_type":"node","name":"Mykonos livs","category":"grocery","tags":{"check_date":"2025-02-28","cuisine":"greek","name":"Mykonos livs","opening_hours":"Mo-Fr 10:00-19:30; Sa 10:00-18:00; Su 11:00-18:00","shop":"convenience","wheelchair":"no"}},"geometry":{"type":"Point","coordinates":[17.649129,59.8616452]}},{"type":"Feature","properties":{"id":469343579,"osm_type":"node","name":"ICA Vretgränd","category":"grocery","tags":{"addr:country":"SE","addr:housenumber":"9","addr:street":"Vretgränd","brand":"ICA Nära","brand:wikidata":"Q1663776","brand:wikipedia":"sv:Ica","check_date":"2026-03-10","check_date:opening_hours":"2025-08-03","name":"ICA Vretgränd","opening_hours":"Mo-Fr 06:00-21:00; Sa,Su 09:00-20:00","phone":"+46 (0)18-127812","shop":"supermarket","website":"https://www.ica.se/butiker/nara/uppsala/ica-vretgrand-1500/start/","wheelchair":"yes"}},"geometry":{"type":"Point","coordinates":[17.6434187,59.8563511]}},{"type":"Feature","properties":{"id":598574704,"osm_type":"node","name":"Tantens Gröna Skafferi & Garderob","category":"grocery","tags":{"addr:city":"Uppsala","addr:country":"SE","addr:housenumber":"190","addr:postcode":"752 63","addr:street":"Hågavägen","alt_name":"Tantens Gröna skafferi","bulk_purchase":"yes","name":"Tantens Gröna Skafferi & Garderob","organic":"only","shop":"supermarket"}},"geometry":{"type":"Point","coordinates":[17.576649,59.838044]}},{"type":"Feature","properties":{"id":663570267,"osm_type":"node","name":"ICA Nära Brantingstorg","category":"grocery","tags":{"brand":"ICA Nära","brand:wikidata":"Q1663776","brand:wikipedia":"sv:Ica","check_date":"2025-07-29","name":"ICA Nära Brantingstorg","opening_hours":"Mo-Sa 08:00-21:00; Su 09:00-21:00","operator":"ICA","shop":"supermarket","website":"https://www.ica.se/butiker/nara/uppsala/ica-nara-brantingstorg-9585/start/"}},"geometry":{"type":"Point","coordinates":[17.6712071,59.8683281]}},{"type":"Feature","properties":{"id":719242996,"osm_type":"node","name":"Hemköp Uppsala Svava C","category":"grocery","tags":{"addr:city":"Uppsala","addr:country":"SE","addr:housename":"Svavagallerian","addr:housenumber":"50","addr:street":"Dragarbrunnsgatan","brand":"Hemköp","brand:wikidata":"Q10521746","check_date":"2024-10-15","email":"info.uppsala.city@hemkop.se","name":"Hemköp Uppsala Svava C","opening_hours":"Mo-Su 07:00-21:00","phone":"018-160470","shop":"supermarket","website":"https://www.hemkop.se/butik/4256","wheelchair":"yes"}},"geometry":{"type":"Point","coordinates":[17.6432567,59.8582662]}},{"type":"Feature","properties":{"id":801154639,"osm_type":"node","name":"ICA Supermarket Sävja","category":"grocery","tags":{"branch":"Uppsala","brand":"ICA Supermarket","brand:wikidata":"Q1663776","brand:wikipedia":"sv:Ica","name":"ICA Supermarket Sävja","operator":"ICA","shop":"supermarket"}},"geometry":{"type":"Point","coordinates":[17.6980382,59.8204554]}},{"type":"Feature","properties":{"id":838198371,"osm_type":"node","name":"ICA Kvantum","category":"grocery","tags":{"brand":"ICA Kvantum","brand:wikidata":"Q1663776","brand:wikipedia":"sv:Ica","check_date":"2026-04-23","check_date:opening_hours":"2024-01-04","name":"ICA Kvantum","opening_hours":"Mo-Su 08:00-22:00","operator":"ICA","shop":"supermarket","wheelchair":"yes"}},"geometry":{"type":"Point","coordinates":[17.6734929,59.8772603]}},{"type":"Feature","properties":{"id":840602696,"osm_type":"node","name":"City Gross","category":"grocery","tags":{"brand":"City Gross","brand:wikidata":"Q10453555","brand:wikipedia":"sv:City Gross","name":"City Gross","opening_hours":"Mo-Su 07:00-22:00","shop":"supermarket","wheelchair":"yes"}},"geometry":{"type":"Point","coordinates":[17.6862847,59.847304]}},{"type":"Feature","properties":{"id":877080690,"osm_type":"node","name":"Willys Uppsala Gränby","category":"grocery","tags":{"addr:city":"Uppsala","addr:country":"SE","addr:housenumber":"97","addr:street":"Råbyvägen","brand":"Willys","brand:wikidata":"Q10720214","brand:wikipedia":"sv:Willys","name":"Willys Uppsala Gränby","opening_hours":"Mo-Su 08:00-22:00","phone":"018-194740","shop":"supermarket","website":"https://www.willys.se/butik/2218"}},"geometry":{"type":"Point","coordinates":[17.6608331,59.8860682]}},{"type":"Feature","properties":{"id":1002091035,"osm_type":"node","name":"Tunabackar spel & tobak","category":"grocery","tags":{"addr:city":"Uppsala","addr:country":"SE","addr:housenumber":"3","addr:postcode":"75335","addr:street":"Torbjörnsgatan","diet:gluten_free":"no","name":"Tunabackar spel & tobak","opening_hours":"Mo-Fr 09:00-20:00; Sa 09:00-19:00; Su 10:00-19:00","phone":"+46 18 244130","shop":"convenience"}},"geometry":{"type":"Point","coordinates":[17.6229731,59.875015]}},{"type":"Feature","properties":{"id":1365863407,"osm_type":"node","name":"ICA Supermarket Samköp","category":"grocery","tags":{"amenity":"post_office","brand":"ICA Supermarket","brand:wikidata":"Q1663776","brand:wikipedia":"sv:Ica","name":"ICA Supermarket Samköp","opening_hours":"08:00-23:00","shop":"supermarket"}},"geometry":{"type":"Point","coordinates":[17.646771,59.8774453]}},{"type":"Feature","properties":{"id":1386099258,"osm_type":"node","name":"Palmens Spel och Tobak","category":"grocery","tags":{"name":"Palmens Spel och Tobak","shop":"convenience"}},"geometry":{"type":"Point","coordinates":[17.7057799,59.9591479]}},{"type":"Feature","properties":{"id":1386099263,"osm_type":"node","name":"Bildnabben","category":"grocery","tags":{"name":"Bildnabben","shop":"convenience"}},"geometry":{"type":"Point","coordinates":[17.7073436,59.9630484]}},{"type":"Feature","properties":{"id":1817773505,"osm_type":"node","name":"ICA Kvantum","category":"grocery","tags":{"brand":"ICA Kvantum","brand:wikidata":"Q1663776","brand:wikipedia":"sv:Ica","check_date:opening_hours":"2025-10-20","name":"ICA Kvantum","opening_hours":"Mo-Su 07:00-22:00","payment:cash":"yes","payment:credit_cards":"yes","shop":"supermarket"}},"geometry":{"type":"Point","coordinates":[17.787135,59.730285]}},{"type":"Feature","properties":{"id":1951115869,"osm_type":"node","name":"Willy:s","category":"grocery","tags":{"brand":"Willys","brand:wikidata":"Q10720214","check_date":"2024-07-22","name":"Willy:s","opening_hours":"Mo-Su,PH 08:00-21:00","shop":"supermarket","wheelchair":"yes"}},"geometry":{"type":"Point","coordinates":[17.6289633,59.8111876]}},{"type":"Feature","properties":{"id":2008618249,"osm_type":"node","name":"ICA Kvantum","category":"grocery","tags":{"brand":"ICA Kvantum","brand:wikidata":"Q1663776","brand:wikipedia":"sv:Ica","check_date":"2024-07-22","name":"ICA Kvantum","opening_hours":"Mo-Fr 07:00-21:00; Sa-Su,PH 08:00-21:00","shop":"supermarket","wheelchair":"yes"}},"geometry":{"type":"Point","coordinates":[17.6301139,59.8102696]}},{"type":"Feature","properties":{"id":2151159308,"osm_type":"node","name":"ICA Supermarket City","category":"grocery","tags":{"addr:city":"Uppsala","addr:housenumber":"10","addr:postcode":"753 20","addr:street":"Sankt Persgatan","brand":"ICA Supermarket","brand:wikidata":"Q1663776","brand:wikipedia":"sv:Ica","check_date":"2025-08-03","check_date:opening_hours":"2025-06-04","name":"ICA Supermarket City","opening_hours":"Mo-Fr 08:00-21:00; Sa,Su 10:00-20:00","shop":"supermarket","website":"https://www.ica.se/butiker/supermarket/uppsala/ica-supermarket-city-uppsala-1499/start/","wheelchair":"yes"}},"geometry":{"type":"Point","coordinates":[17.6369398,59.8602364]}},{"type":"Feature","properties":{"id":2203267383,"osm_type":"node","name":"Svava Tobak","category":"grocery","tags":{"check_date":"2024-07-12","level":"0","name":"Svava Tobak","opening_hours":"Mo-Th 10:00-20:00; Fr-Sa 10:00-24:00; Su 12:00-17:00","shop":"convenience","website":"https://www.svavatobak.se","wheelchair":"yes"}},"geometry":{"type":"Point","coordinates":[17.6437281,59.8584546]}},{"type":"Feature","properties":{"id":2208623623,"osm_type":"node","name":"Direkten","category":"grocery","tags":{"addr:city":"Uppsala","addr:country":"SE","addr:housenumber":"17","addr:street":"Dragarbrunnsgatan","brand":"Direkten","brand:wikidata":"Q105693281","check_date":"2025-07-17","name":"Direkten","opening_hours":"Mo-Th 09:00-21:00; Fr 09:00-01:00, Sa 12:00-01:00, Su 12:00-20:00","shop":"convenience","wheelchair":"yes"}},"geometry":{"type":"Point","coordinates":[17.6369249,59.861015]}},{"type":"Feature","properties":{"id":2208623627,"osm_type":"node","name":"Cherry Konfekt","category":"grocery","tags":{"check_date":"2025-10-13","check_date:opening_hours":"2025-10-13","level":"0","name":"Cherry Konfekt","opening_hours":"Mo,Tu 07:30-24:00, We-Fr 07:30-04:00, Sa 09:00-04:00, Su 10:00-24:00","shop":"convenience"}},"geometry":{"type":"Point","coordinates":[17.639532,59.8595658]}},{"type":"Feature","properties":{"id":2325217908,"osm_type":"node","name":"Coop Stationsgallerian","category":"grocery","tags":{"addr:city":"Uppsala","addr:country":"SE","addr:housenumber":"14","addr:street":"Stationsgatan","brand":"Coop","brand:wikidata":"Q106684510","check_date":"2024-07-07","name":"Coop Stationsgallerian","opening_hours":"Mo-Fr 06:00-22:00; Sa,Su 07:00-22:00","payment:cash":"yes","phone":"010-7418470","shop":"supermarket","website":"https://www.coop.se/butiker-erbjudanden/coop/coop-stationsgallerian/"}},"geometry":{"type":"Point","coordinates":[17.6492647,59.8585523]}},{"type":"Feature","properties":{"id":2796349924,"osm_type":"node","name":"ICA Nära Stabby","category":"grocery","tags":{"addr:city":"Uppsala","addr:country":"SE","addr:housenumber":"27","addr:street":"Hällbygatan","brand":"ICA Nära","brand:wikidata":"Q1663776","brand:wikipedia":"sv:Ica","name":"ICA Nära Stabby","opening_hours":"Mo-Su 07:00-23:00","shop":"supermarket","website":"https://www.ica.se/butiker/nara/uppsala/ica-nara-stabby-14936/start/"}},"geometry":{"type":"Point","coordinates":[17.6080257,59.8659117]}},{"type":"Feature","properties":{"id":2981648071,"osm_type":"node","name":"East Asian market","category":"grocery","tags":{"addr:city":"Uppsala","check_date":"2026-03-17","name":"East Asian market","opening_hours":"Mo 11:30-18:30; Tu-Fr 10:30-18:30; Sa 10:30-17:00","shop":"supermarket"}},"geometry":{"type":"Point","coordinates":[17.649323,59.8556992]}},{"type":"Feature","properties":{"id":3662785897,"osm_type":"node","name":"Willys","category":"grocery","tags":{"brand":"Willys","brand:wikidata":"Q10720214","brand:wikipedia":"sv:Willys","check_date:opening_hours":"2025-10-15","level":"1","name":"Willys","opening_hours":"Mo-Su 08:00-21:00","shop":"supermarket"}},"geometry":{"type":"Point","coordinates":[17.7876706,59.7279556]}},{"type":"Feature","properties":{"id":3733135851,"osm_type":"node","name":"Direkten","category":"grocery","tags":{"addr:city":"Knivsta","addr:country":"SE","addr:housenumber":"19A","addr:postcode":"741 40","addr:street":"Centralvägen","branch":"Knivsta","brand":"Direkten","brand:wikidata":"Q105693281","check_date":"2025-08-24","check_date:opening_hours":"2025-08-24","name":"Direkten","opening_hours":"Mo-Fr 09:00-19:00; Sa,Su 10:00-17:00","shop":"convenience"}},"geometry":{"type":"Point","coordinates":[17.7859743,59.7277883]}},{"type":"Feature","properties":{"id":3941524494,"osm_type":"node","name":"Asian Food Market","category":"grocery","tags":{"check_date":"2025-03-22","check_date:opening_hours":"2024-07-26","name":"Asian Food Market","opening_hours":"Mo-Fr 11:00-19:00; Sa 11:00-15:00","shop":"supermarket"}},"geometry":{"type":"Point","coordinates":[17.6430129,59.8584255]}},{"type":"Feature","properties":{"id":4270757980,"osm_type":"node","name":"City Gross","category":"grocery","tags":{"addr:city":"Uppsala","addr:country":"SE","addr:housenumber":"21","addr:postcode":"754 60","addr:street":"Takpannegatan","brand":"City Gross","brand:wikidata":"Q10453555","brand:wikipedia":"sv:City Gross","name":"City Gross","opening_hours":"Mo-Su 07:00-22:00","shop":"supermarket","website":"https://www.citygross.se/butiker/uppsala-granby"}},"geometry":{"type":"Point","coordinates":[17.6712894,59.886188]}},{"type":"Feature","properties":{"id":4300341594,"osm_type":"node","name":"Willys","category":"grocery","tags":{"addr:city":"Uppsala","addr:country":"SE","addr:housenumber":"1","addr:postcode":"75267","addr:street":"Herrhagsvägen","brand":"Willys","brand:wikidata":"Q10720214","brand:wikipedia":"sv:Willys","check_date:opening_hours":"2025-08-05","name":"Willys","opening_hours":"Mo-Su 08:00-21:00","shop":"supermarket","website":"https://www.willys.se/"}},"geometry":{"type":"Point","coordinates":[17.564484,59.8493104]}},{"type":"Feature","properties":{"id":4339468701,"osm_type":"node","name":"7-Eleven","category":"grocery","tags":{"brand":"7-Eleven","brand:wikidata":"Q259340","check_date":"2025-08-09","level":"0","name":"7-Eleven","opening_hours":"Mo-Th 07:00-20:00; Fr 07:00-03:00; Sa 11:00-03:00; Su off","shop":"convenience"}},"geometry":{"type":"Point","coordinates":[17.6403488,59.8590381]}},{"type":"Feature","properties":{"id":4339470536,"osm_type":"node","name":"Uppsala central gross","category":"grocery","tags":{"addr:city":"Uppsala","addr:country":"SE","addr:housenumber":"5A","addr:postcode":"75319","addr:street":"Bäverns gränd","check_date":"2025-09-15","check_date:opening_hours":"2025-09-15","name":"Uppsala central gross","opening_hours":"Mo-Sa 10:00-20:00; Su 10:00-19:00","shop":"convenience"}},"geometry":{"type":"Point","coordinates":[17.6439473,59.8556586]}},{"type":"Feature","properties":{"id":4339481936,"osm_type":"node","name":"Asian Livs","category":"grocery","tags":{"check_date":"2025-08-23","name":"Asian Livs","name:zh":"亚洲商店","opening_hours":"Mo-Fr 10:30-20:00; Sa 11:00-19:00; Su,PH 11:30-18:00","shop":"convenience","wheelchair":"yes"}},"geometry":{"type":"Point","coordinates":[17.6364194,59.8624545]}},{"type":"Feature","properties":{"id":4340131204,"osm_type":"node","name":"Gotterian MyWay","category":"grocery","tags":{"check_date":"2025-08-23","name":"Gotterian MyWay","shop":"convenience"}},"geometry":{"type":"Point","coordinates":[17.6304345,59.8597639]}},{"type":"Feature","properties":{"id":4345054784,"osm_type":"node","name":"Tornet Livs","category":"grocery","tags":{"addr:country":"SE","addr:housenumber":"44 C","addr:street":"Torngatan","name":"Tornet Livs","opening_hours":"Mo-Fr 09:00-22:00; Sa,Su 11:00-21:00","shop":"convenience"}},"geometry":{"type":"Point","coordinates":[17.6392781,59.866107]}},{"type":"Feature","properties":{"id":4345063367,"osm_type":"node","name":"Myway","category":"grocery","tags":{"check_date:opening_hours":"2024-06-11","name":"Myway","opening_hours":"Mo-Th 09:00-22:30; Fr,Sa 09:00-23:00; Su 10:00-22:00","shop":"convenience"}},"geometry":{"type":"Point","coordinates":[17.6390423,59.8691181]}},{"type":"Feature","properties":{"id":4345079359,"osm_type":"node","name":"Hemmakväll","category":"grocery","tags":{"check_date":"2025-12-03","level":"0","name":"Hemmakväll","opening_hours":"Mo-Th 10:00-20:00; Fr 10:00-22:00; Sa 11:00-22:00; Su 12:00-18:00","shop":"convenience"}},"geometry":{"type":"Point","coordinates":[17.6354464,59.8568594]}},{"type":"Feature","properties":{"id":4362454162,"osm_type":"node","name":"Sävja Livs","category":"grocery","tags":{"addr:city":"Uppsala","addr:country":"SE","addr:housenumber":"36","addr:postcode":"75754","addr:street":"Gotlandsresan","ice_cream":"yes","name":"Sävja Livs","opening_hours":"Mo 10:00-20:00; Tu 10:00-20:00; We 10:00-20:00; Th 10:00-20:00; Fr 10:00-21:00; Sa 10:30-21:00; Su 10:30-20:00","payment:coins":"yes","payment:cryptocurrencies":"no","payment:electronic_purses":"no","payment:girocard":"yes","payment:maestro":"yes","payment:mastercard":"yes","payment:notes":"yes","payment:visa":"yes","payment:visa_debit":"no","payment:visa_electron":"yes","phone":"+4618421860","shop":"convenience","wheelchair":"no"}},"geometry":{"type":"Point","coordinates":[17.6953813,59.8098287]}},{"type":"Feature","properties":{"id":4362541361,"osm_type":"node","name":"Skafferiet","category":"grocery","tags":{"addr:floor":"0","check_date":"2026-01-27","level":"0","name":"Skafferiet","opening_hours":"24/7","shop":"convenience"}},"geometry":{"type":"Point","coordinates":[17.6755974,59.8633134]}},{"type":"Feature","properties":{"id":4804002310,"osm_type":"node","name":"","category":"grocery","tags":{"shop":"convenience"}},"geometry":{"type":"Point","coordinates":[17.6228992,59.8140478]}},{"type":"Feature","properties":{"id":4804002429,"osm_type":"node","name":"","category":"grocery","tags":{"shop":"convenience"}},"geometry":{"type":"Point","coordinates":[17.6245991,59.8142821]}},{"type":"Feature","properties":{"id":4823406346,"osm_type":"node","name":"Lidl","category":"grocery","tags":{"addr:city":"Uppsala","addr:country":"SE","addr:housenumber":"1J","addr:postcode":"75323","addr:street":"Rapsgatan","brand":"Lidl","brand:wikidata":"Q151954","brand:wikipedia":"en:Lidl","entrance":"yes","name":"Lidl","opening_hours":"Mo-Fr 08:00-21:00; Sa 08:00-20:00; Su 09:00-20:00","shop":"supermarket","wheelchair":"yes"}},"geometry":{"type":"Point","coordinates":[17.6940729,59.8445123]}},{"type":"Feature","properties":{"id":4823406351,"osm_type":"node","name":"Stora Coop Boländerna","category":"grocery","tags":{"addr:city":"Uppsala","addr:country":"SE","addr:housenumber":"1","addr:street":"Rapsgatan","brand":"Coop","brand:wikidata":"Q106684510","check_date":"2025-03-09","door":"sliding","entrance":"main","level":"0","name":"Stora Coop Boländerna","opening_hours":"08:00-22:00","payment:cash":"yes","payment:credit_cards":"yes","payment:debit_cards":"yes","phone":"+46 10-7412820","shop":"supermarket","website":"https://www.coop.se/butiker-erbjudanden/stora-coop/stora-coop-bolanderna/","wheelchair":"yes"}},"geometry":{"type":"Point","coordinates":[17.6944561,59.8456371]}},{"type":"Feature","properties":{"id":5170008434,"osm_type":"node","name":"Alsike Närlivs","category":"grocery","tags":{"name":"Alsike Närlivs","shop":"convenience"}},"geometry":{"type":"Point","coordinates":[17.7842646,59.7531367]}},{"type":"Feature","properties":{"id":6246745026,"osm_type":"node","name":"Flogsta Närlivs","category":"grocery","tags":{"addr:housenumber":"8","addr:street":"Sernanders väg","changing_table":"no","changing_table:count":"0","changing_table:fee":"no","level":"0","name":"Flogsta Närlivs","opening_hours":"PH,Mo-Su 11:00-24:00","shop":"convenience","toilets":"no","toilets:wheelchair":"no","wheelchair":"yes"}},"geometry":{"type":"Point","coordinates":[17.5915006,59.850439]}},{"type":"Feature","properties":{"id":7567360925,"osm_type":"node","name":"Uppsala Orienthus","category":"grocery","tags":{"addr:city":"Uppsala","addr:housenumber":"3","addr:postcode":"754 21","addr:street":"Kvarntorget","check_date":"2025-08-04","contact:facebook":"https://www.facebook.com/p/Uppsala-Orienthus-100063537944806/","email":"uppsala-lulu-livs@hotmail.com","level":"0","name":"Uppsala Orienthus","opening_hours":"Mo-Sa 09:00-22:00; Su 10:00-21:00","payment:contactless":"yes","payment:credit_cards":"yes","payment:debit_cards":"yes","phone":"+4618251666","shop":"convenience","wheelchair":"limited"}},"geometry":{"type":"Point","coordinates":[17.6495471,59.8668777]}},{"type":"Feature","properties":{"id":8314767190,"osm_type":"node","name":"ICA Nära Rosendal","category":"grocery","tags":{"addr:city":"Uppsala","addr:country":"SE","addr:housenumber":"25","addr:postcode":"75644","addr:street":"Torgny Segerstedts allé","brand":"ICA Nära","brand:wikidata":"Q1663776","brand:wikipedia":"sv:Ica","check_date":"2024-08-13","name":"ICA Nära Rosendal","opening_hours":"Mo-Su 07:00-22:00","payment:contactless":"yes","payment:credit_cards":"yes","phone":"+46 (0) 18 100 152","shop":"supermarket","website":"https://www.ica.se/butiker/nara/uppsala/ica-nara-rosendal-16183/start/","wheelchair":"yes"}},"geometry":{"type":"Point","coordinates":[17.6342261,59.8320878]}},{"type":"Feature","properties":{"id":8604151243,"osm_type":"node","name":"Hemköp Uppsala Rosendal","category":"grocery","tags":{"addr:city":"Uppsala","addr:country":"SE","addr:housenumber":"1","addr:postcode":"75237","addr:street":"Kansliskrivargatan","brand":"Hemköp","brand:wikidata":"Q10521746","brand:wikipedia":"sv:Hemköp","check_date":"2024-08-09","email":"INFO.UPPSALA.ROSENDAL@HEMKOP.SE","name":"Hemköp Uppsala Rosendal","opening_hours":"Mo-Su 07:00-22:00","phone":"+46 18-7009960","shop":"supermarket","website":"https://www.hemkop.se/butik/4103"}},"geometry":{"type":"Point","coordinates":[17.6390806,59.8391586]}},{"type":"Feature","properties":{"id":9320469013,"osm_type":"node","name":"HUSBY 3","category":"grocery","tags":{"addr:city":"Uppsala","addr:country":"SE","addr:housenumber":"14C","addr:postcode":"75651","addr:street":"Gottsunda allé","check_date":"2025-04-29","name":"HUSBY 3","note":"Mini market","opening_hours":"Mo-Su 10:00-20:00","operator":"HUSBY","payment:credit_cards":"yes","payment:debit_cards":"yes","shop":"supermarket","website":"https://www.facebook.com/profile.php?id=100090617889855"}},"geometry":{"type":"Point","coordinates":[17.6461089,59.8124639]}},{"type":"Feature","properties":{"id":9697814058,"osm_type":"node","name":"eTorg","category":"grocery","tags":{"name":"eTorg","opening_hours":"Mo-Sa 10:00-21:00; Su 12:00-18:00","phone":"+4676-034 30 77","shop":"supermarket","website":"https://etorg.se/"}},"geometry":{"type":"Point","coordinates":[17.614567,59.8440504]}},{"type":"Feature","properties":{"id":10763308853,"osm_type":"node","name":"Coop Alsike","category":"grocery","tags":{"addr:city":"Knivsta","addr:country":"SE","addr:housenumber":"54","addr:street":"Dammgatan","brand":"Coop","brand:wikidata":"Q106684510","name":"Coop Alsike","opening_hours":"Mo-Su 07:00-22:00","phone":"+46 10-7450390","shop":"supermarket","website":"https://www.coop.se/butiker-erbjudanden/coop/coop-alsike/"}},"geometry":{"type":"Point","coordinates":[17.7745854,59.7589791]}},{"type":"Feature","properties":{"id":10763879499,"osm_type":"node","name":"Tempo Uppsala Vattholma","category":"grocery","tags":{"addr:city":"Vattholma","addr:country":"SE","addr:housenumber":"7","addr:street":"Malmvågsvägen","name":"Tempo Uppsala Vattholma","shop":"supermarket"}},"geometry":{"type":"Point","coordinates":[17.7335493,60.0172108]}},{"type":"Feature","properties":{"id":10764364343,"osm_type":"node","name":"ICA Nära Råbyvägen","category":"grocery","tags":{"addr:city":"Uppsala","addr:country":"SE","addr:housenumber":"61","addr:street":"Råbyvägen","amenity":"post_office","brand":"ICA Nära","brand:wikidata":"Q1663776","check_date":"2025-12-12","check_date:opening_hours":"2025-12-12","name":"ICA Nära Råbyvägen","opening_hours":"Mo-Su 07:00-19:00","shop":"supermarket","website":"https://www.ica.se/butiker/nara/uppsala/ica-nara-rabyvagen-16239/start/"}},"geometry":{"type":"Point","coordinates":[17.6555262,59.8761186]}},{"type":"Feature","properties":{"id":11357963405,"osm_type":"node","name":"Lidl","category":"grocery","tags":{"brand":"Lidl","brand:wikidata":"Q151954","name":"Lidl","opening_hours":"Mo-Fr 08:00-20:00; Sa 08:00-19:00; Su 09:00-19:00","operator":"Lidl","shop":"supermarket"}},"geometry":{"type":"Point","coordinates":[17.6265091,59.8104455]}},{"type":"Feature","properties":{"id":11486668918,"osm_type":"node","name":"Årsta frukt och grönt","category":"grocery","tags":{"check_date":"2026-02-24","level":"0","name":"Årsta frukt och grönt","name:sv":"Årsta frukt och grönt","opening_hours":"Mo-Fr 09:00-21:00; Sa-Su 10:00-20:00","payment:cash":"yes","payment:credit_cards":"yes","payment:debit_cards":"yes","shop":"convenience"}},"geometry":{"type":"Point","coordinates":[17.6845123,59.8665198]}},{"type":"Feature","properties":{"id":11635683661,"osm_type":"node","name":"Fyristorg","category":"grocery","tags":{"amenity":"marketplace","building":"no","check_date":"2024-11-14","name":"Fyristorg"}},"geometry":{"type":"Point","coordinates":[17.6359424,59.8584796]}},{"type":"Feature","properties":{"id":12054916899,"osm_type":"node","name":"Ryska souvenirer & delikatesser","category":"grocery","tags":{"check_date":"2024-07-15","name":"Ryska souvenirer & delikatesser","opening_hours":"Mo off; Tu 12:00-18:00; We 12:00-19:00; Th 11:00-19:00; Fr 11:00-18:00; Sa 12:00-17:00; Su 12:00-16:00","shop":"convenience","wheelchair":"no"}},"geometry":{"type":"Point","coordinates":[17.631265,59.8638681]}},{"type":"Feature","properties":{"id":12056555305,"osm_type":"node","name":"Handlar'n","category":"grocery","tags":{"check_date":"2026-02-24","level":"0","name":"Handlar'n","not:brand:wikidata":"Q10517161","opening_hours":"Mo-Fr 08:00-22:00; Sa-Su 09:00-22:00","shop":"convenience"}},"geometry":{"type":"Point","coordinates":[17.6810309,59.8661696]}},{"type":"Feature","properties":{"id":12056555308,"osm_type":"node","name":"Oni's Livs","category":"grocery","tags":{"check_date":"2024-07-16","level":"0","name":"Oni's Livs","opening_hours":"10:00-21:00","shop":"convenience"}},"geometry":{"type":"Point","coordinates":[17.6804266,59.8672743]}},{"type":"Feature","properties":{"id":12060738834,"osm_type":"node","name":"Kvarntorgets närbutik","category":"grocery","tags":{"addr:housenumber":"9a","addr:street":"Kvarntorget","check_date":"2024-07-18","level":"0","name":"Kvarntorgets närbutik","name:sv":"Kvarntorgets närbutik","opening_hours":"Mo-Fr 09:00-21:00; Sa 10:00-21:00; Su 11:00-20:00","shop":"convenience"}},"geometry":{"type":"Point","coordinates":[17.6485256,59.8667781]}},{"type":"Feature","properties":{"id":12079954859,"osm_type":"node","name":"Allé Närbutik","category":"grocery","tags":{"check_date":"2024-07-29","level":"0","name":"Allé Närbutik","opening_hours":"Mo-Fr 09:00-21:00; Sa 10:00-21:00; Su 11:00-20:00","shop":"convenience"}},"geometry":{"type":"Point","coordinates":[17.6467897,59.8130557]}},{"type":"Feature","properties":{"id":12082364204,"osm_type":"node","name":"Merhawi Butik Uppsala","category":"grocery","tags":{"addr:housenumber":"17","addr:street":"Kungsgatan","check_date":"2025-03-22","level":"0","name":"Merhawi Butik Uppsala","opening_hours":"Mo-Sa 10:00-19:00; Su off","shop":"convenience"}},"geometry":{"type":"Point","coordinates":[17.6360149,59.8627233]}},{"type":"Feature","properties":{"id":12084417869,"osm_type":"node","name":"Lord Afrique","category":"grocery","tags":{"check_date":"2025-08-16","check_date:opening_hours":"2025-08-16","level":"0","name":"Lord Afrique","opening_hours":"Mo-Fr 10:00-19:00; Sa 10:00-18:00; Su off","shop":"convenience"}},"geometry":{"type":"Point","coordinates":[17.6370859,59.8620874]}},{"type":"Feature","properties":{"id":12603860866,"osm_type":"node","name":"ICA Supermarket Storvreta","category":"grocery","tags":{"brand":"ICA Supermarket","brand:wikidata":"Q1663776","brand:wikipedia":"sv:Ica","name":"ICA Supermarket Storvreta","operator":"Ica","shop":"supermarket","website":"https://www.ica.se/butiker/supermarket/uppsala/ica-supermarket-storvreta-1105001/"}},"geometry":{"type":"Point","coordinates":[17.7001333,59.9508362]}},{"type":"Feature","properties":{"id":13059979073,"osm_type":"node","name":"Matbazaren","category":"grocery","tags":{"addr:city":"Uppsala","addr:housenumber":"7","addr:postcode":"75650","addr:street":"Valthornsvägen","name":"Matbazaren","shop":"supermarket"}},"geometry":{"type":"Point","coordinates":[17.6295312,59.8105027]}},{"type":"Feature","properties":{"id":13123466859,"osm_type":"node","name":"Gamla Upsala Livs","category":"grocery","tags":{"contact:instagram":"gamlaupsalalivs","name":"Gamla Upsala Livs","opening_hours":"Mo-Su 09:00-22:00","shop":"supermarket"}},"geometry":{"type":"Point","coordinates":[17.6402601,59.8738177]}},{"type":"Feature","properties":{"id":13455854463,"osm_type":"node","name":"Matgrossen Uppsala","category":"grocery","tags":{"addr:city":"Uppsala","addr:housenumber":"16 C","addr:postcode":"754 19","addr:street":"Vattholmavägen","contact:instagram":"matgrossen_u","name":"Matgrossen Uppsala","opening_hours":"Mo-Su 10:00-21:00","payment:credit_cards":"yes","payment:debit_cards":"yes","phone":"+46706000288","shop":"supermarket"}},"geometry":{"type":"Point","coordinates":[17.6365097,59.8740499]}},{"type":"Feature","properties":{"id":13661378952,"osm_type":"node","name":"Matmissionen","category":"grocery","tags":{"access":"customers","addr:floor":"0","addr:housenumber":"63","addr:postcode":"75333","addr:street":"Svartbäcksgatan","check_date":"2026-03-19","description":"En social matbutik. Man behöver vara medlem för att handla.","level":"0","membership":"yes","name":"Matmissionen","name:sv":"Matmissionen","opening_hours":"Mo-Tu 12:00-15:00; We-Fr 12:00-14:00; Sa-Su off","operator":"Uppsala Stadsmission","phone":"+46 72 228 01 68","shop":"convenience","start_date":"2025-10-23","stroller":"no","toilets":"no","website":"https://matmissionen.se/butiker/#Uppsala","wheelchair":"limited"}},"geometry":{"type":"Point","coordinates":[17.6295625,59.8675013]}},{"type":"Feature","properties":{"id":24885317,"osm_type":"way","name":"Lidl","category":"grocery","tags":{"brand":"Lidl","brand:wikidata":"Q151954","brand:wikipedia":"en:Lidl","building":"yes","check_date:opening_hours":"2024-02-23","name":"Lidl","opening_hours":"Mo-Fr 08:00-20:00; Sa 08:00-19:00; Su 09:00-19:00","operator":"Lidl","shop":"supermarket"}},"geometry":{"type":"Point","coordinates":[17.626378,59.8104222]}},{"type":"Feature","properties":{"id":28237032,"osm_type":"way","name":"ICA Väst","category":"grocery","tags":{"addr:city":"Uppsala","addr:country":"SE","addr:housenumber":"99","addr:postcode":"75272","addr:street":"Flogstavägen","brand":"ICA Supermarket","brand:wikidata":"Q1663776","brand:wikipedia":"sv:Ica","building":"retail","building:levels":"1","name":"ICA Väst","opening_hours":"Mo-Su,PH 07:00-23:30","operator":"ICA","payment:cash":"yes","payment:credit_cards":"yes","roof:levels":"0","shop":"supermarket","source":"yahoo","wheelchair":"yes"}},"geometry":{"type":"Point","coordinates":[17.5882812,59.8515808]}},{"type":"Feature","properties":{"id":32198875,"osm_type":"way","name":"ICA Norby","category":"grocery","tags":{"brand":"ICA Supermarket","brand:wikidata":"Q1663776","brand:wikipedia":"sv:Ica","building":"yes","check_date":"2024-09-10","name":"ICA Norby","opening_hours":"PH,Mo-Su 08:00-22:00","shop":"supermarket","wheelchair":"yes"}},"geometry":{"type":"Point","coordinates":[17.6186737,59.8257425]}},{"type":"Feature","properties":{"id":32243878,"osm_type":"way","name":"ICA Hörnan","category":"grocery","tags":{"addr:city":"Uppsala","addr:country":"SE","addr:housenumber":"16","addr:postcode":"75237","addr:street":"Artillerigatan","brand":"ICA Nära","brand:wikidata":"Q1663776","brand:wikipedia":"sv:Ica","building":"yes","building:levels":"1","name":"ICA Hörnan","opening_hours":"Mo-Fr 07:00-22:00; Sa-Su 09:00-22:00","operator":"ICA","payment:cards":"yes","shop":"supermarket","website":"https://www.ica.se/butiker/nara/uppsala/ica-nara-hornan-1492/start/"}},"geometry":{"type":"Point","coordinates":[17.6311751,59.8459926]}},{"type":"Feature","properties":{"id":34913419,"osm_type":"way","name":"Coop Ekeby Uppsala","category":"grocery","tags":{"addr:city":"Uppsala","addr:country":"SE","addr:housenumber":"2","addr:street":"Köpenhamnsgatan","brand":"Coop","brand:wikidata":"Q106684510","building":"yes","name":"Coop Ekeby Uppsala","opening_hours":"Mo-Su 09:00-21:00","phone":"+46 10-7412570","shop":"supermarket","website":"https://www.coop.se/butiker-erbjudanden/coop/coop-ekeby-uppsala/"}},"geometry":{"type":"Point","coordinates":[17.6057088,59.8511299]}},{"type":"Feature","properties":{"id":35286829,"osm_type":"way","name":"Coop Ringgatan","category":"grocery","tags":{"addr:city":"Uppsala","addr:country":"SE","addr:housenumber":"31","addr:postcode":"75217","addr:street":"Ringgatan","brand":"Coop","brand:wikidata":"Q106684510","building":"yes","check_date:opening_hours":"2023-06-20","name":"Coop Ringgatan","opening_hours":"Mo-Su 07:00-23:00","operator":"Coop","shop":"supermarket","website":"https://www.coop.se/butiker-erbjudanden/coop/coop-ringgatan/","wheelchair":"yes"}},"geometry":{"type":"Point","coordinates":[17.615155,59.8635795]}},{"type":"Feature","properties":{"id":52101147,"osm_type":"way","name":"OKQ8","category":"grocery","tags":{"amenity":"fuel","branch":"Svartbäcksgatan","brand":"OKQ8","brand:wikidata":"Q2789310","brand:wikipedia":"en:Kuwait Petroleum Corporation","building":"yes","check_date":"2026-03-05","compressed_air":"yes","email":"37401@station.okq8.se","name":"OKQ8","opening_hours":"Mo-Fr 07:00-21:00; Sa-Su 08:00-21:00","operator":"OKQ8","payment:cash":"yes","phone":"+46 18-247706","shop":"convenience","website":"https://www.okq8.se/pa-stationen/bensinstationer/uppsala-svartbacksgatan/"}},"geometry":{"type":"Point","coordinates":[17.629706,59.8680284]}},{"type":"Feature","properties":{"id":57746054,"osm_type":"way","name":"Camden Market Kitchen","category":"grocery","tags":{"addr:housenumber":"5","building":"retail","name":"Camden Market Kitchen","roof:colour":"black","shop":"convenience"}},"geometry":{"type":"Point","coordinates":[17.6126267,59.854297]}},{"type":"Feature","properties":{"id":86100535,"osm_type":"way","name":"COOP Nära","category":"grocery","tags":{"addr:city":"Uppsala","addr:country":"SE","addr:housenumber":"40","addr:street":"Sunnerstavägen","building":"yes","name":"COOP Nära","opening_hours":"Mo-Fr 07:00-22:00; Sa,Su 08:00-22:00","shop":"convenience","source":"yahoo"}},"geometry":{"type":"Point","coordinates":[17.6569027,59.796481]}},{"type":"Feature","properties":{"id":88523585,"osm_type":"way","name":"ICA Supermarket Årstahallen","category":"grocery","tags":{"addr:city":"Uppsala","addr:country":"SE","addr:housenumber":"3","addr:postcode":"754 46","addr:street":"Sparrisgatan","brand":"ICA Supermarket","brand:wikidata":"Q1663776","brand:wikipedia":"sv:Ica","building":"yes","check_date":"2026-02-24","internet_access":"wlan","internet_access:fee":"customers","level":"0","name":"ICA Supermarket Årstahallen","opening_hours":"PH,Mo-Su 07:00-23:00","organic":"yes","payment:cash":"yes","payment:credit_cards":"yes","payment:debit_cards":"yes","second_hand":"no","shop":"supermarket","source":"Bing;survey","stroller":"yes","toilets":"no","website":"https://www.ica.se/butiker/supermarket/uppsala/ica-supermarket-arstahallen-1003426/","wheelchair":"yes"}},"geometry":{"type":"Point","coordinates":[17.684581,59.8655407]}},{"type":"Feature","properties":{"id":88896752,"osm_type":"way","name":"Coop Liljegatan","category":"grocery","tags":{"addr:city":"Uppsala","addr:country":"SE","addr:housenumber":"1","addr:postcode":"75324","addr:street":"Liljegatan","building":"yes","building:colour":"beige","check_date":"2025-04-02","name":"Coop Liljegatan","opening_hours":"Mo-Su 08:00-22:00","operator":"Coop","payment:cash":"yes","shop":"convenience","wheelchair":"limited"}},"geometry":{"type":"Point","coordinates":[17.6571405,59.8589304]}},{"type":"Feature","properties":{"id":98942812,"osm_type":"way","name":"Circle K","category":"grocery","tags":{"addr:city":"Uppsala","addr:country":"SE","addr:housenumber":"61","addr:postcode":"753 33","addr:street":"Svartbäcksgatan","brand":"Circle K","brand:wikidata":"Q3268010","brand:wikipedia":"en:Circle K","building":"yes","check_date":"2026-03-19","name":"Circle K","shop":"convenience","wheelchair":"yes"}},"geometry":{"type":"Point","coordinates":[17.6300965,59.8672665]}},{"type":"Feature","properties":{"id":104134361,"osm_type":"way","name":"Willys","category":"grocery","tags":{"addr:country":"SE","addr:housenumber":"4","addr:street":"Björkgatan","brand":"Willys","brand:wikidata":"Q10720214","brand:wikipedia":"sv:Willys","building":"retail","building:levels":"1","check_date":"2025-11-02","check_date:opening_hours":"2025-11-02","name":"Willys","opening_hours":"Mo-Su 08:00-21:00","roof:levels":"0","shop":"supermarket","website":"https://www.willys.se/butik/2194"}},"geometry":{"type":"Point","coordinates":[17.6619338,59.865718]}},{"type":"Feature","properties":{"id":123634019,"osm_type":"way","name":"Coop Storvreta","category":"grocery","tags":{"addr:city":"Storvreta","addr:country":"SE","addr:housenumber":"10","addr:street":"Äretunavägen","brand":"Coop","brand:wikidata":"Q106684510","building":"yes","name":"Coop Storvreta","opening_hours":"Mo-Su,PH 07:00-22:00","phone":"+46 10-7412680","shop":"supermarket","website":"https://www.coop.se/butiker-erbjudanden/coop/coop-storvreta/","wheelchair":"yes"}},"geometry":{"type":"Point","coordinates":[17.705289,59.9599228]}},{"type":"Feature","properties":{"id":155287837,"osm_type":"way","name":"Willy:s","category":"grocery","tags":{"addr:city":"Uppsala","addr:housenumber":"95","addr:postcode":"75318","addr:street":"Kungsgatan","brand":"Willys","brand:wikidata":"Q10720214","check_date":"2024-09-13","name":"Willy:s","opening_hours":"07:00-22:00","shop":"supermarket","wheelchair":"yes"}},"geometry":{"type":"Point","coordinates":[17.6580539,59.8500239]}},{"type":"Feature","properties":{"id":174381951,"osm_type":"way","name":"Träffköp","category":"grocery","tags":{"addr:housenumber":"14","addr:street":"Klockarbolsvägen","building":"supermarket","check_date:opening_hours":"2025-09-27","name":"Träffköp","opening_hours":"Mo-Fr 09:00-20:00; Sa,Su 09:00-18:00","operator":"Matöppet","post_office":"post_partner","post_office:brand":"DHL;Bring;DB Schenker","post_office:parcel_pickup":"DHL;Bring;DB Schenker","post_office:parcel_to":"DHL;Bring;DB Schenker","post_office:service_provider":"DHL;Bring;DB Schenker","shop":"supermarket","website":"https://www.matoppet.se/butik/balinge/"}},"geometry":{"type":"Point","coordinates":[17.5344687,59.9467788]}},{"type":"Feature","properties":{"id":207759580,"osm_type":"way","name":"Nelins","category":"grocery","tags":{"addr:city":"Uppsala","addr:country":"SE","addr:housenumber":"70","addr:postcode":"752 90","addr:street":"Börjegatan","building":"retail","fax":"+46 18 531126","name":"Nelins","opening_hours":"Mo-Fr 08:00-21:00; Sa 09:00-19:00; Su 10:00-19:00","phone":"+46 18 533444","shop":"supermarket","source":"survey, bing","website":"https://www.nelins.se/"}},"geometry":{"type":"Point","coordinates":[17.6052518,59.8690912]}},{"type":"Feature","properties":{"id":492670143,"osm_type":"way","name":"ICA Maxi Stormarknad Gnista","category":"grocery","tags":{"brand":"Maxi ICA Stormarknad","brand:wikidata":"Q1663776","brand:wikipedia":"sv:Ica","building":"retail","name":"ICA Maxi Stormarknad Gnista","opening_hours":"Mo-Su 06:00-23:00","payment:coins":"yes","payment:maestro":"yes","payment:mastercard":"yes","payment:notes":"yes","payment:visa":"yes","payment:visa_electron":"yes","shop":"supermarket","short_name":"ICA Maxi","wheelchair":"yes"}},"geometry":{"type":"Point","coordinates":[17.7136935,59.8435927]}},{"type":"Feature","properties":{"id":1091535704,"osm_type":"way","name":"ICA Lindbacken","category":"grocery","tags":{"addr:city":"Uppsala","addr:housenumber":"5","addr:postcode":"75471","addr:street":"Hagtorpsvägen","brand":"ICA Nära","brand:wikidata":"Q1663776","brand:wikipedia":"sv:Ica","building":"retail","name":"ICA Lindbacken","name:sv":"ICA Lindbacken","opening_hours":"Mo-Su,PH 07:00-22:00","shop":"supermarket"}},"geometry":{"type":"Point","coordinates":[17.7397141,59.9112577]}},{"type":"Feature","properties":{"id":1349618221,"osm_type":"way","name":"Seven24","category":"grocery","tags":{"addr:street":"Tårpilsvägen","brand":"Seven24","building":"yes","opening_hours":"24/7","payment:cash":"no","self_service":"only","shop":"convenience","supervised":"no","website":"https://www.seven24.se/"}},"geometry":{"type":"Point","coordinates":[17.5799674,59.961388]}}]}