{"type":"FeatureCollection","features":[{"type":"Feature","properties":{"id":663457852,"osm_type":"node","name":"Svartbäckens vårdcentral","category":"healthcare_center","tags":{"addr:city":"Uppsala","addr:country":"SE","addr:housenumber":"52A","addr:street":"Svartbäcksgatan","amenity":"clinic","dispensing":"yes","healthcare":"clinic","name":"Svartbäckens vårdcentral","opening_hours":"Mo-Fr 08:00-17:00","phone":"+46 18 6117410","website":"https://lul.se/svartbacken","wheelchair":"yes"}},"geometry":{"type":"Point","coordinates":[17.6266177,59.8690246]}},{"type":"Feature","properties":{"id":902937850,"osm_type":"node","name":"Knivsta vårdcentral","category":"healthcare_center","tags":{"amenity":"clinic","emergency":"no","healthcare":"clinic","name":"Knivsta vårdcentral","opening_hours":"Mo-Fr 08:00-17:00"}},"geometry":{"type":"Point","coordinates":[17.7854259,59.7243825]}},{"type":"Feature","properties":{"id":3592181155,"osm_type":"node","name":"Uppsala Barncentrum & Vårdcentral","category":"healthcare_center","tags":{"amenity":"clinic","check_date":"2025-08-03","check_date:opening_hours":"2025-05-28","healthcare":"clinic","name":"Uppsala Barncentrum & Vårdcentral","opening_hours:signed":"no","phone":"+4618-6110820"}},"geometry":{"type":"Point","coordinates":[17.6356793,59.8601317]}},{"type":"Feature","properties":{"id":3666866930,"osm_type":"node","name":"Klinik Skölden","category":"healthcare_center","tags":{"addr:city":"Uppsala","addr:country":"SE","addr:housenumber":"57","addr:postcode":"75335","addr:street":"Sköldungagatan","amenity":"clinic","healthcare":"clinic","name":"Klinik Skölden","phone":"+46 18 516080","website":"https://klinikskolden.se/"}},"geometry":{"type":"Point","coordinates":[17.6237329,59.8724883]}},{"type":"Feature","properties":{"id":4339471436,"osm_type":"node","name":"Cura Hud & Harmoni","category":"healthcare_center","tags":{"addr:city":"Uppsala","addr:housenumber":"13","addr:postcode":"75319","addr:street":"Bäverns gränd","amenity":"doctors","email":"info@curauppsala.se","healthcare":"doctor","healthcare:speciality":"dermatology","name":"Cura Hud & Harmoni","opening_hours":"10:00-18:00","phone":"018-128920","website":"https://curauppsala.se/"}},"geometry":{"type":"Point","coordinates":[17.6464299,59.8563859]}},{"type":"Feature","properties":{"id":4339474886,"osm_type":"node","name":"Resecentrum Vaccinationer","category":"healthcare_center","tags":{"addr:city":"Uppsala","addr:housenumber":"24","addr:street":"Bäverns gränd","check_date":"2023-08-31","healthcare":"vaccination_centre","name":"Resecentrum Vaccinationer","website":"https://resecentrumvaccinationer.se/"}},"geometry":{"type":"Point","coordinates":[17.646566,59.8567157]}},{"type":"Feature","properties":{"id":4339475203,"osm_type":"node","name":"Uppsala Fot","category":"healthcare_center","tags":{"addr:housenumber":"56","addr:street":"Dragarbrunnsgatan","amenity":"doctors","check_date":"2025-03-22","healthcare":"doctor","healthcare:speciality":"podiatry","name":"Uppsala Fot","opening_hours":"Mo-Th 09:00-18:00; Fr 09:00-15:00; Su,PH off"}},"geometry":{"type":"Point","coordinates":[17.6441318,59.8572777]}},{"type":"Feature","properties":{"id":4339482303,"osm_type":"node","name":"Molding Plastikkirurgi","category":"healthcare_center","tags":{"amenity":"doctors","check_date":"2026-01-10","healthcare":"doctor","healthcare:speciality":"plastic_surgery","name":"Molding Plastikkirurgi"}},"geometry":{"type":"Point","coordinates":[17.6360273,59.861451]}},{"type":"Feature","properties":{"id":4339484378,"osm_type":"node","name":"Förenade Care","category":"healthcare_center","tags":{"amenity":"clinic","health_facility:type":"office","healthcare":"clinic","name":"Förenade Care"}},"geometry":{"type":"Point","coordinates":[17.634753,59.8604789]}},{"type":"Feature","properties":{"id":4340133523,"osm_type":"node","name":"VaccinDirekt","category":"healthcare_center","tags":{"check_date":"2025-08-23","healthcare":"vaccination_centre","healthcare:speciality":"vaccination","level":"0","name":"VaccinDirekt","opening_hours":"Mo 09:30-19:00; Tu-Th 09:30-18:30; Fr 09:30-17:00; Sa 10:00-15:00; Su off","payment:cash":"no","payment:credit_cards":"yes","payment:debit_cards":"yes"}},"geometry":{"type":"Point","coordinates":[17.6311999,59.8597051]}},{"type":"Feature","properties":{"id":4340263444,"osm_type":"node","name":"Nordic Wellness","category":"healthcare_center","tags":{"healthcare":"centre","name":"Nordic Wellness"}},"geometry":{"type":"Point","coordinates":[17.6473561,59.8780129]}},{"type":"Feature","properties":{"id":4806518605,"osm_type":"node","name":"Capio Vårdcentral Sävja","category":"healthcare_center","tags":{"amenity":"clinic","healthcare":"clinic","name":"Capio Vårdcentral Sävja","opening_hours":"Mo-Fr 08:00-17:00","operator":"Capio","operator:type":"private","operator:wikidata":"Q498606","phone":"+4618183700"}},"geometry":{"type":"Point","coordinates":[17.7024373,59.8099834]}},{"type":"Feature","properties":{"id":4823655774,"osm_type":"node","name":"Fålhagens vårdcentral","category":"healthcare_center","tags":{"addr:city":"Uppsala","addr:country":"SE","addr:housenumber":"26B","addr:street":"Stationsgatan","amenity":"clinic","check_date":"2024-07-07","check_date:opening_hours":"2023-08-08","healthcare":"clinic","name":"Fålhagens vårdcentral","opening_hours":"Mo-Fr 07:00-17:00","operator":"Region Uppsala"}},"geometry":{"type":"Point","coordinates":[17.6502162,59.8577107]}},{"type":"Feature","properties":{"id":7403532028,"osm_type":"node","name":"Meliva vårdcentral Ekeby","category":"healthcare_center","tags":{"addr:city":"Uppsala","addr:housenumber":"2","addr:postcode":"752 63","addr:street":"Ekeby Bruk","addr:unit":"L","amenity":"clinic","check_date:opening_hours":"2026-01-26","healthcare":"clinic","healthcare:speciality":"gynaecology;physiotherapy","name":"Meliva vårdcentral Ekeby","opening_hours":"Mo-Fr 08:00-17:00"}},"geometry":{"type":"Point","coordinates":[17.6067972,59.8485957]}},{"type":"Feature","properties":{"id":8335974017,"osm_type":"node","name":"Centrumkliniken","category":"healthcare_center","tags":{"addr:city":"Uppsala","addr:country":"SE","addr:housenumber":"18","addr:postcode":"75320","addr:street":"Bredgränd","amenity":"clinic","check_date":"2025-09-19","healthcare":"clinic","name":"Centrumkliniken","opening_hours":"Mo-Fr 08:00-17:00","operator":"Doktor.se","operator:type":"private","website":"https://doktor.se/mottagningar/centrumkliniken-uppsala/"}},"geometry":{"type":"Point","coordinates":[17.6430708,59.8586841]}},{"type":"Feature","properties":{"id":10008785294,"osm_type":"node","name":"Familjeläkarna Rosendal","category":"healthcare_center","tags":{"addr:city":"Uppsala","addr:country":"SE","addr:housenumber":"107","addr:postcode":"75257","addr:street":"Torgny Segerstedts allé","amenity":"doctors","check_date":"2024-09-29","healthcare":"doctor","healthcare:speciality":"general","name":"Familjeläkarna Rosendal","website":"http://www.famlak.se/rosendal/"}},"geometry":{"type":"Point","coordinates":[17.6352554,59.8389268]}},{"type":"Feature","properties":{"id":11944794500,"osm_type":"node","name":"Ultuna Vårdcentral","category":"healthcare_center","tags":{"addr:city":"Uppsala","addr:housenumber":"30B","addr:postcode":"75651","addr:street":"Ulls väg","check_date":"2024-07-31","healthcare":"doctor","healthcare:speciality":"general","name":"Ultuna Vårdcentral","operator":"Praktikertjänst","phone":"0187008900","website":"https://www.ptj.se/ultunavardcentral/"}},"geometry":{"type":"Point","coordinates":[17.6586282,59.8125944]}},{"type":"Feature","properties":{"id":12026582027,"osm_type":"node","name":"Bälinge vårdcentral","category":"healthcare_center","tags":{"addr:city":"Bälinge","addr:housenumber":"2","addr:postcode":"751 85","addr:street":"Lundgårdsvägen","amenity":"clinic","healthcare":"clinic","name":"Bälinge vårdcentral"}},"geometry":{"type":"Point","coordinates":[17.5303592,59.9493782]}},{"type":"Feature","properties":{"id":12035187084,"osm_type":"node","name":"Husläkarmottagningen för hemlösa och Sprutbytet","category":"healthcare_center","tags":{"alt_name":"Bytet","amenity":"clinic","check_date":"2024-10-20","clinic:for":"homeless","healthcare":"clinic","healthcare:speciality":"general","level":"-1","name":"Husläkarmottagningen för hemlösa och Sprutbytet","name:sv":"Husläkarmottagningen för hemlösa och Sprutbytet","operator":"Region Uppsala","short_name":"Hemlösas läkare;Sprutbytet","social_facility:for":"homeless","syringe_exchange":"yes"}},"geometry":{"type":"Point","coordinates":[17.6430505,59.8494911]}},{"type":"Feature","properties":{"id":12054488555,"osm_type":"node","name":"LänsVaccinationer i Uppsala","category":"healthcare_center","tags":{"check_date":"2025-08-23","healthcare":"vaccination_centre","healthcare:speciality":"vaccination","level":"0","name":"LänsVaccinationer i Uppsala","opening_hours":"Mo-Th 09:00-17:00; Fr 09:00-16:00"}},"geometry":{"type":"Point","coordinates":[17.631005,59.8595653]}},{"type":"Feature","properties":{"id":12055382172,"osm_type":"node","name":"Äldrepsykriati","category":"healthcare_center","tags":{"addr:city":"Uppsala","addr:housenumber":"15c","addr:postcode":"753 23","addr:street":"Bolandsgatan","amenity":"doctors","check_date":"2026-04-15","check_date:opening_hours":"2026-04-15","healthcare":"doctor","healthcare:speciality":"psychiatry","level":"1","name":"Äldrepsykriati","opening_hours":"Mo-Fr 08:00-16:00; Sa,Su,PH off","operator":"Region Uppsala","phone":"018-611 23 05","website":"https://www.akademiska.se/aldrepsykiatriskamottagningen"}},"geometry":{"type":"Point","coordinates":[17.6853607,59.8508904]}},{"type":"Feature","properties":{"id":12061428774,"osm_type":"node","name":"Gränbystadens Vårdcentral","category":"healthcare_center","tags":{"amenity":"doctors","check_date":"2025-06-24","healthcare":"doctor","healthcare:speciality":"general","level":"1","name":"Gränbystadens Vårdcentral","name:sv":"Gränbystadens Vårdcentral","opening_hours":"Mo-Th 07:00-20:00; Fr 07:00-17:00; Sa-Su,PH off","operator":"Region Uppsala","payment:cash":"yes","payment:credit_cards":"yes","payment:debit_cards":"yes","wheelchair":"yes"}},"geometry":{"type":"Point","coordinates":[17.6731233,59.8760969]}},{"type":"Feature","properties":{"id":13208330556,"osm_type":"node","name":"GynKliniken","category":"healthcare_center","tags":{"amenity":"doctors","healthcare":"doctor","healthcare:speciality":"gynaecology","name":"GynKliniken","opening_hours":"Mo-Fr 08:00-15:00"}},"geometry":{"type":"Point","coordinates":[17.6187303,59.8490269]}},{"type":"Feature","properties":{"id":13455854472,"osm_type":"node","name":"Familjeläkarna Kapellgärdet","category":"healthcare_center","tags":{"addr:city":"Uppsala","addr:housenumber":"16 C","addr:postcode":"754 19","addr:street":"Vattholmavägen","amenity":"clinic","healthcare":"clinic","name":"Familjeläkarna Kapellgärdet","opening_hours":"Mo-Fr 08:00-17:00","operator":"Familjeläkarna","phone":"+4618600999","website":"https://www.famlak.se/kapellgardet2-2/"}},"geometry":{"type":"Point","coordinates":[17.6365798,59.8739853]}},{"type":"Feature","properties":{"id":13646508291,"osm_type":"node","name":"Meliva vårdcentral Lindbacken","category":"healthcare_center","tags":{"addr:city":"Uppsala","addr:housenumber":"1","addr:postcode":"75471","addr:street":"Hagtorpsvägen","amenity":"clinic","healthcare":"clinic","name":"Meliva vårdcentral Lindbacken","website":"https://meliva.se/mottagningar/meliva-vardcentral-lindbacken/"}},"geometry":{"type":"Point","coordinates":[17.7389699,59.9114795]}},{"type":"Feature","properties":{"id":83099702,"osm_type":"way","name":"Statens rättspsykiatriska klinik","category":"healthcare_center","tags":{"building":"yes","healthcare":"clinic","healthcare:speciality":"psychiatry","name":"Statens rättspsykiatriska klinik","source":"yahoo"}},"geometry":{"type":"Point","coordinates":[17.6469297,59.8277171]}},{"type":"Feature","properties":{"id":88523577,"osm_type":"way","name":"Årsta vårdcentral","category":"healthcare_center","tags":{"addr:street":"Sparrisgatan","amenity":"doctors","building":"yes","building:levels":"3","check_date":"2026-02-24","healthcare":"doctor","name":"Årsta vårdcentral","opening_hours":"Mo-Fr 08:00-17:00","source":"Bing"}},"geometry":{"type":"Point","coordinates":[17.6833734,59.8658683]}},{"type":"Feature","properties":{"id":96573184,"osm_type":"way","name":"Eriksbergs Vårdcentral","category":"healthcare_center","tags":{"addr:city":"Uppsala","addr:country":"SE","addr:housenumber":"5","addr:street":"Granitvägen","amenity":"doctors","building":"yes","healthcare":"doctor","healthcare:speciality":"general","name":"Eriksbergs Vårdcentral","phone":"+46 18 6117900","website":"https://lul.se/eriksberg"}},"geometry":{"type":"Point","coordinates":[17.6002995,59.8406876]}},{"type":"Feature","properties":{"id":124600665,"osm_type":"way","name":"Storvretas vårdcentral","category":"healthcare_center","tags":{"amenity":"clinic","building":"yes","healthcare":"clinic","name":"Storvretas vårdcentral","source":"Bing"}},"geometry":{"type":"Point","coordinates":[17.7032148,59.9604138]}},{"type":"Feature","properties":{"id":1238958056,"osm_type":"way","name":"Kungsgärdets vårdcentral","category":"healthcare_center","tags":{"amenity":"clinic","emergency":"no","healthcare":"clinic","name":"Kungsgärdets vårdcentral","website":"https://www.1177.se/Uppsala-lan/hitta-vard/kontaktkort/Kungsgardets-vardcentral-Uppsala/"}},"geometry":{"type":"Point","coordinates":[17.6216492,59.8553368]}},{"type":"Feature","properties":{"id":1513386,"osm_type":"relation","name":"Samariterhemmet","category":"healthcare_center","tags":{"addr:city":"Uppsala","addr:country":"SE","addr:housenumber":"70","addr:postcode":"75320","addr:street":"Dragarbrunnsgatan","amenity":"clinic","building":"yes","check_date":"2026-03-17","healthcare":"clinic","layer":"-1","location":"surface","name":"Samariterhemmet","phone":"+46 18 564000","type":"multipolygon","website":"https://www.samariterhemmet.se/","wikidata":"Q10470403","wikipedia":"sv:Samariterhemmet"}},"geometry":{"type":"Point","coordinates":[17.6479924,59.8555044]}}]}