{"type":"FeatureCollection","features":[{"type":"Feature","properties":{"id":600575165,"osm_type":"node","name":"Sankt Eriks källa","category":"historic_landmark","tags":{"amenity":"fountain","historic":"yes","name":"Sankt Eriks källa","short_name":"S:t Eriks källa"}},"geometry":{"type":"Point","coordinates":[17.6344696,59.8587624]}},{"type":"Feature","properties":{"id":3670780334,"osm_type":"node","name":"Gredelby hagar","category":"historic_landmark","tags":{"description:en":"\"Gredelby pastures\" is an area of pasture and swamp cleared in 2005-2009 for natrual plants/animals to thrive. In the summer pastures grazed by cattle.","name":"Gredelby hagar","tourism":"attraction","website":"https://www.knivsta.se/Uppleva-och-gora/Naturomraden/Gredelby-hagar.aspx"}},"geometry":{"type":"Point","coordinates":[17.7839965,59.7369823]}},{"type":"Feature","properties":{"id":5753518932,"osm_type":"node","name":"Gottsunda gård","category":"historic_landmark","tags":{"historic":"yes","name":"Gottsunda gård"}},"geometry":{"type":"Point","coordinates":[17.6077508,59.8072342]}},{"type":"Feature","properties":{"id":7504017008,"osm_type":"node","name":"","category":"historic_landmark","tags":{"historic":"yes"}},"geometry":{"type":"Point","coordinates":[17.7072335,59.8923656]}},{"type":"Feature","properties":{"id":7504017009,"osm_type":"node","name":"","category":"historic_landmark","tags":{"historic":"yes"}},"geometry":{"type":"Point","coordinates":[17.7048576,59.8932899]}},{"type":"Feature","properties":{"id":7504017010,"osm_type":"node","name":"","category":"historic_landmark","tags":{"historic":"yes"}},"geometry":{"type":"Point","coordinates":[17.704624,59.8919975]}},{"type":"Feature","properties":{"id":7504017011,"osm_type":"node","name":"","category":"historic_landmark","tags":{"historic":"yes"}},"geometry":{"type":"Point","coordinates":[17.7037816,59.8921111]}},{"type":"Feature","properties":{"id":7504017023,"osm_type":"node","name":"","category":"historic_landmark","tags":{"historic":"yes"}},"geometry":{"type":"Point","coordinates":[17.7067307,59.8941244]}},{"type":"Feature","properties":{"id":9926932882,"osm_type":"node","name":"Linnés soffa","category":"historic_landmark","tags":{"attraction":"history","description:en":"A natural rock formation suitable for sitting. Used by the scientist Carl von Linnés, Linneaus, to sit while walking to church.","name":"Linnés soffa","tourism":"attraction","website":"http://www.scribo.se/linnes-soffa-linnes-hammarby-kulturreservat"}},"geometry":{"type":"Point","coordinates":[17.7744543,59.8208677]}},{"type":"Feature","properties":{"id":111801924,"osm_type":"way","name":"Linnés Sävja","category":"historic_landmark","tags":{"addr:city":"Uppsala","addr:country":"SE","addr:housenumber":"5","addr:postcode":"75756","addr:street":"Carl von Linnés väg","description:en":"Heritage-listed farm bought by Swedish naturalist and botanist Carl Linnaeus in 1758. (Source: sv.Wikipedia)","landuse":"farmyard","name":"Linnés Sävja","name:en":"Linnaeus Sävja","phone":"+46 70 5169095","tourism":"attraction","website":"https://www.campuslinne.se/","wikidata":"Q10562862","wikipedia":"sv:Linnés Sävja"}},"geometry":{"type":"Point","coordinates":[17.7010587,59.8196248]}},{"type":"Feature","properties":{"id":212713480,"osm_type":"way","name":"Stenhuset","category":"historic_landmark","tags":{"building":"yes","historic":"yes","name":"Stenhuset","name:en":"Stenhuset Manor"}},"geometry":{"type":"Point","coordinates":[17.6217426,59.7036974]}},{"type":"Feature","properties":{"id":350186547,"osm_type":"way","name":"","category":"historic_landmark","tags":{"building":"yes","historic":"yes","source":"Bing"}},"geometry":{"type":"Point","coordinates":[17.7807973,59.7977525]}},{"type":"Feature","properties":{"id":461956013,"osm_type":"way","name":"","category":"historic_landmark","tags":{"building":"yes","building:levels":"2","historic":"yes"}},"geometry":{"type":"Point","coordinates":[17.6856626,59.8761178]}},{"type":"Feature","properties":{"id":799430772,"osm_type":"way","name":"","category":"historic_landmark","tags":{"area":"yes","historic":"yes","wikidata":"Q18291707","wikipedia":"sv:Lenabergs kalkbrott"}},"geometry":{"type":"Point","coordinates":[17.7535915,60.0054194]}},{"type":"Feature","properties":{"id":952813546,"osm_type":"way","name":"","category":"historic_landmark","tags":{"building":"yes","historic":"building"}},"geometry":{"type":"Point","coordinates":[17.6333735,59.8585473]}}]}