{"type":"FeatureCollection","features":[{"type":"Feature","properties":{"id":5568327976,"osm_type":"node","name":"Palliativt centrum","category":"hospital","tags":{"amenity":"hospital","healthcare":"hospital","name":"Palliativt centrum"}},"geometry":{"type":"Point","coordinates":[17.6475656,59.8156728]}},{"type":"Feature","properties":{"id":10232500795,"osm_type":"node","name":"Logopedmottagningen i Svartbäcken","category":"hospital","tags":{"addr:country":"SE","addr:housenumber":"52A","addr:street":"Svartbäcksgatan","amenity":"hospital","emergency":"no","healthcare":"hospital","name":"Logopedmottagningen i Svartbäcken","operator":"Akademiska sjukhuset","operator:type":"university","operator:wikidata":"Q430594","website":"https://www.akademiska.se/for-patient-och-besokare/hitta-pa-sjukhuset/a-till-o/logopedmottagningen-i-svartbacken/"}},"geometry":{"type":"Point","coordinates":[17.6265518,59.8690254]}},{"type":"Feature","properties":{"id":11549100602,"osm_type":"node","name":"Blod- och tumörsjukdomars behandlingsmottagning i Gränby","category":"hospital","tags":{"addr:street":"Marknadsgatan 1","amenity":"hospital","check_date":"2024-07-18","emergency":"no","healthcare":"hospital","healthcare:speciality":"oncology;haematology","level":"0","name":"Blod- och tumörsjukdomars behandlingsmottagning i Gränby","name:sv":"Blod- och tumörsjukdomars behandlingsmottagning i Gränby","operator":"Akademiska sjukhuset","operator:type":"public"}},"geometry":{"type":"Point","coordinates":[17.6724563,59.8779161]}},{"type":"Feature","properties":{"id":12188171732,"osm_type":"node","name":"Barnspecialist­mottagningarna i länet","category":"hospital","tags":{"addr:city":"Uppsala","addr:housenumber":"2","addr:postcode":"753 08","addr:street":"Muningatan","amenity":"hospital","check_date":"2026-02-02","healthcare":"hospital","name":"Barnspecialist­mottagningarna i länet","operator":"Akademiska sjukhuset","operator:type":"university","operator:wikidata":"Q430594"}},"geometry":{"type":"Point","coordinates":[17.6471603,59.8519402]}},{"type":"Feature","properties":{"id":12188302146,"osm_type":"node","name":"Psykiatri­mottagningen för unga vuxna","category":"hospital","tags":{"addr:city":"Uppsala","addr:housenumber":"38","addr:postcode":"753 20","addr:street":"Kungsgatan","amenity":"hospital","healthcare":"hospital","name":"Psykiatri­mottagningen för unga vuxna","operator":"Akademiska sjukhuset","operator:type":"university","operator:wikidata":"Q430594"}},"geometry":{"type":"Point","coordinates":[17.6410416,59.8603516]}},{"type":"Feature","properties":{"id":12188308203,"osm_type":"node","name":"Psykosvårdens ungdomsteam","category":"hospital","tags":{"addr:city":"Uppsala","addr:housenumber":"46","addr:postcode":"752 30","addr:street":"Tiundagatan","amenity":"hospital","healthcare":"hospital","name":"Psykosvårdens ungdomsteam","operator":"Akademiska sjukhuset"}},"geometry":{"type":"Point","coordinates":[17.6055015,59.86269]}},{"type":"Feature","properties":{"id":12188356970,"osm_type":"node","name":"Oscar II-dialys­mottagningen","category":"hospital","tags":{"addr:city":"Uppsala","addr:housenumber":"10A","addr:postcode":"752 37","addr:street":"Dag Hammarskjölds väg","amenity":"hospital","healthcare":"hospital","name":"Oscar II-dialys­mottagningen","operator":"Akademiska sjukhuset","operator:type":"university","operator:wikidata":"Q430594"}},"geometry":{"type":"Point","coordinates":[17.6386089,59.845391]}},{"type":"Feature","properties":{"id":12282112256,"osm_type":"node","name":"Ingång C1, Akademiska sjukhuset","category":"hospital","tags":{"addr:city":"Uppsala","addr:housenumber":"14","addr:postcode":"753 09","addr:street":"Sjukhusvägen","amenity":"hospital","healthcare":"hospital","name":"Ingång C1, Akademiska sjukhuset","operator":"Akademiska sjukhuset","operator:type":"university","operator:wikidata":"Q430594"}},"geometry":{"type":"Point","coordinates":[17.6401615,59.845987]}},{"type":"Feature","properties":{"id":12728164792,"osm_type":"node","name":"Kliniskt träningscentrum Region Uppsala (KTC)","category":"hospital","tags":{"addr:city":"Uppsala","addr:housenumber":"38","addr:postcode":"752 37","addr:street":"Dag Hammarskjölds väg","amenity":"hospital","healthcare":"hospital","name":"Kliniskt träningscentrum Region Uppsala (KTC)","operator":"Akademiska sjukhuset","operator:type":"university","operator:wikidata":"Q430594","phone":"018-611 91 35","website":"https://www.akademiska.se/forskning-och-utbildning/utbildning/kliniskt-traningscentrum-ktc/"}},"geometry":{"type":"Point","coordinates":[17.6410923,59.8438743]}},{"type":"Feature","properties":{"id":12744228176,"osm_type":"node","name":"Akutmottagningen","category":"hospital","tags":{"amenity":"hospital","healthcare":"hospital","name":"Akutmottagningen","operator":"Akademiska sjukhuset","operator:type":"university","operator:wikidata":"Q430594"}},"geometry":{"type":"Point","coordinates":[17.6400174,59.8497322]}},{"type":"Feature","properties":{"id":12744239808,"osm_type":"node","name":"Förlossningsavdelningen","category":"hospital","tags":{"amenity":"hospital","healthcare":"hospital","name":"Förlossningsavdelningen","operator":"Akademiska sjukhuset","operator:type":"university","operator:wikidata":"Q430594"}},"geometry":{"type":"Point","coordinates":[17.6375606,59.8495543]}},{"type":"Feature","properties":{"id":12759604810,"osm_type":"node","name":"Hörcentralen","category":"hospital","tags":{"addr:city":"Uppsala","addr:housenumber":"1","addr:postcode":"756 43","addr:street":"Eva Lagerwalls väg","amenity":"hospital","healthcare":"hospital","name":"Hörcentralen","operator":"Region Upppsala","operator:type":"public"}},"geometry":{"type":"Point","coordinates":[17.6501911,59.8287444]}},{"type":"Feature","properties":{"id":12848327170,"osm_type":"node","name":"Punktionscytologiska mottagningen","category":"hospital","tags":{"addr:city":"Uppsala","addr:housenumber":"20","addr:postcode":"752 37","addr:street":"Dag Hammarskjölds väg","amenity":"hospital","emergency":"no","healthcare":"hospital","name":"Punktionscytologiska mottagningen","operator":"Akademiska sjukhuset","operator:type":"university","operator:wikidata":"Q430594"}},"geometry":{"type":"Point","coordinates":[17.6399461,59.845222]}},{"type":"Feature","properties":{"id":35220167,"osm_type":"way","name":"Elisabethsjukhuset","category":"hospital","tags":{"addr:city":"Uppsala","addr:country":"SE","addr:housenumber":"20","addr:street":"Geijersgatan","amenity":"hospital","building":"hospital","email":"elisabethsjukhuset@aleris.se","healthcare":"hospital","name":"Elisabethsjukhuset","opening_hours":"Mo-Th 07:00-16:30; Fr 07:00-15:00","phone":"+46 18 188800","website":"https://www.aleris.se/Har-finns-vi/Uppsala/elisabethsjukhuset/","wikidata":"Q10481559","wikipedia":"sv:Elisabethsjukhuset"}},"geometry":{"type":"Point","coordinates":[17.6201723,59.8630735]}},{"type":"Feature","properties":{"id":184649365,"osm_type":"way","name":"Akademiska sjukhuset","category":"hospital","tags":{"alt_name":"Uppsala akademiska sjukhus","amenity":"hospital","check_date":"2024-07-05","emergency":"yes","health_specialty:cardiothoracic_surgery":"yes","health_specialty:emergency_medicine":"yes","health_specialty:family_medicine":"yes","health_specialty:intensive_care_medicine":"yes","health_specialty:neurosurgery":"yes","health_specialty:orthopaedics":"yes","health_specialty:paediatric_intensive_care_medicine":"yes","health_specialty:paediatrics":"yes","health_specialty:surgery":"yes","health_specialty:vascular_surgery":"yes","healthcare":"hospital","loc_name":"Ackis","name":"Akademiska sjukhuset","name:fi":"Akateeminen sairaala","opening_hours":"24/7","operator":"Akademiska sjukhuset","operator:type":"university","operator:wikidata":"Q430594"}},"geometry":{"type":"Point","coordinates":[17.6401989,59.8498819]}},{"type":"Feature","properties":{"id":924562449,"osm_type":"way","name":"","category":"hospital","tags":{"amenity":"hospital","healthcare":"hospital"}},"geometry":{"type":"Point","coordinates":[17.6536717,59.8213937]}},{"type":"Feature","properties":{"id":1001144967,"osm_type":"way","name":"","category":"hospital","tags":{"amenity":"hospital","healthcare":"hospital"}},"geometry":{"type":"Point","coordinates":[17.6413258,59.8454863]}},{"type":"Feature","properties":{"id":1489951060,"osm_type":"way","name":"","category":"hospital","tags":{"amenity":"hospital","healthcare":"hospital"}},"geometry":{"type":"Point","coordinates":[17.7186694,59.9041474]}}]}