{"type":"FeatureCollection","features":[{"type":"Feature","properties":{"id":255878599,"osm_type":"node","name":"Hostel Fyristorg","category":"hotel","tags":{"addr:country":"SE","addr:housenumber":"8","addr:street":"Fyristorg","information":"office","name":"Hostel Fyristorg","tourism":"hostel"}},"geometry":{"type":"Point","coordinates":[17.6362392,59.8579985]}},{"type":"Feature","properties":{"id":270908002,"osm_type":"node","name":"Svartbäckens vandrarhem","category":"hotel","tags":{"addr:city":"Uppsala","addr:country":"SE","addr:housenumber":"16 C","addr:postcode":"754 19","addr:street":"Vattholmavägen","name":"Svartbäckens vandrarhem","tourism":"hostel","website":"https://svartbackensvandrarhem.se/"}},"geometry":{"type":"Point","coordinates":[17.6366483,59.8739223]}},{"type":"Feature","properties":{"id":313717244,"osm_type":"node","name":"Hotel Uppsala","category":"hotel","tags":{"name":"Hotel Uppsala","tourism":"hotel","website":"http://www.profilhotels.se/hoteluppsala/"}},"geometry":{"type":"Point","coordinates":[17.6376995,59.8617284]}},{"type":"Feature","properties":{"id":390510720,"osm_type":"node","name":"Kvarntorget Hotell & Hostel","category":"hotel","tags":{"check_date":"2024-07-18","name":"Kvarntorget Hotell & Hostel","tourism":"hostel","website":"https://kvarntorgethotell.se/","wheelchair":"yes","wikidata":"Q112014119"}},"geometry":{"type":"Point","coordinates":[17.6487914,59.8665872]}},{"type":"Feature","properties":{"id":412160467,"osm_type":"node","name":"Hotell Botanika","category":"hotel","tags":{"addr:city":"Uppsala","addr:housenumber":"45","addr:street":"Skolgatan","check_date":"2025-03-22","email":"info@hotellbotanika.se","internet_access":"wlan","internet_access:fee":"no","name":"Hotell Botanika","phone":"+46 18 888 06 00","tourism":"hotel","website":"https://hotellbotanika.se/","wheelchair":"no"}},"geometry":{"type":"Point","coordinates":[17.6333393,59.862661]}},{"type":"Feature","properties":{"id":469342664,"osm_type":"node","name":"Best Western Hotel Svava","category":"hotel","tags":{"brand":"Best Western","brand:wikidata":"Q830334","check_date":"2024-10-15","name":"Best Western Hotel Svava","tourism":"hotel"}},"geometry":{"type":"Point","coordinates":[17.6441088,59.8580904]}},{"type":"Feature","properties":{"id":469342969,"osm_type":"node","name":"Grand Hotel Hörnan","category":"hotel","tags":{"addr:city":"Uppsala","addr:country":"SE","addr:housenumber":"1","addr:postcode":"75320","addr:street":"Bangårdsgatan","email":"info@grandhotellhornan.com","fax":"+46 18 120311","name":"Grand Hotel Hörnan","phone":"+46 18 139380","tourism":"hotel","website":"https://www.grandhotellhornan.com/","wheelchair":"no","wikidata":"Q10508027","wikipedia":"sv:Grand Hotell Hörnan"}},"geometry":{"type":"Point","coordinates":[17.6405822,59.8564206]}},{"type":"Feature","properties":{"id":888420561,"osm_type":"node","name":"Särsta Wärdshus","category":"hotel","tags":{"check_date":"2026-06-07","name":"Särsta Wärdshus","tourism":"hotel","website":"https://sarsta.se/"}},"geometry":{"type":"Point","coordinates":[17.791397,59.7234808]}},{"type":"Feature","properties":{"id":888504635,"osm_type":"node","name":"Krusenberg herrgård","category":"hotel","tags":{"name":"Krusenberg herrgård","tourism":"hotel"}},"geometry":{"type":"Point","coordinates":[17.6450423,59.7352142]}},{"type":"Feature","properties":{"id":893911170,"osm_type":"node","name":"Björkdala gård","category":"hotel","tags":{"description":"Conference centre.","name":"Björkdala gård","place":"hamlet","tourism":"guest_house"}},"geometry":{"type":"Point","coordinates":[17.5012187,59.7395918]}},{"type":"Feature","properties":{"id":928056537,"osm_type":"node","name":"Scandic Uplandia","category":"hotel","tags":{"brand":"Scandic Hotels","brand:wikidata":"Q129391","check_date":"2025-07-17","name":"Scandic Uplandia","tourism":"hotel","wheelchair":"yes"}},"geometry":{"type":"Point","coordinates":[17.6386759,59.8604129]}},{"type":"Feature","properties":{"id":937737988,"osm_type":"node","name":"Clarion Hotel Gillet","category":"hotel","tags":{"brand":"Clarion","brand:wikidata":"Q10454567","check_date":"2025-03-22","level":"0","name":"Clarion Hotel Gillet","tourism":"hotel","wheelchair":"yes"}},"geometry":{"type":"Point","coordinates":[17.6375627,59.8605797]}},{"type":"Feature","properties":{"id":983772280,"osm_type":"node","name":"Hotell Fyrislund","category":"hotel","tags":{"name":"Hotell Fyrislund","tourism":"hotel"}},"geometry":{"type":"Point","coordinates":[17.6937281,59.8515045]}},{"type":"Feature","properties":{"id":1828100271,"osm_type":"node","name":"Uppsala City Hostel","category":"hotel","tags":{"addr:city":"Uppsala","addr:country":"SE","addr:housenumber":"16","addr:street":"Sankt Persgatan","check_date":"2025-06-04","internet_access":"wlan","internet_access:fee":"no","name":"Uppsala City Hostel","smoking":"no","tourism":"hostel","website":"https://uppsalacityhostel.se/","wheelchair":"limited"}},"geometry":{"type":"Point","coordinates":[17.6394717,59.8604525]}},{"type":"Feature","properties":{"id":2039090088,"osm_type":"node","name":"Hotell & Vandrarhem Centralstationen","category":"hotel","tags":{"addr:city":"Uppsala","addr:country":"SE","addr:housenumber":"13","addr:street":"Bangårdsgatan","check_date":"2024-10-15","internet_access":"wlan","internet_access:fee":"no","name":"Hotell & Vandrarhem Centralstationen","opening_hours":"24/7","phone":"+46 18 444 20 10","tourism":"hostel","website":"https://hotellcentralstation.se/"}},"geometry":{"type":"Point","coordinates":[17.643914,59.857716]}},{"type":"Feature","properties":{"id":2278117303,"osm_type":"node","name":"Friiberghs Herrgård","category":"hotel","tags":{"name":"Friiberghs Herrgård","tourism":"hotel","website":"https://friibergh.se/"}},"geometry":{"type":"Point","coordinates":[17.5020356,59.6995225]}},{"type":"Feature","properties":{"id":2605333378,"osm_type":"node","name":"Gästhem Samariten","category":"hotel","tags":{"name":"Gästhem Samariten","tourism":"guest_house","url":"http://www.samariterhemmet.se/g%C3%A4sthem-samariten/g%C3%A4sthem-samariten"}},"geometry":{"type":"Point","coordinates":[17.6486,59.85539]}},{"type":"Feature","properties":{"id":2947433390,"osm_type":"node","name":"Hotell & Vandrarhem Kungsängstorg","category":"hotel","tags":{"addr:city":"Uppsala","addr:country":"SE","addr:housenumber":"6","addr:street":"Kungsängstorg","check_date":"2026-03-17","name":"Hotell & Vandrarhem Kungsängstorg","phone":"+46 18 444 20 10","tourism":"hotel","website":"http://www.hotellkungsangstorg.se"}},"geometry":{"type":"Point","coordinates":[17.6476613,59.8549067]}},{"type":"Feature","properties":{"id":3177843761,"osm_type":"node","name":"Best Western Uppsala","category":"hotel","tags":{"addr:housenumber":"5a","addr:street":"Trädgårdsgatan","brand":"Best Western","brand:wikidata":"Q830334","check_date":"2026-05-12","name":"Best Western Uppsala","tourism":"hotel","website":"https://bestwesternuppsala.se/"}},"geometry":{"type":"Point","coordinates":[17.6356913,59.8569073]}},{"type":"Feature","properties":{"id":3639344312,"osm_type":"node","name":"Stay by George.se","category":"hotel","tags":{"addr:city":"Uppsala","addr:country":"SE","addr:housenumber":"31D","addr:postcode":"75226","addr:street":"Tegnérgatan","email":"info@staybygeorge.se","name":"Stay by George.se","phone":"+46 18 550008","tourism":"hotel","website":"http://staybygeorge.com/"}},"geometry":{"type":"Point","coordinates":[17.6139385,59.8610945]}},{"type":"Feature","properties":{"id":4339474262,"osm_type":"node","name":"Duvan Hotel","category":"hotel","tags":{"addr:city":"Uppsala","addr:housenumber":"69","addr:postcode":"75320","addr:street":"Dragarbrunnsgatan","name":"Duvan Hotel","tourism":"hotel","website":"https://duvanhotell.se/"}},"geometry":{"type":"Point","coordinates":[17.6470615,59.8554167]}},{"type":"Feature","properties":{"id":4340227858,"osm_type":"node","name":"Hotel Von Kraemer","category":"hotel","tags":{"check_date":"2025-06-15","internet_access":"yes","name":"Hotel Von Kraemer","tourism":"hotel"}},"geometry":{"type":"Point","coordinates":[17.6353452,59.8482787]}},{"type":"Feature","properties":{"id":4345418580,"osm_type":"node","name":"Golf Uppsala","category":"hotel","tags":{"name":"Golf Uppsala","phone":"+46 18 430 19 70","tourism":"hotel"}},"geometry":{"type":"Point","coordinates":[17.4983425,59.8124538]}},{"type":"Feature","properties":{"id":9330468477,"osm_type":"node","name":"Home Hotel Uppsala","category":"hotel","tags":{"addr:city":"Uppsala","addr:country":"SE","addr:housenumber":"30","addr:postcode":"75331","addr:street":"Storgatan","brand":"@HOME","brand:wikidata":"Q135249100","check_date":"2024-07-23","internet_access":"yes","name":"Home Hotel Uppsala","official_name":"@HOME by Best Western","rooms":"90","tourism":"hotel","wheelchair":"yes"}},"geometry":{"type":"Point","coordinates":[17.646731,59.8601344]}},{"type":"Feature","properties":{"id":10100423917,"osm_type":"node","name":"Duvan Hotel","category":"hotel","tags":{"check_date":"2025-02-28","name":"Duvan Hotel","tourism":"hotel"}},"geometry":{"type":"Point","coordinates":[17.647143,59.8553316]}},{"type":"Feature","properties":{"id":13673670312,"osm_type":"node","name":"Ewa Lagerwalls korttidsboende","category":"hotel","tags":{"name":"Ewa Lagerwalls korttidsboende","tourism":"motel"}},"geometry":{"type":"Point","coordinates":[17.6524422,59.8282439]}},{"type":"Feature","properties":{"id":25213697,"osm_type":"way","name":"Sunnersta Herrgård","category":"hotel","tags":{"addr:city":"Uppsala","addr:country":"SE","addr:housenumber":"24","addr:postcode":"75651","addr:street":"Sunnerstavägen","building":"yes","historic":"manor","internet_access":"wlan","internet_access:fee":"no","name":"Sunnersta Herrgård","rooms":"37","tourism":"hotel"}},"geometry":{"type":"Point","coordinates":[17.6607804,59.8013702]}},{"type":"Feature","properties":{"id":27652382,"osm_type":"way","name":"Hotell Stella","category":"hotel","tags":{"addr:city":"Uppsala","addr:housenumber":"31C","addr:postcode":"75233","addr:street":"Sankt Johannesgatan","building":"hotel","check_date":"2025-11-02","currency:XBT":"no","name":"Hotell Stella","payment:lightning":"no","payment:onchain":"no","tourism":"hotel","website":"https://www.hotellstella.se/","wheelchair":"yes"}},"geometry":{"type":"Point","coordinates":[17.6197473,59.8559673]}},{"type":"Feature","properties":{"id":71127111,"osm_type":"way","name":"Elite Hotel Academia","category":"hotel","tags":{"addr:city":"Uppsala","addr:country":"SE","addr:housenumber":"6","addr:postcode":"75319","addr:street":"Suttungs Gränd","building":"yes","building:levels":"10","check_date":"2024-07-19","description":"Hotel","email":"centralreservation@elite.se","name":"Elite Hotel Academia","operator":"Elite","phone":"+46 77 178 87 89","tourism":"hotel","website":"https://www.elite.se/sv/hotell/uppsala/hotel-academia/"}},"geometry":{"type":"Point","coordinates":[17.6485048,59.8568095]}},{"type":"Feature","properties":{"id":91921249,"osm_type":"way","name":"Akademihotellet","category":"hotel","tags":{"addr:city":"Uppsala","addr:country":"SE","addr:housenumber":"5","addr:street":"Övre Slottsgatan","building":"yes","check_date":"2024-07-04","email":"info@akademihotellet.se","name":"Akademihotellet","phone":"+46 18 155190","tourism":"hotel","website":"https://www.akademihotellet.se/","wikidata":"Q10403926","wikipedia":"sv:Akademihotellet"}},"geometry":{"type":"Point","coordinates":[17.6306475,59.8563856]}},{"type":"Feature","properties":{"id":94016996,"osm_type":"way","name":"Hågadalens Hostel & Vandrarhem","category":"hotel","tags":{"addr:city":"Uppsala","addr:country":"SE","addr:housenumber":"71","addr:street":"Vårdsätravägen","building":"yes","name":"Hågadalens Hostel & Vandrarhem","tourism":"hostel","website":"https://hagadalensvandrarhem.se/"}},"geometry":{"type":"Point","coordinates":[17.6059578,59.806509]}},{"type":"Feature","properties":{"id":98942854,"osm_type":"way","name":"Scandic Hotel","category":"hotel","tags":{"addr:city":"Uppsala","addr:country":"SE","addr:housenumber":"50","addr:postcode":"754 25","addr:street":"Gamla Uppsalagatan","alt_name":"Scandic Uppsala Nord","brand":"Scandic Hotels","brand:wikidata":"Q129391","building":"hotel","name":"Scandic Hotel","tourism":"hotel"}},"geometry":{"type":"Point","coordinates":[17.6401238,59.8757635]}},{"type":"Feature","properties":{"id":98950311,"osm_type":"way","name":"","category":"hotel","tags":{"tourism":"motel"}},"geometry":{"type":"Point","coordinates":[17.6366174,59.8680897]}},{"type":"Feature","properties":{"id":159585305,"osm_type":"way","name":"Villa Anna","category":"hotel","tags":{"addr:city":"Uppsala","addr:country":"SE","addr:housenumber":"3","addr:street":"Odinslund","amenity":"restaurant","building":"yes","email":"info@villaanna.se","name":"Villa Anna","phone":"+46 18 5802000","tourism":"hotel","website":"https://www.villaanna.se/","wikidata":"Q49096098","wikipedia":"sv:Villa Anna"}},"geometry":{"type":"Point","coordinates":[17.6314882,59.8568546]}},{"type":"Feature","properties":{"id":207791526,"osm_type":"way","name":"Radisson Blu Hotel, Uppsala","category":"hotel","tags":{"addr:city":"Uppsala","addr:country":"SE","addr:housenumber":"4","addr:street":"Stationsgatan","brand":"Radisson Blu","brand:wikidata":"Q7281341","building":"yes","building:colour":"gray","building:levels":"5","check_date":"2025-08-01","internet_access":"wlan","layer":"1","name":"Radisson Blu Hotel, Uppsala","phone":"+46 18 4747900","roof:colour":"grey","roof:shape":"flat","source":"bing","tourism":"hotel","website":"http://www.radissonblu.se/hotell-uppsala"}},"geometry":{"type":"Point","coordinates":[17.6477772,59.8591406]}},{"type":"Feature","properties":{"id":212713465,"osm_type":"way","name":"Sejour Skokloster Wärdshus","category":"hotel","tags":{"beds":"119","building":"yes","email":"skokloster@sejour.se","fax":"+46 18 38 60 55","internet_access":"wlan","internet_access:fee":"no","name":"Sejour Skokloster Wärdshus","phone":"+46 18 38 61 00","rooms":"75","tourism":"hotel","website":"https://www.sejour.se/"}},"geometry":{"type":"Point","coordinates":[17.6207919,59.7068465]}},{"type":"Feature","properties":{"id":583989367,"osm_type":"way","name":"Arenahotellet","category":"hotel","tags":{"addr:city":"Uppsala","addr:country":"SE","addr:housenumber":"6","addr:postcode":"75460","addr:street":"Edith Södergransgata","building":"hotel","building:levels":"8","check_date":"2025-04-19","email":"reception@arenahotellet.se","name":"Arenahotellet","phone":"+4618350025","tourism":"hotel","website":"https://www.arenahotellet.se/"}},"geometry":{"type":"Point","coordinates":[17.6595946,59.8840903]}}]}