{"type":"FeatureCollection","features":[{"type":"Feature","properties":{"id":920253245,"osm_type":"node","name":"Kåbo förskola","category":"kindergarten","tags":{"amenity":"kindergarten","name":"Kåbo förskola"}},"geometry":{"type":"Point","coordinates":[17.6301241,59.8458524]}},{"type":"Feature","properties":{"id":928884848,"osm_type":"node","name":"Ekuddens förskola","category":"kindergarten","tags":{"amenity":"kindergarten","name":"Ekuddens förskola"}},"geometry":{"type":"Point","coordinates":[17.653419,59.8270257]}},{"type":"Feature","properties":{"id":928900943,"osm_type":"node","name":"Lindparkens förskola","category":"kindergarten","tags":{"amenity":"kindergarten","name":"Lindparkens förskola"}},"geometry":{"type":"Point","coordinates":[17.65314,59.8274032]}},{"type":"Feature","properties":{"id":1896619081,"osm_type":"node","name":"","category":"kindergarten","tags":{"amenity":"kindergarten"}},"geometry":{"type":"Point","coordinates":[17.7965672,59.7188664]}},{"type":"Feature","properties":{"id":2437827873,"osm_type":"node","name":"Fyrisvallens förskola","category":"kindergarten","tags":{"addr:city":"Uppsala","addr:country":"SE","addr:housenumber":"6","addr:postcode":"75217","addr:street":"Ringgatan","amenity":"kindergarten","name":"Fyrisvallens förskola"}},"geometry":{"type":"Point","coordinates":[17.623491,59.8673568]}},{"type":"Feature","properties":{"id":3042216338,"osm_type":"node","name":"Förskolan Da Vinci","category":"kindergarten","tags":{"amenity":"kindergarten","check_date":"2023-09-23","education":"kindergarten","name":"Förskolan Da Vinci"}},"geometry":{"type":"Point","coordinates":[17.6461076,59.8435011]}},{"type":"Feature","properties":{"id":3833858037,"osm_type":"node","name":"Nyckelpigans förskola","category":"kindergarten","tags":{"addr:city":"Knivsta","addr:country":"SE","addr:housenumber":"2","addr:postcode":"74131","addr:street":"Fikonvägen","amenity":"kindergarten","name":"Nyckelpigans förskola","operator:type":"cooperative"}},"geometry":{"type":"Point","coordinates":[17.7725105,59.7259563]}},{"type":"Feature","properties":{"id":4339474014,"osm_type":"node","name":"Gudruns Förskola","category":"kindergarten","tags":{"amenity":"kindergarten","education":"kindergarten","name":"Gudruns Förskola"}},"geometry":{"type":"Point","coordinates":[17.6444295,59.8553478]}},{"type":"Feature","properties":{"id":4340266481,"osm_type":"node","name":"Gamla Uppsala Montessoriförskola","category":"kindergarten","tags":{"amenity":"kindergarten","check_date":"2024-01-05","name":"Gamla Uppsala Montessoriförskola"}},"geometry":{"type":"Point","coordinates":[17.6484737,59.8779151]}},{"type":"Feature","properties":{"id":4340266557,"osm_type":"node","name":"Von Bahrs förskola","category":"kindergarten","tags":{"amenity":"kindergarten","check_date":"2024-01-05","name":"Von Bahrs förskola"}},"geometry":{"type":"Point","coordinates":[17.6484759,59.8786014]}},{"type":"Feature","properties":{"id":4345065218,"osm_type":"node","name":"Väpnarens förskola","category":"kindergarten","tags":{"amenity":"kindergarten","name":"Väpnarens förskola"}},"geometry":{"type":"Point","coordinates":[17.6161447,59.8740946]}},{"type":"Feature","properties":{"id":4345442626,"osm_type":"node","name":"Österledens förskola","category":"kindergarten","tags":{"amenity":"kindergarten","name":"Österledens förskola"}},"geometry":{"type":"Point","coordinates":[17.6552634,59.8929724]}},{"type":"Feature","properties":{"id":4345448182,"osm_type":"node","name":"Fålhagsledens förskola","category":"kindergarten","tags":{"amenity":"kindergarten","check_date":"2024-07-04","education":"kindergarten","name":"Fålhagsledens förskola"}},"geometry":{"type":"Point","coordinates":[17.6710316,59.8574384]}},{"type":"Feature","properties":{"id":4362546569,"osm_type":"node","name":"Lilla Academia Förskola","category":"kindergarten","tags":{"amenity":"kindergarten","name":"Lilla Academia Förskola"}},"geometry":{"type":"Point","coordinates":[17.6704683,59.8725137]}},{"type":"Feature","properties":{"id":4362548490,"osm_type":"node","name":"Ultuna förskola","category":"kindergarten","tags":{"amenity":"kindergarten","name":"Ultuna förskola","operator":"Child Academy"}},"geometry":{"type":"Point","coordinates":[17.6607765,59.8106333]}},{"type":"Feature","properties":{"id":4895862692,"osm_type":"node","name":"Frodeparkens Förskola","category":"kindergarten","tags":{"addr:country":"SE","addr:housenumber":"52","addr:street":"Stationsgatan","amenity":"kindergarten","check_date":"2024-07-29","education":"kindergarten","name":"Frodeparkens Förskola"}},"geometry":{"type":"Point","coordinates":[17.6526053,59.8567763]}},{"type":"Feature","properties":{"id":5722362552,"osm_type":"node","name":"Kastanjens montessoriförskola","category":"kindergarten","tags":{"amenity":"kindergarten","name":"Kastanjens montessoriförskola"}},"geometry":{"type":"Point","coordinates":[17.7002356,59.8494743]}},{"type":"Feature","properties":{"id":11561150505,"osm_type":"node","name":"Lövstalöts förskola","category":"kindergarten","tags":{"addr:city":"Uppsala","addr:country":"SE","addr:housenumber":"2","addr:postcode":"75550","addr:street":"Pionvägen","amenity":"kindergarten","name":"Lövstalöts förskola","operator":"Uppsala kommun","phone":"+46 18 727 79 28","website":"https://lovstalotsforskola.uppsala.se/"}},"geometry":{"type":"Point","coordinates":[17.5786529,59.9591603]}},{"type":"Feature","properties":{"id":12020167314,"osm_type":"node","name":"Dibber Årsta förskola","category":"kindergarten","tags":{"addr:city":"Uppsala","addr:housenumber":"7","addr:postcode":"75446","addr:street":"Sparrisgatan","amenity":"kindergarten","check_date":"2025-07-18","name":"Dibber Årsta förskola","preschool":"yes"}},"geometry":{"type":"Point","coordinates":[17.6850731,59.8655249]}},{"type":"Feature","properties":{"id":12059417107,"osm_type":"node","name":"Edda Förskola","category":"kindergarten","tags":{"amenity":"kindergarten","check_date":"2024-07-17","name":"Edda Förskola","name:sv":"Edda Förskola"}},"geometry":{"type":"Point","coordinates":[17.6309689,59.8072776]}},{"type":"Feature","properties":{"id":12070969592,"osm_type":"node","name":"Förskolan Vildrosen","category":"kindergarten","tags":{"amenity":"kindergarten","check_date":"2024-07-24","education":"kindergarten","level":"-1","name":"Förskolan Vildrosen","preschool":"yes"}},"geometry":{"type":"Point","coordinates":[17.6567246,59.8602814]}},{"type":"Feature","properties":{"id":12104124331,"osm_type":"node","name":"FASANENS FÖRSKOLA","category":"kindergarten","tags":{"amenity":"kindergarten","name":"FASANENS FÖRSKOLA"}},"geometry":{"type":"Point","coordinates":[17.688878,59.8650981]}},{"type":"Feature","properties":{"id":12547093069,"osm_type":"node","name":"Almtuna förskola","category":"kindergarten","tags":{"amenity":"kindergarten","name":"Almtuna förskola"}},"geometry":{"type":"Point","coordinates":[17.6635077,59.8637399]}},{"type":"Feature","properties":{"id":12585981093,"osm_type":"node","name":"","category":"kindergarten","tags":{"amenity":"kindergarten"}},"geometry":{"type":"Point","coordinates":[17.6232038,59.8615891]}},{"type":"Feature","properties":{"id":12598578402,"osm_type":"node","name":"","category":"kindergarten","tags":{"amenity":"kindergarten","school:gender":"mixed"}},"geometry":{"type":"Point","coordinates":[17.6183519,59.8682661]}},{"type":"Feature","properties":{"id":12850579519,"osm_type":"node","name":"Kåbo Förskola","category":"kindergarten","tags":{"addr:city":"Uppsala","addr:housenumber":"1","addr:postcode":"75237","addr:street":"Banérgatan","amenity":"kindergarten","name":"Kåbo Förskola","preschool":"yes"}},"geometry":{"type":"Point","coordinates":[17.6337507,59.846609]}},{"type":"Feature","properties":{"id":13009517289,"osm_type":"node","name":"Grannbarnens Förskola","category":"kindergarten","tags":{"addr:city":"Uppsala","addr:housenumber":"16B","addr:postcode":"75242","addr:street":"Gnejsvägen","amenity":"kindergarten","name":"Grannbarnens Förskola","phone":"018548814","preschool":"yes","website":"https://www.grannbarnen.se/"}},"geometry":{"type":"Point","coordinates":[17.5977091,59.8412828]}},{"type":"Feature","properties":{"id":13229985419,"osm_type":"node","name":"Dibber","category":"kindergarten","tags":{"amenity":"kindergarten","name":"Dibber"}},"geometry":{"type":"Point","coordinates":[17.6270681,59.8586003]}},{"type":"Feature","properties":{"id":13723504696,"osm_type":"node","name":"Berga förskola","category":"kindergarten","tags":{"amenity":"childcare","name":"Berga förskola"}},"geometry":{"type":"Point","coordinates":[17.6163737,59.850337]}},{"type":"Feature","properties":{"id":32035100,"osm_type":"way","name":"Glimmerns förskola","category":"kindergarten","tags":{"amenity":"kindergarten","name":"Glimmerns förskola"}},"geometry":{"type":"Point","coordinates":[17.6073331,59.8422123]}},{"type":"Feature","properties":{"id":32055802,"osm_type":"way","name":"Disponentvillans öppna förskola","category":"kindergarten","tags":{"amenity":"kindergarten","building":"yes","name":"Disponentvillans öppna förskola"}},"geometry":{"type":"Point","coordinates":[17.6052181,59.8487977]}},{"type":"Feature","properties":{"id":79586879,"osm_type":"way","name":"Vintergatans förskola","category":"kindergarten","tags":{"amenity":"kindergarten","name":"Vintergatans förskola","operator":"Uppsala kommun"}},"geometry":{"type":"Point","coordinates":[17.6587005,59.8209602]}},{"type":"Feature","properties":{"id":83702328,"osm_type":"way","name":"","category":"kindergarten","tags":{"addr:city":"Uppsala","addr:country":"SE","addr:housenumber":"4","addr:street":"Flöjtvägen","amenity":"kindergarten","building":"yes","check_date":"2024-08-13","source":"yahoo"}},"geometry":{"type":"Point","coordinates":[17.6338509,59.8032911]}},{"type":"Feature","properties":{"id":85552288,"osm_type":"way","name":"Sunnersta Naturförskola","category":"kindergarten","tags":{"addr:city":"Uppsala","addr:country":"SE","addr:housenumber":"4","addr:street":"Kohagsvägen","amenity":"kindergarten","building":"yes","name":"Sunnersta Naturförskola","operator":"Lica Förskolor","source":"yahoo"}},"geometry":{"type":"Point","coordinates":[17.6525983,59.7896147]}},{"type":"Feature","properties":{"id":86114734,"osm_type":"way","name":"Sunnersta naturförskola","category":"kindergarten","tags":{"addr:city":"Uppsala","addr:country":"SE","addr:housenumber":"3","addr:street":"Backvägen","amenity":"kindergarten","building":"yes","name":"Sunnersta naturförskola","source":"yahoo"}},"geometry":{"type":"Point","coordinates":[17.653904,59.7991054]}},{"type":"Feature","properties":{"id":87879513,"osm_type":"way","name":"Videungens förskola","category":"kindergarten","tags":{"addr:city":"Uppsala","addr:country":"SE","addr:housenumber":"16","addr:street":"Videvägen","amenity":"kindergarten","building":"yes","name":"Videungens förskola","source":"Bing"}},"geometry":{"type":"Point","coordinates":[17.6420888,59.7920589]}},{"type":"Feature","properties":{"id":91746375,"osm_type":"way","name":"Ulleråkers förskola","category":"kindergarten","tags":{"addr:city":"Uppsala","addr:country":"SE","addr:housenumber":"4","addr:street":"Emmy Rappes väg","amenity":"kindergarten","building":"yes","education":"kindergarten","name":"Ulleråkers förskola","preschool":"yes"}},"geometry":{"type":"Point","coordinates":[17.6449803,59.8333324]}},{"type":"Feature","properties":{"id":95660254,"osm_type":"way","name":"Hugo Alfvéns förskola","category":"kindergarten","tags":{"amenity":"kindergarten","building":"yes","name":"Hugo Alfvéns förskola"}},"geometry":{"type":"Point","coordinates":[17.6187357,59.8172214]}},{"type":"Feature","properties":{"id":96062882,"osm_type":"way","name":"Småfolkets Förskola","category":"kindergarten","tags":{"addr:country":"SE","addr:housenumber":"13","addr:street":"Konsumvägen","amenity":"kindergarten","name":"Småfolkets Förskola","opening_hours":"Mo-Fr 07:00-17:00","phone":"+46 18 30 39 20","website":"https://www.smafolket.org/"}},"geometry":{"type":"Point","coordinates":[17.6162983,59.8292248]}},{"type":"Feature","properties":{"id":96065105,"osm_type":"way","name":"Förskola Myggan","category":"kindergarten","tags":{"amenity":"kindergarten","contact:website":"http://www.myggansforskola.se/","name":"Förskola Myggan","operator":"Föräldraföreningen Mygganbarnen I Uppsala Ek För"}},"geometry":{"type":"Point","coordinates":[17.6112937,59.8277004]}},{"type":"Feature","properties":{"id":96131417,"osm_type":"way","name":"Diamantens förskola","category":"kindergarten","tags":{"amenity":"kindergarten","name":"Diamantens förskola","operator":"Diamantens Förskola AB"}},"geometry":{"type":"Point","coordinates":[17.6105,59.82336]}},{"type":"Feature","properties":{"id":100117742,"osm_type":"way","name":"Årstaparkens förskola","category":"kindergarten","tags":{"addr:city":"Uppsala","addr:country":"SE","addr:housenumber":"85","addr:postcode":"75449","addr:street":"Vitkålsgatan","amenity":"kindergarten","name":"Årstaparkens förskola","phone":"+46 18 7270000","website":"https://arstaparkensforskola.uppsala.se/"}},"geometry":{"type":"Point","coordinates":[17.6958554,59.869952]}},{"type":"Feature","properties":{"id":102149313,"osm_type":"way","name":"Äppellundens förskola","category":"kindergarten","tags":{"amenity":"kindergarten","check_date":"2024-02-26","name":"Äppellundens förskola"}},"geometry":{"type":"Point","coordinates":[17.6993011,59.8678847]}},{"type":"Feature","properties":{"id":102422282,"osm_type":"way","name":"Slavsta förskola","category":"kindergarten","tags":{"amenity":"kindergarten","check_date":"2024-07-16","name":"Slavsta förskola"}},"geometry":{"type":"Point","coordinates":[17.6997017,59.8568128]}},{"type":"Feature","properties":{"id":102693355,"osm_type":"way","name":"Boländernas förskola","category":"kindergarten","tags":{"amenity":"kindergarten","check_date":"2025-08-01","education":"kindergarten","name":"Boländernas förskola"}},"geometry":{"type":"Point","coordinates":[17.6698088,59.8553168]}},{"type":"Feature","properties":{"id":105469953,"osm_type":"way","name":"Spinnrockens förskola","category":"kindergarten","tags":{"amenity":"kindergarten","name":"Spinnrockens förskola"}},"geometry":{"type":"Point","coordinates":[17.6268702,59.8163387]}},{"type":"Feature","properties":{"id":105469990,"osm_type":"way","name":"Valsätra förskola","category":"kindergarten","tags":{"amenity":"kindergarten","name":"Valsätra förskola"}},"geometry":{"type":"Point","coordinates":[17.6228475,59.8200561]}},{"type":"Feature","properties":{"id":106371147,"osm_type":"way","name":"Botulvs förskola","category":"kindergarten","tags":{"addr:city":"Uppsala","addr:country":"SE","addr:housenumber":"40","addr:postcode":"753 29","addr:street":"Torkelsgatan","amenity":"kindergarten","building":"yes","check_date":"2023-04-29","education":"kindergarten","name":"Botulvs förskola","roof:colour":"black","website":"https://www.botulvsforskola.uppsala.se//"}},"geometry":{"type":"Point","coordinates":[17.64497,59.8673435]}},{"type":"Feature","properties":{"id":106371153,"osm_type":"way","name":"Höganäs förskola","category":"kindergarten","tags":{"addr:city":"Uppsala","addr:country":"SE","addr:housenumber":"7","addr:postcode":"753 30","addr:street":"Alriksgatan","amenity":"kindergarten","building":"yes","check_date":"2023-04-29","education":"kindergarten","name":"Höganäs förskola","roof:colour":"grey","roof:shape":"gabled","website":"https://www.hoganasforskola.uppsala.se//"}},"geometry":{"type":"Point","coordinates":[17.6443858,59.8669144]}},{"type":"Feature","properties":{"id":107548545,"osm_type":"way","name":"Orrparkens förskola","category":"kindergarten","tags":{"addr:city":"Uppsala","addr:country":"SE","addr:housenumber":"39","addr:street":"Svankärrsvägen","amenity":"kindergarten","building":"yes","check_date":"2024-07-12","name":"Orrparkens förskola"}},"geometry":{"type":"Point","coordinates":[17.6481123,59.7941622]}},{"type":"Feature","properties":{"id":111820086,"osm_type":"way","name":"Sävja Förskola","category":"kindergarten","tags":{"amenity":"kindergarten","building":"yes","name":"Sävja Förskola"}},"geometry":{"type":"Point","coordinates":[17.7033304,59.8154667]}},{"type":"Feature","properties":{"id":124461261,"osm_type":"way","name":"Lyckebo Förskola","category":"kindergarten","tags":{"amenity":"kindergarten","name":"Lyckebo Förskola"}},"geometry":{"type":"Point","coordinates":[17.6956054,59.9530636]}},{"type":"Feature","properties":{"id":124874976,"osm_type":"way","name":"Astrakanens förskola","category":"kindergarten","tags":{"amenity":"kindergarten","barrier":"fence","name":"Astrakanens förskola","source":"gps-track","wheelchair":"yes"}},"geometry":{"type":"Point","coordinates":[17.699923,59.9586123]}},{"type":"Feature","properties":{"id":128136789,"osm_type":"way","name":"Fullerö Förskola","category":"kindergarten","tags":{"amenity":"kindergarten","name":"Fullerö Förskola","source":"Bing","wheelchair":"yes"}},"geometry":{"type":"Point","coordinates":[17.6898907,59.9575487]}},{"type":"Feature","properties":{"id":129207671,"osm_type":"way","name":"Täljstenens förskola","category":"kindergarten","tags":{"addr:city":"Uppsala","addr:country":"SE","addr:housenumber":"12","addr:street":"Täljstensvägen","amenity":"kindergarten","education":"kindergarten","name":"Täljstenens förskola"}},"geometry":{"type":"Point","coordinates":[17.6167632,59.8372562]}},{"type":"Feature","properties":{"id":134530911,"osm_type":"way","name":"Lötens förskola","category":"kindergarten","tags":{"amenity":"kindergarten","name":"Lötens förskola"}},"geometry":{"type":"Point","coordinates":[17.6486703,59.8769638]}},{"type":"Feature","properties":{"id":135410397,"osm_type":"way","name":"Kastellets förskola","category":"kindergarten","tags":{"amenity":"kindergarten","name":"Kastellets förskola"}},"geometry":{"type":"Point","coordinates":[17.652416,59.887596]}},{"type":"Feature","properties":{"id":135410398,"osm_type":"way","name":"Nyby förskola","category":"kindergarten","tags":{"amenity":"kindergarten","name":"Nyby förskola"}},"geometry":{"type":"Point","coordinates":[17.6518439,59.8872079]}},{"type":"Feature","properties":{"id":136318165,"osm_type":"way","name":"Förskolan Laxen","category":"kindergarten","tags":{"addr:city":"Uppsala","addr:country":"SE","addr:housenumber":"12-16","addr:postcode":"75440","addr:street":"Sköldmövägen","amenity":"kindergarten","name":"Förskolan Laxen"}},"geometry":{"type":"Point","coordinates":[17.6393921,59.8911054]}},{"type":"Feature","properties":{"id":137320619,"osm_type":"way","name":"","category":"kindergarten","tags":{"amenity":"kindergarten","check_date":"2024-07-26"}},"geometry":{"type":"Point","coordinates":[17.662168,59.8641715]}},{"type":"Feature","properties":{"id":144809726,"osm_type":"way","name":"Skutans förskola","category":"kindergarten","tags":{"addr:country":"SE","addr:housenumber":"13","addr:street":"Forsbyvägen","amenity":"kindergarten","building":"yes","name":"Skutans förskola","operator":"Knivsta kommun"}},"geometry":{"type":"Point","coordinates":[17.7961628,59.723856]}},{"type":"Feature","properties":{"id":155554976,"osm_type":"way","name":"Gladers förskola","category":"kindergarten","tags":{"amenity":"kindergarten","building":"yes","check_date":"2025-04-20","name":"Gladers förskola"}},"geometry":{"type":"Point","coordinates":[17.6922644,59.8156111]}},{"type":"Feature","properties":{"id":156546014,"osm_type":"way","name":"Kojans förskola","category":"kindergarten","tags":{"amenity":"kindergarten","building":"yes","check_date":"2025-04-20","name":"Kojans förskola"}},"geometry":{"type":"Point","coordinates":[17.6928931,59.8156318]}},{"type":"Feature","properties":{"id":156546016,"osm_type":"way","name":"Myrgångens förskola","category":"kindergarten","tags":{"amenity":"kindergarten","check_date":"2025-04-20","name":"Myrgångens förskola"}},"geometry":{"type":"Point","coordinates":[17.6879143,59.8167348]}},{"type":"Feature","properties":{"id":156546026,"osm_type":"way","name":"","category":"kindergarten","tags":{"amenity":"kindergarten"}},"geometry":{"type":"Point","coordinates":[17.6926367,59.8157638]}},{"type":"Feature","properties":{"id":174381950,"osm_type":"way","name":"Klockarbols Förskola","category":"kindergarten","tags":{"amenity":"kindergarten","name":"Klockarbols Förskola","operator":"Uppsala kommun"}},"geometry":{"type":"Point","coordinates":[17.5336132,59.947302]}},{"type":"Feature","properties":{"id":221769588,"osm_type":"way","name":"Västra Ängbys förskola","category":"kindergarten","tags":{"addr:city":"Knivsta","addr:country":"SE","addr:housenumber":"17","addr:postcode":"74131","addr:street":"Russinvägen","amenity":"kindergarten","building":"kindergarten","name":"Västra Ängbys förskola","operator":"Knivsta kommun"}},"geometry":{"type":"Point","coordinates":[17.7698122,59.7234756]}},{"type":"Feature","properties":{"id":221769655,"osm_type":"way","name":"Villa Villekulla","category":"kindergarten","tags":{"addr:city":"Knivsta","addr:country":"SE","addr:housenumber":"175","addr:postcode":"74131","addr:street":"Plommonvägen","amenity":"kindergarten","building":"amenity","name":"Villa Villekulla"}},"geometry":{"type":"Point","coordinates":[17.7648436,59.7232262]}},{"type":"Feature","properties":{"id":221769755,"osm_type":"way","name":"","category":"kindergarten","tags":{"addr:city":"Knivsta","addr:country":"SE","addr:housenumber":"18","addr:postcode":"74131","addr:street":"Körsbärsvägen","amenity":"kindergarten","building":"amenity"}},"geometry":{"type":"Point","coordinates":[17.7673616,59.7258789]}},{"type":"Feature","properties":{"id":264642306,"osm_type":"way","name":"Öppna förskolan","category":"kindergarten","tags":{"addr:city":"Uppsala","addr:country":"SE","addr:housenumber":"425","addr:postcode":"75267","addr:street":"Herrhagsvägen","amenity":"childcare","building":"yes","building:levels":"1","name":"Öppna förskolan"}},"geometry":{"type":"Point","coordinates":[17.5627633,59.8567487]}},{"type":"Feature","properties":{"id":264896674,"osm_type":"way","name":"Ringarens förskola","category":"kindergarten","tags":{"amenity":"kindergarten","check_date":"2024-02-14","name":"Ringarens förskola","phone":"+46 18 727 59 10","website":"https://ringarensforskola.uppsala.se/"}},"geometry":{"type":"Point","coordinates":[17.645711,59.8711609]}},{"type":"Feature","properties":{"id":316866892,"osm_type":"way","name":"Hällby Förskola","category":"kindergarten","tags":{"amenity":"kindergarten","name":"Hällby Förskola"}},"geometry":{"type":"Point","coordinates":[17.6012809,59.8648434]}},{"type":"Feature","properties":{"id":340283743,"osm_type":"way","name":"Peterslunds förskola","category":"kindergarten","tags":{"addr:country":"SE","addr:housenumber":"21","addr:postcode":"75329","addr:street":"Torkelsgatan","amenity":"kindergarten","building":"kindergarten","building:levels":"1","check_date":"2024-07-26","education":"kindergarten","name":"Peterslunds förskola","roof:levels":"1"}},"geometry":{"type":"Point","coordinates":[17.6527685,59.863904]}},{"type":"Feature","properties":{"id":363378753,"osm_type":"way","name":"Boländernas förskola","category":"kindergarten","tags":{"amenity":"kindergarten","check_date":"2025-08-01","education":"kindergarten","name":"Boländernas förskola"}},"geometry":{"type":"Point","coordinates":[17.66982,59.8553168]}},{"type":"Feature","properties":{"id":385182302,"osm_type":"way","name":"Kamomillens Förskola","category":"kindergarten","tags":{"addr:city":"Uppsala","addr:country":"SE","addr:housenumber":"38","addr:postcode":"754 47","addr:street":"Kamomillgatan","amenity":"kindergarten","check_date":"2024-01-04","name":"Kamomillens Förskola"}},"geometry":{"type":"Point","coordinates":[17.6843985,59.8695752]}},{"type":"Feature","properties":{"id":388105105,"osm_type":"way","name":"Rosendals förskola","category":"kindergarten","tags":{"amenity":"kindergarten","name":"Rosendals förskola"}},"geometry":{"type":"Point","coordinates":[17.6320627,59.8393019]}},{"type":"Feature","properties":{"id":436208573,"osm_type":"way","name":"","category":"kindergarten","tags":{"amenity":"kindergarten"}},"geometry":{"type":"Point","coordinates":[17.6413012,59.8712297]}},{"type":"Feature","properties":{"id":476659662,"osm_type":"way","name":"Voksenåsens förskola","category":"kindergarten","tags":{"amenity":"kindergarten","name":"Voksenåsens förskola"}},"geometry":{"type":"Point","coordinates":[17.6066262,59.8526221]}},{"type":"Feature","properties":{"id":486654364,"osm_type":"way","name":"Skogsbackens förskola","category":"kindergarten","tags":{"amenity":"kindergarten","check_date":"2024-09-24","name":"Skogsbackens förskola"}},"geometry":{"type":"Point","coordinates":[17.7176909,59.9563687]}},{"type":"Feature","properties":{"id":531384464,"osm_type":"way","name":"","category":"kindergarten","tags":{"amenity":"kindergarten"}},"geometry":{"type":"Point","coordinates":[17.6892257,59.8260156]}},{"type":"Feature","properties":{"id":671708959,"osm_type":"way","name":"Almtuna förskola","category":"kindergarten","tags":{"amenity":"kindergarten","check_date":"2024-06-25","name":"Almtuna förskola"}},"geometry":{"type":"Point","coordinates":[17.6648547,59.8630156]}},{"type":"Feature","properties":{"id":775225198,"osm_type":"way","name":"Lustigkulla","category":"kindergarten","tags":{"amenity":"kindergarten","building":"yes","name":"Lustigkulla","operator":"Knivsta Kommun","preschool":"yes"}},"geometry":{"type":"Point","coordinates":[17.7668406,59.7599769]}},{"type":"Feature","properties":{"id":795506988,"osm_type":"way","name":"","category":"kindergarten","tags":{"amenity":"kindergarten","building":"yes"}},"geometry":{"type":"Point","coordinates":[17.6956712,59.8700454]}},{"type":"Feature","properties":{"id":804439177,"osm_type":"way","name":"Himmelsvägens förskola","category":"kindergarten","tags":{"amenity":"kindergarten","name":"Himmelsvägens förskola"}},"geometry":{"type":"Point","coordinates":[17.6915529,59.9531838]}},{"type":"Feature","properties":{"id":925909467,"osm_type":"way","name":"Opalen","category":"kindergarten","tags":{"addr:city":"Uppsala","addr:country":"SE","addr:housenumber":"150","addr:postcode":"75267","addr:street":"Herrhagsvägen","amenity":"kindergarten","check_date":"2025-04-02","name":"Opalen","phone":"+46187469858","preschool":"yes"}},"geometry":{"type":"Point","coordinates":[17.5586906,59.8576359]}},{"type":"Feature","properties":{"id":981537461,"osm_type":"way","name":"Grindstugans förskola","category":"kindergarten","tags":{"addr:city":"Uppsala","addr:country":"SE","addr:housenumber":"19","addr:postcode":"75237","addr:street":"Soldathemsvägen","amenity":"kindergarten","education":"kindergarten","landuse":"education","name":"Grindstugans förskola","website":"https://grindstugansforskola.uppsala.se/"}},"geometry":{"type":"Point","coordinates":[17.6380725,59.8374204]}},{"type":"Feature","properties":{"id":1078329761,"osm_type":"way","name":"Rosendals förskola","category":"kindergarten","tags":{"addr:city":"Uppsala","addr:country":"SE","addr:housenumber":"6","addr:postcode":"75257","addr:street":"Brandmästargatan","amenity":"kindergarten","education":"kindergarten","landuse":"education","name":"Rosendals förskola","website":"https://rosendalsforskola.uppsala.se/"}},"geometry":{"type":"Point","coordinates":[17.6361251,59.8341439]}},{"type":"Feature","properties":{"id":1092108936,"osm_type":"way","name":"Verktygslådans förskola","category":"kindergarten","tags":{"amenity":"kindergarten","name":"Verktygslådans förskola"}},"geometry":{"type":"Point","coordinates":[17.7833634,59.7493521]}},{"type":"Feature","properties":{"id":1092108938,"osm_type":"way","name":"Förskolan Piratskeppet","category":"kindergarten","tags":{"amenity":"kindergarten","name":"Förskolan Piratskeppet"}},"geometry":{"type":"Point","coordinates":[17.7806555,59.7515054]}},{"type":"Feature","properties":{"id":1092108939,"osm_type":"way","name":"Trollskogens Förskola","category":"kindergarten","tags":{"amenity":"kindergarten","name":"Trollskogens Förskola"}},"geometry":{"type":"Point","coordinates":[17.7813048,59.7515709]}},{"type":"Feature","properties":{"id":1101416770,"osm_type":"way","name":"","category":"kindergarten","tags":{"amenity":"kindergarten","preschool":"yes"}},"geometry":{"type":"Point","coordinates":[17.6155597,59.8566838]}},{"type":"Feature","properties":{"id":1107737756,"osm_type":"way","name":"Hagmarkens Förskola","category":"kindergarten","tags":{"amenity":"kindergarten","name":"Hagmarkens Förskola","operator":"Hagmarkens Förskola/Skola AB"}},"geometry":{"type":"Point","coordinates":[17.5443285,59.9515286]}},{"type":"Feature","properties":{"id":1166218177,"osm_type":"way","name":"Tullmästarens förskola","category":"kindergarten","tags":{"addr:city":"Uppsala","addr:housenumber":"15B","addr:postcode":"75220","addr:street":"Gimoggatan","amenity":"kindergarten","name":"Tullmästarens förskola","preschool":"yes","website":"https://tullmastarensforskola.uppsala.se/"}},"geometry":{"type":"Point","coordinates":[17.6108336,59.8677773]}},{"type":"Feature","properties":{"id":1176543635,"osm_type":"way","name":"Pysslingen Boängen förskola","category":"kindergarten","tags":{"amenity":"kindergarten","name":"Pysslingen Boängen förskola","operator":"Academedia"}},"geometry":{"type":"Point","coordinates":[17.7951499,59.7352928]}},{"type":"Feature","properties":{"id":1218420341,"osm_type":"way","name":"Berwalds förskola","category":"kindergarten","tags":{"amenity":"kindergarten","name":"Berwalds förskola"}},"geometry":{"type":"Point","coordinates":[17.6204536,59.8124605]}},{"type":"Feature","properties":{"id":1218420343,"osm_type":"way","name":"Kyrkklockans förskola","category":"kindergarten","tags":{"amenity":"kindergarten","name":"Kyrkklockans förskola","operator":"Svenska Kyrkan","website":"https://www.svenskakyrkan.se/uppsalaforskolor/kyrkklockan"}},"geometry":{"type":"Point","coordinates":[17.617108,59.8107732]}},{"type":"Feature","properties":{"id":1222341437,"osm_type":"way","name":"Tunaparkens förskola","category":"kindergarten","tags":{"addr:city":"Uppsala","addr:housenumber":"9","addr:postcode":"75337","addr:street":"Tunagatan","amenity":"kindergarten","name":"Tunaparkens förskola"}},"geometry":{"type":"Point","coordinates":[17.6210612,59.8776175]}},{"type":"Feature","properties":{"id":1238423879,"osm_type":"way","name":"","category":"kindergarten","tags":{"amenity":"kindergarten"}},"geometry":{"type":"Point","coordinates":[17.6673237,59.8748695]}},{"type":"Feature","properties":{"id":1242175791,"osm_type":"way","name":"Humlans förskola","category":"kindergarten","tags":{"amenity":"kindergarten","barrier":"fence","contact:website":"https://humlans.nu/","fence_type":"chain_link","name":"Humlans förskola","operator":"C Företaget Barnomsorg Bill Ekonomisk Förening"}},"geometry":{"type":"Point","coordinates":[17.6113894,59.8273565]}},{"type":"Feature","properties":{"id":1270696878,"osm_type":"way","name":"Västra stenhagens förskola","category":"kindergarten","tags":{"amenity":"kindergarten","name":"Västra stenhagens förskola"}},"geometry":{"type":"Point","coordinates":[17.5545798,59.8508494]}},{"type":"Feature","properties":{"id":1361672192,"osm_type":"way","name":"Axelina förskola","category":"kindergarten","tags":{"amenity":"kindergarten","name":"Axelina förskola"}},"geometry":{"type":"Point","coordinates":[17.6824015,59.863176]}},{"type":"Feature","properties":{"id":1375094210,"osm_type":"way","name":"","category":"kindergarten","tags":{"amenity":"kindergarten"}},"geometry":{"type":"Point","coordinates":[17.5649379,59.8428971]}},{"type":"Feature","properties":{"id":1432789225,"osm_type":"way","name":"","category":"kindergarten","tags":{"amenity":"kindergarten","not:operator:wikidata":"Q59091","operator":"Uppsala Kommun","operator:type":"government","preschool":"yes","surface":"grass"}},"geometry":{"type":"Point","coordinates":[17.654002,59.8473732]}},{"type":"Feature","properties":{"id":1456770935,"osm_type":"way","name":"Norlandia Förskolor Uppfinnaren","category":"kindergarten","tags":{"addr:city":"Uppsala","addr:country":"SE","addr:housenumber":"41","addr:postcode":"75471","addr:street":"Björnmossvägen","amenity":"kindergarten","education":"kindergarten","name":"Norlandia Förskolor Uppfinnaren","operator":"Norlandia Förskolor","operator:type":"private","website":"https://uppfinnaren.norlandiaforskolor.se/"}},"geometry":{"type":"Point","coordinates":[17.7496277,59.9133779]}},{"type":"Feature","properties":{"id":1460581254,"osm_type":"way","name":"Swedenborg förskola","category":"kindergarten","tags":{"amenity":"kindergarten","check_date":"2025-05-09","education":"kindergarten","name":"Swedenborg förskola","preschool":"yes"}},"geometry":{"type":"Point","coordinates":[17.6296007,59.8743423]}},{"type":"Feature","properties":{"id":1462342294,"osm_type":"way","name":"Närdaghemmets förskola","category":"kindergarten","tags":{"addr:city":"Uppsala","addr:housenumber":"31","addr:postcode":"75334","addr:street":"Swedenborgsgatan","amenity":"kindergarten","check_date":"2026-03-05","education":"kindergarten","name":"Närdaghemmets förskola","operator":"Närdaghemmet i Uppsala","operator:type":"cooperative","preschool":"yes","website":"https://nardaghemmet.se/"}},"geometry":{"type":"Point","coordinates":[17.6303493,59.8703784]}},{"type":"Feature","properties":{"id":1485028121,"osm_type":"way","name":"Norlandia Förskolor Upplevelsen","category":"kindergarten","tags":{"addr:city":"Uppsala","addr:country":"SE","addr:housenumber":"90","addr:postcode":"75471","addr:street":"Alkällsvägen","amenity":"kindergarten","education":"kindergarten","name":"Norlandia Förskolor Upplevelsen","website":"https://upplevelsen.norlandiaforskolor.se/"}},"geometry":{"type":"Point","coordinates":[17.7341153,59.9064063]}},{"type":"Feature","properties":{"id":1485029972,"osm_type":"way","name":"Skogtorpets förskola","category":"kindergarten","tags":{"addr:city":"Uppsala","addr:country":"SE","addr:housenumber":"127","addr:postcode":"75471","addr:street":"Brattbacksvägen","amenity":"kindergarten","education":"kindergarten","name":"Skogtorpets förskola","website":"https://skogstorpetsforskola.uppsala.se/"}},"geometry":{"type":"Point","coordinates":[17.7440546,59.9086557]}},{"type":"Feature","properties":{"id":1507536760,"osm_type":"way","name":"","category":"kindergarten","tags":{"amenity":"kindergarten","education":"kindergarten"}},"geometry":{"type":"Point","coordinates":[17.6842586,59.8770785]}}]}