{"type":"FeatureCollection","features":[{"type":"Feature","properties":{"id":393434546,"osm_type":"node","name":"Stenhagenbiblioteket","category":"library","tags":{"amenity":"library","name":"Stenhagenbiblioteket","opening_hours":"Mo 12:00-17:00; We 12:00-19:00; Fr 13:00-17:00; Sa 10:00-15:00; Tu 10:00-17:00; Th 12:00-19:00","wheelchair":"yes"}},"geometry":{"type":"Point","coordinates":[17.558356,59.8505819]}},{"type":"Feature","properties":{"id":1425069369,"osm_type":"node","name":"BMC-biblioteket","category":"library","tags":{"amenity":"library","authentication:contactless":"yes","name":"BMC-biblioteket","opening_hours":"05:00-23:59 \"campus card or access card\""}},"geometry":{"type":"Point","coordinates":[17.6340237,59.8422792]}},{"type":"Feature","properties":{"id":2208623628,"osm_type":"node","name":"Stadsarkivet","category":"library","tags":{"addr:city":"Uppsala","addr:country":"SE","addr:housenumber":"15","addr:street":"Sankt Olofsgatan","amenity":"library","check_date":"2025-08-01","name":"Stadsarkivet","opening_hours":"Mo 13:00-16:00; Tu 10:00-18:00; We,Th 10:00-16:00; Fr 09:00-12:00","website":"https://www.uppsala.se/Kultur-och-fritid/bibliotek-och-arkiv/stadsarkivet/","wikidata":"Q19545740","wikipedia":"sv:Uppsala stadsarkiv"}},"geometry":{"type":"Point","coordinates":[17.6357042,59.8608826]}},{"type":"Feature","properties":{"id":2996363628,"osm_type":"node","name":"Gottsundabiblioteket","category":"library","tags":{"addr:city":"Uppsala","addr:country":"SE","addr:housenumber":"9","addr:postcode":"75650","addr:street":"Valthornsvägen","amenity":"library","check_date":"2026-01-26","check_date:opening_hours":"2026-01-26","contact:website":"https://www.bibliotekuppsala.se/gottsundabiblioteket","name":"Gottsundabiblioteket","opening_hours":"Mo-Th 10:00-19:00; Fr 12:00-19:00; Sa 10:00-15:00","operator":"Bibliotek Uppsala","wikidata":"Q61752508"}},"geometry":{"type":"Point","coordinates":[17.6297377,59.809293]}},{"type":"Feature","properties":{"id":4345442641,"osm_type":"node","name":"","category":"library","tags":{"amenity":"library"}},"geometry":{"type":"Point","coordinates":[17.6489994,59.8899797]}},{"type":"Feature","properties":{"id":4806510867,"osm_type":"node","name":"Sävjabiblioteket","category":"library","tags":{"amenity":"library","name":"Sävjabiblioteket","opening_hours":"Mo 10:00-17:00; Tu 12:00-19:00; We 10:00-17:00; Th 12:00-19:00; Fr 13:00-17:00; Sa 11:00-15:00","operator":"Uppsala Kommun"}},"geometry":{"type":"Point","coordinates":[17.7022737,59.8107259]}},{"type":"Feature","properties":{"id":5559418790,"osm_type":"node","name":"Karin Boye-biblioteket","category":"library","tags":{"addr:city":"Uppsala","addr:country":"SE","addr:housenumber":"3H","addr:street":"Thunbergsvägen","amenity":"library","name":"Karin Boye-biblioteket","phone":"+46 18 4717010","website":"https://katalog.uu.se/orginfo/?orgId=BI:63","wikidata":"Q10543619","wikipedia":"sv:Karin Boye-biblioteket"}},"geometry":{"type":"Point","coordinates":[17.6254478,59.8538393]}},{"type":"Feature","properties":{"id":6314183985,"osm_type":"node","name":"Dag Hammarskjöldbiblioteket","category":"library","tags":{"addr:city":"Uppsala","addr:country":"SE","addr:housenumber":"3","addr:postcode":"75309","addr:street":"Slottsgränd","amenity":"library","name":"Dag Hammarskjöldbiblioteket","name:en":"Dag Hammarskjöld and Law Library","opening_hours":"Mo-Fr 08:30-20:00; Su 10:00-18:00","phone":"+46 18 4713900","website":"http://www.stiftelsendaghammarskjoldbiblioteket.se/","wikidata":"Q10465846","wikipedia":"sv:Dag Hammarskjöldbiblioteket"}},"geometry":{"type":"Point","coordinates":[17.6375773,59.8554857]}},{"type":"Feature","properties":{"id":6423393965,"osm_type":"node","name":"Ångströmbiblioteket","category":"library","tags":{"addr:city":"Uppsala","addr:country":"SE","addr:housenumber":"1","addr:postcode":"75120","addr:street":"Lägerhyddsvägen","amenity":"library","authentication:contactless":"yes","authentication:none:conditional":"yes @ (Mo-Fr 08:30-17:00)","check_date":"2025-09-12","internet_access":"wlan","name":"Ångströmbiblioteket","opening_hours":"Mo-Fr 05:00-08:30 \"campus card or access card\", Mo-Fr 08:00-17:00, Mo-Fr 17:00-23:59 \"campus card or access card\"; Sa,Su,PH 05:00-23:59 \"campus card or access card\"","operator":"Uppsala Universitet","operator:type":"university"}},"geometry":{"type":"Point","coordinates":[17.647123,59.8398207]}},{"type":"Feature","properties":{"id":9177238436,"osm_type":"node","name":"Geobiblioteket","category":"library","tags":{"addr:city":"Uppsala","addr:country":"SE","addr:housenumber":"16","addr:postcode":"75236","addr:street":"Villav.","amenity":"library","authentication:contactless":"yes","authentication:none:conditional":"yes @ (Mo - Fr 07:30 - 16:30 )","check_date":"2025-03-09","name":"Geobiblioteket","name:en":"Earth Sciences Library","opening_hours":"Mo-Fr 05:00-07:30 \"campus card or access card\", Mo-Fr 07:30-16:30, Mo-Fr 16:30-23:59 \"campus card or access card\"; Sa,Su,PH 05:00-23:59 \"campus card or access card\"","operator":"Uppsala Universitet","website":"https://www.ub.uu.se/our-locations/earth-sciences-library/"}},"geometry":{"type":"Point","coordinates":[17.6300156,59.8487643]}},{"type":"Feature","properties":{"id":9177240124,"osm_type":"node","name":"Biologibiblioteket","category":"library","tags":{"addr:city":"Uppsala","addr:country":"SE","addr:housenumber":"14","addr:postcode":"75236","addr:street":"Norbyvägen","amenity":"library","authentication:contactless":"yes","authentication:none:conditional":"yes @ (Mo-Fr 8:00-16:00)","level":"-1,0","name":"Biologibiblioteket","name:en":"Biology Library","opening_hours":"Mo-Fr 05:00-08:00 \"campus card or access card\", Mo-Fr 08:00-16:00, Mo-Fr 16:00-23:59 \"campus card or access card\"; Sa,Su,PH 05:00-23:59 \"campus card or access card\"","operator":"Uppsala Universitet","website":"https://www.ub.uu.se/our-locations/biology-library/"}},"geometry":{"type":"Point","coordinates":[17.6256693,59.8500704]}},{"type":"Feature","properties":{"id":10883367234,"osm_type":"node","name":"Knivsta bibliotek","category":"library","tags":{"amenity":"library","contact:phone":"+46 18 34 72 30","contact:website":"https://www.knivstabibliotek.se/","name":"Knivsta bibliotek","opening_hours":"Mo 11:00-17:00; Tu-Th 10:00-19:00; Fr 11:00-17:00; Sa 11:00-15:00","wikidata":"Q61751865"}},"geometry":{"type":"Point","coordinates":[17.7881151,59.7266808]}},{"type":"Feature","properties":{"id":11152869793,"osm_type":"node","name":"Bälingebiblioteket","category":"library","tags":{"amenity":"library","check_date":"2023-08-29","name":"Bälingebiblioteket"}},"geometry":{"type":"Point","coordinates":[17.5304215,59.9492211]}},{"type":"Feature","properties":{"id":11340854401,"osm_type":"node","name":"Ultuna Biblioteket","category":"library","tags":{"amenity":"library","name":"Ultuna Biblioteket","opening_hours":"Mo-Fr 09:00-16:00"}},"geometry":{"type":"Point","coordinates":[17.6629523,59.8153082]}},{"type":"Feature","properties":{"id":27652301,"osm_type":"way","name":"Carolina Rediviva","category":"library","tags":{"addr:city":"Uppsala","addr:country":"SE","addr:housenumber":"1","addr:street":"Dag Hammarskjölds väg","alt_name":"Uppsala universitetsbibliotek","amenity":"library","building":"yes","building:colour":"yellow","building:levels":"4","building:material":"plaster","description:en":"Main building of the Uppsala University Library. (source: sv.Wikipedia)","fee":"no","height":"26 m","museum":"books","name":"Carolina Rediviva","operator":"Uppsala Universitet","start_date":"1841","tourism":"museum","website":"https://www.ub.uu.se/","wikidata":"Q1044419","wikipedia":"sv:Carolina Rediviva"}},"geometry":{"type":"Point","coordinates":[17.6311725,59.8549918]}},{"type":"Feature","properties":{"id":98942846,"osm_type":"way","name":"Uppsala stadsbibliotek","category":"library","tags":{"addr:city":"Uppsala","addr:country":"SE","addr:housenumber":"17","addr:postcode":"753 75","addr:street":"Svartbäcksgatan","amenity":"library","building":"yes","check_date":"2025-08-01","email":"stadsbibli.info@uppsala.se","fax":"+46 18 7270640","internet_access":"wlan","internet_access:fee":"no","loc_name":"Stadsbiblioteket","name":"Uppsala stadsbibliotek","name:de":"Uppsala Bücherei","name:en":"Uppsala Public Library","name:fi":"Uppsalan kaupunginkirjasto","name:ko":"웁살라 시립 도서관","name:sv":"Uppsala stadsbibliotek","opening_hours":"Jan-Dec Mo-Th 09:00-20:00; Jan-Dec Fr 09:00-18:00; Jan-Dec Sa 11:00-16:00; Sep-Apr Su 13:00-16:00","phone":"+46 18 7271700","source":"uppsala.se","toilets":"yes","toilets:access":"yes","toilets:fee":"no","toilets:wheelchair":"yes","website":"https://www.bibliotekuppsala.se/stadsbiblioteket","wheelchair":"yes","wikidata":"Q19545742","wikipedia":"sv:Stadsbiblioteket i Uppsala"}},"geometry":{"type":"Point","coordinates":[17.6362079,59.8607533]}},{"type":"Feature","properties":{"id":124548408,"osm_type":"way","name":"Storvretabiblioteket","category":"library","tags":{"addr:country":"SE","addr:housenumber":"1","addr:street":"Fullerövägen","amenity":"library","building":"yes","name":"Storvretabiblioteket","phone":"+46 18 727 67 33","source":"Bing","wheelchair":"yes"}},"geometry":{"type":"Point","coordinates":[17.7033689,59.9600054]}}]}