{"type":"FeatureCollection","features":[{"type":"Feature","properties":{"id":23214223,"osm_type":"way","name":"Gottsunda Centrum","category":"mall","tags":{"building":"retail","check_date":"2024-07-22","name":"Gottsunda Centrum","opening_hours":"Mo-Su,PH 08:00-21:00","shop":"mall","toilets":"yes","wheelchair":"yes"}},"geometry":{"type":"Point","coordinates":[17.6298544,59.8100687]}},{"type":"Feature","properties":{"id":28604431,"osm_type":"way","name":"Gränbystaden","category":"mall","tags":{"addr:city":"Uppsala","addr:country":"SE","addr:housenumber":"1","addr:postcode":"75460","addr:street":"Marknadsgatan","alt_name":"Gränbystaden Galleria","building":"yes","building:levels":"3","building:material":"concrete","building:material:concrete":"panels","check_date":"2024-10-06","name":"Gränbystaden","name:sv":"Gränbystaden","old_name":"Gränby centrum","opening_hours":"Mo-Su 8:00-22:00","payment:cash":"yes","payment:credit_cards":"yes","payment:debit_cards":"yes","roof:shape":"flat","shop":"mall","toilets":"yes","wheelchair":"yes","wikidata":"Q10509714","wikipedia":"sv:Gränbystaden"}},"geometry":{"type":"Point","coordinates":[17.6740465,59.8769516]}},{"type":"Feature","properties":{"id":74144096,"osm_type":"way","name":"Nyby köpcentrum","category":"mall","tags":{"addr:city":"Uppsala","addr:country":"SE","addr:housenumber":"97","addr:postcode":"75460","addr:street":"Råbyvägen","building":"yes","layer":"-1","name":"Nyby köpcentrum","shop":"mall"}},"geometry":{"type":"Point","coordinates":[17.6604376,59.8860194]}},{"type":"Feature","properties":{"id":82224855,"osm_type":"way","name":"Forumgallerian","category":"mall","tags":{"building":"yes","check_date":"2024-09-06","name":"Forumgallerian","opening_hours":"Mo-Fr 10:00-19:00; Sa 10:00-17:00; Su 12:00-16:00","phone":"+46 18 182370","shop":"mall","toilets":"yes","website":"https://forumgallerian.se/","wheelchair":"yes","wikidata":"Q10498237","wikipedia":"sv:Forumgallerian"}},"geometry":{"type":"Point","coordinates":[17.6411534,59.8580266]}},{"type":"Feature","properties":{"id":106283430,"osm_type":"way","name":"Kvarnen","category":"mall","tags":{"building":"apartments","check_date":"2026-06-17","check_date:opening_hours":"2026-06-17","name":"Kvarnen","opening_hours":"Mo-Su,PH 07:00-23:00","shop":"mall","toilets":"yes","website":"https://www.kvarnengallerian.se/"}},"geometry":{"type":"Point","coordinates":[17.6456822,59.862608]}},{"type":"Feature","properties":{"id":207791536,"osm_type":"way","name":"Stationsgallerian","category":"mall","tags":{"addr:city":"Uppsala","addr:country":"SE","addr:housenumber":"12","addr:postcode":"75340","addr:street":"Stationsgatan","building":"office","building:levels":"6","check_date":"2024-07-07","name":"Stationsgallerian","opening_hours":"Mo-Su 06:00-22:00","shop":"mall","source":"bing","toilets":"yes","website":"http://www.stationsgallerian.se/"}},"geometry":{"type":"Point","coordinates":[17.6492226,59.8585858]}},{"type":"Feature","properties":{"id":503072877,"osm_type":"way","name":"Gränbystaden","category":"mall","tags":{"building":"commercial","name":"Gränbystaden","shop":"mall"}},"geometry":{"type":"Point","coordinates":[17.6723819,59.88589]}}]}