{"type":"FeatureCollection","features":[{"type":"Feature","properties":{"id":25213697,"osm_type":"way","name":"Sunnersta Herrgård","category":"manor","tags":{"addr:city":"Uppsala","addr:country":"SE","addr:housenumber":"24","addr:postcode":"75651","addr:street":"Sunnerstavägen","building":"yes","historic":"manor","internet_access":"wlan","internet_access:fee":"no","name":"Sunnersta Herrgård","rooms":"37","tourism":"hotel"}},"geometry":{"type":"Point","coordinates":[17.6607804,59.8013702]}},{"type":"Feature","properties":{"id":1334491153,"osm_type":"way","name":"Lilla Grän","category":"manor","tags":{"building":"yes","historic":"manor","name":"Lilla Grän"}},"geometry":{"type":"Point","coordinates":[17.7947725,59.9204523]}}]}