{"type":"FeatureCollection","features":[{"type":"Feature","properties":{"id":401911168,"osm_type":"node","name":"Linnés Hammarby","category":"museum","tags":{"description:en":"Exhibitions about Linneasu / Carl von Linné's collections, life and works, housed in the main building of his country estate","fee":"yes","museum":"nature","name":"Linnés Hammarby","tourism":"museum","url":"http://www.upplandsstiftelsen.se/visa-alla-omraden/linns-hammarby__156","website":"https://www.uu.se/linnes-hammarby","wikidata":"Q1669062","wikipedia":"sv:Linnés Hammarby"}},"geometry":{"type":"Point","coordinates":[17.776227,59.8176056]}},{"type":"Feature","properties":{"id":530773183,"osm_type":"node","name":"Fredens hus","category":"museum","tags":{"addr:city":"Uppsala","addr:country":"SE","addr:housenumber":"2B","addr:postcode":"752 37","addr:street":"Smedsgränd","check_date":"2024-10-25","description":"En samlingsplats kring konflikter och möjligheter. (websida)","description:en":"A gathering place around conflicts and opportunities. (Surce: website)","fee":"no","name":"Fredens hus","name:en":"House of Peace","old_name":"Krig & Fred Fredsmuseum","old_url":"http://www.fredsmuseum.se/","opening_hours":"We-Fr 15:00-18:00; Sa-Su 12:00-16:00","phone":"+46 18 500008","tourism":"museum","website":"https://www.fredenshus.se","wikidata":"Q10498685","wikipedia":"sv:Fredens Hus"}},"geometry":{"type":"Point","coordinates":[17.6389036,59.8577524]}},{"type":"Feature","properties":{"id":719696838,"osm_type":"node","name":"Evolutionsmuseet Zoologi","category":"museum","tags":{"addr:city":"Uppsala","addr:country":"SE","addr:housenumber":"9","addr:postcode":"752 36","addr:street":"Villavägen","check_date":"2024-07-06","description":"Ett klassiskt naturhistoriskt museum för djurälskare och dinosauriefantaster i alla åldrar. (websida)","description:en":"Uppsala University's natural history collections - fossils, minerals, animals, and plants - 5 million+ specimens. (Source: website)","fee":"yes","museum":"nature","name":"Evolutionsmuseet Zoologi","name:en":"Museum of Evolution Zoology","old_name":"Zoologiska museet","opening_hours":"Mo off; Tu-Su 12:00-16:00","tourism":"museum","website":"https://www.evolutionsmuseet.uu.se/","wikidata":"Q10492852","wikipedia":"sv:Evolutionsmuseet"}},"geometry":{"type":"Point","coordinates":[17.6262391,59.8501782]}},{"type":"Feature","properties":{"id":719696844,"osm_type":"node","name":"Evolutionsmuseet Paleontologi","category":"museum","tags":{"addr:city":"Uppsala","addr:country":"SE","addr:housenumber":"22","addr:postcode":"752 36","addr:street":"Norbyvägen","check_date":"2024-09-13","description":"Ett klassiskt naturhistoriskt museum för djurälskare och dinosauriefantaster i alla åldrar. (websida)","description:en":"Uppsala University's natural history collections - fossils, minerals, animals, and plants - 5 million+ specimens. (Source: website)","fee":"yes","name":"Evolutionsmuseet Paleontologi","name:en":"Museum of Evolution Paleonthology","old_name":"Paleontologiska museet","opening_hours":"Mo off; Tu-Su 12:00-16:00","toilets":"yes","tourism":"museum","website":"https://www.evolutionsmuseet.uu.se/","wikidata":"Q10492852","wikipedia":"sv:Evolutionsmuseet"}},"geometry":{"type":"Point","coordinates":[17.6220804,59.8492511]}},{"type":"Feature","properties":{"id":4340230194,"osm_type":"node","name":"Tropiska Växthuset","category":"museum","tags":{"fee":"yes","name":"Tropiska Växthuset","opening_hours":"Tu-Fr 09:00-15:00; Sa,Su 12:00-15:00","toilets:wheelchair":"yes","tourism":"museum","wheelchair":"yes"}},"geometry":{"type":"Point","coordinates":[17.6278026,59.850525]}},{"type":"Feature","properties":{"id":4345427633,"osm_type":"node","name":"Läby lantbruksmuseum","category":"museum","tags":{"addr:city":"Uppsala","addr:housenumber":"138","addr:street":"Läby Österby","facebook":"https://www.facebook.com/people/Laby-Lantbruksmuseum/100068815864201/","museum":"agriculture","name":"Läby lantbruksmuseum","phone":"0703-40 47 21","tourism":"museum"}},"geometry":{"type":"Point","coordinates":[17.5295146,59.8484382]}},{"type":"Feature","properties":{"id":6314072786,"osm_type":"node","name":"Uppsala universitets myntkabinett","category":"museum","tags":{"addr:city":"Uppsala","addr:country":"SE","addr:housenumber":"7D","addr:postcode":"75310","addr:street":"Övre Slottsgatan","fee":"no","museum":"history","name":"Uppsala universitets myntkabinett","tourism":"museum","website":"https://www.uu.se/gustavianum/om-museet/vara-samlingar/myntkabinettet","wikidata":"Q1247075","wikipedia":"sv:Uppsala universitets myntkabinett"}},"geometry":{"type":"Point","coordinates":[17.6317074,59.8580308]}},{"type":"Feature","properties":{"id":6314483086,"osm_type":"node","name":"Uppsala domkyrkas skattkammare","category":"museum","tags":{"addr:city":"Uppsala","addr:country":"SE","addr:housenumber":"2 A","addr:postcode":"75310","addr:street":"Domkyrkoplan","fee":"yes","name":"Uppsala domkyrkas skattkammare","opening_hours":"Mo-Sa 10:00-16:00; Su,PH 12:30-16:00","phone":"+46 18 4303500","tourism":"museum","website":"https://www.svenskakyrkan.se/uppsala/skattkammaren","wikidata":"Q26253232","wikipedia":"sv:Uppsala domkyrkas skattkammare"}},"geometry":{"type":"Point","coordinates":[17.6327102,59.8582373]}},{"type":"Feature","properties":{"id":6314492885,"osm_type":"node","name":"Uppsala konstmuseum","category":"museum","tags":{"addr:country":"SE","addr:housenumber":"Ingång E","addr:street":"Uppsala slott","check_date":"2026-03-29","fee":"yes","museum":"art","name":"Uppsala konstmuseum","name:fi":"Uppsalan taidemuseo","name:sv":"Uppsala konstmuseum","opening_hours":"Tu,We,Fr-Su 12:00-16:00; Th 12:00-20:00","phone":"+46 18 7272482","tourism":"museum","website":"https://konstmuseum.uppsala.se","wikidata":"Q10710245","wikipedia":"sv:Uppsala konstmuseum"}},"geometry":{"type":"Point","coordinates":[17.6351548,59.8532485]}},{"type":"Feature","properties":{"id":7839910877,"osm_type":"node","name":"Gamla prästgården","category":"museum","tags":{"name":"Gamla prästgården","tourism":"museum"}},"geometry":{"type":"Point","coordinates":[17.5024062,59.9949061]}},{"type":"Feature","properties":{"id":11165778300,"osm_type":"node","name":"Vasaborgen Uppsala slott","category":"museum","tags":{"addr:city":"Uppsala","addr:street":"Kung Jans port, Uppsala slott","check_date":"2026-03-29","fee":"yes","museum":"history","name":"Vasaborgen Uppsala slott","tourism":"museum","website":"https://vasaborgen.se/"}},"geometry":{"type":"Point","coordinates":[17.6347822,59.8530164]}},{"type":"Feature","properties":{"id":13474472754,"osm_type":"node","name":"Orangeriet","category":"museum","tags":{"name":"Orangeriet","tourism":"museum"}},"geometry":{"type":"Point","coordinates":[17.628328,59.8521215]}},{"type":"Feature","properties":{"id":13688632580,"osm_type":"node","name":"Uppsala Slottshistoriska","category":"museum","tags":{"addr:floor":"0","check_date":"2026-03-29","fee":"no","level":"0","museum":"history","name":"Uppsala Slottshistoriska","name:en":"Uppsala Castle Historical Museum","name:sv":"Uppsala Slottshistoriska","opening_hours":"Mo off; Tu-We,Fr-Su 12:00-17:00; Th 12:00-20:00","operator":"Uppsala Kommun","operator:type":"public","toilets":"yes","tourism":"museum","website":"https://slottshistoriska.uppsala.se/"}},"geometry":{"type":"Point","coordinates":[17.6349934,59.8542497]}},{"type":"Feature","properties":{"id":25830270,"osm_type":"way","name":"Gamla Uppsala museum","category":"museum","tags":{"addr:city":"Uppsala","addr:postcode":"75440","addr:street":"Disavägen","building":"yes","building:colour":"gray","building:levels":"2","building:material":"wood","check_date":"2025-08-17","fee":"yes","museum":"history","name":"Gamla Uppsala museum","name:de":"Alt-Uppsala","name:en":"Old Uppsala","opening_hours":"Mo-Su 11:00-17:00","phone":"+46 18 239301","roof:colour":"gray","roof:shape":"hipped","start_date":"2000","tourism":"museum","website":"https://www.upplandsmuseet.se/gamla-uppsala-museum/","wheelchair":"yes","wikidata":"Q433032","wikipedia":"sv:Gamla Uppsala museum"}},"geometry":{"type":"Point","coordinates":[17.6336159,59.8977665]}},{"type":"Feature","properties":{"id":27652301,"osm_type":"way","name":"Carolina Rediviva","category":"museum","tags":{"addr:city":"Uppsala","addr:country":"SE","addr:housenumber":"1","addr:street":"Dag Hammarskjölds väg","alt_name":"Uppsala universitetsbibliotek","amenity":"library","building":"yes","building:colour":"yellow","building:levels":"4","building:material":"plaster","description:en":"Main building of the Uppsala University Library. (source: sv.Wikipedia)","fee":"no","height":"26 m","museum":"books","name":"Carolina Rediviva","operator":"Uppsala Universitet","start_date":"1841","tourism":"museum","website":"https://www.ub.uu.se/","wikidata":"Q1044419","wikipedia":"sv:Carolina Rediviva"}},"geometry":{"type":"Point","coordinates":[17.6311725,59.8549918]}},{"type":"Feature","properties":{"id":32119036,"osm_type":"way","name":"Gustavianum","category":"museum","tags":{"addr:city":"Uppsala","addr:country":"SE","addr:housenumber":"3","addr:street":"Akademigatan","alt_name":"Museum Gustavianum","building":"yes","building:colour":"yellow","building:levels":"3","building:material":"plaster","check_date":"2025-08-23","description:en":"Housed in Uppsala University's oldest building; displays the Augsburg Art Cabinet, Viking finds, the university's history, mummies and more accumulated since 1477.(Source: website)","email":"museum@gustavianum.uu.se","fax":"+46 18 4717572","fee":"yes","name":"Gustavianum","opening_hours":"11:00-17:00","phone":"+46 18 4717571","roof:colour":"black","roof:material":"metal","roof:shape":"hipped","start_date":"1600s","toilets":"yes","tourism":"museum","website":"https://www.gustavianum.uu.se/","wheelchair":"limited","wikidata":"Q1506922","wikipedia":"sv:Gustavianum"}},"geometry":{"type":"Point","coordinates":[17.6317236,59.8579424]}},{"type":"Feature","properties":{"id":32119109,"osm_type":"way","name":"Biotopia","category":"museum","tags":{"addr:city":"Uppsala","addr:country":"SE","addr:housenumber":"35","addr:street":"Kyrkogårdsgatan","building":"museum","building:levels":"2","building:levels:underground":"1","check_date":"2025-06-08","fee":"no","name":"Biotopia","opening_hours":"Tu-Fr 09:00-17:00; Sa,Su 11:00-17:00","phone":"+46 18 7276370","tourism":"museum","website":"https://www.biotopia.nu/","wikidata":"Q10429834","wikipedia":"sv:Biotopia"}},"geometry":{"type":"Point","coordinates":[17.6224032,59.8600522]}},{"type":"Feature","properties":{"id":32244335,"osm_type":"way","name":"Upplandsmuseet","category":"museum","tags":{"addr:city":"Uppsala","addr:country":"SE","addr:housenumber":"10","addr:street":"Sankt Eriks torg","building":"yes","check_date":"2026-03-17","check_date:opening_hours":"2022-09-02","email":"info@upplandsmuseet.se","fee":"no","name":"Upplandsmuseet","opening_hours":"Mo off; Tu-Su 12:00-17:00","phone":"+46 18 169100","tourism":"museum","website":"https://www.upplandsmuseet.se/","wheelchair":"yes","wikidata":"Q7899155","wikipedia":"sv:Upplandsmuseet"}},"geometry":{"type":"Point","coordinates":[17.6349999,59.8588982]}},{"type":"Feature","properties":{"id":85469973,"osm_type":"way","name":"Medicinhistoriska museet","category":"museum","tags":{"addr:city":"Uppsala","addr:country":"SE","addr:housenumber":"8","addr:postcode":"75643","addr:street":"Eva Lagerwalls väg","building":"yes","building:levels":"3","name":"Medicinhistoriska museet","opening_hours":"Tu,Th 13:00-17:00","operator":"Uppsala universitet","phone":"+46 18 6112610","source":"yahoo","tourism":"museum","website":"https://www.medicinhistoriskamuseet.uu.se/","wikidata":"Q18914807","wikipedia":"sv:Medicinhistoriska museet i Uppsala"}},"geometry":{"type":"Point","coordinates":[17.6508822,59.8292868]}},{"type":"Feature","properties":{"id":85469999,"osm_type":"way","name":"Psykiatrihistoriska museet","category":"museum","tags":{"addr:city":"Uppsala","addr:country":"SE","addr:housenumber":"10","addr:street":"Eva Lagerwalls väg","building":"yes","name":"Psykiatrihistoriska museet","source":"yahoo","tourism":"museum","wikidata":"Q28934716"}},"geometry":{"type":"Point","coordinates":[17.6511451,59.8292984]}},{"type":"Feature","properties":{"id":90770760,"osm_type":"way","name":"Pumphuset","category":"museum","tags":{"addr:city":"Uppsala","addr:country":"SE","addr:housenumber":"2","addr:street":"Munkgatan","building":"yes","building:levels":"1","description":"Museum för kommunal teknik","name":"Pumphuset","opening_hours":"\"only at special events or after registration\"","operator":"Uppsala Vatten och Avfall AB","source":"Bing","tourism":"museum","website":"https://www.uppsalavatten.se/pumphuset","wikidata":"Q10646713","wikipedia":"sv:Pumphuset, Uppsala"}},"geometry":{"type":"Point","coordinates":[17.6414995,59.8545704]}},{"type":"Feature","properties":{"id":209647699,"osm_type":"way","name":"Linnémuseet","category":"museum","tags":{"addr:city":"Uppsala","addr:country":"SE","addr:housenumber":"27","addr:street":"Svartbäcksgatan","building":"yes","check_date":"2024-10-16","name":"Linnémuseet","opening_hours":"Tu-Su 11:00-17:00","phone":"+46 18 136540","tourism":"museum","website":"https://www.linnaeus.se/","wikidata":"Q16609933","wikipedia":"sv:Linnémuseet"}},"geometry":{"type":"Point","coordinates":[17.6336657,59.8616412]}},{"type":"Feature","properties":{"id":350150464,"osm_type":"way","name":"Disagården","category":"museum","tags":{"check_date":"2024-07-08","description:en":"Open-air museum of relocated houses from the 1500s, 1600s, 1700s and 1800s that together give a picture of how an Uppland village could look like in the mid-1800s. (Source: Wikipedia:sv)","fee":"no","name":"Disagården","opening_hours":"Jun-Aug Mo-Su 10:00-17:00","operator":"Upplandsmuseet","source":"unknown;Bing","tourism":"museum","website":"https://www.upplandsmuseet.se/","wikidata":"Q10474049","wikipedia":"sv:Disagården"}},"geometry":{"type":"Point","coordinates":[17.62864,59.9004853]}},{"type":"Feature","properties":{"id":350153734,"osm_type":"way","name":"Sockenmuseet","category":"museum","tags":{"building":"yes","building:levels":"1","check_date":"2024-07-08","name":"Sockenmuseet","opening_hours":"May-Aug Sa-Su 13:00-16:00","source":"Bing","tourism":"museum"}},"geometry":{"type":"Point","coordinates":[17.6309092,59.899199]}},{"type":"Feature","properties":{"id":19648561,"osm_type":"relation","name":"Bror Hjorths Hus","category":"museum","tags":{"addr:city":"Uppsala","addr:country":"SE","addr:housenumber":"26","addr:street":"Norbyvägen","building":"yes","building:colour":"red","building:levels":"2","building:material":"wood","check_date":"2025-04-12","description:en":"House and art of Swedish sculptor & painter Bror Hjorth (1894–1968).","internet_access":"wlan","internet_access:fee":"customers","museum":"art","name":"Bror Hjorths Hus","name:sv":"Bror Hjorths Hus","opening_hours":"Th-Su 12:00-16:00","operator:type":"public","payment:cash":"yes","payment:credit_cards":"yes","payment:debit_cards":"yes","roof:material":"metal","roof:shape":"gabled","start_date":"1943","tourism":"museum","type":"multipolygon","website":"https://www.brorhjorthshus.se","wheelchair":"yes","wikidata":"Q3369210","wikipedia":"sv:Bror Hjorths Hus","wikipedia:en":"Bror Hjorth"}},"geometry":{"type":"Point","coordinates":[17.6200629,59.8492864]}}]}