{"type":"FeatureCollection","features":[{"type":"Feature","properties":{"id":2208623612,"osm_type":"node","name":"Etage Kök & Bar","category":"nightclub","tags":{"amenity":"nightclub","check_date":"2025-08-09","level":"0","name":"Etage Kök & Bar","opening_hours":"Mo off; Tu 21:00-03:00; We-Sa 16:00-03:00; Su 22:00-03:00","url":"http://www.etagebar.se/","wheelchair":"no"}},"geometry":{"type":"Point","coordinates":[17.6405754,59.858984]}},{"type":"Feature","properties":{"id":88432432,"osm_type":"way","name":"Birger Jarl","category":"nightclub","tags":{"amenity":"nightclub","building":"yes","building:colour":"yellow","building:levels":"1","building:material":"wood","name":"Birger Jarl","source":"Bing","wheelchair":"yes"}},"geometry":{"type":"Point","coordinates":[17.6376586,59.8543076]}},{"type":"Feature","properties":{"id":436726949,"osm_type":"way","name":"Flustret","category":"nightclub","tags":{"addr:city":"Uppsala","addr:country":"SE","addr:housenumber":"5","addr:postcode":"75309","addr:street":"Flustergränd","alt_name":"Flurran","amenity":"nightclub","building":"yes","building:colour":"yellow","building:levels":"2","building:material":"wood","email":"info@flustret.se","name":"Flustret","phone":"+46 18 100444","roof:colour":"green","roof:material":"metal","start_date":"1842","website":"https://www.flustret.se","wikidata":"Q10497033","wikipedia":"sv:Flustret"}},"geometry":{"type":"Point","coordinates":[17.6410156,59.8539664]}}]}