{"type":"FeatureCollection","features":[{"type":"Feature","properties":{"id":2817821665,"osm_type":"node","name":"Lerdammsparken","category":"park","tags":{"leisure":"park","name":"Lerdammsparken"}},"geometry":{"type":"Point","coordinates":[17.6579192,59.8902573]}},{"type":"Feature","properties":{"id":4574878471,"osm_type":"node","name":"Slottsbacken","category":"park","tags":{"leisure":"park","name":"Slottsbacken"}},"geometry":{"type":"Point","coordinates":[17.6337165,59.8552481]}},{"type":"Feature","properties":{"id":4934641217,"osm_type":"node","name":"Dagermansparken","category":"park","tags":{"leisure":"park","name":"Dagermansparken"}},"geometry":{"type":"Point","coordinates":[17.6412514,59.878978]}},{"type":"Feature","properties":{"id":4937586483,"osm_type":"node","name":"Gränbyfältet","category":"park","tags":{"leisure":"park","name":"Gränbyfältet"}},"geometry":{"type":"Point","coordinates":[17.6640815,59.8769459]}},{"type":"Feature","properties":{"id":5562894366,"osm_type":"node","name":"Hökparken","category":"park","tags":{"leisure":"park","name":"Hökparken"}},"geometry":{"type":"Point","coordinates":[17.6382253,59.8009183]}},{"type":"Feature","properties":{"id":5562894367,"osm_type":"node","name":"Finkparken","category":"park","tags":{"leisure":"park","name":"Finkparken"}},"geometry":{"type":"Point","coordinates":[17.6408002,59.8027423]}},{"type":"Feature","properties":{"id":7579484980,"osm_type":"node","name":"Vallarparken","category":"park","tags":{"leisure":"park","name":"Vallarparken"}},"geometry":{"type":"Point","coordinates":[17.6159359,59.832948]}},{"type":"Feature","properties":{"id":10537585730,"osm_type":"node","name":"","category":"park","tags":{"leisure":"park"}},"geometry":{"type":"Point","coordinates":[17.5646713,59.8522796]}},{"type":"Feature","properties":{"id":13151630309,"osm_type":"node","name":"Stadsparken","category":"park","tags":{"leisure":"park","name":"Stadsparken"}},"geometry":{"type":"Point","coordinates":[17.6434183,59.8507152]}},{"type":"Feature","properties":{"id":13347942397,"osm_type":"node","name":"Ekonomikumparken","category":"park","tags":{"leisure":"park","name":"Ekonomikumparken"}},"geometry":{"type":"Point","coordinates":[17.6204716,59.8597245]}},{"type":"Feature","properties":{"id":13796224898,"osm_type":"node","name":"","category":"park","tags":{"leisure":"park"}},"geometry":{"type":"Point","coordinates":[17.5834445,59.8478044]}},{"type":"Feature","properties":{"id":4635564,"osm_type":"way","name":"","category":"park","tags":{"leisure":"park"}},"geometry":{"type":"Point","coordinates":[17.6653113,59.8454305]}},{"type":"Feature","properties":{"id":4763428,"osm_type":"way","name":"Stadsträdgården","category":"park","tags":{"leisure":"park","name":"Stadsträdgården","name:ko":"스타즈트레구덴","wikidata":"Q31843546","wikipedia":"sv:Stadsträdgården, Uppsala"}},"geometry":{"type":"Point","coordinates":[17.642268,59.8525098]}},{"type":"Feature","properties":{"id":4763440,"osm_type":"way","name":"","category":"park","tags":{"layer":"1","leisure":"park"}},"geometry":{"type":"Point","coordinates":[17.6395409,59.8541644]}},{"type":"Feature","properties":{"id":22912097,"osm_type":"way","name":"","category":"park","tags":{"leisure":"park","source":"yahoo"}},"geometry":{"type":"Point","coordinates":[17.5704467,59.8526837]}},{"type":"Feature","properties":{"id":22912099,"osm_type":"way","name":"","category":"park","tags":{"leisure":"park","source":"yahoo"}},"geometry":{"type":"Point","coordinates":[17.56991,59.8533762]}},{"type":"Feature","properties":{"id":22914495,"osm_type":"way","name":"Observatorieparken","category":"park","tags":{"leisure":"park","name":"Observatorieparken","source":"yahoo","wikidata":"Q10605923","wikipedia":"sv:Observatorieparken, Uppsala"}},"geometry":{"type":"Point","coordinates":[17.6219686,59.8576692]}},{"type":"Feature","properties":{"id":24844339,"osm_type":"way","name":"Fålhagsparken","category":"park","tags":{"leisure":"park","name":"Fålhagsparken"}},"geometry":{"type":"Point","coordinates":[17.6713203,59.8581339]}},{"type":"Feature","properties":{"id":24922068,"osm_type":"way","name":"Engelska parken","category":"park","tags":{"alt_name":"Carolinaparken","leisure":"park","name":"Engelska parken","source":"yahoo","wikidata":"Q10484166","wikimedia_commons":"Category:Engelska parken, Uppsala","wikipedia":"sv:Engelska parken"}},"geometry":{"type":"Point","coordinates":[17.6295087,59.8545925]}},{"type":"Feature","properties":{"id":25018559,"osm_type":"way","name":"","category":"park","tags":{"layer":"1","leisure":"park"}},"geometry":{"type":"Point","coordinates":[17.6410294,59.8529832]}},{"type":"Feature","properties":{"id":25019988,"osm_type":"way","name":"Mikaelsplan","category":"park","tags":{"leisure":"park","name":"Mikaelsplan"}},"geometry":{"type":"Point","coordinates":[17.6345575,59.8643476]}},{"type":"Feature","properties":{"id":25063645,"osm_type":"way","name":"Universitetsparken","category":"park","tags":{"leisure":"park","name":"Universitetsparken","name:ko":"웁살라 대학 공원","wikidata":"Q10709737","wikimedia_commons":"Category:Universitetsparken","wikipedia":"sv:Universitetsparken, Uppsala"}},"geometry":{"type":"Point","coordinates":[17.6306371,59.8582287]}},{"type":"Feature","properties":{"id":25214408,"osm_type":"way","name":"Höganäsparken","category":"park","tags":{"alt_name":"Höganäshöjden","leisure":"park","name":"Höganäsparken","wikidata":"Q19365518","wikipedia":"sv:Höganäshöjden"}},"geometry":{"type":"Point","coordinates":[17.6433998,59.8661175]}},{"type":"Feature","properties":{"id":27322321,"osm_type":"way","name":"","category":"park","tags":{"leisure":"park","source":"yahoo"}},"geometry":{"type":"Point","coordinates":[17.5810072,59.8595183]}},{"type":"Feature","properties":{"id":28353342,"osm_type":"way","name":"Gottsundagipen","category":"park","tags":{"leisure":"park","name":"Gottsundagipen"}},"geometry":{"type":"Point","coordinates":[17.6272795,59.7990183]}},{"type":"Feature","properties":{"id":28415571,"osm_type":"way","name":"","category":"park","tags":{"leisure":"park","source":"yahoo!"}},"geometry":{"type":"Point","coordinates":[17.6249826,59.8834831]}},{"type":"Feature","properties":{"id":32037098,"osm_type":"way","name":"","category":"park","tags":{"landuse":"forest","leisure":"park"}},"geometry":{"type":"Point","coordinates":[17.6021074,59.8380971]}},{"type":"Feature","properties":{"id":32053503,"osm_type":"way","name":"Flogstaparken","category":"park","tags":{"leisure":"park","name":"Flogstaparken","wikidata":"Q19365574","wikipedia":"sv:Flogstaparken"}},"geometry":{"type":"Point","coordinates":[17.5858228,59.8493656]}},{"type":"Feature","properties":{"id":32053550,"osm_type":"way","name":"","category":"park","tags":{"leisure":"park"}},"geometry":{"type":"Point","coordinates":[17.5904605,59.8465092]}},{"type":"Feature","properties":{"id":32053564,"osm_type":"way","name":"","category":"park","tags":{"leisure":"park"}},"geometry":{"type":"Point","coordinates":[17.5932318,59.8476441]}},{"type":"Feature","properties":{"id":32056467,"osm_type":"way","name":"Rödbergsparken","category":"park","tags":{"leisure":"park","name":"Rödbergsparken"}},"geometry":{"type":"Point","coordinates":[17.5997383,59.8429759]}},{"type":"Feature","properties":{"id":32106181,"osm_type":"way","name":"","category":"park","tags":{"leisure":"park"}},"geometry":{"type":"Point","coordinates":[17.6137501,59.8486547]}},{"type":"Feature","properties":{"id":32108136,"osm_type":"way","name":"","category":"park","tags":{"leisure":"park"}},"geometry":{"type":"Point","coordinates":[17.5969475,59.8519678]}},{"type":"Feature","properties":{"id":32109013,"osm_type":"way","name":"Kåboängen","category":"park","tags":{"leisure":"park","name":"Kåboängen"}},"geometry":{"type":"Point","coordinates":[17.6250748,59.8442383]}},{"type":"Feature","properties":{"id":32114938,"osm_type":"way","name":"","category":"park","tags":{"leisure":"park"}},"geometry":{"type":"Point","coordinates":[17.6167062,59.8415342]}},{"type":"Feature","properties":{"id":32198860,"osm_type":"way","name":"","category":"park","tags":{"leisure":"park"}},"geometry":{"type":"Point","coordinates":[17.6092503,59.8240385]}},{"type":"Feature","properties":{"id":32243865,"osm_type":"way","name":"Sveaplan","category":"park","tags":{"access":"yes","leisure":"park","name":"Sveaplan"}},"geometry":{"type":"Point","coordinates":[17.627019,59.8459347]}},{"type":"Feature","properties":{"id":32244717,"osm_type":"way","name":"Tornerparken","category":"park","tags":{"leisure":"park","name":"Tornerparken"}},"geometry":{"type":"Point","coordinates":[17.6350815,59.8526849]}},{"type":"Feature","properties":{"id":32321488,"osm_type":"way","name":"Ekonomikumparken","category":"park","tags":{"leisure":"park","name":"Ekonomikumparken","wikidata":"Q117360966","wikipedia":"sv:Ekonomikumparken"}},"geometry":{"type":"Point","coordinates":[17.6197977,59.8592709]}},{"type":"Feature","properties":{"id":32337963,"osm_type":"way","name":"","category":"park","tags":{"leisure":"park"}},"geometry":{"type":"Point","coordinates":[17.5748309,59.912848]}},{"type":"Feature","properties":{"id":32338012,"osm_type":"way","name":"","category":"park","tags":{"leisure":"park"}},"geometry":{"type":"Point","coordinates":[17.5737621,59.9127549]}},{"type":"Feature","properties":{"id":32753080,"osm_type":"way","name":"Kronåsen","category":"park","tags":{"landuse":"forest","leisure":"park","name":"Kronåsen","natural":"wood"}},"geometry":{"type":"Point","coordinates":[17.645859,59.8460503]}},{"type":"Feature","properties":{"id":33709254,"osm_type":"way","name":"Byggmästarparken","category":"park","tags":{"leisure":"park","name":"Byggmästarparken","wikidata":"Q18449756","wikipedia":"sv:Byggmästarparken"}},"geometry":{"type":"Point","coordinates":[17.6745105,59.8645794]}},{"type":"Feature","properties":{"id":33728481,"osm_type":"way","name":"Källparken","category":"park","tags":{"leisure":"park","name":"Källparken","wikidata":"Q18451466","wikipedia":"sv:Källparken"}},"geometry":{"type":"Point","coordinates":[17.6740144,59.8695443]}},{"type":"Feature","properties":{"id":33971230,"osm_type":"way","name":"Tegnérparken","category":"park","tags":{"leisure":"park","name":"Tegnérparken","source":"survey","wikidata":"Q22570372","wikipedia":"sv:Tegnérparken"}},"geometry":{"type":"Point","coordinates":[17.6131311,59.8618989]}},{"type":"Feature","properties":{"id":34788587,"osm_type":"way","name":"Gotlandsparken","category":"park","tags":{"leisure":"park","name":"Gotlandsparken","name:ko":"고틀란드 공원","wikidata":"Q19365553","wikipedia":"sv:Gotlandsparken, Uppsala"}},"geometry":{"type":"Point","coordinates":[17.6341005,59.8597597]}},{"type":"Feature","properties":{"id":35309685,"osm_type":"way","name":"Finn Malmgrens plan","category":"park","tags":{"leisure":"park","name":"Finn Malmgrens plan","wikidata":"Q19365575","wikipedia":"sv:Börjeparken, Finn Malmgrens plan"}},"geometry":{"type":"Point","coordinates":[17.6273366,59.8607637]}},{"type":"Feature","properties":{"id":35313336,"osm_type":"way","name":"Artediparken","category":"park","tags":{"leisure":"park","name":"Artediparken","wikidata":"Q19977477","wikipedia":"sv:Artedi park"}},"geometry":{"type":"Point","coordinates":[17.6324923,59.8600391]}},{"type":"Feature","properties":{"id":35882002,"osm_type":"way","name":"Naturstensparken","category":"park","tags":{"leisure":"park","name":"Naturstensparken"}},"geometry":{"type":"Point","coordinates":[17.5505986,59.8494673]}},{"type":"Feature","properties":{"id":37245853,"osm_type":"way","name":"Klockarparken","category":"park","tags":{"leisure":"park","name":"Klockarparken"}},"geometry":{"type":"Point","coordinates":[17.6133893,59.8681021]}},{"type":"Feature","properties":{"id":38809155,"osm_type":"way","name":"Mjölnarparken","category":"park","tags":{"leisure":"park","name":"Mjölnarparken"}},"geometry":{"type":"Point","coordinates":[17.6512018,59.8517323]}},{"type":"Feature","properties":{"id":47052528,"osm_type":"way","name":"Rosénparken","category":"park","tags":{"leisure":"park","name":"Rosénparken","name:ko":"로젠 공원"}},"geometry":{"type":"Point","coordinates":[17.6341284,59.8589148]}},{"type":"Feature","properties":{"id":47125302,"osm_type":"way","name":"","category":"park","tags":{"leisure":"park"}},"geometry":{"type":"Point","coordinates":[17.6337295,59.8581593]}},{"type":"Feature","properties":{"id":47127926,"osm_type":"way","name":"Rektorsparken","category":"park","tags":{"leisure":"park","name":"Rektorsparken"}},"geometry":{"type":"Point","coordinates":[17.6267044,59.860416]}},{"type":"Feature","properties":{"id":47217756,"osm_type":"way","name":"Vindhemsparken","category":"park","tags":{"leisure":"park","name":"Vindhemsparken","wikidata":"Q117302373","wikipedia":"sv:Vindhemsparken"}},"geometry":{"type":"Point","coordinates":[17.6208737,59.8624448]}},{"type":"Feature","properties":{"id":52101250,"osm_type":"way","name":"","category":"park","tags":{"leisure":"park"}},"geometry":{"type":"Point","coordinates":[17.6717356,59.8677423]}},{"type":"Feature","properties":{"id":52101252,"osm_type":"way","name":"","category":"park","tags":{"leisure":"park"}},"geometry":{"type":"Point","coordinates":[17.6738796,59.8675037]}},{"type":"Feature","properties":{"id":52101253,"osm_type":"way","name":"","category":"park","tags":{"leisure":"park"}},"geometry":{"type":"Point","coordinates":[17.6727005,59.8676381]}},{"type":"Feature","properties":{"id":52104162,"osm_type":"way","name":"","category":"park","tags":{"leisure":"park"}},"geometry":{"type":"Point","coordinates":[17.6240422,59.8678817]}},{"type":"Feature","properties":{"id":79511954,"osm_type":"way","name":"Lindparken","category":"park","tags":{"leisure":"park","name":"Lindparken"}},"geometry":{"type":"Point","coordinates":[17.6508517,59.8298066]}},{"type":"Feature","properties":{"id":81079115,"osm_type":"way","name":"","category":"park","tags":{"leisure":"park"}},"geometry":{"type":"Point","coordinates":[17.6656605,59.8614397]}},{"type":"Feature","properties":{"id":81475081,"osm_type":"way","name":"","category":"park","tags":{"leisure":"park"}},"geometry":{"type":"Point","coordinates":[17.6394019,59.7909307]}},{"type":"Feature","properties":{"id":81511232,"osm_type":"way","name":"","category":"park","tags":{"leisure":"park"}},"geometry":{"type":"Point","coordinates":[17.6492553,59.8410173]}},{"type":"Feature","properties":{"id":81634060,"osm_type":"way","name":"","category":"park","tags":{"leisure":"park"}},"geometry":{"type":"Point","coordinates":[17.6348327,59.8091231]}},{"type":"Feature","properties":{"id":82489821,"osm_type":"way","name":"Lyssnaängen","category":"park","tags":{"landcover":"grass","leisure":"park","name":"Lyssnaängen"}},"geometry":{"type":"Point","coordinates":[17.6337617,59.7836966]}},{"type":"Feature","properties":{"id":82499747,"osm_type":"way","name":"","category":"park","tags":{"leisure":"park","surface":"grass"}},"geometry":{"type":"Point","coordinates":[17.6143718,59.7921331]}},{"type":"Feature","properties":{"id":84834879,"osm_type":"way","name":"Klosterparken","category":"park","tags":{"leisure":"park","name":"Klosterparken","opening_hours":"24/7","operator":"Uppsala Kommun","playground":"yes","playground:theme":"village","website":"https://www.uppsala.se/kultur-och-fritid/natur-parker-och-friluftsliv/parker-lekplatser-och-hundrastgardar/parker/klosterparken/","wikidata":"Q19977952","wikipedia":"sv:Klosterparken"}},"geometry":{"type":"Point","coordinates":[17.6358358,59.8596988]}},{"type":"Feature","properties":{"id":84834880,"osm_type":"way","name":"Frodeparken","category":"park","tags":{"leisure":"park","name":"Frodeparken","wikidata":"Q19365554","wikipedia":"sv:Frodeparken"}},"geometry":{"type":"Point","coordinates":[17.6511501,59.8582477]}},{"type":"Feature","properties":{"id":84958631,"osm_type":"way","name":"Geijersdalen","category":"park","tags":{"landuse":"forest","leisure":"park","name":"Geijersdalen"}},"geometry":{"type":"Point","coordinates":[17.6482155,59.8435762]}},{"type":"Feature","properties":{"id":85564916,"osm_type":"way","name":"Svalparken","category":"park","tags":{"leisure":"park","name":"Svalparken"}},"geometry":{"type":"Point","coordinates":[17.6486277,59.8008191]}},{"type":"Feature","properties":{"id":92233405,"osm_type":"way","name":"Gunnar Leches park","category":"park","tags":{"leisure":"park","name":"Gunnar Leches park","wikidata":"Q19365551","wikipedia":"sv:Gunnar Leches park"}},"geometry":{"type":"Point","coordinates":[17.644348,59.8585706]}},{"type":"Feature","properties":{"id":94240134,"osm_type":"way","name":"Murkelparken","category":"park","tags":{"leisure":"park","name":"Murkelparken","source":"bing","wikidata":"Q18649242","wikipedia":"sv:Murkelparken"}},"geometry":{"type":"Point","coordinates":[17.6159665,59.8259537]}},{"type":"Feature","properties":{"id":95454442,"osm_type":"way","name":"Skivlingsparken","category":"park","tags":{"leisure":"park","name":"Skivlingsparken"}},"geometry":{"type":"Point","coordinates":[17.6262492,59.8262935]}},{"type":"Feature","properties":{"id":95497417,"osm_type":"way","name":"","category":"park","tags":{"leisure":"park"}},"geometry":{"type":"Point","coordinates":[17.6074253,59.8342899]}},{"type":"Feature","properties":{"id":95569699,"osm_type":"way","name":"","category":"park","tags":{"leisure":"park"}},"geometry":{"type":"Point","coordinates":[17.614736,59.8140763]}},{"type":"Feature","properties":{"id":95635871,"osm_type":"way","name":"","category":"park","tags":{"landuse":"forest","leisure":"park"}},"geometry":{"type":"Point","coordinates":[17.6250176,59.8247089]}},{"type":"Feature","properties":{"id":96098769,"osm_type":"way","name":"","category":"park","tags":{"leisure":"park"}},"geometry":{"type":"Point","coordinates":[17.6158797,59.8328859]}},{"type":"Feature","properties":{"id":97947229,"osm_type":"way","name":"Tullgarnsparken","category":"park","tags":{"addr:city":"Uppsala","addr:postcode":"75318","addr:street":"Östra Ågatan","building:levels":"2","leisure":"park","name":"Tullgarnsparken"}},"geometry":{"type":"Point","coordinates":[17.6494144,59.8483154]}},{"type":"Feature","properties":{"id":97947235,"osm_type":"way","name":"Årike Fyris","category":"park","tags":{"access":"yes","fee":"no","leisure":"park","name":"Årike Fyris","operator":"Uppsala Kommun"}},"geometry":{"type":"Point","coordinates":[17.6540788,59.8439291]}},{"type":"Feature","properties":{"id":98181073,"osm_type":"way","name":"Batteriparken","category":"park","tags":{"leisure":"park","name":"Batteriparken","wikidata":"Q19365592","wikipedia":"sv:Batteriparken"}},"geometry":{"type":"Point","coordinates":[17.6359877,59.8465696]}},{"type":"Feature","properties":{"id":98617632,"osm_type":"way","name":"","category":"park","tags":{"leisure":"park"}},"geometry":{"type":"Point","coordinates":[17.6051711,59.8495757]}},{"type":"Feature","properties":{"id":98718771,"osm_type":"way","name":"Hospitalsträdgården","category":"park","tags":{"alt_name":"Hospitalsparken","leisure":"park","name":"Hospitalsträdgården","operator":"Uppsala kommun"}},"geometry":{"type":"Point","coordinates":[17.6562579,59.8353126]}},{"type":"Feature","properties":{"id":98718817,"osm_type":"way","name":"Årike Fyris","category":"park","tags":{"leisure":"park","name":"Årike Fyris","operator":"Uppsala Kommun"}},"geometry":{"type":"Point","coordinates":[17.6553879,59.8396063]}},{"type":"Feature","properties":{"id":98998554,"osm_type":"way","name":"Martin Luther Kings plan","category":"park","tags":{"leisure":"park","name":"Martin Luther Kings plan","name:etymology:wikidata":"Q8027","wikidata":"Q18292246","wikipedia":"sv:Martin Luther Kings plan"}},"geometry":{"type":"Point","coordinates":[17.6285681,59.8572355]}},{"type":"Feature","properties":{"id":99162112,"osm_type":"way","name":"","category":"park","tags":{"access":"yes","leisure":"park"}},"geometry":{"type":"Point","coordinates":[17.6287035,59.8466981]}},{"type":"Feature","properties":{"id":99728449,"osm_type":"way","name":"","category":"park","tags":{"leisure":"park"}},"geometry":{"type":"Point","coordinates":[17.6778958,59.8617208]}},{"type":"Feature","properties":{"id":99838915,"osm_type":"way","name":"Årstaparken","category":"park","tags":{"leisure":"park","name":"Årstaparken"}},"geometry":{"type":"Point","coordinates":[17.6890331,59.8675599]}},{"type":"Feature","properties":{"id":99938880,"osm_type":"way","name":"Bondbönsparken","category":"park","tags":{"leisure":"park","name":"Bondbönsparken","operator":"Uppsala kommun"}},"geometry":{"type":"Point","coordinates":[17.6869444,59.8633401]}},{"type":"Feature","properties":{"id":99938897,"osm_type":"way","name":"","category":"park","tags":{"leisure":"park"}},"geometry":{"type":"Point","coordinates":[17.684123,59.8681155]}},{"type":"Feature","properties":{"id":100144560,"osm_type":"way","name":"","category":"park","tags":{"leisure":"park"}},"geometry":{"type":"Point","coordinates":[17.7006372,59.8653312]}},{"type":"Feature","properties":{"id":102310452,"osm_type":"way","name":"","category":"park","tags":{"leisure":"park"}},"geometry":{"type":"Point","coordinates":[17.7083664,59.8637563]}},{"type":"Feature","properties":{"id":102550857,"osm_type":"way","name":"","category":"park","tags":{"leisure":"park"}},"geometry":{"type":"Point","coordinates":[17.7072285,59.8615028]}},{"type":"Feature","properties":{"id":102693346,"osm_type":"way","name":"","category":"park","tags":{"leisure":"park"}},"geometry":{"type":"Point","coordinates":[17.6691498,59.8554536]}},{"type":"Feature","properties":{"id":103106862,"osm_type":"way","name":"","category":"park","tags":{"leisure":"park"}},"geometry":{"type":"Point","coordinates":[17.6759432,59.857052]}},{"type":"Feature","properties":{"id":103294505,"osm_type":"way","name":"","category":"park","tags":{"leisure":"park"}},"geometry":{"type":"Point","coordinates":[17.6559581,59.7981748]}},{"type":"Feature","properties":{"id":103294518,"osm_type":"way","name":"Krickparken","category":"park","tags":{"leisure":"park","name":"Krickparken"}},"geometry":{"type":"Point","coordinates":[17.6569482,59.7994384]}},{"type":"Feature","properties":{"id":105301524,"osm_type":"way","name":"","category":"park","tags":{"leisure":"park"}},"geometry":{"type":"Point","coordinates":[17.6272208,59.8174133]}},{"type":"Feature","properties":{"id":105458406,"osm_type":"way","name":"","category":"park","tags":{"leisure":"park"}},"geometry":{"type":"Point","coordinates":[17.628309,59.8199701]}},{"type":"Feature","properties":{"id":105469929,"osm_type":"way","name":"","category":"park","tags":{"leisure":"park"}},"geometry":{"type":"Point","coordinates":[17.630206,59.8166107]}},{"type":"Feature","properties":{"id":105575622,"osm_type":"way","name":"","category":"park","tags":{"leisure":"park"}},"geometry":{"type":"Point","coordinates":[17.6283917,59.8129629]}},{"type":"Feature","properties":{"id":105698946,"osm_type":"way","name":"","category":"park","tags":{"leisure":"park"}},"geometry":{"type":"Point","coordinates":[17.6209237,59.815773]}},{"type":"Feature","properties":{"id":106504926,"osm_type":"way","name":"","category":"park","tags":{"leisure":"park"}},"geometry":{"type":"Point","coordinates":[17.6489408,59.8660072]}},{"type":"Feature","properties":{"id":107161352,"osm_type":"way","name":"","category":"park","tags":{"leisure":"park"}},"geometry":{"type":"Point","coordinates":[17.6145554,59.8084304]}},{"type":"Feature","properties":{"id":107675781,"osm_type":"way","name":"","category":"park","tags":{"leisure":"park"}},"geometry":{"type":"Point","coordinates":[17.6473244,59.8000177]}},{"type":"Feature","properties":{"id":108123443,"osm_type":"way","name":"","category":"park","tags":{"leisure":"park"}},"geometry":{"type":"Point","coordinates":[17.6590386,59.8041276]}},{"type":"Feature","properties":{"id":108209623,"osm_type":"way","name":"","category":"park","tags":{"leisure":"park"}},"geometry":{"type":"Point","coordinates":[17.6539469,59.7874419]}},{"type":"Feature","properties":{"id":108209683,"osm_type":"way","name":"","category":"park","tags":{"leisure":"park"}},"geometry":{"type":"Point","coordinates":[17.6560776,59.796824]}},{"type":"Feature","properties":{"id":108234335,"osm_type":"way","name":"","category":"park","tags":{"leisure":"park"}},"geometry":{"type":"Point","coordinates":[17.6336094,59.801907]}},{"type":"Feature","properties":{"id":109247056,"osm_type":"way","name":"","category":"park","tags":{"leisure":"park"}},"geometry":{"type":"Point","coordinates":[17.6084125,59.8080029]}},{"type":"Feature","properties":{"id":110364084,"osm_type":"way","name":"","category":"park","tags":{"leisure":"park"}},"geometry":{"type":"Point","coordinates":[17.6932865,59.8054709]}},{"type":"Feature","properties":{"id":112795019,"osm_type":"way","name":"","category":"park","tags":{"leisure":"park"}},"geometry":{"type":"Point","coordinates":[17.7069354,59.822418]}},{"type":"Feature","properties":{"id":127457532,"osm_type":"way","name":"","category":"park","tags":{"leisure":"park"}},"geometry":{"type":"Point","coordinates":[17.6730675,59.8646413]}},{"type":"Feature","properties":{"id":127457533,"osm_type":"way","name":"","category":"park","tags":{"leisure":"park"}},"geometry":{"type":"Point","coordinates":[17.6723273,59.8644366]}},{"type":"Feature","properties":{"id":127457534,"osm_type":"way","name":"","category":"park","tags":{"leisure":"park"}},"geometry":{"type":"Point","coordinates":[17.6709207,59.8640072]}},{"type":"Feature","properties":{"id":127457536,"osm_type":"way","name":"","category":"park","tags":{"leisure":"park"}},"geometry":{"type":"Point","coordinates":[17.6716526,59.8641952]}},{"type":"Feature","properties":{"id":127459694,"osm_type":"way","name":"","category":"park","tags":{"leisure":"park"}},"geometry":{"type":"Point","coordinates":[17.670124,59.8652983]}},{"type":"Feature","properties":{"id":127459728,"osm_type":"way","name":"","category":"park","tags":{"leisure":"park"}},"geometry":{"type":"Point","coordinates":[17.6705538,59.8657185]}},{"type":"Feature","properties":{"id":128979508,"osm_type":"way","name":"","category":"park","tags":{"leisure":"park"}},"geometry":{"type":"Point","coordinates":[17.5870564,59.847296]}},{"type":"Feature","properties":{"id":128979509,"osm_type":"way","name":"","category":"park","tags":{"leisure":"park"}},"geometry":{"type":"Point","coordinates":[17.5851504,59.846811]}},{"type":"Feature","properties":{"id":128979510,"osm_type":"way","name":"","category":"park","tags":{"leisure":"park"}},"geometry":{"type":"Point","coordinates":[17.5870458,59.8463825]}},{"type":"Feature","properties":{"id":134530953,"osm_type":"way","name":"Bellmansparken","category":"park","tags":{"leisure":"park","name":"Bellmansparken","wikidata":"Q19365577","wikipedia":"sv:Bellmansparken"}},"geometry":{"type":"Point","coordinates":[17.6496981,59.8764002]}},{"type":"Feature","properties":{"id":134643420,"osm_type":"way","name":"","category":"park","tags":{"leisure":"park"}},"geometry":{"type":"Point","coordinates":[17.6416484,59.8774952]}},{"type":"Feature","properties":{"id":135017268,"osm_type":"way","name":"Kastellparken","category":"park","tags":{"leisure":"park","name":"Kastellparken","wikidata":"Q19521138","wikipedia":"sv:Kastellparken"}},"geometry":{"type":"Point","coordinates":[17.6500418,59.8865026]}},{"type":"Feature","properties":{"id":135431050,"osm_type":"way","name":"","category":"park","tags":{"leisure":"park"}},"geometry":{"type":"Point","coordinates":[17.6488048,59.8887728]}},{"type":"Feature","properties":{"id":135775265,"osm_type":"way","name":"Nyby gård","category":"park","tags":{"leisure":"park","name":"Nyby gård"}},"geometry":{"type":"Point","coordinates":[17.6402099,59.8852817]}},{"type":"Feature","properties":{"id":136318435,"osm_type":"way","name":"","category":"park","tags":{"leisure":"park"}},"geometry":{"type":"Point","coordinates":[17.6406488,59.8882316]}},{"type":"Feature","properties":{"id":136603327,"osm_type":"way","name":"","category":"park","tags":{"leisure":"park"}},"geometry":{"type":"Point","coordinates":[17.666282,59.8590896]}},{"type":"Feature","properties":{"id":136990106,"osm_type":"way","name":"Gunsta backar","category":"park","tags":{"leisure":"park","name":"Gunsta backar","wikidata":"Q19365550","wikipedia":"sv:Gunsta Backar"}},"geometry":{"type":"Point","coordinates":[17.6720732,59.8599291]}},{"type":"Feature","properties":{"id":137133095,"osm_type":"way","name":"","category":"park","tags":{"leisure":"park"}},"geometry":{"type":"Point","coordinates":[17.6346662,59.87279]}},{"type":"Feature","properties":{"id":142365330,"osm_type":"way","name":"","category":"park","tags":{"leisure":"park"}},"geometry":{"type":"Point","coordinates":[17.6517215,59.8352359]}},{"type":"Feature","properties":{"id":144470259,"osm_type":"way","name":"Fyrisparken","category":"park","tags":{"leisure":"park","name":"Fyrisparken"}},"geometry":{"type":"Point","coordinates":[17.6301901,59.8625273]}},{"type":"Feature","properties":{"id":147039104,"osm_type":"way","name":"","category":"park","tags":{"leisure":"park"}},"geometry":{"type":"Point","coordinates":[17.6299614,59.8569387]}},{"type":"Feature","properties":{"id":156200652,"osm_type":"way","name":"","category":"park","tags":{"leisure":"park"}},"geometry":{"type":"Point","coordinates":[17.5761726,59.7637213]}},{"type":"Feature","properties":{"id":166563485,"osm_type":"way","name":"Arkaparken","category":"park","tags":{"alt_name":"Rindaparken","leisure":"park","name":"Arkaparken","wikidata":"Q117303254","wikipedia":"sv:Arkaparken"}},"geometry":{"type":"Point","coordinates":[17.6264956,59.8622972]}},{"type":"Feature","properties":{"id":167173428,"osm_type":"way","name":"Seminarieparken","category":"park","tags":{"leisure":"park","name":"Seminarieparken"}},"geometry":{"type":"Point","coordinates":[17.6201217,59.8681825]}},{"type":"Feature","properties":{"id":176366002,"osm_type":"way","name":"","category":"park","tags":{"leisure":"park"}},"geometry":{"type":"Point","coordinates":[17.5300416,59.9476993]}},{"type":"Feature","properties":{"id":176366004,"osm_type":"way","name":"","category":"park","tags":{"leisure":"park","source":"Bing","surface":"grass"}},"geometry":{"type":"Point","coordinates":[17.5403664,59.9483072]}},{"type":"Feature","properties":{"id":176366012,"osm_type":"way","name":"","category":"park","tags":{"leisure":"park","source":"Bing","surface":"grass"}},"geometry":{"type":"Point","coordinates":[17.5398566,59.9506186]}},{"type":"Feature","properties":{"id":184653538,"osm_type":"way","name":"","category":"park","tags":{"leisure":"park"}},"geometry":{"type":"Point","coordinates":[17.6270647,59.856636]}},{"type":"Feature","properties":{"id":184653544,"osm_type":"way","name":"Hedströmska kilen","category":"park","tags":{"leisure":"park","name":"Hedströmska kilen","website":"https://www.uppsala.se/kultur-och-fritid/natur-parker-och-friluftsliv/parker-lekplatser-och-hundrastgardar/parker/hedstromska-kilen/","wikidata":"Q19365519","wikipedia":"sv:Hedströmska kilen"}},"geometry":{"type":"Point","coordinates":[17.6170718,59.8622385]}},{"type":"Feature","properties":{"id":184653546,"osm_type":"way","name":"Vasaparken","category":"park","tags":{"leisure":"park","name":"Vasaparken","wikidata":"Q10713283","wikipedia":"sv:Vasaparken, Uppsala"}},"geometry":{"type":"Point","coordinates":[17.6229769,59.8603952]}},{"type":"Feature","properties":{"id":184653916,"osm_type":"way","name":"Botaniska trädgården","category":"park","tags":{"leisure":"park","name":"Botaniska trädgården","name:ko":"웁살라 대학 식물원","operator":"Uppsala Universitetet","source":"yahoo","website":"https://www.botan.uu.se/BTindex.html","wikidata":"Q2755982","wikipedia":"sv:Botaniska trädgården, Uppsala"}},"geometry":{"type":"Point","coordinates":[17.6292741,59.8515584]}},{"type":"Feature","properties":{"id":184653939,"osm_type":"way","name":"","category":"park","tags":{"leisure":"park"}},"geometry":{"type":"Point","coordinates":[17.6163045,59.8461156]}},{"type":"Feature","properties":{"id":184653940,"osm_type":"way","name":"Arosplan","category":"park","tags":{"leisure":"park","name":"Arosplan"}},"geometry":{"type":"Point","coordinates":[17.6199948,59.8479921]}},{"type":"Feature","properties":{"id":185956470,"osm_type":"way","name":"","category":"park","tags":{"leisure":"park"}},"geometry":{"type":"Point","coordinates":[17.6467452,59.7346691]}},{"type":"Feature","properties":{"id":207520581,"osm_type":"way","name":"Stiernhielmsplan","category":"park","tags":{"leisure":"park","name":"Stiernhielmsplan","source":"bing"}},"geometry":{"type":"Point","coordinates":[17.6321335,59.8692157]}},{"type":"Feature","properties":{"id":208490042,"osm_type":"way","name":"Järnvägsparken","category":"park","tags":{"leisure":"park","name":"Järnvägsparken","source":"bing"}},"geometry":{"type":"Point","coordinates":[17.6466372,59.8572597]}},{"type":"Feature","properties":{"id":208490045,"osm_type":"way","name":"Järnvägsparken","category":"park","tags":{"leisure":"park","name":"Järnvägsparken","source":"bing"}},"geometry":{"type":"Point","coordinates":[17.6454909,59.8579187]}},{"type":"Feature","properties":{"id":208928268,"osm_type":"way","name":"","category":"park","tags":{"leisure":"park"}},"geometry":{"type":"Point","coordinates":[17.5624062,59.7692064]}},{"type":"Feature","properties":{"id":211425110,"osm_type":"way","name":"","category":"park","tags":{"leisure":"park"}},"geometry":{"type":"Point","coordinates":[17.6384364,59.8559226]}},{"type":"Feature","properties":{"id":223642790,"osm_type":"way","name":"Grönområdet Lugnet","category":"park","tags":{"landcover":"grass","leisure":"park","name":"Grönområdet Lugnet","operator":"Akademiska hus","website":"https://www.akademiskahus.se/ditt-campus/uppsala/blasenhus/gronomradet-lugnet/"}},"geometry":{"type":"Point","coordinates":[17.6307395,59.849624]}},{"type":"Feature","properties":{"id":238091929,"osm_type":"way","name":"","category":"park","tags":{"leisure":"park"}},"geometry":{"type":"Point","coordinates":[17.6562286,59.7875554]}},{"type":"Feature","properties":{"id":247747510,"osm_type":"way","name":"Vrå gård","category":"park","tags":{"leisure":"park","name":"Vrå gård"}},"geometry":{"type":"Point","coordinates":[17.772127,59.7527073]}},{"type":"Feature","properties":{"id":256019053,"osm_type":"way","name":"Fredriksbergsparken","category":"park","tags":{"leisure":"park","name":"Fredriksbergsparken","wikidata":"Q19365571","wikipedia":"sv:Fredriksbergsparken"}},"geometry":{"type":"Point","coordinates":[17.6042392,59.8502776]}},{"type":"Feature","properties":{"id":256182403,"osm_type":"way","name":"Kunskapsparken","category":"park","tags":{"leisure":"park","name":"Kunskapsparken","website":"https://www.slu.se/om-slu/orter/uppsala/ultuna-kunskapspark/"}},"geometry":{"type":"Point","coordinates":[17.663319,59.8163356]}},{"type":"Feature","properties":{"id":274956091,"osm_type":"way","name":"Odinslund","category":"park","tags":{"imagery_used":"Bing","leisure":"park","name":"Odinslund","name:ko":"오딘스룬드","wikidata":"Q10606855","wikipedia":"sv:Odinslund (park)"}},"geometry":{"type":"Point","coordinates":[17.6322414,59.8560873]}},{"type":"Feature","properties":{"id":297530508,"osm_type":"way","name":"Kunskapsträdgården","category":"park","tags":{"leisure":"park","name":"Kunskapsträdgården"}},"geometry":{"type":"Point","coordinates":[17.6633378,59.8173874]}},{"type":"Feature","properties":{"id":300836280,"osm_type":"way","name":"Portalparken","category":"park","tags":{"leisure":"park","name":"Portalparken"}},"geometry":{"type":"Point","coordinates":[17.6367722,59.8694067]}},{"type":"Feature","properties":{"id":302521475,"osm_type":"way","name":"Anna Petrus park","category":"park","tags":{"leisure":"park","name":"Anna Petrus park","source":"survey","wikidata":"Q19977466","wikipedia":"sv:Anna Petrus park"}},"geometry":{"type":"Point","coordinates":[17.6552863,59.8487631]}},{"type":"Feature","properties":{"id":303863101,"osm_type":"way","name":"Ynglingaparken","category":"park","tags":{"imagery_used":"Bing","leisure":"park","name":"Ynglingaparken"}},"geometry":{"type":"Point","coordinates":[17.6337803,59.8780034]}},{"type":"Feature","properties":{"id":334896043,"osm_type":"way","name":"Sankt Göransparken","category":"park","tags":{"leisure":"park","name":"Sankt Göransparken","short_name":"S:t Göransparken"}},"geometry":{"type":"Point","coordinates":[17.6519258,59.8610471]}},{"type":"Feature","properties":{"id":337192106,"osm_type":"way","name":"","category":"park","tags":{"leisure":"park"}},"geometry":{"type":"Point","coordinates":[17.6568531,59.8611152]}},{"type":"Feature","properties":{"id":350144846,"osm_type":"way","name":"","category":"park","tags":{"leisure":"park","source":"Bing"}},"geometry":{"type":"Point","coordinates":[17.6240755,59.850005]}},{"type":"Feature","properties":{"id":350144851,"osm_type":"way","name":"","category":"park","tags":{"leisure":"park","source":"Bing"}},"geometry":{"type":"Point","coordinates":[17.6235583,59.8495784]}},{"type":"Feature","properties":{"id":350144853,"osm_type":"way","name":"","category":"park","tags":{"leisure":"park","source":"Bing"}},"geometry":{"type":"Point","coordinates":[17.6223811,59.8498441]}},{"type":"Feature","properties":{"id":350144855,"osm_type":"way","name":"","category":"park","tags":{"leisure":"park","source":"Bing"}},"geometry":{"type":"Point","coordinates":[17.622413,59.8495451]}},{"type":"Feature","properties":{"id":350144861,"osm_type":"way","name":"","category":"park","tags":{"leisure":"park","source":"Bing"}},"geometry":{"type":"Point","coordinates":[17.6245118,59.8503499]}},{"type":"Feature","properties":{"id":350144866,"osm_type":"way","name":"","category":"park","tags":{"leisure":"park","source":"Bing"}},"geometry":{"type":"Point","coordinates":[17.6223393,59.8495576]}},{"type":"Feature","properties":{"id":350144872,"osm_type":"way","name":"","category":"park","tags":{"leisure":"park","source":"Bing"}},"geometry":{"type":"Point","coordinates":[17.623488,59.8499563]}},{"type":"Feature","properties":{"id":358713377,"osm_type":"way","name":"Slottsparken","category":"park","tags":{"leisure":"park","name":"Slottsparken","name:en":"Castle Park"}},"geometry":{"type":"Point","coordinates":[17.6193538,59.7035947]}},{"type":"Feature","properties":{"id":361164352,"osm_type":"way","name":"Bärbyparken","category":"park","tags":{"leisure":"park","name":"Bärbyparken"}},"geometry":{"type":"Point","coordinates":[17.6158046,59.8822434]}},{"type":"Feature","properties":{"id":361164353,"osm_type":"way","name":"","category":"park","tags":{"leisure":"park"}},"geometry":{"type":"Point","coordinates":[17.615077,59.8848057]}},{"type":"Feature","properties":{"id":367647901,"osm_type":"way","name":"Märstaplan","category":"park","tags":{"leisure":"park","name":"Märstaplan"}},"geometry":{"type":"Point","coordinates":[17.6602138,59.8540543]}},{"type":"Feature","properties":{"id":369688936,"osm_type":"way","name":"Nybyparken","category":"park","tags":{"leisure":"park","name":"Nybyparken"}},"geometry":{"type":"Point","coordinates":[17.6423738,59.8906513]}},{"type":"Feature","properties":{"id":372815450,"osm_type":"way","name":"Lagerlöfsparken","category":"park","tags":{"leisure":"park","name":"Lagerlöfsparken"}},"geometry":{"type":"Point","coordinates":[17.6515676,59.8807538]}},{"type":"Feature","properties":{"id":373595725,"osm_type":"way","name":"","category":"park","tags":{"leisure":"park"}},"geometry":{"type":"Point","coordinates":[17.7743549,59.7586508]}},{"type":"Feature","properties":{"id":383957428,"osm_type":"way","name":"","category":"park","tags":{"leisure":"park"}},"geometry":{"type":"Point","coordinates":[17.6105429,59.8039959]}},{"type":"Feature","properties":{"id":390998629,"osm_type":"way","name":"","category":"park","tags":{"leisure":"park"}},"geometry":{"type":"Point","coordinates":[17.6451617,59.8582042]}},{"type":"Feature","properties":{"id":390998630,"osm_type":"way","name":"","category":"park","tags":{"leisure":"park"}},"geometry":{"type":"Point","coordinates":[17.6438754,59.8587796]}},{"type":"Feature","properties":{"id":390998631,"osm_type":"way","name":"","category":"park","tags":{"leisure":"park"}},"geometry":{"type":"Point","coordinates":[17.6459984,59.8576031]}},{"type":"Feature","properties":{"id":390998632,"osm_type":"way","name":"","category":"park","tags":{"leisure":"park"}},"geometry":{"type":"Point","coordinates":[17.6458575,59.8577076]}},{"type":"Feature","properties":{"id":390998633,"osm_type":"way","name":"","category":"park","tags":{"leisure":"park"}},"geometry":{"type":"Point","coordinates":[17.6450574,59.8581297]}},{"type":"Feature","properties":{"id":390998634,"osm_type":"way","name":"","category":"park","tags":{"leisure":"park"}},"geometry":{"type":"Point","coordinates":[17.6448516,59.858345]}},{"type":"Feature","properties":{"id":390998635,"osm_type":"way","name":"","category":"park","tags":{"leisure":"park"}},"geometry":{"type":"Point","coordinates":[17.6438777,59.8588952]}},{"type":"Feature","properties":{"id":390998638,"osm_type":"way","name":"","category":"park","tags":{"leisure":"park"}},"geometry":{"type":"Point","coordinates":[17.6446106,59.8588661]}},{"type":"Feature","properties":{"id":390998642,"osm_type":"way","name":"","category":"park","tags":{"leisure":"park"}},"geometry":{"type":"Point","coordinates":[17.643718,59.8588498]}},{"type":"Feature","properties":{"id":393394044,"osm_type":"way","name":"Fadimes plats","category":"park","tags":{"leisure":"park","name":"Fadimes plats","name:etymology:wikidata":"Q2748869","wikidata":"Q96657006"}},"geometry":{"type":"Point","coordinates":[17.640294,59.8566009]}},{"type":"Feature","properties":{"id":407488522,"osm_type":"way","name":"","category":"park","tags":{"leisure":"park"}},"geometry":{"type":"Point","coordinates":[17.7840624,59.7526949]}},{"type":"Feature","properties":{"id":409071808,"osm_type":"way","name":"","category":"park","tags":{"landcover":"grass","leisure":"park"}},"geometry":{"type":"Point","coordinates":[17.7702583,59.7243509]}},{"type":"Feature","properties":{"id":417261747,"osm_type":"way","name":"","category":"park","tags":{"leisure":"park"}},"geometry":{"type":"Point","coordinates":[17.6718761,59.8465619]}},{"type":"Feature","properties":{"id":429375389,"osm_type":"way","name":"","category":"park","tags":{"leisure":"park"}},"geometry":{"type":"Point","coordinates":[17.5833703,59.8477371]}},{"type":"Feature","properties":{"id":437288333,"osm_type":"way","name":"","category":"park","tags":{"leisure":"park"}},"geometry":{"type":"Point","coordinates":[17.6258462,59.9047647]}},{"type":"Feature","properties":{"id":437288334,"osm_type":"way","name":"","category":"park","tags":{"leisure":"park"}},"geometry":{"type":"Point","coordinates":[17.6240625,59.9047298]}},{"type":"Feature","properties":{"id":445025000,"osm_type":"way","name":"","category":"park","tags":{"leisure":"park"}},"geometry":{"type":"Point","coordinates":[17.6881443,59.95179]}},{"type":"Feature","properties":{"id":461125556,"osm_type":"way","name":"","category":"park","tags":{"landuse":"grass","leisure":"park"}},"geometry":{"type":"Point","coordinates":[17.6338982,59.8574938]}},{"type":"Feature","properties":{"id":461125557,"osm_type":"way","name":"","category":"park","tags":{"landuse":"grass","leisure":"park"}},"geometry":{"type":"Point","coordinates":[17.633403,59.857587]}},{"type":"Feature","properties":{"id":461125558,"osm_type":"way","name":"","category":"park","tags":{"landuse":"grass","leisure":"park"}},"geometry":{"type":"Point","coordinates":[17.6334283,59.8573883]}},{"type":"Feature","properties":{"id":461125559,"osm_type":"way","name":"","category":"park","tags":{"leisure":"park"}},"geometry":{"type":"Point","coordinates":[17.6329318,59.8573827]}},{"type":"Feature","properties":{"id":461301484,"osm_type":"way","name":"Gjuteriparken","category":"park","tags":{"leisure":"park","name":"Gjuteriparken"}},"geometry":{"type":"Point","coordinates":[17.6050797,59.8662565]}},{"type":"Feature","properties":{"id":461302722,"osm_type":"way","name":"","category":"park","tags":{"leisure":"park"}},"geometry":{"type":"Point","coordinates":[17.605614,59.8673443]}},{"type":"Feature","properties":{"id":461948806,"osm_type":"way","name":"","category":"park","tags":{"landuse":"grass","leisure":"park"}},"geometry":{"type":"Point","coordinates":[17.6293814,59.8571397]}},{"type":"Feature","properties":{"id":468477617,"osm_type":"way","name":"Kapellgärdsparken","category":"park","tags":{"leisure":"park","name":"Kapellgärdsparken","wikidata":"Q19365499","wikipedia":"sv:Kapellgärdsparken"}},"geometry":{"type":"Point","coordinates":[17.6436332,59.8714079]}},{"type":"Feature","properties":{"id":503128290,"osm_type":"way","name":"Tunaparken","category":"park","tags":{"leisure":"park","name":"Tunaparken"}},"geometry":{"type":"Point","coordinates":[17.6213241,59.8786338]}},{"type":"Feature","properties":{"id":503128291,"osm_type":"way","name":"Tunabergsparken","category":"park","tags":{"leisure":"park","name":"Tunabergsparken"}},"geometry":{"type":"Point","coordinates":[17.6157492,59.8771979]}},{"type":"Feature","properties":{"id":504255466,"osm_type":"way","name":"Eskilsplan","category":"park","tags":{"leisure":"park","name":"Eskilsplan"}},"geometry":{"type":"Point","coordinates":[17.6531915,59.8638815]}},{"type":"Feature","properties":{"id":531015732,"osm_type":"way","name":"Södra lilla sunnersta parken","category":"park","tags":{"leisure":"park","name":"Södra lilla sunnersta parken","name:sv":"Södra lilla sunnersta parken"}},"geometry":{"type":"Point","coordinates":[17.6444575,59.8044283]}},{"type":"Feature","properties":{"id":531019925,"osm_type":"way","name":"Norra lilla sunnersta parken","category":"park","tags":{"leisure":"park","name":"Norra lilla sunnersta parken","name:sv":"Norra lilla sunnersta parken"}},"geometry":{"type":"Point","coordinates":[17.6437352,59.8053011]}},{"type":"Feature","properties":{"id":531033494,"osm_type":"way","name":"","category":"park","tags":{"ele":"3","leisure":"park"}},"geometry":{"type":"Point","coordinates":[17.6431552,59.8569059]}},{"type":"Feature","properties":{"id":531072752,"osm_type":"way","name":"Mellersta lilla sunnersta parken","category":"park","tags":{"leisure":"park","name":"Mellersta lilla sunnersta parken","name:sv":"Mittre lilla sunnersta parken"}},"geometry":{"type":"Point","coordinates":[17.6440432,59.8049379]}},{"type":"Feature","properties":{"id":543880682,"osm_type":"way","name":"","category":"park","tags":{"leisure":"park"}},"geometry":{"type":"Point","coordinates":[17.6165707,59.8703081]}},{"type":"Feature","properties":{"id":556956994,"osm_type":"way","name":"","category":"park","tags":{"leisure":"park"}},"geometry":{"type":"Point","coordinates":[17.6769956,59.8702998]}},{"type":"Feature","properties":{"id":559113806,"osm_type":"way","name":"","category":"park","tags":{"leisure":"park"}},"geometry":{"type":"Point","coordinates":[17.6164716,59.8546837]}},{"type":"Feature","properties":{"id":580946059,"osm_type":"way","name":"Strandängen","category":"park","tags":{"leisure":"park","name":"Strandängen"}},"geometry":{"type":"Point","coordinates":[17.6280895,59.8665445]}},{"type":"Feature","properties":{"id":581377318,"osm_type":"way","name":"Arrheniusplan","category":"park","tags":{"leisure":"park","name":"Arrheniusplan"}},"geometry":{"type":"Point","coordinates":[17.6696069,59.8146263]}},{"type":"Feature","properties":{"id":583231299,"osm_type":"way","name":"","category":"park","tags":{"leisure":"park"}},"geometry":{"type":"Point","coordinates":[17.625247,59.868011]}},{"type":"Feature","properties":{"id":617084272,"osm_type":"way","name":"","category":"park","tags":{"leisure":"park"}},"geometry":{"type":"Point","coordinates":[17.6690296,59.8162603]}},{"type":"Feature","properties":{"id":628859325,"osm_type":"way","name":"Veteranparken","category":"park","tags":{"image":"https://www.uppsala.se/globalassets/bildspel/kultur-och-fritid/parker/veteranparken/veteranparken-stor-bild.jpg","leisure":"park","name":"Veteranparken","website":"https://www.uppsala.se/kultur-och-fritid/parker-och-lekplatser/parker/veteranparken/"}},"geometry":{"type":"Point","coordinates":[17.6381186,59.8532857]}},{"type":"Feature","properties":{"id":673947886,"osm_type":"way","name":"","category":"park","tags":{"landuse":"forest","leisure":"park"}},"geometry":{"type":"Point","coordinates":[17.6482716,59.84238]}},{"type":"Feature","properties":{"id":675038250,"osm_type":"way","name":"Stabbylyckan","category":"park","tags":{"leisure":"park","name":"Stabbylyckan","wikidata":"Q19978647","wikipedia":"sv:Stabbylyckan"}},"geometry":{"type":"Point","coordinates":[17.6060897,59.8617554]}},{"type":"Feature","properties":{"id":675039950,"osm_type":"way","name":"Banvaktsparken","category":"park","tags":{"alt_name":"Norra station","leisure":"park","name":"Banvaktsparken","wikidata":"Q19365593","wikipedia":"sv:Banvaktsparken"}},"geometry":{"type":"Point","coordinates":[17.6135599,59.8667736]}},{"type":"Feature","properties":{"id":696383974,"osm_type":"way","name":"","category":"park","tags":{"leisure":"park"}},"geometry":{"type":"Point","coordinates":[17.6233617,59.869612]}},{"type":"Feature","properties":{"id":696383992,"osm_type":"way","name":"","category":"park","tags":{"leisure":"park"}},"geometry":{"type":"Point","coordinates":[17.6095797,59.8739884]}},{"type":"Feature","properties":{"id":696383994,"osm_type":"way","name":"","category":"park","tags":{"leisure":"park"}},"geometry":{"type":"Point","coordinates":[17.6083298,59.8752832]}},{"type":"Feature","properties":{"id":696383996,"osm_type":"way","name":"","category":"park","tags":{"leisure":"park"}},"geometry":{"type":"Point","coordinates":[17.6113778,59.872671]}},{"type":"Feature","properties":{"id":720151825,"osm_type":"way","name":"Polhemsparken","category":"park","tags":{"addr:city":"Uppsala","leisure":"park","name":"Polhemsparken"}},"geometry":{"type":"Point","coordinates":[17.603189,59.8560305]}},{"type":"Feature","properties":{"id":760936983,"osm_type":"way","name":"","category":"park","tags":{"leisure":"park"}},"geometry":{"type":"Point","coordinates":[17.7706851,59.7238923]}},{"type":"Feature","properties":{"id":760936984,"osm_type":"way","name":"","category":"park","tags":{"leisure":"park"}},"geometry":{"type":"Point","coordinates":[17.7707596,59.7236441]}},{"type":"Feature","properties":{"id":761342149,"osm_type":"way","name":"","category":"park","tags":{"leisure":"park"}},"geometry":{"type":"Point","coordinates":[17.7713881,59.7240921]}},{"type":"Feature","properties":{"id":762083164,"osm_type":"way","name":"","category":"park","tags":{"leisure":"park"}},"geometry":{"type":"Point","coordinates":[17.7697789,59.7239497]}},{"type":"Feature","properties":{"id":762083165,"osm_type":"way","name":"","category":"park","tags":{"leisure":"park"}},"geometry":{"type":"Point","coordinates":[17.7694947,59.7242923]}},{"type":"Feature","properties":{"id":762640354,"osm_type":"way","name":"Siegbahnsparken","category":"park","tags":{"leisure":"park","name":"Siegbahnsparken"}},"geometry":{"type":"Point","coordinates":[17.6365587,59.8363052]}},{"type":"Feature","properties":{"id":775225199,"osm_type":"way","name":"","category":"park","tags":{"leisure":"park"}},"geometry":{"type":"Point","coordinates":[17.7664208,59.7587209]}},{"type":"Feature","properties":{"id":777015152,"osm_type":"way","name":"","category":"park","tags":{"landuse":"leisure","leisure":"park"}},"geometry":{"type":"Point","coordinates":[17.6582779,59.8166229]}},{"type":"Feature","properties":{"id":795110273,"osm_type":"way","name":"Johannesbäcksparken","category":"park","tags":{"leisure":"park","name":"Johannesbäcksparken"}},"geometry":{"type":"Point","coordinates":[17.6775072,59.8597597]}},{"type":"Feature","properties":{"id":800720296,"osm_type":"way","name":"","category":"park","tags":{"leisure":"park"}},"geometry":{"type":"Point","coordinates":[17.6317353,59.8516396]}},{"type":"Feature","properties":{"id":802230096,"osm_type":"way","name":"","category":"park","tags":{"leisure":"park"}},"geometry":{"type":"Point","coordinates":[17.6954054,59.891471]}},{"type":"Feature","properties":{"id":802230098,"osm_type":"way","name":"","category":"park","tags":{"leisure":"park"}},"geometry":{"type":"Point","coordinates":[17.6962408,59.8901835]}},{"type":"Feature","properties":{"id":804317253,"osm_type":"way","name":"","category":"park","tags":{"leisure":"park"}},"geometry":{"type":"Point","coordinates":[17.7058867,59.9594429]}},{"type":"Feature","properties":{"id":804317254,"osm_type":"way","name":"","category":"park","tags":{"leisure":"park"}},"geometry":{"type":"Point","coordinates":[17.7044185,59.9597989]}},{"type":"Feature","properties":{"id":804341957,"osm_type":"way","name":"","category":"park","tags":{"leisure":"park"}},"geometry":{"type":"Point","coordinates":[17.728172,59.9897243]}},{"type":"Feature","properties":{"id":815726510,"osm_type":"way","name":"","category":"park","tags":{"leisure":"park","surface":"fine_gravel"}},"geometry":{"type":"Point","coordinates":[17.6249444,59.9048334]}},{"type":"Feature","properties":{"id":914128156,"osm_type":"way","name":"","category":"park","tags":{"leisure":"park"}},"geometry":{"type":"Point","coordinates":[17.6290252,59.8488155]}},{"type":"Feature","properties":{"id":914128157,"osm_type":"way","name":"","category":"park","tags":{"leisure":"park"}},"geometry":{"type":"Point","coordinates":[17.6288349,59.8493122]}},{"type":"Feature","properties":{"id":917985822,"osm_type":"way","name":"","category":"park","tags":{"leisure":"park"}},"geometry":{"type":"Point","coordinates":[17.6277069,59.8490386]}},{"type":"Feature","properties":{"id":917985823,"osm_type":"way","name":"","category":"park","tags":{"leisure":"park"}},"geometry":{"type":"Point","coordinates":[17.6279227,59.8488369]}},{"type":"Feature","properties":{"id":919602179,"osm_type":"way","name":"","category":"park","tags":{"leisure":"park"}},"geometry":{"type":"Point","coordinates":[17.6266898,59.8484563]}},{"type":"Feature","properties":{"id":931764869,"osm_type":"way","name":"Jarlaparken","category":"park","tags":{"leisure":"park","name":"Jarlaparken"}},"geometry":{"type":"Point","coordinates":[17.6284982,59.8714557]}},{"type":"Feature","properties":{"id":932642168,"osm_type":"way","name":"","category":"park","tags":{"leisure":"park"}},"geometry":{"type":"Point","coordinates":[17.6518363,59.8723703]}},{"type":"Feature","properties":{"id":937058703,"osm_type":"way","name":"","category":"park","tags":{"leisure":"park"}},"geometry":{"type":"Point","coordinates":[17.6349351,59.8317104]}},{"type":"Feature","properties":{"id":937070146,"osm_type":"way","name":"Carlshage","category":"park","tags":{"leisure":"park","name":"Carlshage"}},"geometry":{"type":"Point","coordinates":[17.632349,59.8359443]}},{"type":"Feature","properties":{"id":937070148,"osm_type":"way","name":"Biparken","category":"park","tags":{"construction":"yes","leisure":"park","name":"Biparken"}},"geometry":{"type":"Point","coordinates":[17.6329395,59.8374188]}},{"type":"Feature","properties":{"id":946766502,"osm_type":"way","name":"","category":"park","tags":{"leisure":"park"}},"geometry":{"type":"Point","coordinates":[17.6021528,59.8665273]}},{"type":"Feature","properties":{"id":946766503,"osm_type":"way","name":"Geometriparken","category":"park","tags":{"leisure":"park","name":"Geometriparken","wikidata":"Q117302174","wikipedia":"sv:Geometriparken"}},"geometry":{"type":"Point","coordinates":[17.6213195,59.8665567]}},{"type":"Feature","properties":{"id":946766507,"osm_type":"way","name":"Spårvägsparken","category":"park","tags":{"leisure":"park","name":"Spårvägsparken"}},"geometry":{"type":"Point","coordinates":[17.6181028,59.8665984]}},{"type":"Feature","properties":{"id":970973591,"osm_type":"way","name":"Lagmansparken","category":"park","tags":{"leisure":"park","name":"Lagmansparken","opening_hours":"24/7","operator":"Uppsala kommun","operator:type":"government"}},"geometry":{"type":"Point","coordinates":[17.6314118,59.8771058]}},{"type":"Feature","properties":{"id":1007027604,"osm_type":"way","name":"Dagvattenpark Gottsunda","category":"park","tags":{"leisure":"park","name":"Dagvattenpark Gottsunda"}},"geometry":{"type":"Point","coordinates":[17.6095503,59.8090117]}},{"type":"Feature","properties":{"id":1018259089,"osm_type":"way","name":"Knäckepilsparken","category":"park","tags":{"leisure":"park","name":"Knäckepilsparken"}},"geometry":{"type":"Point","coordinates":[17.6781084,59.8719713]}},{"type":"Feature","properties":{"id":1018271524,"osm_type":"way","name":"","category":"park","tags":{"leisure":"park"}},"geometry":{"type":"Point","coordinates":[17.6855087,59.8599222]}},{"type":"Feature","properties":{"id":1018271525,"osm_type":"way","name":"","category":"park","tags":{"leisure":"park"}},"geometry":{"type":"Point","coordinates":[17.685785,59.860063]}},{"type":"Feature","properties":{"id":1018271526,"osm_type":"way","name":"","category":"park","tags":{"leisure":"park"}},"geometry":{"type":"Point","coordinates":[17.6848064,59.8608655]}},{"type":"Feature","properties":{"id":1018271527,"osm_type":"way","name":"","category":"park","tags":{"leisure":"park"}},"geometry":{"type":"Point","coordinates":[17.6842713,59.8615565]}},{"type":"Feature","properties":{"id":1018271528,"osm_type":"way","name":"","category":"park","tags":{"leisure":"park"}},"geometry":{"type":"Point","coordinates":[17.6836969,59.8622983]}},{"type":"Feature","properties":{"id":1018271529,"osm_type":"way","name":"","category":"park","tags":{"leisure":"park"}},"geometry":{"type":"Point","coordinates":[17.6859966,59.8613598]}},{"type":"Feature","properties":{"id":1018271534,"osm_type":"way","name":"","category":"park","tags":{"leisure":"park"}},"geometry":{"type":"Point","coordinates":[17.6880999,59.8615476]}},{"type":"Feature","properties":{"id":1018524723,"osm_type":"way","name":"","category":"park","tags":{"leisure":"park"}},"geometry":{"type":"Point","coordinates":[17.6392472,59.8832879]}},{"type":"Feature","properties":{"id":1018564147,"osm_type":"way","name":"","category":"park","tags":{"leisure":"park"}},"geometry":{"type":"Point","coordinates":[17.6753412,59.8718765]}},{"type":"Feature","properties":{"id":1018564148,"osm_type":"way","name":"","category":"park","tags":{"leisure":"park"}},"geometry":{"type":"Point","coordinates":[17.6760187,59.8730412]}},{"type":"Feature","properties":{"id":1018564149,"osm_type":"way","name":"","category":"park","tags":{"leisure":"park"}},"geometry":{"type":"Point","coordinates":[17.6729663,59.8732973]}},{"type":"Feature","properties":{"id":1018567226,"osm_type":"way","name":"","category":"park","tags":{"leisure":"park"}},"geometry":{"type":"Point","coordinates":[17.6585206,59.8774224]}},{"type":"Feature","properties":{"id":1018567227,"osm_type":"way","name":"","category":"park","tags":{"leisure":"park"}},"geometry":{"type":"Point","coordinates":[17.6581216,59.875444]}},{"type":"Feature","properties":{"id":1018567228,"osm_type":"way","name":"","category":"park","tags":{"leisure":"park"}},"geometry":{"type":"Point","coordinates":[17.6543364,59.8757587]}},{"type":"Feature","properties":{"id":1018567235,"osm_type":"way","name":"","category":"park","tags":{"leisure":"park"}},"geometry":{"type":"Point","coordinates":[17.654894,59.8722473]}},{"type":"Feature","properties":{"id":1018567240,"osm_type":"way","name":"","category":"park","tags":{"leisure":"park"}},"geometry":{"type":"Point","coordinates":[17.6570731,59.8737764]}},{"type":"Feature","properties":{"id":1018567242,"osm_type":"way","name":"","category":"park","tags":{"leisure":"park"}},"geometry":{"type":"Point","coordinates":[17.6651299,59.8729612]}},{"type":"Feature","properties":{"id":1018567243,"osm_type":"way","name":"","category":"park","tags":{"leisure":"park"}},"geometry":{"type":"Point","coordinates":[17.6616507,59.8706883]}},{"type":"Feature","properties":{"id":1018567244,"osm_type":"way","name":"","category":"park","tags":{"leisure":"park"}},"geometry":{"type":"Point","coordinates":[17.6604326,59.8699858]}},{"type":"Feature","properties":{"id":1018567245,"osm_type":"way","name":"","category":"park","tags":{"leisure":"park"}},"geometry":{"type":"Point","coordinates":[17.662393,59.8714893]}},{"type":"Feature","properties":{"id":1018567247,"osm_type":"way","name":"","category":"park","tags":{"leisure":"park"}},"geometry":{"type":"Point","coordinates":[17.6714811,59.8664802]}},{"type":"Feature","properties":{"id":1018575627,"osm_type":"way","name":"","category":"park","tags":{"leisure":"park"}},"geometry":{"type":"Point","coordinates":[17.6500519,59.8675565]}},{"type":"Feature","properties":{"id":1018575628,"osm_type":"way","name":"","category":"park","tags":{"leisure":"park"}},"geometry":{"type":"Point","coordinates":[17.653137,59.8683069]}},{"type":"Feature","properties":{"id":1018575629,"osm_type":"way","name":"","category":"park","tags":{"leisure":"park"}},"geometry":{"type":"Point","coordinates":[17.6494712,59.8672832]}},{"type":"Feature","properties":{"id":1018575630,"osm_type":"way","name":"","category":"park","tags":{"leisure":"park"}},"geometry":{"type":"Point","coordinates":[17.6499582,59.8665955]}},{"type":"Feature","properties":{"id":1018575644,"osm_type":"way","name":"","category":"park","tags":{"leisure":"park"}},"geometry":{"type":"Point","coordinates":[17.6207814,59.8758197]}},{"type":"Feature","properties":{"id":1018637082,"osm_type":"way","name":"","category":"park","tags":{"leisure":"park"}},"geometry":{"type":"Point","coordinates":[17.5704813,59.8574241]}},{"type":"Feature","properties":{"id":1018761966,"osm_type":"way","name":"","category":"park","tags":{"leisure":"park"}},"geometry":{"type":"Point","coordinates":[17.6608255,59.8741182]}},{"type":"Feature","properties":{"id":1018769598,"osm_type":"way","name":"","category":"park","tags":{"leisure":"park"}},"geometry":{"type":"Point","coordinates":[17.6675195,59.855022]}},{"type":"Feature","properties":{"id":1018777074,"osm_type":"way","name":"Bärumparken","category":"park","tags":{"leisure":"park","name":"Bärumparken"}},"geometry":{"type":"Point","coordinates":[17.6079967,59.8528982]}},{"type":"Feature","properties":{"id":1018891514,"osm_type":"way","name":"","category":"park","tags":{"leisure":"park"}},"geometry":{"type":"Point","coordinates":[17.6210675,59.8174908]}},{"type":"Feature","properties":{"id":1018891521,"osm_type":"way","name":"","category":"park","tags":{"leisure":"park"}},"geometry":{"type":"Point","coordinates":[17.6203898,59.8210921]}},{"type":"Feature","properties":{"id":1018911970,"osm_type":"way","name":"","category":"park","tags":{"addr:city":"Uppsala","addr:housenumber":"3","addr:street":"Jan Brauners väg","leisure":"park"}},"geometry":{"type":"Point","coordinates":[17.6665985,59.8143194]}},{"type":"Feature","properties":{"id":1018911976,"osm_type":"way","name":"","category":"park","tags":{"leisure":"park"}},"geometry":{"type":"Point","coordinates":[17.666546,59.8158684]}},{"type":"Feature","properties":{"id":1018911979,"osm_type":"way","name":"","category":"park","tags":{"leisure":"park"}},"geometry":{"type":"Point","coordinates":[17.6679266,59.8126404]}},{"type":"Feature","properties":{"id":1018911980,"osm_type":"way","name":"","category":"park","tags":{"leisure":"park"}},"geometry":{"type":"Point","coordinates":[17.6679885,59.815217]}},{"type":"Feature","properties":{"id":1018911981,"osm_type":"way","name":"","category":"park","tags":{"leisure":"park"}},"geometry":{"type":"Point","coordinates":[17.6674542,59.8152795]}},{"type":"Feature","properties":{"id":1018911988,"osm_type":"way","name":"","category":"park","tags":{"leisure":"park"}},"geometry":{"type":"Point","coordinates":[17.6603749,59.8016978]}},{"type":"Feature","properties":{"id":1018914165,"osm_type":"way","name":"","category":"park","tags":{"leisure":"park"}},"geometry":{"type":"Point","coordinates":[17.6377502,59.852703]}},{"type":"Feature","properties":{"id":1019089132,"osm_type":"way","name":"Valdemar Langlets park","category":"park","tags":{"leisure":"park","name":"Valdemar Langlets park"}},"geometry":{"type":"Point","coordinates":[17.6329749,59.859642]}},{"type":"Feature","properties":{"id":1020232205,"osm_type":"way","name":"","category":"park","tags":{"leisure":"park"}},"geometry":{"type":"Point","coordinates":[17.6509107,59.8728498]}},{"type":"Feature","properties":{"id":1020232219,"osm_type":"way","name":"","category":"park","tags":{"leisure":"park"}},"geometry":{"type":"Point","coordinates":[17.6533512,59.8782817]}},{"type":"Feature","properties":{"id":1020232220,"osm_type":"way","name":"","category":"park","tags":{"leisure":"park"}},"geometry":{"type":"Point","coordinates":[17.6520681,59.878293]}},{"type":"Feature","properties":{"id":1020232221,"osm_type":"way","name":"","category":"park","tags":{"leisure":"park"}},"geometry":{"type":"Point","coordinates":[17.6520219,59.8774746]}},{"type":"Feature","properties":{"id":1020232222,"osm_type":"way","name":"","category":"park","tags":{"leisure":"park"}},"geometry":{"type":"Point","coordinates":[17.6530624,59.8765924]}},{"type":"Feature","properties":{"id":1020232223,"osm_type":"way","name":"","category":"park","tags":{"leisure":"park"}},"geometry":{"type":"Point","coordinates":[17.6518679,59.876696]}},{"type":"Feature","properties":{"id":1020232230,"osm_type":"way","name":"","category":"park","tags":{"leisure":"park"}},"geometry":{"type":"Point","coordinates":[17.6521552,59.8751692]}},{"type":"Feature","properties":{"id":1020232231,"osm_type":"way","name":"","category":"park","tags":{"leisure":"park"}},"geometry":{"type":"Point","coordinates":[17.6510994,59.8754601]}},{"type":"Feature","properties":{"id":1020232232,"osm_type":"way","name":"","category":"park","tags":{"leisure":"park"}},"geometry":{"type":"Point","coordinates":[17.6533185,59.8774208]}},{"type":"Feature","properties":{"id":1020232236,"osm_type":"way","name":"","category":"park","tags":{"leisure":"park"}},"geometry":{"type":"Point","coordinates":[17.6529844,59.8823273]}},{"type":"Feature","properties":{"id":1020232237,"osm_type":"way","name":"","category":"park","tags":{"leisure":"park"}},"geometry":{"type":"Point","coordinates":[17.6529982,59.8815675]}},{"type":"Feature","properties":{"id":1020232238,"osm_type":"way","name":"","category":"park","tags":{"leisure":"park"}},"geometry":{"type":"Point","coordinates":[17.6529647,59.8808272]}},{"type":"Feature","properties":{"id":1020232239,"osm_type":"way","name":"","category":"park","tags":{"leisure":"park"}},"geometry":{"type":"Point","coordinates":[17.6529867,59.8801658]}},{"type":"Feature","properties":{"id":1020232243,"osm_type":"way","name":"","category":"park","tags":{"leisure":"park"}},"geometry":{"type":"Point","coordinates":[17.6422517,59.8783373]}},{"type":"Feature","properties":{"id":1020232244,"osm_type":"way","name":"","category":"park","tags":{"leisure":"park"}},"geometry":{"type":"Point","coordinates":[17.6436249,59.8778462]}},{"type":"Feature","properties":{"id":1020522558,"osm_type":"way","name":"","category":"park","tags":{"leisure":"park"}},"geometry":{"type":"Point","coordinates":[17.6581893,59.7998295]}},{"type":"Feature","properties":{"id":1020528106,"osm_type":"way","name":"","category":"park","tags":{"leisure":"park"}},"geometry":{"type":"Point","coordinates":[17.6266093,59.8089366]}},{"type":"Feature","properties":{"id":1074226586,"osm_type":"way","name":"Lecheparken Läckan","category":"park","tags":{"addr:city":"Uppsala","addr:country":"SE","addr:housenumber":"107","addr:postcode":"75335","addr:street":"Svartbäcksgatan","leisure":"park","name":"Lecheparken Läckan","operator":"Uppsala Kommun"}},"geometry":{"type":"Point","coordinates":[17.6253501,59.8754836]}},{"type":"Feature","properties":{"id":1086201329,"osm_type":"way","name":"","category":"park","tags":{"leisure":"park","source":"Bing"}},"geometry":{"type":"Point","coordinates":[17.6582292,59.8784991]}},{"type":"Feature","properties":{"id":1107737745,"osm_type":"way","name":"","category":"park","tags":{"leisure":"park"}},"geometry":{"type":"Point","coordinates":[17.5375299,59.9446582]}},{"type":"Feature","properties":{"id":1107737746,"osm_type":"way","name":"","category":"park","tags":{"leisure":"park","surface":"grass"}},"geometry":{"type":"Point","coordinates":[17.5396562,59.9536912]}},{"type":"Feature","properties":{"id":1107737748,"osm_type":"way","name":"","category":"park","tags":{"leisure":"park","surface":"grass"}},"geometry":{"type":"Point","coordinates":[17.5379615,59.9470081]}},{"type":"Feature","properties":{"id":1120358492,"osm_type":"way","name":"","category":"park","tags":{"leisure":"park"}},"geometry":{"type":"Point","coordinates":[17.6465825,59.810922]}},{"type":"Feature","properties":{"id":1228463798,"osm_type":"way","name":"","category":"park","tags":{"area":"yes","leisure":"park"}},"geometry":{"type":"Point","coordinates":[17.6480016,59.8035556]}},{"type":"Feature","properties":{"id":1270637671,"osm_type":"way","name":"Musikparken","category":"park","tags":{"leisure":"park","name":"Musikparken"}},"geometry":{"type":"Point","coordinates":[17.6333008,59.8054707]}},{"type":"Feature","properties":{"id":1304404422,"osm_type":"way","name":"","category":"park","tags":{"leisure":"park"}},"geometry":{"type":"Point","coordinates":[17.6287374,59.8353247]}},{"type":"Feature","properties":{"id":1311492110,"osm_type":"way","name":"","category":"park","tags":{"leisure":"park"}},"geometry":{"type":"Point","coordinates":[17.6305702,59.8437436]}},{"type":"Feature","properties":{"id":1311492111,"osm_type":"way","name":"","category":"park","tags":{"leisure":"park"}},"geometry":{"type":"Point","coordinates":[17.6348766,59.8454003]}},{"type":"Feature","properties":{"id":1314918841,"osm_type":"way","name":"","category":"park","tags":{"leisure":"park"}},"geometry":{"type":"Point","coordinates":[17.6827213,59.8628608]}},{"type":"Feature","properties":{"id":1420212670,"osm_type":"way","name":"Shower","category":"park","tags":{"leisure":"park","name":"Shower"}},"geometry":{"type":"Point","coordinates":[17.6439589,59.8721227]}},{"type":"Feature","properties":{"id":1445616501,"osm_type":"way","name":"","category":"park","tags":{"area":"yes","leisure":"park","surface":"fine_gravel"}},"geometry":{"type":"Point","coordinates":[17.6643968,59.8763016]}},{"type":"Feature","properties":{"id":1476848925,"osm_type":"way","name":"","category":"park","tags":{"leisure":"park"}},"geometry":{"type":"Point","coordinates":[17.6128737,59.8536154]}},{"type":"Feature","properties":{"id":1476848932,"osm_type":"way","name":"","category":"park","tags":{"leisure":"park"}},"geometry":{"type":"Point","coordinates":[17.6148027,59.8541906]}},{"type":"Feature","properties":{"id":1476858104,"osm_type":"way","name":"","category":"park","tags":{"leisure":"park"}},"geometry":{"type":"Point","coordinates":[17.613382,59.8527488]}},{"type":"Feature","properties":{"id":1486264100,"osm_type":"way","name":"Norra parken","category":"park","tags":{"leisure":"park","name":"Norra parken"}},"geometry":{"type":"Point","coordinates":[17.7483669,59.9129382]}},{"type":"Feature","properties":{"id":1501128094,"osm_type":"way","name":"","category":"park","tags":{"leisure":"park"}},"geometry":{"type":"Point","coordinates":[17.6035572,59.8380109]}},{"type":"Feature","properties":{"id":1501128095,"osm_type":"way","name":"","category":"park","tags":{"leisure":"park"}},"geometry":{"type":"Point","coordinates":[17.6042302,59.8380813]}},{"type":"Feature","properties":{"id":1503460871,"osm_type":"way","name":"picnic table","category":"park","tags":{"leisure":"park","name":"picnic table"}},"geometry":{"type":"Point","coordinates":[17.6321066,59.8351258]}},{"type":"Feature","properties":{"id":1503460876,"osm_type":"way","name":"bord och stol","category":"park","tags":{"leisure":"park","name":"bord och stol"}},"geometry":{"type":"Point","coordinates":[17.6321341,59.8362815]}},{"type":"Feature","properties":{"id":1512967649,"osm_type":"way","name":"","category":"park","tags":{"leisure":"park"}},"geometry":{"type":"Point","coordinates":[17.6360704,59.8335521]}},{"type":"Feature","properties":{"id":1516623859,"osm_type":"way","name":"","category":"park","tags":{"leisure":"park"}},"geometry":{"type":"Point","coordinates":[17.6951115,59.812601]}},{"type":"Feature","properties":{"id":1503133,"osm_type":"relation","name":"","category":"park","tags":{"leisure":"park","type":"multipolygon"}},"geometry":{"type":"Point","coordinates":[17.6267273,59.8153535]}},{"type":"Feature","properties":{"id":1536742,"osm_type":"relation","name":"","category":"park","tags":{"leisure":"park","type":"multipolygon"}},"geometry":{"type":"Point","coordinates":[17.6557592,59.8040796]}},{"type":"Feature","properties":{"id":1540314,"osm_type":"relation","name":"","category":"park","tags":{"leisure":"park","type":"multipolygon"}},"geometry":{"type":"Point","coordinates":[17.6404679,59.8045947]}},{"type":"Feature","properties":{"id":6812270,"osm_type":"relation","name":"","category":"park","tags":{"leisure":"park","type":"multipolygon"}},"geometry":{"type":"Point","coordinates":[17.633012,59.8567082]}},{"type":"Feature","properties":{"id":8221491,"osm_type":"relation","name":"Genetiska trädgården","category":"park","tags":{"leisure":"park","name":"Genetiska trädgården","type":"multipolygon"}},"geometry":{"type":"Point","coordinates":[17.64634,59.8163222]}},{"type":"Feature","properties":{"id":12100466,"osm_type":"relation","name":"","category":"park","tags":{"landcover":"grass","landuse":"village_green","leisure":"park","source":"Bing","type":"multipolygon"}},"geometry":{"type":"Point","coordinates":[17.6948745,59.9569587]}},{"type":"Feature","properties":{"id":13453866,"osm_type":"relation","name":"Artilleriparken","category":"park","tags":{"alt_name":"Norra fältet","landuse":"meadow","leisure":"park","name":"Artilleriparken","type":"multipolygon"}},"geometry":{"type":"Point","coordinates":[17.6334771,59.8434301]}},{"type":"Feature","properties":{"id":13641601,"osm_type":"relation","name":"Gränbyparken","category":"park","tags":{"leisure":"park","name":"Gränbyparken","type":"multipolygon","wikidata":"Q19365552","wikipedia":"sv:Gränbyparken"}},"geometry":{"type":"Point","coordinates":[17.6633414,59.8757763]}},{"type":"Feature","properties":{"id":13641706,"osm_type":"relation","name":"Bergsbrunnaparken","category":"park","tags":{"leisure":"park","name":"Bergsbrunnaparken","type":"multipolygon"}},"geometry":{"type":"Point","coordinates":[17.6562646,59.8570671]}},{"type":"Feature","properties":{"id":16948821,"osm_type":"relation","name":"Näckrosparken","category":"park","tags":{"leisure":"park","name":"Näckrosparken","type":"multipolygon"}},"geometry":{"type":"Point","coordinates":[17.6824545,59.8597296]}},{"type":"Feature","properties":{"id":19426490,"osm_type":"relation","name":"Solparken","category":"park","tags":{"leisure":"park","name":"Solparken","type":"multipolygon","website":"https://www.uppsala.se/kultur-idrott-fritid/plats/parker/solparken/"}},"geometry":{"type":"Point","coordinates":[17.6793229,59.9398594]}},{"type":"Feature","properties":{"id":20275080,"osm_type":"relation","name":"Skogstorpsparken","category":"park","tags":{"leisure":"park","name":"Skogstorpsparken","type":"multipolygon"}},"geometry":{"type":"Point","coordinates":[17.7476141,59.9072423]}},{"type":"Feature","properties":{"id":20312682,"osm_type":"relation","name":"Södra parken","category":"park","tags":{"leisure":"park","name":"Södra parken","type":"multipolygon"}},"geometry":{"type":"Point","coordinates":[17.7320262,59.9068199]}}]}