{"type":"FeatureCollection","features":[{"type":"Feature","properties":{"id":359391419,"osm_type":"node","name":"Apotek Hjärtat","category":"pharmacy","tags":{"addr:city":"Uppsala","addr:country":"SE","addr:housenumber":"5","addr:postcode":"75243","addr:street":"Västertorg","addr:unit":"B","amenity":"pharmacy","app:apk":"se.apoteket.recept","app:apple":"https://itunes.apple.com/se/app/mitt-apotek/id1053398061","branch":"Apoteket Näckrosen","brand":"Apotek Hjärtat","brand:wikidata":"Q10416114","brand:wikipedia":"sv:Apotek Hjärtat","dispensing":"yes","drive_through":"no","healthcare":"pharmacy","name":"Apotek Hjärtat","opening_hours":"Mo-Fr 09:30-18:30; Sa 10:00-14:00","operator":"Apoteket AB (556138-6532)","owner":"Svenska Staten","ownership":"national","phone":"+46771405405","website":"https://www.apotekhjartat.se/hitta-apotek-hjartat/uppsala/apotek_hjartat_vastertorg_5_b_uppsala/","website:stock":"https://www.fass.se/"}},"geometry":{"type":"Point","coordinates":[17.6018118,59.8407871]}},{"type":"Feature","properties":{"id":412049224,"osm_type":"node","name":"Apoteket","category":"pharmacy","tags":{"addr:city":"Uppsala","addr:country":"SE","addr:housenumber":"8","addr:postcode":"75320","addr:street":"Svartbäcksgatan","amenity":"pharmacy","app:apk":"se.apoteket.recept","app:apple":"https://itunes.apple.com/se/app/mitt-apotek/id1053398061","branch":"Apoteket Kronan","brand":"Apoteket","brand:wikidata":"Q1785637","check_date":"2025-05-28","check_date:opening_hours":"2025-05-28","healthcare":"pharmacy","name":"Apoteket","opening_hours":"Mo-Fr 08:00-19:00; Sa 10:00-18:00; Su 11:00-17:00","operator":"Apoteket AB (556138-6532)","owner":"Svenska Staten","ownership":"national","phone":"+46771450450","website":"https://www.apoteket.se/apotek/apoteket-kronan-uppsala/","website:stock":"https://www.fass.se/","wheelchair":"yes"}},"geometry":{"type":"Point","coordinates":[17.6369109,59.8595088]}},{"type":"Feature","properties":{"id":469341340,"osm_type":"node","name":"Kronans Apotek","category":"pharmacy","tags":{"addr:city":"Uppsala","addr:country":"SE","addr:housename":"Kvarnen","addr:housenumber":"30","addr:postcode":"753 31","addr:street":"Vaksalagatan","amenity":"pharmacy","app:apple":"https://itunes.apple.com/se/app/kronans-apotek/id1129771604?l=en","app:google":"https://play.google.com/store/apps/details?id=se.kronansapotek.kronan","brand":"Kronans Apotek","brand:wikidata":"Q10549422","check_date":"2026-03-25","dispensing":"yes","healthcare":"pharmacy","name":"Kronans Apotek","opening_hours":"Mo-Fr 09:00-19:00; Sa 10:00-15:00","operator":"Kronans Droghandel Apotek AB","phone":"+46771612612","website:stock":"https://www.fass.se/","wheelchair":"yes"}},"geometry":{"type":"Point","coordinates":[17.6454109,59.8626494]}},{"type":"Feature","properties":{"id":629072063,"osm_type":"node","name":"Kronans Apotek","category":"pharmacy","tags":{"amenity":"pharmacy","app:apple":"https://itunes.apple.com/se/app/kronans-apotek/id1129771604?l=en","app:google":"https://play.google.com/store/apps/details?id=se.kronansapotek.kronan","brand":"Kronans Apotek","brand:wikidata":"Q10549422","check_date":"2024-07-17","dispensing":"yes","healthcare":"pharmacy","name":"Kronans Apotek","opening_hours":"Mo-Fr 09:00-19:00; Sa 10:00-17:00; Su 11:00-17:00","operator":"Kronans Droghandel Apotek AB","phone":"+46771612612","website:stock":"https://www.fass.se/","wheelchair":"yes"}},"geometry":{"type":"Point","coordinates":[17.629366,59.8100355]}},{"type":"Feature","properties":{"id":902918890,"osm_type":"node","name":"Apoteket","category":"pharmacy","tags":{"amenity":"pharmacy","app:apk":"se.apoteket.recept","app:apple":"https://itunes.apple.com/se/app/mitt-apotek/id1053398061","branch":"Apoteket Mården","brand":"Apoteket","brand:wikidata":"Q1785637","dispensing":"yes","healthcare":"pharmacy","name":"Apoteket","operator":"Apoteket AB (556138-6532)","owner":"Svenska Staten","ownership":"national","phone":"+46771450450","website:stock":"https://www.fass.se/"}},"geometry":{"type":"Point","coordinates":[17.7901674,59.7258068]}},{"type":"Feature","properties":{"id":989339366,"osm_type":"node","name":"Kronans Apotek","category":"pharmacy","tags":{"amenity":"pharmacy","app:apple":"https://itunes.apple.com/se/app/kronans-apotek/id1129771604?l=en","app:google":"https://play.google.com/store/apps/details?id=se.kronansapotek.kronan","brand":"Kronans Apotek","brand:wikidata":"Q10549422","brand:wikipedia":"sv:Kronans Droghandel","dispensing":"yes","healthcare":"pharmacy","name":"Kronans Apotek","opening_hours":"Mo-Fr 09:00-19:00; Sa 10:00-17:00; Su 11:00-16:00","operator":"Kronans Droghandel Apotek AB","phone":"+46771612612"}},"geometry":{"type":"Point","coordinates":[17.5646123,59.849065]}},{"type":"Feature","properties":{"id":1388464305,"osm_type":"node","name":"Kronans Droghandel","category":"pharmacy","tags":{"amenity":"pharmacy","healthcare":"pharmacy","name":"Kronans Droghandel","website:stock":"https://www.fass.se/","wheelchair":"yes"}},"geometry":{"type":"Point","coordinates":[17.7061674,59.9592006]}},{"type":"Feature","properties":{"id":1716674991,"osm_type":"node","name":"DOZ Apotek","category":"pharmacy","tags":{"amenity":"pharmacy","brand":"DOZ Apotek","brand:wikidata":"Q10475311","healthcare":"pharmacy","name":"DOZ Apotek","opening_hours":"Mo-Fr 10:00-20:00; Sa 10:00-17:00; Su 11:00-17:00"}},"geometry":{"type":"Point","coordinates":[17.6869306,59.8472236]}},{"type":"Feature","properties":{"id":1716675182,"osm_type":"node","name":"Apoteket","category":"pharmacy","tags":{"amenity":"pharmacy","brand":"Apoteket","brand:wikidata":"Q1785637","check_date":"2024-07-28","healthcare":"pharmacy","name":"Apoteket","opening_hours":"Mo-Fr 09:00-20:00; Sa 10:00-17:00; Su 11:00-17:00","operator":"Apoteket","phone":"+46 771 450450","website:stock":"https://www.fass.se/"}},"geometry":{"type":"Point","coordinates":[17.6928118,59.8467101]}},{"type":"Feature","properties":{"id":2078475218,"osm_type":"node","name":"Apotek Hjärtat","category":"pharmacy","tags":{"amenity":"pharmacy","brand":"Apotek Hjärtat","brand:wikidata":"Q10416114","brand:wikipedia":"sv:Apotek Hjärtat","check_date":"2025-10-20","check_date:opening_hours":"2025-10-20","dispensing":"yes","healthcare":"pharmacy","name":"Apotek Hjärtat","opening_hours":"Mo-Fr 08:00-20:00; Sa,Su 10:00-18:00","website:stock":"https://www.fass.se/","wheelchair":"yes"}},"geometry":{"type":"Point","coordinates":[17.7874273,59.7304794]}},{"type":"Feature","properties":{"id":2203267384,"osm_type":"node","name":"Apotek Kronan","category":"pharmacy","tags":{"amenity":"pharmacy","brand":"Apoteksgruppen","brand:wikidata":"Q10416129","check_date":"2025-02-08","check_date:opening_hours":"2025-02-08","healthcare":"pharmacy","level":"0","name":"Apotek Kronan","opening_hours":"Mo-Fr 09:00-19:00; Sa 10:00-17:00","website:stock":"https://www.fass.se/","wheelchair":"yes"}},"geometry":{"type":"Point","coordinates":[17.6421015,59.858348]}},{"type":"Feature","properties":{"id":2208623618,"osm_type":"node","name":"Apoteket","category":"pharmacy","tags":{"amenity":"pharmacy","app:apk":"se.apoteket.recept","app:apple":"https://itunes.apple.com/se/app/mitt-apotek/id1053398061","branch":"Apoteket Samariten","brand":"Apoteket","brand:wikidata":"Q1785637","healthcare":"pharmacy","name":"Apoteket","operator":"Apoteket AB (556138-6532)","owner":"Svenska Staten","ownership":"national","phone":"+46771450450","website:stock":"https://www.fass.se/"}},"geometry":{"type":"Point","coordinates":[17.646412,59.8556841]}},{"type":"Feature","properties":{"id":2775883286,"osm_type":"node","name":"DOZ Apotek","category":"pharmacy","tags":{"amenity":"pharmacy","brand":"DOZ Apotek","brand:wikidata":"Q10475311","check_date":"2025-03-22","healthcare":"pharmacy","level":"-1","name":"DOZ Apotek","opening_hours":"Mo-Fr 07:00-19:00; Sa 10:00-18:00; Su 10:00-18:00","wikipedia":"sv:LloydsApotek"}},"geometry":{"type":"Point","coordinates":[17.6466422,59.8583066]}},{"type":"Feature","properties":{"id":3012120943,"osm_type":"node","name":"Apotek Hjärtat","category":"pharmacy","tags":{"amenity":"pharmacy","app:apple":"https://itunes.apple.com/se/app/apotek-hj%C3%A4rtat-n%C3%A4ra-dig/id1150817089","app:google":"https://play.google.com/store/apps/details?id=com.presencekit.apotek.se&hl=en_US","brand":"Apotek Hjärtat","brand:wikidata":"Q10416114","check_date":"2024-07-17","healthcare":"pharmacy","name":"Apotek Hjärtat","opening_hours":"Mo-Fr 09:00-19:00; Sa 10:00-17:00; Su 11:00-17:00","operator":"Apotek Hjärtat Retail AB","owner":"ICA Gruppen AB","ownership":"private","phone":"+46771405405","website:stock":"https://www.fass.se/","wheelchair":"yes"}},"geometry":{"type":"Point","coordinates":[17.6287901,59.8107953]}},{"type":"Feature","properties":{"id":3269710105,"osm_type":"node","name":"Apoteksgruppen","category":"pharmacy","tags":{"addr:city":"Uppsala","addr:country":"SE","addr:housenumber":"52A","addr:street":"Svartbäcksgatan","amenity":"pharmacy","brand":"Apoteksgruppen","brand:wikidata":"Q10416129","healthcare":"pharmacy","name":"Apoteksgruppen","operator":"Apoteksgruppen","website":"https://www.apoteksgruppen.se/apotek/uppsala/apoteksgruppen-uppsala-svartbacken/","website:stock":"https://www.fass.se/"}},"geometry":{"type":"Point","coordinates":[17.6265853,59.8690218]}},{"type":"Feature","properties":{"id":3398333351,"osm_type":"node","name":"Apotek Hjärtat","category":"pharmacy","tags":{"addr:city":"Uppsala","addr:country":"SE","addr:housenumber":"12","addr:postcode":"752 21","addr:street":"Mimmi Ekholms plats","amenity":"pharmacy","app:apple":"https://itunes.apple.com/se/app/apotek-hj%C3%A4rtat-n%C3%A4ra-dig/id1150817089","app:google":"https://play.google.com/store/apps/details?id=com.presencekit.apotek.se&hl=en_US","brand":"Apotek Hjärtat","brand:wikidata":"Q10416114","healthcare":"pharmacy","name":"Apotek Hjärtat","opening_hours":"Mo-Fr 09:30-12:30, 13:30-17:10","operator":"Apotek Hjärtat Retail AB","owner":"ICA Gruppen AB","ownership":"private","phone":"+46771405405","website":"https://www.apotekhjartat.se/hitta-apotek-hjartat/uppsala/apotek_hjartat_stabby_uppsala/","website:stock":"https://www.fass.se/"}},"geometry":{"type":"Point","coordinates":[17.6076669,59.8661432]}},{"type":"Feature","properties":{"id":4339468269,"osm_type":"node","name":"Apoteket","category":"pharmacy","tags":{"addr:city":"Uppsala","addr:country":"SE","addr:housenumber":"10","addr:postcode":"75320","addr:street":"Sankt Persgatan","amenity":"pharmacy","app:apk":"se.apoteket.recept","app:apple":"https://itunes.apple.com/se/app/mitt-apotek/id1053398061","branch":"S:t Per","brand":"Apoteket","brand:wikidata":"Q1785637","check_date":"2026-03-10","dispensing":"yes","drive_through":"no","healthcare":"pharmacy","name":"Apoteket","opening_hours":"Mo-Fr 08:00-19:00; Sa 10:00-17:00; Su 12:00-17:00","operator":"Apoteket AB (556138-6532)","owner":"Svenska Staten","ownership":"national","phone":"+46771450450","website":"https://www.apoteket.se/","wheelchair":"yes"}},"geometry":{"type":"Point","coordinates":[17.6379579,59.859767]}},{"type":"Feature","properties":{"id":4339484380,"osm_type":"node","name":"Kronans Apotek","category":"pharmacy","tags":{"amenity":"pharmacy","brand":"Kronans Apotek","brand:wikidata":"Q10549422","check_date":"2026-01-14","check_date:opening_hours":"2025-05-28","healthcare":"pharmacy","name":"Kronans Apotek","opening_hours":"Mo-Fr 10:00-19:00; Sa 10:00-17:00; Su 12:00-16:00","operator":"Kronans Apotek","website":"https://www.kronansapotek.se/hitta-apotek/kronans-apotek-uppsala-svartbacksgatan-1899/","website:stock":"https://www.fass.se/","wheelchair":"yes"}},"geometry":{"type":"Point","coordinates":[17.6351391,59.8604451]}},{"type":"Feature","properties":{"id":4340263081,"osm_type":"node","name":"","category":"pharmacy","tags":{"amenity":"pharmacy","healthcare":"pharmacy","website:stock":"https://www.fass.se/"}},"geometry":{"type":"Point","coordinates":[17.6470965,59.877467]}},{"type":"Feature","properties":{"id":4806518606,"osm_type":"node","name":"Apoteket","category":"pharmacy","tags":{"amenity":"pharmacy","app:apk":"se.apoteket.recept","app:apple":"https://itunes.apple.com/se/app/mitt-apotek/id1053398061","branch":"Apoteket Röllekan","brand":"Apoteket","brand:wikidata":"Q1785637","check_date:opening_hours":"2024-09-20","healthcare":"pharmacy","name":"Apoteket","opening_hours":"Mo-Fr 08:30-17:15","operator":"Apoteket AB (556138-6532)","owner":"Svenska Staten","ownership":"national","phone":"+46771450450","website:stock":"https://www.fass.se/"}},"geometry":{"type":"Point","coordinates":[17.7022402,59.8101095]}},{"type":"Feature","properties":{"id":4823406350,"osm_type":"node","name":"Kronans Apotek","category":"pharmacy","tags":{"amenity":"pharmacy","brand":"Kronans Apotek","brand:wikidata":"Q10549422","check_date":"2025-03-09","entrance":"yes","healthcare":"pharmacy","name":"Kronans Apotek","website:stock":"https://www.fass.se/"}},"geometry":{"type":"Point","coordinates":[17.6942777,59.8454825]}},{"type":"Feature","properties":{"id":6516453164,"osm_type":"node","name":"Apotek Hjärtat","category":"pharmacy","tags":{"addr:city":"Uppsala","addr:country":"SE","addr:housenumber":"16","addr:postcode":"75313","addr:street":"Sysslomansgatan","amenity":"pharmacy","brand":"Apotek Hjärtat","brand:wikidata":"Q10416114","brand:wikipedia":"sv:Apotek Hjärtat","check_date":"2025-08-01","healthcare":"pharmacy","name":"Apotek Hjärtat","opening_hours":"Mo-Fr 09:00-19:00; Sa 10:00-15:00; Su 11:00-15:00","phone":"+46 771 405405","website":"https://www.apotekhjartat.se/hitta-apotek-hjartat/uppsala/apotek_hjartat_luthagen_uppsala/"}},"geometry":{"type":"Point","coordinates":[17.6268205,59.861249]}},{"type":"Feature","properties":{"id":6618736566,"osm_type":"node","name":"Apoteket","category":"pharmacy","tags":{"amenity":"pharmacy","branch":"Forumkvarteret","brand":"Apoteket","brand:wikidata":"Q1785637","check_date":"2026-02-20","dispensing":"yes","healthcare":"pharmacy","level":"0","name":"Apoteket","opening_hours":"Mo-Fr 10:00-19:00; Sa 10:00-17:00; Su 12:00-17:00","website":"https://www.apoteket.se/"}},"geometry":{"type":"Point","coordinates":[17.6405808,59.8577684]}},{"type":"Feature","properties":{"id":7403532027,"osm_type":"node","name":"Apoteksgruppen","category":"pharmacy","tags":{"addr:housenumber":"2a","addr:street":"Banvallen","amenity":"pharmacy","brand":"Apoteksgruppen","brand:wikidata":"Q10416129","dispensing":"yes","healthcare":"pharmacy","name":"Apoteksgruppen","operator":"Apoteksgruppen"}},"geometry":{"type":"Point","coordinates":[17.6079015,59.8493335]}},{"type":"Feature","properties":{"id":8315005373,"osm_type":"node","name":"Kronans Apotek","category":"pharmacy","tags":{"addr:country":"SE","addr:housenumber":"29","addr:street":"Torgny Segerstedts Allé","amenity":"pharmacy","branch":"Uppsala Rosendal","brand":"Kronans Apotek","brand:wikidata":"Q10549422","dispensing":"yes","healthcare":"pharmacy","name":"Kronans Apotek","opening_hours":"Mo-Fr 10:00-19:00,13:30-18:00; Sa 10:00-15:00","wheelchair":"yes"}},"geometry":{"type":"Point","coordinates":[17.6337886,59.8324523]}},{"type":"Feature","properties":{"id":8586952461,"osm_type":"node","name":"Apotek Hjärtat","category":"pharmacy","tags":{"amenity":"pharmacy","brand":"Apotek Hjärtat","brand:wikidata":"Q10416114","brand:wikipedia":"sv:Apotek Hjärtat","check_date":"2025-08-05","check_date:opening_hours":"2025-08-05","dispensing":"yes","healthcare":"pharmacy","name":"Apotek Hjärtat","opening_hours":"Mo-Su 08:00-22:00"}},"geometry":{"type":"Point","coordinates":[17.5596405,59.8489336]}},{"type":"Feature","properties":{"id":10873967121,"osm_type":"node","name":"Kronans Apotek","category":"pharmacy","tags":{"amenity":"pharmacy","brand":"Kronans Apotek","brand:wikidata":"Q10549422","check_date:opening_hours":"2025-10-20","entrance":"yes","healthcare":"pharmacy","name":"Kronans Apotek","opening_hours":"Mo-Fr 09:00-19:00; Sa 10:00-15:00"}},"geometry":{"type":"Point","coordinates":[17.7875982,59.7272]}},{"type":"Feature","properties":{"id":10910654989,"osm_type":"node","name":"Kronans Apotek","category":"pharmacy","tags":{"addr:city":"Knivsta","addr:country":"SE","addr:housenumber":"22b","addr:postcode":"74140","addr:street":"Centralvägen","amenity":"pharmacy","brand":"Kronans Apotek","brand:wikidata":"Q10549422","check_date:opening_hours":"2025-08-24","entrance":"yes","healthcare":"pharmacy","name":"Kronans Apotek","opening_hours":"Mo-Fr 09:00-19:00; Sa 10:00-15:00"}},"geometry":{"type":"Point","coordinates":[17.7871728,59.7272445]}},{"type":"Feature","properties":{"id":11486668914,"osm_type":"node","name":"Apotek Kronan","category":"pharmacy","tags":{"amenity":"pharmacy","check_date":"2026-02-24","healthcare":"pharmacy","internet_access":"no","name":"Apotek Kronan","opening_hours":"Mo-Fr 08:30-18:00; Sa 10:00-15:00; PH,Su off","operator":"Kronans apotek","payment:cash":"yes","payment:credit_cards":"yes","payment:debit_cards":"yes"}},"geometry":{"type":"Point","coordinates":[17.6848324,59.8659599]}},{"type":"Feature","properties":{"id":12030761648,"osm_type":"node","name":"Apotek Hjärtat","category":"pharmacy","tags":{"amenity":"pharmacy","brand":"Apotek Hjärtat","brand:wikidata":"Q10416114","check_date":"2024-07-03","dispensing":"yes","drive_through":"no","healthcare":"pharmacy","level":"0","name":"Apotek Hjärtat","opening_hours":"10:00-20:00","wheelchair":"yes"}},"geometry":{"type":"Point","coordinates":[17.6741708,59.8771552]}},{"type":"Feature","properties":{"id":12043520623,"osm_type":"node","name":"Apotek Hjärtat","category":"pharmacy","tags":{"amenity":"pharmacy","brand":"Apotek Hjärtat","brand:wikidata":"Q10416114","check_date":"2025-07-29","dispensing":"yes","drive_through":"no","healthcare":"pharmacy","level":"0","name":"Apotek Hjärtat","opening_hours":"Mo-Fr 09:00-18:00; Sa-Su off","operator":"Apotek Hjärtat","payment:cash":"yes","payment:credit_cards":"yes","payment:debit_cards":"yes","wheelchair":"yes"}},"geometry":{"type":"Point","coordinates":[17.6710315,59.8684322]}},{"type":"Feature","properties":{"id":13646508288,"osm_type":"node","name":"Kronans Apotek","category":"pharmacy","tags":{"addr:city":"Uppsala","addr:housenumber":"1","addr:postcode":"75471","addr:street":"Hagtorpsvägen","amenity":"pharmacy","brand":"Kronans Apotek","brand:wikidata":"Q10549422","healthcare":"pharmacy","name":"Kronans Apotek"}},"geometry":{"type":"Point","coordinates":[17.7391052,59.9115129]}},{"type":"Feature","properties":{"id":13766090560,"osm_type":"node","name":"Kronans Apotek","category":"pharmacy","tags":{"addr:floor":"0","addr:housenumber":"1","addr:street":"Marknadsgatan","amenity":"pharmacy","brand":"Kronans Apotek","brand:wikidata":"Q10549422","check_date":"2026-04-27","healthcare":"pharmacy","level":"0","name":"Kronans Apotek"}},"geometry":{"type":"Point","coordinates":[17.6733045,59.8779856]}},{"type":"Feature","properties":{"id":1432789231,"osm_type":"way","name":"Apoteket","category":"pharmacy","tags":{"addr:city":"Uppsala","addr:housenumber":"95","addr:street":"Kungsängsgatan","amenity":"pharmacy","brand":"Apoteket","brand:wikidata":"Q1785637","building":"yes","dispensing":"yes","drive_through":"no","healthcare":"pharmacy","name":"Apoteket","opening_hours":"Idag 09:00 - 19:00 Imorgon 09:00 - 19:00 Lördag 10:00 - 17:00 Söndag 11:00 - 16:00 Måndag 09:00 - 19:00 Tisdag 09:00 - 19:00 Onsdag 09:00 - 19:00","operator":"Apoteket","source":"https://www.apoteket.se/apotek/apoteket-kungsgatan-uppsala-uppsala/"}},"geometry":{"type":"Point","coordinates":[17.658104,59.8496124]}}]}