{"type":"FeatureCollection","features":[{"type":"Feature","properties":{"id":2605333386,"osm_type":"node","name":"Samariterhemmets kyrka","category":"place_of_worship","tags":{"amenity":"place_of_worship","check_date":"2026-03-17","denomination":"lutheran","name":"Samariterhemmets kyrka","opening_hours":"Su 10:00-12:00","opening_hours:url":"http://www.samariterhemmet.se/andlig-v%C3%A5rd/samariterhemmets-kyrka","operator":"Samariterhemmet","religion":"christian","wikidata":"Q10660845","wikipedia":"sv:Samariterhemmets kyrka"}},"geometry":{"type":"Point","coordinates":[17.6491002,59.8554595]}},{"type":"Feature","properties":{"id":5170010017,"osm_type":"node","name":"Sankta Maria kapell","category":"place_of_worship","tags":{"amenity":"place_of_worship","denomination":"lutheran","name":"Sankta Maria kapell","religion":"christian","short_name":"S:ta Maria kapell"}},"geometry":{"type":"Point","coordinates":[17.7798657,59.75537]}},{"type":"Feature","properties":{"id":13049658591,"osm_type":"node","name":"EChurch","category":"place_of_worship","tags":{"amenity":"place_of_worship","name":"EChurch","religion":"christian"}},"geometry":{"type":"Point","coordinates":[17.5614872,59.8503192]}},{"type":"Feature","properties":{"id":13633551317,"osm_type":"node","name":"Pingstkyrkan","category":"place_of_worship","tags":{"amenity":"place_of_worship","check_date":"2026-03-10","denomination":"pentecostal","name":"Pingstkyrkan","religion":"christian"}},"geometry":{"type":"Point","coordinates":[17.6382768,59.8596943]}},{"type":"Feature","properties":{"id":13671661795,"osm_type":"node","name":"","category":"place_of_worship","tags":{"amenity":"place_of_worship","denomination":"muslim","religion":"muslim"}},"geometry":{"type":"Point","coordinates":[17.6207342,59.8117307]}},{"type":"Feature","properties":{"id":24921860,"osm_type":"way","name":"Helga Trefaldighets Kyrka","category":"place_of_worship","tags":{"addr:city":"Uppsala","addr:country":"SE","addr:housenumber":"2","addr:street":"Domkyrkoplan","amenity":"place_of_worship","building":"yes","check_date":"2025-08-03","denomination":"lutheran","height":"30","name":"Helga Trefaldighets Kyrka","religion":"christian","start_date":"1300s","website":"https://www.svenskakyrkan.se/uppsala/helga-trefaldighets-kyrka","wikidata":"Q10519482","wikipedia":"sv:Helga Trefaldighets kyrka"}},"geometry":{"type":"Point","coordinates":[17.6326507,59.8568906]}},{"type":"Feature","properties":{"id":24929357,"osm_type":"way","name":"Uppsala moské","category":"place_of_worship","tags":{"addr:city":"Uppsala","addr:country":"SE","addr:housenumber":"11","addr:postcode":"75419","addr:street":"Vattholmavägen","amenity":"place_of_worship","building":"mosque","building:colour":"floralwhite","building:levels":"1","check_date":"2023-08-21","name":"Uppsala moské","phone":"+46 18 219881","religion":"muslim","roof:material":"copper","website":"https://www.uppsalamoske.se/","wikidata":"Q2031802","wikipedia":"sv:Uppsala moské"}},"geometry":{"type":"Point","coordinates":[17.6382165,59.874003]}},{"type":"Feature","properties":{"id":25830231,"osm_type":"way","name":"Gamla Uppsala kyrka","category":"place_of_worship","tags":{"amenity":"place_of_worship","building":"church","check_date":"2024-07-08","denomination":"lutheran","name":"Gamla Uppsala kyrka","operator":"Svenska Kyrkan","ref:bbr":"21300000003091","religion":"christian","source":"Bing;www.bebyggelseregistret.raa.se","start_date":"1130","wheelchair":"yes","wikidata":"Q8342836","wikipedia":"sv:Gamla Uppsala kyrka"}},"geometry":{"type":"Point","coordinates":[17.631907,59.8995118]}},{"type":"Feature","properties":{"id":27652473,"osm_type":"way","name":"Sankt Ansgars kyrka","category":"place_of_worship","tags":{"amenity":"place_of_worship","building":"yes","denomination":"lutheran","name":"Sankt Ansgars kyrka","operator":"Svenska kyrkan","religion":"christian","source":"yahoo!","wikidata":"Q10661329","wikipedia":"sv:Sankt Ansgars kyrka, Uppsala"}},"geometry":{"type":"Point","coordinates":[17.6150008,59.8536774]}},{"type":"Feature","properties":{"id":27652506,"osm_type":"way","name":"Jesu Kristi kyrka av sista dagars heliga","category":"place_of_worship","tags":{"amenity":"place_of_worship","building":"church","denomination":"mormon","description":"Mormonkapell","name":"Jesu Kristi kyrka av sista dagars heliga","religion":"christian"}},"geometry":{"type":"Point","coordinates":[17.6101993,59.8551629]}},{"type":"Feature","properties":{"id":30898277,"osm_type":"way","name":"Börje kyrka","category":"place_of_worship","tags":{"amenity":"place_of_worship","building":"church","denomination":"lutheran","name":"Börje kyrka","religion":"christian","source":"Yahoo","wikidata":"Q10438738"}},"geometry":{"type":"Point","coordinates":[17.5001513,59.8838985]}},{"type":"Feature","properties":{"id":32058414,"osm_type":"way","name":"Gamla kapellet","category":"place_of_worship","tags":{"amenity":"place_of_worship","building":"yes","name":"Gamla kapellet","religion":"christian","source":"yahoo!"}},"geometry":{"type":"Point","coordinates":[17.6260112,59.8558048]}},{"type":"Feature","properties":{"id":32198157,"osm_type":"way","name":"Gottsunda kyrka","category":"place_of_worship","tags":{"amenity":"place_of_worship","building":"yes","check_date":"2024-01-05","denomination":"lutheran","name":"Gottsunda kyrka","religion":"christian","wikidata":"Q18239211"}},"geometry":{"type":"Point","coordinates":[17.6280083,59.8092875]}},{"type":"Feature","properties":{"id":33708891,"osm_type":"way","name":"Vaksala kyrka","category":"place_of_worship","tags":{"amenity":"place_of_worship","building":"church","building:colour":"gray","check_date":"2024-07-03","denomination":"lutheran","height":"76","name":"Vaksala kyrka","name:sv":"Vaksala kyrka","religion":"christian","roof:colour":"black","roof:shape":"gabled","start_date":"1100s","website":"https://www.svenskakyrkan.se/uppsala/vaksala-kyrka-och-kyrkcentrum","wheelchair":"yes","wikidata":"Q10712061","wikipedia":"sv:Vaksala kyrka"}},"geometry":{"type":"Point","coordinates":[17.6863505,59.8759876]}},{"type":"Feature","properties":{"id":33917117,"osm_type":"way","name":"Läby kyrka","category":"place_of_worship","tags":{"amenity":"place_of_worship","building":"yes","denomination":"lutheran","name":"Läby kyrka","religion":"christian","source":"bing","wikidata":"Q10571779"}},"geometry":{"type":"Point","coordinates":[17.5233281,59.8486091]}},{"type":"Feature","properties":{"id":34611504,"osm_type":"way","name":"Danmarks kyrka","category":"place_of_worship","tags":{"amenity":"place_of_worship","building":"church","check_date":"2024-09-01","denomination":"lutheran","name":"Danmarks kyrka","religion":"christian","wikidata":"Q5219988"}},"geometry":{"type":"Point","coordinates":[17.7448481,59.8329362]}},{"type":"Feature","properties":{"id":35151046,"osm_type":"way","name":"Sankta Maria kyrka","category":"place_of_worship","tags":{"amenity":"place_of_worship","building":"church","check_date":"2026-01-20","denomination":"lutheran","name":"Sankta Maria kyrka","religion":"christian","wikidata":"Q10661537"}},"geometry":{"type":"Point","coordinates":[17.5636056,59.8533372]}},{"type":"Feature","properties":{"id":35220166,"osm_type":"way","name":"Vindhemskyrkan","category":"place_of_worship","tags":{"addr:city":"Uppsala","addr:country":"SE","addr:housenumber":"9","addr:postcode":"75224","addr:street":"Vindhemsgatan","amenity":"place_of_worship","building":"yes","name":"Vindhemskyrkan","religion":"christian","website":"https://www.svenskakyrkan.se/uppsala/vindhemskyrkan","wikidata":"Q10715707","wikipedia":"sv:Vindhemskyrkan S:ta Birgitta"}},"geometry":{"type":"Point","coordinates":[17.6194747,59.8627144]}},{"type":"Feature","properties":{"id":39725050,"osm_type":"way","name":"Livets Ord","category":"place_of_worship","tags":{"addr:city":"Uppsala","addr:country":"SE","addr:housenumber":"3","addr:street":"Axel Johanssons gata","amenity":"place_of_worship","building":"yes","denomination":"charismatic","name":"Livets Ord","religion":"christian","website":"https://www.livetsord.se/","wikidata":"Q2493159","wikipedia":"sv:Livets Ord"}},"geometry":{"type":"Point","coordinates":[17.6922688,59.8582088]}},{"type":"Feature","properties":{"id":50339248,"osm_type":"way","name":"Uppsala-Näs kyrka","category":"place_of_worship","tags":{"amenity":"place_of_worship","building":"yes","name":"Uppsala-Näs kyrka","religion":"christian","wikidata":"Q10710199"}},"geometry":{"type":"Point","coordinates":[17.594695,59.7876565]}},{"type":"Feature","properties":{"id":52072690,"osm_type":"way","name":"Tunabergskyrkan","category":"place_of_worship","tags":{"addr:city":"Uppsala","addr:country":"SE","addr:housenumber":"29","addr:street":"Tunagatan","amenity":"place_of_worship","building":"church","check_date":"2025-11-17","denomination":"lutheran","name":"Tunabergskyrkan","operator":"Svenska kyrkan","religion":"christian","wikidata":"Q10706292","wikipedia":"sv:Tunabergskyrkan"}},"geometry":{"type":"Point","coordinates":[17.619607,59.8780584]}},{"type":"Feature","properties":{"id":65662245,"osm_type":"way","name":"Korskyrkan","category":"place_of_worship","tags":{"addr:city":"Uppsala","addr:country":"SE","addr:housenumber":"2D","addr:postcode":"75422","addr:street":"Väktargatan","amenity":"place_of_worship","building":"church","check_date":"2025-03-09","denomination":"baptist","name":"Korskyrkan","religion":"christian","wikidata":"Q10548218","wikipedia":"sv:Korskyrkan, Uppsala"}},"geometry":{"type":"Point","coordinates":[17.6431791,59.8690898]}},{"type":"Feature","properties":{"id":79352502,"osm_type":"way","name":"Västeråkers kyrka","category":"place_of_worship","tags":{"amenity":"place_of_worship","building":"church","denomination":"lutheran","name":"Västeråkers kyrka","religion":"christian","source":"Yahoo","wikidata":"Q10718055"}},"geometry":{"type":"Point","coordinates":[17.5106466,59.7525331]}},{"type":"Feature","properties":{"id":83917995,"osm_type":"way","name":"Flottsundskyrkan","category":"place_of_worship","tags":{"addr:city":"Uppsala","addr:country":"SE","addr:housenumber":"6","addr:street":"Granebergsvägen","amenity":"place_of_worship","building":"yes","check_date":"2024-06-15","name":"Flottsundskyrkan","religion":"christian","source":"yahoo"}},"geometry":{"type":"Point","coordinates":[17.6560893,59.7890555]}},{"type":"Feature","properties":{"id":88523292,"osm_type":"way","name":"Årstakyrkan","category":"place_of_worship","tags":{"addr:city":"Uppsala","addr:country":"SE","addr:housenumber":"9","addr:postcode":"754 46","addr:street":"Sparrisgatan","amenity":"place_of_worship","building":"yes","check_date":"2025-07-18","denomination":"lutheran","name":"Årstakyrkan","religion":"christian","source":"Bing","website":"https://www.svenskakyrkan.se/uppsala/arstakyrkan","wikidata":"Q28035290","wikipedia":"sv:Årstakyrkan"}},"geometry":{"type":"Point","coordinates":[17.6857428,59.8659949]}},{"type":"Feature","properties":{"id":99059549,"osm_type":"way","name":"Stillhetens kapell","category":"place_of_worship","tags":{"amenity":"place_of_worship","building":"yes","check_date":"2024-07-26","name":"Stillhetens kapell","religion":"christian","wikidata":"Q138498965"}},"geometry":{"type":"Point","coordinates":[17.6195751,59.8532031]}},{"type":"Feature","properties":{"id":103294490,"osm_type":"way","name":"Sunnersta kyrka","category":"place_of_worship","tags":{"addr:city":"Uppsala","addr:country":"SE","addr:housenumber":"37","addr:street":"Sunnerstavägen","amenity":"place_of_worship","building":"yes","denomination":"lutheran","name":"Sunnersta kyrka","religion":"christian","wikidata":"Q10683947"}},"geometry":{"type":"Point","coordinates":[17.6560097,59.7981559]}},{"type":"Feature","properties":{"id":103521716,"osm_type":"way","name":"Rikets sal","category":"place_of_worship","tags":{"addr:city":"Uppsala","addr:country":"SE","addr:housenumber":"8","addr:street":"Bergsbrunnagatan","amenity":"place_of_worship","building":"yes","check_date":"2023-08-08","denomination":"jehovahs_witness","name":"Rikets sal","religion":"christian"}},"geometry":{"type":"Point","coordinates":[17.6586115,59.8567116]}},{"type":"Feature","properties":{"id":105469931,"osm_type":"way","name":"Valsätrakyrkan","category":"place_of_worship","tags":{"addr:city":"Uppsala","addr:country":"SE","addr:housenumber":"48","addr:postcode":"756 56","addr:street":"Bernadottevägen","amenity":"place_of_worship","building":"church","denomination":"uniting_church_in_sweden","name":"Valsätrakyrkan","religion":"christian","website":"https://www.valsatrakyrkan.se/","wikidata":"Q10712476","wikipedia":"sv:Valsätrakyrkan"}},"geometry":{"type":"Point","coordinates":[17.6220858,59.8200257]}},{"type":"Feature","properties":{"id":106504942,"osm_type":"way","name":"Sankt Pers kyrka","category":"place_of_worship","tags":{"amenity":"place_of_worship","building":"yes","denomination":"lutheran","name":"Sankt Pers kyrka","religion":"christian","wikidata":"Q10661467","wikimedia_commons":"Category:Sankt Pers kyrka, Uppsala","wikipedia":"sv:Sankt Pers kyrka, Uppsala"}},"geometry":{"type":"Point","coordinates":[17.650136,59.8676369]}},{"type":"Feature","properties":{"id":112579704,"osm_type":"way","name":"Sävja Kyrka","category":"place_of_worship","tags":{"amenity":"place_of_worship","building":"yes","denomination":"lutheran","name":"Sävja Kyrka","religion":"christian","wikidata":"Q10688263","wikipedia":"sv:Sävja kyrka"}},"geometry":{"type":"Point","coordinates":[17.7022902,59.820053]}},{"type":"Feature","properties":{"id":124460719,"osm_type":"way","name":"Lyckebokyrkan","category":"place_of_worship","tags":{"addr:city":"Storvreta","addr:country":"SE","addr:housenumber":"15","addr:postcode":"74335","addr:street":"Norrskensvägen","amenity":"place_of_worship","building":"yes","denomination":"uniting_church_in_sweden","name":"Lyckebokyrkan","religion":"christian","source":"Bing","website":"https://www.lyckebokyrkan.se/","wheelchair":"yes","wikidata":"Q10571212","wikipedia":"sv:Lyckebokyrkan"}},"geometry":{"type":"Point","coordinates":[17.6948997,59.9538952]}},{"type":"Feature","properties":{"id":127459969,"osm_type":"way","name":"Salabackekyrkan","category":"place_of_worship","tags":{"addr:city":"Uppsala","addr:country":"SE","addr:housenumber":"7B","addr:postcode":"754 34","addr:street":"Lästmakargatan","amenity":"place_of_worship","building":"church","check_date":"2025-01-02","denomination":"lutheran","name":"Salabackekyrkan","religion":"christian","website":"https://www.svenskakyrkan.se/uppsala/salabackekyrkan","wikidata":"Q7403362","wikipedia":"sv:Salabackekyrkan"}},"geometry":{"type":"Point","coordinates":[17.6679442,59.8689726]}},{"type":"Feature","properties":{"id":134530910,"osm_type":"way","name":"Lötenkyrkan","category":"place_of_worship","tags":{"amenity":"place_of_worship","building":"yes","denomination":"lutheran","name":"Lötenkyrkan","religion":"christian","wikidata":"Q6711363","wikipedia":"sv:Lötenkyrkan"}},"geometry":{"type":"Point","coordinates":[17.6471067,59.8783669]}},{"type":"Feature","properties":{"id":136500945,"osm_type":"way","name":"Österledskyrkan","category":"place_of_worship","tags":{"addr:city":"Uppsala","addr:country":"SE","addr:housenumber":"1","addr:postcode":"75440","addr:street":"Regins väg","amenity":"place_of_worship","building":"yes","denomination":"uniting_church_in_sweden","name":"Österledskyrkan","phone":"+46 18 328058","religion":"christian","website":"https://equmeniakyrkan.se/osterledskyrkan/","wikidata":"Q18450958","wikipedia":"sv:Österledskyrkan, Uppsala"}},"geometry":{"type":"Point","coordinates":[17.6378687,59.894335]}},{"type":"Feature","properties":{"id":175806917,"osm_type":"way","name":"Bälinge Kyrka","category":"place_of_worship","tags":{"amenity":"place_of_worship","building":"church","check_date":"2023-08-25","denomination":"lutheran","name":"Bälinge Kyrka","religion":"christian","source":"Bing","wikidata":"Q10438469"}},"geometry":{"type":"Point","coordinates":[17.5293774,59.9461043]}},{"type":"Feature","properties":{"id":193393817,"osm_type":"way","name":"Baptistkyrkan","category":"place_of_worship","tags":{"addr:country":"SE","addr:housenumber":"54","addr:street":"Dragarbrunnsgatan","amenity":"place_of_worship","building":"church","check_date":"2024-09-06","denomination":"baptist","name":"Baptistkyrkan","religion":"christian","website":"https://www.baptistkyrkaniuppsala.se/","wikidata":"Q10426217","wikipedia":"sv:Baptistkyrkan, Uppsala"}},"geometry":{"type":"Point","coordinates":[17.6437213,59.8575407]}},{"type":"Feature","properties":{"id":212713414,"osm_type":"way","name":"Skoklosters kyrka","category":"place_of_worship","tags":{"addr:city":"Skokloster","addr:housenumber":"104","addr:postcode":"746 96","addr:street":"Skoklostervägen","amenity":"place_of_worship","building":"church","denomination":"lutheran","hearing_loop":"yes","name":"Skoklosters kyrka","name:en":"Skokloster Church","religion":"christian","toilets":"yes","wheelchair":"yes","wikidata":"Q10670431","wikipedia":"sv:Skoklosters kyrka"}},"geometry":{"type":"Point","coordinates":[17.6239034,59.7045648]}},{"type":"Feature","properties":{"id":212713503,"osm_type":"way","name":"Flasta kyrkoruin","category":"place_of_worship","tags":{"addr:housenumber":"9","addr:street":"nära Flastavägen","alt_name":"Flasta mur","amenity":"place_of_worship","denomination":"lutheran","historic":"ruins","name":"Flasta kyrkoruin","name:en":"Flasta church ruins","religion":"christian","wikidata":"Q10496327","wikipedia":"sv:Flasta kyrkoruin"}},"geometry":{"type":"Point","coordinates":[17.6083981,59.7085906]}},{"type":"Feature","properties":{"id":221131139,"osm_type":"way","name":"Sankta Birgittakyrkan","category":"place_of_worship","tags":{"addr:city":"Knivsta","addr:country":"SE","addr:housenumber":"1","addr:postcode":"74142","addr:street":"Häradsvägen","amenity":"place_of_worship","building":"church","denomination":"lutheran","name":"Sankta Birgittakyrkan","religion":"christian","short_name":"Birgittakyrkan","wikidata":"Q10661516"}},"geometry":{"type":"Point","coordinates":[17.7929065,59.7254101]}},{"type":"Feature","properties":{"id":221472136,"osm_type":"way","name":"Knivsta laestadianska församling","category":"place_of_worship","tags":{"addr:city":"Knivsta","addr:country":"SE","addr:housenumber":"2","addr:street":"Päronvägen","amenity":"place_of_worship","building":"church","denomination":"lutheran","name":"Knivsta laestadianska församling","religion":"christian","website":"https://www.vastlaestadianskaforsamlingen.se/localities/knivsta.html"}},"geometry":{"type":"Point","coordinates":[17.7744949,59.7220549]}},{"type":"Feature","properties":{"id":221699187,"osm_type":"way","name":"Knivsta gamla kyrka","category":"place_of_worship","tags":{"addr:city":"Knivsta","addr:country":"SE","addr:housenumber":"130","addr:postcode":"74144","addr:street":"Forsbyvägen","alt_name":"S:t Stefans kyrka","amenity":"place_of_worship","building":"church","denomination":"lutheran","name":"Knivsta gamla kyrka","religion":"christian","wikidata":"Q10546692","wikipedia":"sv:Knivsta gamla kyrka"}},"geometry":{"type":"Point","coordinates":[17.7984608,59.711166]}},{"type":"Feature","properties":{"id":221788756,"osm_type":"way","name":"Gredelbykyrkan","category":"place_of_worship","tags":{"addr:city":"Knivsta","addr:country":"SE","addr:housenumber":"12","addr:postcode":"74142","addr:street":"Tomtebovägen","amenity":"place_of_worship","building":"church","denomination":"uniting_church_in_sweden","name":"Gredelbykyrkan","religion":"christian","website":"https://gredelbykyrkan.se/"}},"geometry":{"type":"Point","coordinates":[17.7949812,59.7293571]}},{"type":"Feature","properties":{"id":244092798,"osm_type":"way","name":"Alsike kyrka","category":"place_of_worship","tags":{"addr:city":"Knivsta","addr:country":"SE","addr:housenumber":"1","addr:place":"Alsike kyrka","addr:postcode":"74192","amenity":"place_of_worship","building":"yes","denomination":"lutheran","image":"File:Alsike Church Sweden.jpg","name":"Alsike kyrka","religion":"christian","wikidata":"Q7762382"}},"geometry":{"type":"Point","coordinates":[17.6838323,59.7327496]}},{"type":"Feature","properties":{"id":255048783,"osm_type":"way","name":"Lena kyrka","category":"place_of_worship","tags":{"amenity":"place_of_worship","building":"church","denomination":"lutheran","fixme":"Korrigera position","name":"Lena kyrka","operator":"Svenska kyrkan","religion":"christian","source":"gps survey","wikidata":"Q10556914","wikipedia":"sv:Lena kyrka, Uppland"}},"geometry":{"type":"Point","coordinates":[17.7218342,60.0118877]}},{"type":"Feature","properties":{"id":263034687,"osm_type":"way","name":"Apostlarna Petrus och Paulus ortodoxa kyrka","category":"place_of_worship","tags":{"amenity":"place_of_worship","building":"yes","denomination":"greek_orthodox","name":"Apostlarna Petrus och Paulus ortodoxa kyrka","religion":"christian"}},"geometry":{"type":"Point","coordinates":[17.6177936,59.8660681]}},{"type":"Feature","properties":{"id":263787131,"osm_type":"way","name":"Dalby kyrka","category":"place_of_worship","tags":{"amenity":"place_of_worship","name":"Dalby kyrka","religion":"christian","wikidata":"Q10466118"}},"geometry":{"type":"Point","coordinates":[17.5731627,59.759843]}},{"type":"Feature","properties":{"id":263973539,"osm_type":"way","name":"Vassunda kyrka","category":"place_of_worship","tags":{"addr:city":"Knivsta","addr:country":"SE","addr:housenumber":"523","addr:place":"Vassunda Kyrka","addr:postcode":"74191","amenity":"place_of_worship","building":"church","denomination":"lutheran","image":"File:Vassunda kyrka 8388.jpg","name":"Vassunda kyrka","operator":"Svenska kyrkan","religion":"christian","wikidata":"Q8085647","wikipedia":"sv:Vassunda kyrka"}},"geometry":{"type":"Point","coordinates":[17.7292923,59.7047597]}},{"type":"Feature","properties":{"id":273455014,"osm_type":"way","name":"Ärentuna kyrka","category":"place_of_worship","tags":{"amenity":"place_of_worship","building":"church","denomination":"lutheran","fixme":"Korrigera position","name":"Ärentuna kyrka","operator":"Svenska kyrkan","religion":"christian","wikidata":"Q10726030","wikipedia":"sv:Ärentuna kyrka"}},"geometry":{"type":"Point","coordinates":[17.6060461,59.9555403]}},{"type":"Feature","properties":{"id":334896044,"osm_type":"way","name":"Almtunakyrkan","category":"place_of_worship","tags":{"addr:city":"Uppsala","addr:country":"SE","addr:housenumber":"2D-2E","addr:postcode":"753 26","addr:street":"Torkelsgatan","amenity":"place_of_worship","building":"church","check_date":"2024-07-24","denomination":"lutheran","name":"Almtunakyrkan","religion":"christian","source":"Bing","wikidata":"Q16157533"}},"geometry":{"type":"Point","coordinates":[17.6565546,59.8603972]}},{"type":"Feature","properties":{"id":387224496,"osm_type":"way","name":"Holms kyrka","category":"place_of_worship","tags":{"amenity":"place_of_worship","building":"church","denomination":"lutheran","name":"Holms kyrka","religion":"christian","start_date":"1678","wikidata":"Q5116900"}},"geometry":{"type":"Point","coordinates":[17.4877868,59.7103557]}},{"type":"Feature","properties":{"id":405308294,"osm_type":"way","name":"Missionskyrkan","category":"place_of_worship","tags":{"addr:city":"Uppsala","addr:country":"SE","addr:housenumber":"40","addr:postcode":"75332","addr:street":"Sankt Olofsgatan","amenity":"place_of_worship","building":"church","check_date":"2026-01-10","denomination":"uniting_church_in_sweden","name":"Missionskyrkan","phone":"+46 18 100035","religion":"christian","website":"https://uppsalamissionskyrka.se/","wikidata":"Q10586370","wikipedia":"sv:Missionskyrkan, Uppsala"}},"geometry":{"type":"Point","coordinates":[17.6362655,59.8616835]}},{"type":"Feature","properties":{"id":430059280,"osm_type":"way","name":"Adventkyrkan","category":"place_of_worship","tags":{"addr:city":"Uppsala","addr:country":"SE","addr:housenumber":"6","addr:postcode":"752 31","addr:street":"Svanbergsgatan","alt_name":"Sankt Olofs kapell","amenity":"place_of_worship","building":"church","denomination":"seventh_day_adventist","name":"Adventkyrkan","religion":"christian","website":"https://uppsala.adventkyrka.se/","wikidata":"Q10661442"}},"geometry":{"type":"Point","coordinates":[17.6117774,59.8564196]}},{"type":"Feature","properties":{"id":461405209,"osm_type":"way","name":"Mikaelskyrkan","category":"place_of_worship","tags":{"addr:city":"Uppsala","addr:housenumber":"25","addr:postcode":"75316","addr:street":"Skolgatan","amenity":"place_of_worship","building":"church","building:levels":"2","building:material":"brick","check_date":"2023-11-02","denomination":"lutheran","name":"Mikaelskyrkan","operator":"Svenska kyrkan","religion":"christian","roof:shape":"gabled","wikidata":"Q10585165","wikipedia":"sv:Mikaelskyrkan, Uppsala"}},"geometry":{"type":"Point","coordinates":[17.6345401,59.864564]}},{"type":"Feature","properties":{"id":491539300,"osm_type":"way","name":"Åkerby kyrka","category":"place_of_worship","tags":{"amenity":"place_of_worship","building":"church","denomination":"lutheran","name":"Åkerby kyrka","operator":"Svenska kyrkan","religion":"christian","wikidata":"Q10726312","wikipedia":"sv:Åkerby kyrka"}},"geometry":{"type":"Point","coordinates":[17.4964028,59.9236417]}},{"type":"Feature","properties":{"id":530977015,"osm_type":"way","name":"Storvreta Kapell","category":"place_of_worship","tags":{"amenity":"place_of_worship","building":"yes","denomination":"lutheran","name":"Storvreta Kapell","operator":"Svenska kyrka","religion":"christian","source":"user stepat","start_date":"1979","website":"https://www.svenskakyrkan.se/","wikidata":"Q10681447","wikipedia":"sv:Storvreta kapell"}},"geometry":{"type":"Point","coordinates":[17.6994551,59.9623629]}},{"type":"Feature","properties":{"id":769941546,"osm_type":"way","name":"Uppsala domkyrka","category":"place_of_worship","tags":{"addr:city":"Uppsala","addr:postcode":"753 10","addr:street":"Domkyrkoplan","amenity":"place_of_worship","building":"cathedral","building:architecture":"gothic","building:colour":"firebrick","building:material":"brick","capacity":"2200","capacity:seats":"900","check_date":"2026-03-17","denomination":"lutheran","diocese":"Uppsala stift","heritage":"2","heritage:operator":"raa","heritage:website":"https://bebyggelseregistret.raa.se/bbr2/anlaggning/visaHistorik.raa?page=historik&visaHistorik=true&anlaggningId=21300000003556","historic":"cathedral","importance":"national","name":"Uppsala domkyrka","name:da":"Uppsala Domkirke","name:en":"Uppsala Cathedral","name:fi":"Uppsalan tuomiokirkko","name:fr":"Cathédrale d'Uppsala","name:ko":"웁살라 대성당","name:sv":"Uppsala domkyrka","ref:SE:raa":"21300000003556","religion":"christian","roof:colour":"black","start_date":"1435","website":"https://www.svenskakyrkan.se/uppsala/domkyrkan","wheelchair":"yes","wikidata":"Q850042","wikimedia_commons":"Category:Uppsala_Cathedral","wikipedia":"sv:Uppsala domkyrka","year_of_construction":"1272 - 1435 / 1690 / 1885 - 1893"}},"geometry":{"type":"Point","coordinates":[17.6336112,59.8581557]}},{"type":"Feature","properties":{"id":1223227248,"osm_type":"way","name":"Skuttunge kyrka","category":"place_of_worship","tags":{"amenity":"place_of_worship","building":"church","denomination":"lutheran","fixme":"Förbättra byggnadsyta","name":"Skuttunge kyrka","operator":"Svenska kyrkan","religion":"christian","wikidata":"Q10670761","wikipedia":"sv:Skuttunge kyrka"}},"geometry":{"type":"Point","coordinates":[17.5146257,59.9985355]}},{"type":"Feature","properties":{"id":3611643,"osm_type":"relation","name":"Eriksbergskyrkan","category":"place_of_worship","tags":{"amenity":"place_of_worship","building":"church","denomination":"lutheran","name":"Eriksbergskyrkan","operator":"Svenska kyrkan","religion":"christian","type":"multipolygon","wikidata":"Q10487725","wikipedia":"sv:Eriksbergskyrkan"}},"geometry":{"type":"Point","coordinates":[17.6163973,59.8459487]}},{"type":"Feature","properties":{"id":6074159,"osm_type":"relation","name":"Sankt Lars katolska kyrka","category":"place_of_worship","tags":{"amenity":"place_of_worship","building":"church","denomination":"catholic","name":"Sankt Lars katolska kyrka","religion":"christian","short_name":"S:t Lars katolska kyrka","type":"multipolygon","website":"https://stlars.org/","wikidata":"Q10661398","wikipedia":"sv:Sankt Lars katolska kyrka, Uppsala"}},"geometry":{"type":"Point","coordinates":[17.6390807,59.8562347]}}]}