{"type":"FeatureCollection","features":[{"type":"Feature","properties":{"id":385417130,"osm_type":"node","name":"Polishuset","category":"police","tags":{"amenity":"police","check_date":"2025-08-23","name":"Polishuset","toilets:wheelchair":"yes","wheelchair":"yes"}},"geometry":{"type":"Point","coordinates":[17.6309082,59.8653064]}},{"type":"Feature","properties":{"id":4345446979,"osm_type":"node","name":"","category":"police","tags":{"amenity":"police","check_date":"2024-07-10"}},"geometry":{"type":"Point","coordinates":[17.6644276,59.8552871]}}]}