{"type":"FeatureCollection","features":[{"type":"Feature","properties":{"id":1988247051,"osm_type":"node","name":"Grillska Gymnasiet","category":"school_high","tags":{"addr:city":"Uppsala","addr:postcode":"752 63","addr:street":"Ekebybruk","addr:unit":"10E","amenity":"school","email":"uppsala@grillska.se","grades":"10-12","name":"Grillska Gymnasiet","phone":"+46 18 4702340","website":"https://grillska.se/grillska-gymnasiet-uppsala"}},"geometry":{"type":"Point","coordinates":[17.6067801,59.8478037]}},{"type":"Feature","properties":{"id":2739341962,"osm_type":"node","name":"Linnégymnasiet","category":"school_high","tags":{"addr:city":"Uppsala","addr:country":"SE","addr:housenumber":"11","addr:street":"Västra strandgatan","amenity":"school","check_date":"2025-08-04","education":"school","name":"Linnégymnasiet","phone":"+46 18 7272021","website":"https://www.linnegymnasiet.se/","wikidata":"Q10562857","wikipedia":"sv:Linnégymnasiet"}},"geometry":{"type":"Point","coordinates":[17.6304464,59.8612283]}},{"type":"Feature","properties":{"id":4362444348,"osm_type":"node","name":"Ekeby Gymnasiet","category":"school_high","tags":{"amenity":"school","name":"Ekeby Gymnasiet"}},"geometry":{"type":"Point","coordinates":[17.6082892,59.848808]}},{"type":"Feature","properties":{"id":11886984359,"osm_type":"node","name":"ProCivitas Privata Gymnasium Uppsala","category":"school_high","tags":{"addr:city":"Uppsala","addr:housenumber":"2","addr:postcode":"75237","addr:street":"Lägerhyddsvägen","amenity":"school","contact:email":"uppsala@procivitas.se","contact:phone":"+46 702014859","education":"school","name":"ProCivitas Privata Gymnasium Uppsala","operator":"Procivitas Privata Gymnasium AB","operator:type":"private","ref:SE:skolverket":"69618988"}},"geometry":{"type":"Point","coordinates":[17.6494209,59.8400783]}},{"type":"Feature","properties":{"id":11886984360,"osm_type":"node","name":"NTI Gymnasiet Uppsala","category":"school_high","tags":{"addr:city":"Uppsala","addr:housenumber":"2","addr:postcode":"75237","addr:street":"Lägerhyddsvägen","amenity":"school","contact:email":"uppsala@ntig.se","contact:phone":"+46 18182270","contact:website":"https://www.ntigymnasiet.se/","education":"school","name":"NTI Gymnasiet Uppsala","operator":"Nti Gymnasiet Ellips AB","operator:type":"private","ref:SE:skolverket":"52048443"}},"geometry":{"type":"Point","coordinates":[17.6497952,59.8400708]}},{"type":"Feature","properties":{"id":11989966893,"osm_type":"node","name":"Yrkesgymnasiet","category":"school_high","tags":{"amenity":"school","check_date":"2024-06-18","education":"school","name":"Yrkesgymnasiet"}},"geometry":{"type":"Point","coordinates":[17.6626084,59.8562137]}},{"type":"Feature","properties":{"id":25017947,"osm_type":"way","name":"Lundellska gymnasiet","category":"school_high","tags":{"alt_name":"Skrapan","amenity":"school","building":"yes","education":"school","name":"Lundellska gymnasiet","wheelchair":"yes","wikidata":"Q10570786","wikipedia":"sv:Lundellska skolan"}},"geometry":{"type":"Point","coordinates":[17.6522439,59.8375957]}},{"type":"Feature","properties":{"id":32321511,"osm_type":"way","name":"Katedralskolan","category":"school_high","tags":{"addr:city":"Uppsala","addr:housenumber":"2","addr:postcode":"75312","addr:street":"Skolgatan","amenity":"school","contact:email":"kansli@katedral.se","contact:phone":"+46 187279144","contact:website":"https://katedralskolan.uppsala.se/","name":"Katedralskolan","operator":"Uppsala kommun","operator:type":"government","operator:wikidata":"Q59091","ref:SE:skolverket":"32550660","wikidata":"Q6375892","wikipedia":"sv:Katedralskolan, Uppsala"}},"geometry":{"type":"Point","coordinates":[17.6247292,59.8594844]}},{"type":"Feature","properties":{"id":97096672,"osm_type":"way","name":"Rosendalsgymnasiet","category":"school_high","tags":{"addr:city":"Uppsala","addr:country":"SE","addr:housenumber":"8","addr:postcode":"75275","addr:street":"Husargatan","amenity":"school","education":"school","name":"Rosendalsgymnasiet","phone":"+46 18 7273330","website":"https://rosendalsgymnasiet.uppsala.se/","wikidata":"Q10656964","wikipedia":"sv:Rosendalsgymnasiet"}},"geometry":{"type":"Point","coordinates":[17.6322006,59.8403172]}},{"type":"Feature","properties":{"id":144463769,"osm_type":"way","name":"Sjögrenska Gymnasiet","category":"school_high","tags":{"amenity":"school","building":"yes","name":"Sjögrenska Gymnasiet"}},"geometry":{"type":"Point","coordinates":[17.7942543,59.7238576]}}]}