{"type":"FeatureCollection","features":[{"type":"Feature","properties":{"id":35880320,"osm_type":"way","name":"Tiundaskolan","category":"school_primary","tags":{"addr:city":"Uppsala","addr:country":"SE","addr:housenumber":"12","addr:postcode":"75230","addr:street":"Sibyllegatan","amenity":"school","capacity":"1000","email":"tiundaskolan@uppsala.se","grade":"0-9","isced:level":"0-2","name":"Tiundaskolan","operator":"Uppsala kommun","operator:type":"government","operator:wikidata":"Q59091","phone":"+46 18 727 64 52","ref:SE:skolverket":"53847396","start_date":"2018-08","website":"https://tiundaskolan.uppsala.se/"}},"geometry":{"type":"Point","coordinates":[17.6109603,59.8601738]}},{"type":"Feature","properties":{"id":1204273208,"osm_type":"way","name":"Hagmarkens skola","category":"school_primary","tags":{"amenity":"school","contact:email":"skola@hagmarken.com","contact:phone":"018-334165","contact:website":"http://www.hagmarken.com","isced:level":"0;1","name":"Hagmarkens skola","operator":"Hagmarkens Förskola/Skola AB","operator:type":"private","ref:SE:skolverket":"78556653","website":"https://www.hagmarken.com/","wikidata":"Q89192044"}},"geometry":{"type":"Point","coordinates":[17.5326348,59.9479507]}}]}