{"type":"FeatureCollection","features":[{"type":"Feature","properties":{"id":359862972,"osm_type":"node","name":"Friskis & Svettis","category":"sports_centre","tags":{"brand":"Friskis & Svettis","brand:wikidata":"Q1796631","leisure":"fitness_centre","name":"Friskis & Svettis"}},"geometry":{"type":"Point","coordinates":[17.6062134,59.8476361]}},{"type":"Feature","properties":{"id":628885161,"osm_type":"node","name":"Gottsundabadet","category":"sports_centre","tags":{"leisure":"swimming_pool","name":"Gottsundabadet","opening_hours":"Mo-Fr 06:30-21:00; Sa,Su 08:00-20:00","sport":"swimming"}},"geometry":{"type":"Point","coordinates":[17.6305442,59.8089326]}},{"type":"Feature","properties":{"id":715949812,"osm_type":"node","name":"Actic Centralbadet","category":"sports_centre","tags":{"addr:housenumber":"4","addr:postcode":"753 20","addr:street":"Sankt Persgatan","check_date":"2025-07-19","email":"uppsala.centralbadet@actic.se","leisure":"sports_centre","name":"Actic Centralbadet","opening_hours":"Mo-Th 06:20-19:30; Fr 06:20-18:30; Sa-Su 11:00-16:30","operator":"Actic","phone":"+46 018101660","sport":"swimming","website":"https://www.actic.se/hitta-gym/gym-i-uppsala/uppsala-centralbadet","wheelchair":"limited"}},"geometry":{"type":"Point","coordinates":[17.6365875,59.859207]}},{"type":"Feature","properties":{"id":715952752,"osm_type":"node","name":"","category":"sports_centre","tags":{"leisure":"swimming_pool","sport":"swimming","wheelchair":"limited"}},"geometry":{"type":"Point","coordinates":[17.621976,59.8706952]}},{"type":"Feature","properties":{"id":1490647852,"osm_type":"node","name":"Stenhags bildnings- och kulturcentrum","category":"sports_centre","tags":{"leisure":"sports_centre","name":"Stenhags bildnings- och kulturcentrum"}},"geometry":{"type":"Point","coordinates":[17.557522,59.8502778]}},{"type":"Feature","properties":{"id":2203267393,"osm_type":"node","name":"Nordic Wellness","category":"sports_centre","tags":{"brand":"Nordic Wellness","brand:wikidata":"Q60970249","check_date":"2024-06-18","leisure":"fitness_centre","name":"Nordic Wellness","opening_hours":"05:00-23:00"}},"geometry":{"type":"Point","coordinates":[17.6472245,59.856492]}},{"type":"Feature","properties":{"id":2835710032,"osm_type":"node","name":"Lurbo ridklubb","category":"sports_centre","tags":{"leisure":"sports_centre","name":"Lurbo ridklubb","sport":"equestrian"}},"geometry":{"type":"Point","coordinates":[17.5990062,59.8041762]}},{"type":"Feature","properties":{"id":3012120950,"osm_type":"node","name":"Gottsunda Sporthall","category":"sports_centre","tags":{"leisure":"sports_centre","name":"Gottsunda Sporthall"}},"geometry":{"type":"Point","coordinates":[17.631136,59.8090128]}},{"type":"Feature","properties":{"id":3032424244,"osm_type":"node","name":"Storvreta gym","category":"sports_centre","tags":{"leisure":"sports_centre","name":"Storvreta gym"}},"geometry":{"type":"Point","coordinates":[17.7011305,59.9521014]}},{"type":"Feature","properties":{"id":3538906818,"osm_type":"node","name":"Parsapower","category":"sports_centre","tags":{"email":"info@parsapower.se","leisure":"sports_centre","name":"Parsapower","opening_hours":"Mo-Th 06:00-22:00; Fr 06:00-20:00; Sa 07:00-18:00; Su 12:00-20:00","phone":"+46 733244444","website":"http://parsapower.se/"}},"geometry":{"type":"Point","coordinates":[17.6232956,59.8648517]}},{"type":"Feature","properties":{"id":3761553693,"osm_type":"node","name":"Nordic Wellness","category":"sports_centre","tags":{"leisure":"fitness_centre","name":"Nordic Wellness","opening_hours":"Mo-Su 05:00-24:00"}},"geometry":{"type":"Point","coordinates":[17.6280008,59.8618618]}},{"type":"Feature","properties":{"id":4270758998,"osm_type":"node","name":"Turbo Extreme Sportzone","category":"sports_centre","tags":{"leisure":"sports_centre","name":"Turbo Extreme Sportzone","opening_hours":"Mo-Su,PH 10:00-19:00"}},"geometry":{"type":"Point","coordinates":[17.6717502,59.885897]}},{"type":"Feature","properties":{"id":4278277468,"osm_type":"node","name":"Friskis & Svettis","category":"sports_centre","tags":{"brand":"Friskis & Svettis","brand:wikidata":"Q1796631","check_date":"2026-03-25","leisure":"fitness_centre","name":"Friskis & Svettis","opening_hours":"Mo-Th 06:30-22:00, Fr 06:30-20:00, Sa 08:00-18:00, Su 09:00-21:30"}},"geometry":{"type":"Point","coordinates":[17.6448932,59.8638447]}},{"type":"Feature","properties":{"id":4339467732,"osm_type":"node","name":"member 24","category":"sports_centre","tags":{"leisure":"fitness_centre","name":"member 24"}},"geometry":{"type":"Point","coordinates":[17.638321,59.861385]}},{"type":"Feature","properties":{"id":4339474016,"osm_type":"node","name":"Medicinsk Yoga","category":"sports_centre","tags":{"leisure":"sports_centre","name":"Medicinsk Yoga","sport":"yoga","website":"https://www.vitalmedyoga.se"}},"geometry":{"type":"Point","coordinates":[17.645766,59.8554279]}},{"type":"Feature","properties":{"id":4339474263,"osm_type":"node","name":"Uppsala Kampsport & Hälsocenter","category":"sports_centre","tags":{"check_date":"2026-03-17","leisure":"fitness_centre","name":"Uppsala Kampsport & Hälsocenter"}},"geometry":{"type":"Point","coordinates":[17.6497406,59.8551387]}},{"type":"Feature","properties":{"id":4339476407,"osm_type":"node","name":"Fitness24Seven","category":"sports_centre","tags":{"brand":"Fitness24Seven","brand:wikidata":"Q61112447","brand:wikipedia":"sv:Fitness24Seven","check_date":"2025-03-28","leisure":"fitness_centre","level":"0","name":"Fitness24Seven","opening_hours":"24/7"}},"geometry":{"type":"Point","coordinates":[17.6429561,59.8573143]}},{"type":"Feature","properties":{"id":4339497959,"osm_type":"node","name":"STC","category":"sports_centre","tags":{"branch":"Uppsala Kungsängen","brand":"STC","brand:wikidata":"Q115114066","leisure":"fitness_centre","name":"STC","website":"https://www.stc.se/gym/uppsala-kungsangen/"}},"geometry":{"type":"Point","coordinates":[17.6522313,59.8522417]}},{"type":"Feature","properties":{"id":4339504039,"osm_type":"node","name":"","category":"sports_centre","tags":{"leisure":"fitness_station","sport":"fitness","wikidata":"Q107405321"}},"geometry":{"type":"Point","coordinates":[17.6497448,59.8481458]}},{"type":"Feature","properties":{"id":4345445205,"osm_type":"node","name":"Uppsala Ju-Jutsu Klubb","category":"sports_centre","tags":{"leisure":"sports_centre","name":"Uppsala Ju-Jutsu Klubb","opening_hours":"Mo-Fr 18:00-21:30; Su 15:00-16:30","sport":"judo"}},"geometry":{"type":"Point","coordinates":[17.6581007,59.855946]}},{"type":"Feature","properties":{"id":4345445319,"osm_type":"node","name":"MCW Crossfit Garage","category":"sports_centre","tags":{"leisure":"fitness_centre","name":"MCW Crossfit Garage"}},"geometry":{"type":"Point","coordinates":[17.6549678,59.8560913]}},{"type":"Feature","properties":{"id":4362450859,"osm_type":"node","name":"EFCT","category":"sports_centre","tags":{"leisure":"fitness_centre","name":"EFCT"}},"geometry":{"type":"Point","coordinates":[17.6072796,59.8661135]}},{"type":"Feature","properties":{"id":4438878797,"osm_type":"node","name":"Actic Svandammen","category":"sports_centre","tags":{"check_date":"2024-07-04","leisure":"sports_centre","name":"Actic Svandammen","opening_hours":"Mo-Th,Su 05:00-23:00; Fr-Sa 05:00-21:30","phone":"+46 18 4782010","website":"https://www.actic.se/hitta-gym/gym-i-uppsala/uppsala-svandammen/"}},"geometry":{"type":"Point","coordinates":[17.6395284,59.8537079]}},{"type":"Feature","properties":{"id":4485170876,"osm_type":"node","name":"","category":"sports_centre","tags":{"addr:city":"Uppsala","addr:country":"SE","addr:housenumber":"7","addr:postcode":"75324","addr:street":"Vallbygatan","check_date":"2024-01-03","leisure":"fitness_station","sport":"strength_training"}},"geometry":{"type":"Point","coordinates":[17.6662794,59.860486]}},{"type":"Feature","properties":{"id":4810160887,"osm_type":"node","name":"C-hallen","category":"sports_centre","tags":{"leisure":"ice_rink","name":"C-hallen"}},"geometry":{"type":"Point","coordinates":[17.6580736,59.8805581]}},{"type":"Feature","properties":{"id":4810160888,"osm_type":"node","name":"B-hallen","category":"sports_centre","tags":{"leisure":"ice_rink","name":"B-hallen"}},"geometry":{"type":"Point","coordinates":[17.6579395,59.8800318]}},{"type":"Feature","properties":{"id":4810160889,"osm_type":"node","name":"Gränbyhallen (A)","category":"sports_centre","tags":{"leisure":"ice_rink","name":"Gränbyhallen (A)"}},"geometry":{"type":"Point","coordinates":[17.6565233,59.8802633]}},{"type":"Feature","properties":{"id":4818674663,"osm_type":"node","name":"itrim","category":"sports_centre","tags":{"check_date":"2026-03-10","leisure":"fitness_centre","level":"0","name":"itrim","opening_hours":"Mo-Th 06:45-20:00; Fr 06:45-18:00; Sa 09:00-14:00; Su 14:00-18:00"}},"geometry":{"type":"Point","coordinates":[17.6423633,59.8571057]}},{"type":"Feature","properties":{"id":4835069566,"osm_type":"node","name":"Skivlingparkens Utegym","category":"sports_centre","tags":{"description":"Gymmet består av 10 olika redskap som kan användas på olika sätt efter dina egna förutsättningar. Gemensamt för redskapen är att du använder din egen kropp som motstånd. Här finns bland annat redskap för armgång, kroppscurl, situps och step-ups.\nI Norby.","fitness_station":"yes","leisure":"fitness_station","name":"Skivlingparkens Utegym","note":"Även känt som: Utegymmet i Skivlingparken.","source":"https://www.uppsala.se/kultur-och-fritid/idrott/utegym/utegymmet-i-skivlingparken/","sport":"fitness","wikidata":"Q107405335"}},"geometry":{"type":"Point","coordinates":[17.6261176,59.8264657]}},{"type":"Feature","properties":{"id":6347587504,"osm_type":"node","name":"Stadsskogens Utegym","category":"sports_centre","tags":{"description":"Utegymmet i Stadsskogen. Gymmet i Stadsskogen.","fitness_station":"yes","leisure":"fitness_station","name":"Stadsskogens Utegym","opening_hours":"24/7","source":"https://www.uppsala.se/kultur-och-fritid/idrott/utegym/utegymmet-i-stadsskogen/;http://opendata.uppsala.se/datasets/utegym?geometry=17.62%2C59.839%2C17.64%2C59.841","sport":"fitness","wikidata":"Q107405330"}},"geometry":{"type":"Point","coordinates":[17.62895,59.8394833]}},{"type":"Feature","properties":{"id":6347587506,"osm_type":"node","name":"Sunnerstaåsens stockgym","category":"sports_centre","tags":{"description":"Gymmet på Sunnerstaåsen har redskap för stocklyft/axelpress, situps och bänkpress. Här finns räckhäv och ribbstol.\nGymmet ligger i Sunnerstaåsens friluftsområde.","fitness_station":"yes","leisure":"fitness_station","name":"Sunnerstaåsens stockgym","source":"https://www.uppsala.se/kultur-och-fritid/idrott/utegym/sunnerstaasens-stockgym/;http://opendata.uppsala.se/datasets/utegym?geometry=17.638%2C59.79%2C17.678%2C59.798;http://webapp18.uppsala.se/Kartan/SBF/Utegym/StockgymSunnersta%C3%A5sen.pdf","sport":"fitness","wikidata":"Q107405331"}},"geometry":{"type":"Point","coordinates":[17.6595462,59.7964737]}},{"type":"Feature","properties":{"id":7473181910,"osm_type":"node","name":"Nordic Wellness","category":"sports_centre","tags":{"addr:city":"Uppsala","addr:country":"SE","addr:housenumber":"1","addr:postcode":"75267","addr:street":"Fyrisparksvägen","brand":"Nordic Wellness","brand:wikidata":"Q60970249","check_date:opening_hours":"2025-08-05","leisure":"fitness_centre","name":"Nordic Wellness","opening_hours":"Mo-Su 05:00-22:00","phone":"+46 10 155 53 72","sport":"fitness","website":"https://nordicwellness.se/vara-klubbar/uppsala/uppsala-stenhagen/"}},"geometry":{"type":"Point","coordinates":[17.5586504,59.8495035]}},{"type":"Feature","properties":{"id":8314999770,"osm_type":"node","name":"ONE WAY","category":"sports_centre","tags":{"addr:city":"Uppsala","addr:postcode":"75644","addr:street":"Torgny Segerstedts allé","email":"info@onewaygym.se","leisure":"fitness_centre","name":"ONE WAY","opening_hours":"Mo-Fr 05:30-22:00; Sa,Su 07:30-20:00","phone":"+46 70 758 97 69","website":"http://onewaygym.se/","wheelchair":"no"}},"geometry":{"type":"Point","coordinates":[17.6338443,59.8324923]}},{"type":"Feature","properties":{"id":8586952459,"osm_type":"node","name":"Actic","category":"sports_centre","tags":{"leisure":"fitness_centre","name":"Actic"}},"geometry":{"type":"Point","coordinates":[17.5637249,59.8500686]}},{"type":"Feature","properties":{"id":8912573903,"osm_type":"node","name":"","category":"sports_centre","tags":{"leisure":"fitness_station","website":"https://www.uppsala.se/kultur-och-fritid/aktiviteter-motion-och-idrott/motion-och-bad/utegym/utegymmet-i-gjuteriparken/","wikidata":"Q107482899"}},"geometry":{"type":"Point","coordinates":[17.6039351,59.8663549]}},{"type":"Feature","properties":{"id":9437231140,"osm_type":"node","name":"Klättercentret Uppsala","category":"sports_centre","tags":{"addr:city":"Uppsala","addr:country":"SE","addr:housenumber":"8","addr:postcode":"754 50","addr:street":"Rapsgatan","fee":"yes","leisure":"sports_centre","name":"Klättercentret Uppsala","opening_hours":"Mo-Th 11:00-22:00; Sa-Su 10:00-20:00; Fr 09:00-22:00","sport":"climbing"}},"geometry":{"type":"Point","coordinates":[17.7078881,59.8551366]}},{"type":"Feature","properties":{"id":9437231141,"osm_type":"node","name":"Katana Parkour","category":"sports_centre","tags":{"addr:city":"Uppsala","addr:country":"SE","addr:housenumber":"8","addr:postcode":"754 50","addr:street":"Rapsgatan","leisure":"sports_centre","name":"Katana Parkour","sport":"parkour"}},"geometry":{"type":"Point","coordinates":[17.7085962,59.8552255]}},{"type":"Feature","properties":{"id":9532371982,"osm_type":"node","name":"","category":"sports_centre","tags":{"leisure":"fitness_station","sport":"fitness","wikidata":"Q107482899"}},"geometry":{"type":"Point","coordinates":[17.6040936,59.8662162]}},{"type":"Feature","properties":{"id":10295049985,"osm_type":"node","name":"WellAware Training Center Uppsala","category":"sports_centre","tags":{"addr:country":"SE","addr:housenumber":"5A","addr:street":"Sofielundsgatan","leisure":"fitness_centre","name":"WellAware Training Center Uppsala","sport":"crossfit","website":"http://wtcuppsala.se/"}},"geometry":{"type":"Point","coordinates":[17.6640105,59.851297]}},{"type":"Feature","properties":{"id":10298164642,"osm_type":"node","name":"","category":"sports_centre","tags":{"leisure":"fitness_station","sport":"fitness"}},"geometry":{"type":"Point","coordinates":[17.5748748,59.8379565]}},{"type":"Feature","properties":{"id":10909201618,"osm_type":"node","name":"STC","category":"sports_centre","tags":{"brand":"STC","brand:wikidata":"Q115114066","check_date:opening_hours":"2025-10-20","entrance":"yes","leisure":"fitness_centre","name":"STC","opening_hours":"Mo-Su 05:00-23:00","sport":"fitness","website":"https://www.stc.se/klubbar/knivsta-centrum/"}},"geometry":{"type":"Point","coordinates":[17.7875887,59.7272182]}},{"type":"Feature","properties":{"id":10910654988,"osm_type":"node","name":"STC","category":"sports_centre","tags":{"addr:city":"Knivsta","addr:country":"SE","addr:housenumber":"22c","addr:postcode":"74140","addr:street":"Centralvägen","brand":"STC","brand:wikidata":"Q115114066","check_date:opening_hours":"2025-08-24","entrance":"yes","leisure":"fitness_centre","name":"STC","opening_hours":"Mo-Su 05:00-23:00","sport":"fitness","website":"https://www.stc.se/klubbar/knivsta-centrum/"}},"geometry":{"type":"Point","coordinates":[17.7872285,59.7272804]}},{"type":"Feature","properties":{"id":10990012057,"osm_type":"node","name":"","category":"sports_centre","tags":{"access":"private","leisure":"swimming_pool"}},"geometry":{"type":"Point","coordinates":[17.7214231,59.7186171]}},{"type":"Feature","properties":{"id":10990012058,"osm_type":"node","name":"","category":"sports_centre","tags":{"access":"private","leisure":"swimming_pool"}},"geometry":{"type":"Point","coordinates":[17.7213614,59.718536]}},{"type":"Feature","properties":{"id":10990012059,"osm_type":"node","name":"","category":"sports_centre","tags":{"access":"private","leisure":"swimming_pool"}},"geometry":{"type":"Point","coordinates":[17.7212718,59.7185533]}},{"type":"Feature","properties":{"id":10990012060,"osm_type":"node","name":"","category":"sports_centre","tags":{"access":"private","leisure":"swimming_pool"}},"geometry":{"type":"Point","coordinates":[17.7213335,59.7186344]}},{"type":"Feature","properties":{"id":11051313746,"osm_type":"node","name":"STC","category":"sports_centre","tags":{"brand":"STC","brand:wikidata":"Q115114066","leisure":"fitness_centre","name":"STC","opening_hours":"Mo-Su 05:00-23:00","sport":"fitness","website":"https://stc.se/"}},"geometry":{"type":"Point","coordinates":[17.7870841,59.7274581]}},{"type":"Feature","properties":{"id":11248914342,"osm_type":"node","name":"CrossFit","category":"sports_centre","tags":{"branch":"Vanheim","brand":"CrossFit","brand:wikidata":"Q2072840","leisure":"fitness_centre","name":"CrossFit","sport":"crossfit"}},"geometry":{"type":"Point","coordinates":[17.6584572,59.8473449]}},{"type":"Feature","properties":{"id":12045951686,"osm_type":"node","name":"","category":"sports_centre","tags":{"leisure":"fitness_station","sport":"fitness"}},"geometry":{"type":"Point","coordinates":[17.6737846,59.8581809]}},{"type":"Feature","properties":{"id":12046117684,"osm_type":"node","name":"STC","category":"sports_centre","tags":{"addr:housenumber":"103","addr:street":"Östra Ågatan","brand":"STC","brand:wikidata":"Q115114066","check_date":"2024-07-10","leisure":"fitness_centre","level":"0","name":"STC","opening_hours":"05:00-23:00"}},"geometry":{"type":"Point","coordinates":[17.6511948,59.8474459]}},{"type":"Feature","properties":{"id":12049436004,"osm_type":"node","name":"Yogahuset","category":"sports_centre","tags":{"addr:city":"Uppsala","addr:housenumber":"46","addr:postcode":"75340","addr:street":"Stationsgatan","check_date":"2024-07-29","contact:facebook":"https://www.facebook.com/yogahusetuppsala","contact:instagram":"@yogahuset","email":"info@yogahusetuppsala.se","leisure":"fitness_centre","name":"Yogahuset","sport":"yoga","website":"https://yogahusetuppsala.se/"}},"geometry":{"type":"Point","coordinates":[17.6521237,59.8568042]}},{"type":"Feature","properties":{"id":12060738835,"osm_type":"node","name":"Fitness24Seven","category":"sports_centre","tags":{"brand":"Fitness24Seven","brand:wikidata":"Q61112447","check_date":"2024-07-18","leisure":"fitness_centre","level":"0","name":"Fitness24Seven"}},"geometry":{"type":"Point","coordinates":[17.64883,59.8669443]}},{"type":"Feature","properties":{"id":12067643364,"osm_type":"node","name":"PT-Ludde","category":"sports_centre","tags":{"check_date":"2024-07-22","contact:website":"https://www.pt-ludde.com","leisure":"fitness_centre","name":"PT-Ludde"}},"geometry":{"type":"Point","coordinates":[17.6355627,59.8312646]}},{"type":"Feature","properties":{"id":12079537326,"osm_type":"node","name":"Actic Stationsgatan","category":"sports_centre","tags":{"check_date":"2024-07-29","leisure":"fitness_centre","level":"0","name":"Actic Stationsgatan"}},"geometry":{"type":"Point","coordinates":[17.6514319,59.8570524]}},{"type":"Feature","properties":{"id":12095376069,"osm_type":"node","name":"Uppsala Pole & Aerials","category":"sports_centre","tags":{"check_date":"2024-08-06","contact:website":"https://www.uppsalapole.se","leisure":"fitness_centre","level":"0","name":"Uppsala Pole & Aerials","wheelchair":"limited"}},"geometry":{"type":"Point","coordinates":[17.6532351,59.8601315]}},{"type":"Feature","properties":{"id":12100022564,"osm_type":"node","name":"Anahata","category":"sports_centre","tags":{"check_date":"2024-08-09","contact:website":"https://www.anahatauppsala.se","leisure":"fitness_centre","level":"0","name":"Anahata","sport":"yoga"}},"geometry":{"type":"Point","coordinates":[17.6382946,59.8391994]}},{"type":"Feature","properties":{"id":12169506662,"osm_type":"node","name":"Fitness24Seven","category":"sports_centre","tags":{"addr:housenumber":"3","addr:street":"Marknadsgatan","brand":"Fitness24Seven","brand:wikidata":"Q61112447","check_date":"2025-07-30","leisure":"fitness_centre","level":"0","name":"Fitness24Seven"}},"geometry":{"type":"Point","coordinates":[17.6740026,59.8755636]}},{"type":"Feature","properties":{"id":12848296459,"osm_type":"node","name":"Friskhuset","category":"sports_centre","tags":{"addr:city":"Uppsala","addr:postcode":"751 85","addr:street":"Inre Sjukhusvägen","leisure":"fitness_centre","name":"Friskhuset","phone":"018-611 31 29","website":"https://redigera.regionuppsala.se/jobb-och-utbildning/bli-var-nya-kollega/formaner/friskvard-for-medarbetare/"}},"geometry":{"type":"Point","coordinates":[17.6403084,59.8519746]}},{"type":"Feature","properties":{"id":13011380310,"osm_type":"node","name":"Mantra Sport Träning","category":"sports_centre","tags":{"access":"customers","addr:city":"Uppsala","addr:country":"SE","addr:housenumber":"46G","addr:postcode":"75239","addr:street":"Norbyvägen","fee":"yes","leisure":"fitness_centre","name":"Mantra Sport Träning","opening_hours":"Mo-Su 05:00-23:00","phone":"0702341188","website":"https://www.mantrasport.se/"}},"geometry":{"type":"Point","coordinates":[17.6168179,59.8437002]}},{"type":"Feature","properties":{"id":13028324646,"osm_type":"node","name":"MyTraining","category":"sports_centre","tags":{"leisure":"fitness_centre","name":"MyTraining"}},"geometry":{"type":"Point","coordinates":[17.6915903,59.8566175]}},{"type":"Feature","properties":{"id":13048188733,"osm_type":"node","name":"Nordic Wellness","category":"sports_centre","tags":{"addr:city":"Uppsala","addr:country":"SE","addr:housenumber":"61","addr:postcode":"753 18","addr:street":"Kungsängsgatan","branch":"Uppsala Industristaden","brand":"Nordic Wellness","brand:wikidata":"Q60970249","email":"uppsala.industristaden@nordicwellness.se","leisure":"fitness_centre","name":"Nordic Wellness","opening_hours":"Mo-Su 05:00-24:00","operator":"Nordic Wellness","phone":"079-063 15 36","website":"https://nordicwellness.se/vara-klubbar/uppsala/uppsala-industristaden/"}},"geometry":{"type":"Point","coordinates":[17.6580778,59.8491797]}},{"type":"Feature","properties":{"id":13076172971,"osm_type":"node","name":"STC","category":"sports_centre","tags":{"brand":"STC","brand:wikidata":"Q115114066","leisure":"fitness_centre","name":"STC"}},"geometry":{"type":"Point","coordinates":[17.7743143,59.7590999]}},{"type":"Feature","properties":{"id":13646508289,"osm_type":"node","name":"Nordic Wellness","category":"sports_centre","tags":{"addr:city":"Uppsala","addr:housenumber":"1","addr:postcode":"75471","addr:street":"Hagtorpsvägen","brand":"Nordic Wellness","brand:wikidata":"Q60970249","leisure":"fitness_centre","name":"Nordic Wellness"}},"geometry":{"type":"Point","coordinates":[17.7393087,59.9115802]}},{"type":"Feature","properties":{"id":13673600259,"osm_type":"node","name":"","category":"sports_centre","tags":{"leisure":"fitness_centre"}},"geometry":{"type":"Point","coordinates":[17.6422331,59.8440056]}},{"type":"Feature","properties":{"id":25016834,"osm_type":"way","name":"Fyrisfjädern","category":"sports_centre","tags":{"building":"sports_hall","leisure":"sports_centre","location":"indoor","name":"Fyrisfjädern","sport":"badminton","wikidata":"Q10500622","wikipedia":"sv:Fyrisfjädern"}},"geometry":{"type":"Point","coordinates":[17.616383,59.8718571]}},{"type":"Feature","properties":{"id":25017204,"osm_type":"way","name":"Fyrishov","category":"sports_centre","tags":{"building":"yes","leisure":"sports_centre","name":"Fyrishov","sport":"gymnastics","website":"https://fyrishov.se/","wheelchair":"yes","wikidata":"Q5511301","wikipedia":"sv:Fyrishov"}},"geometry":{"type":"Point","coordinates":[17.6243048,59.8702812]}},{"type":"Feature","properties":{"id":25063276,"osm_type":"way","name":"Friskis & Svettis","category":"sports_centre","tags":{"building":"yes","leisure":"fitness_centre","name":"Friskis & Svettis","sport":"gymnastics;fitness;multi"}},"geometry":{"type":"Point","coordinates":[17.6571499,59.816356]}},{"type":"Feature","properties":{"id":32529503,"osm_type":"way","name":"Stallet","category":"sports_centre","tags":{"addr:city":"Uppsala","addr:country":"SE","addr:housenumber":"58","addr:street":"Dag Hammarskjölds väg","building":"yes","leisure":"sports_centre","name":"Stallet","wheelchair":"limited"}},"geometry":{"type":"Point","coordinates":[17.6424627,59.8437993]}},{"type":"Feature","properties":{"id":33828346,"osm_type":"way","name":"Fjälliden","category":"sports_centre","tags":{"leisure":"sports_centre","name":"Fjälliden","sport":"soccer"}},"geometry":{"type":"Point","coordinates":[17.5333062,59.8840191]}},{"type":"Feature","properties":{"id":33828352,"osm_type":"way","name":"","category":"sports_centre","tags":{"leisure":"sports_centre","sport":"equestrian"}},"geometry":{"type":"Point","coordinates":[17.5308248,59.8814422]}},{"type":"Feature","properties":{"id":34725023,"osm_type":"way","name":"","category":"sports_centre","tags":{"leisure":"sports_centre","sport":"tennis"}},"geometry":{"type":"Point","coordinates":[17.5327404,59.8794945]}},{"type":"Feature","properties":{"id":37414674,"osm_type":"way","name":"","category":"sports_centre","tags":{"building":"yes","leisure":"sports_centre","roof:colour":"red","roof:shape":"gabled"}},"geometry":{"type":"Point","coordinates":[17.6396493,59.8984205]}},{"type":"Feature","properties":{"id":46883090,"osm_type":"way","name":"","category":"sports_centre","tags":{"leisure":"ice_rink"}},"geometry":{"type":"Point","coordinates":[17.5765762,59.8369167]}},{"type":"Feature","properties":{"id":72981169,"osm_type":"way","name":"Björkhallen","category":"sports_centre","tags":{"addr:city":"Knivsta","addr:country":"SE","addr:housenumber":"35","addr:place":"Edeby","addr:postcode":"74191","building":"yes","leisure":"sports_hall","name":"Björkhallen","sport":"table_tennis","website":"https://www.vassundaif.se/sida/?ID=209028"}},"geometry":{"type":"Point","coordinates":[17.7313022,59.7090881]}},{"type":"Feature","properties":{"id":74141161,"osm_type":"way","name":"Gränby ishallar","category":"sports_centre","tags":{"building":"yes","leisure":"sports_centre","name":"Gränby ishallar","operator":"Uppsala Kommun Sportfastigheter","sport":"ice_hockey"}},"geometry":{"type":"Point","coordinates":[17.658051,59.8806061]}},{"type":"Feature","properties":{"id":88523270,"osm_type":"way","name":"Träningsbasen","category":"sports_centre","tags":{"addr:city":"Uppsala","addr:country":"SE","addr:housenumber":"29","addr:postcode":"75436","addr:street":"Gröna gatan","building":"yes","check_date":"2025-03-02","email":"mathias@traningsbasen.se","leisure":"fitness_centre","name":"Träningsbasen","name:sv":"Träningsbasen","opening_hours":"Mo-Fr 17:00-20:00; Sa,Su 11:00-17:00","phone":"+46 18 8001100","source":"Bing;survey","website":"https://www.traningsbasen.se/"}},"geometry":{"type":"Point","coordinates":[17.6785668,59.8671316]}},{"type":"Feature","properties":{"id":95454437,"osm_type":"way","name":"Gordon Nice Ice Arena","category":"sports_centre","tags":{"building":"sports_hall","leisure":"sports_centre","location":"indoor","name":"Gordon Nice Ice Arena","seasonal":"yes","sport":"ice_skating;ice_hockey"}},"geometry":{"type":"Point","coordinates":[17.6254734,59.821698]}},{"type":"Feature","properties":{"id":95497419,"osm_type":"way","name":"Valsätra Idrottsplats","category":"sports_centre","tags":{"alt_name":"Valsätravallen","barrier":"fence","leisure":"sports_centre","name":"Valsätra Idrottsplats","wheelchair":"yes"}},"geometry":{"type":"Point","coordinates":[17.6244717,59.8213309]}},{"type":"Feature","properties":{"id":96926380,"osm_type":"way","name":"OK Linné","category":"sports_centre","tags":{"leisure":"sports_centre","name":"OK Linné","sport":"orienteering"}},"geometry":{"type":"Point","coordinates":[17.6097524,59.8280927]}},{"type":"Feature","properties":{"id":98822088,"osm_type":"way","name":"Gränby ishallar","category":"sports_centre","tags":{"building":"sports_hall","leisure":"sports_centre","location":"indoor","name":"Gränby ishallar","operator":"Uppsala Kommun Sportfastigheter","sport":"ice_hockey","wikidata":"Q10509715","wikipedia":"sv:Gränby ishall"}},"geometry":{"type":"Point","coordinates":[17.6572549,59.880227]}},{"type":"Feature","properties":{"id":98942829,"osm_type":"way","name":"Diöshallen","category":"sports_centre","tags":{"building":"sports_hall","leisure":"sports_centre","location":"indoor","name":"Diöshallen","sport":"soccer"}},"geometry":{"type":"Point","coordinates":[17.6382793,59.876049]}},{"type":"Feature","properties":{"id":102693345,"osm_type":"way","name":"","category":"sports_centre","tags":{"building":"yes","leisure":"sports_hall"}},"geometry":{"type":"Point","coordinates":[17.6662825,59.857169]}},{"type":"Feature","properties":{"id":103238074,"osm_type":"way","name":"Recoverhallen","category":"sports_centre","tags":{"addr:city":"Uppsala","addr:country":"SE","addr:housename":"Bandyhall","addr:housenumber":"71","addr:postcode":"75430","addr:street":"Råbyvägen","building":"yes","leisure":"sports_centre","name":"Recoverhallen","operator":"Uppsala Kommun Sportfastigheter","seasonal":"yes","sport":"bandy","surface":"ice_pitch","website":"https://bandyhall.nu/","wikidata":"Q10650805","wikipedia":"sv:Recoverhallen"}},"geometry":{"type":"Point","coordinates":[17.6593054,59.8805096]}},{"type":"Feature","properties":{"id":124114020,"osm_type":"way","name":"Ärentunahallen","category":"sports_centre","tags":{"addr:city":"Storvreta","addr:country":"SE","addr:housenumber":"1","addr:postcode":"74330","addr:street":"Ärentunavägen","description":"Idrottshall","leisure":"sports_centre","name":"Ärentunahallen","sport":"innebandy"}},"geometry":{"type":"Point","coordinates":[17.6963115,59.9623316]}},{"type":"Feature","properties":{"id":126230954,"osm_type":"way","name":"Rörken","category":"sports_centre","tags":{"area":"yes","leisure":"sports_centre","name":"Rörken","sport":"motor;motocross;enduro;gocart","website":"http://www.rorken.se/"}},"geometry":{"type":"Point","coordinates":[17.7536066,59.9228011]}},{"type":"Feature","properties":{"id":128274523,"osm_type":"way","name":"Rosendals allaktivitetsplats","category":"sports_centre","tags":{"addr:city":"Uppsala","addr:housenumber":"47","addr:postcode":"752 55","addr:street":"Arne Tiselius gata","leisure":"sports_centre","name":"Rosendals allaktivitetsplats"}},"geometry":{"type":"Point","coordinates":[17.6292282,59.8339488]}},{"type":"Feature","properties":{"id":131395520,"osm_type":"way","name":"Allis","category":"sports_centre","tags":{"addr:country":"SE","addr:housenumber":"8","addr:street":"Sylveniusgatan","building":"yes","check_date":"2025-08-29","leisure":"sports_centre","name":"Allis","wheelchair":"limited"}},"geometry":{"type":"Point","coordinates":[17.6843218,59.8577648]}},{"type":"Feature","properties":{"id":137115649,"osm_type":"way","name":"","category":"sports_centre","tags":{"leisure":"sports_centre"}},"geometry":{"type":"Point","coordinates":[17.6350016,59.8889731]}},{"type":"Feature","properties":{"id":144463765,"osm_type":"way","name":"Hälsohuset","category":"sports_centre","tags":{"building":"yes","leisure":"sports_centre","name":"Hälsohuset","sport":"swimming;multi"}},"geometry":{"type":"Point","coordinates":[17.7943302,59.7220889]}},{"type":"Feature","properties":{"id":170655163,"osm_type":"way","name":"Alsike Sporthall","category":"sports_centre","tags":{"addr:city":"Knivsta","addr:country":"SE","addr:housenumber":"4","addr:postcode":"74145","addr:street":"Morkullegatan","building":"yes","leisure":"sports_centre","name":"Alsike Sporthall"}},"geometry":{"type":"Point","coordinates":[17.7818093,59.7490399]}},{"type":"Feature","properties":{"id":207759582,"osm_type":"way","name":"Antonis Gym","category":"sports_centre","tags":{"addr:city":"Uppsala","addr:country":"SE","addr:housenumber":"66","addr:postcode":"75229","addr:street":"Börjegatan","building":"yes","leisure":"sports_centre","name":"Antonis Gym","source":"survey, bing","sport":"athletics"}},"geometry":{"type":"Point","coordinates":[17.6064922,59.8678]}},{"type":"Feature","properties":{"id":223642785,"osm_type":"way","name":"Campus1477","category":"sports_centre","tags":{"building":"sports_centre","building:levels":"2","fee":"yes","leisure":"sports_centre","name":"Campus1477","opening_hours":"Mo-Th 06:00-22:30; Fr 06:00-20:00; Sa 08:00-19:00; Su 09:00-21:00","website":"https://www.campus1477.se/","wheelchair":"yes"}},"geometry":{"type":"Point","coordinates":[17.6321512,59.8498268]}},{"type":"Feature","properties":{"id":224288650,"osm_type":"way","name":"","category":"sports_centre","tags":{"building":"yes","leisure":"sports_centre"}},"geometry":{"type":"Point","coordinates":[17.7360745,60.0186456]}},{"type":"Feature","properties":{"id":228807322,"osm_type":"way","name":"Stenhagshallen","category":"sports_centre","tags":{"access":"private","addr:city":"Uppsala","addr:country":"SE","addr:housenumber":"421","addr:postcode":"75267","addr:street":"Herrhagsvägen","building":"yes","leisure":"sports_hall","name":"Stenhagshallen"}},"geometry":{"type":"Point","coordinates":[17.5629983,59.8572907]}},{"type":"Feature","properties":{"id":229050106,"osm_type":"way","name":"","category":"sports_centre","tags":{"access":"private","leisure":"swimming_pool"}},"geometry":{"type":"Point","coordinates":[17.7895337,59.7812092]}},{"type":"Feature","properties":{"id":236861335,"osm_type":"way","name":"USIF Arena","category":"sports_centre","tags":{"addr:city":"Uppsala","addr:country":"SE","addr:housenumber":"2","addr:postcode":"75644","addr:street":"Torgny Segerstedts allé","building":"sports_hall","leisure":"sports_centre","location":"indoor","name":"USIF Arena","sport":"tennis;padel;gym"}},"geometry":{"type":"Point","coordinates":[17.6338774,59.8307978]}},{"type":"Feature","properties":{"id":254128883,"osm_type":"way","name":"Actic","category":"sports_centre","tags":{"addr:city":"Uppsala","addr:country":"SE","addr:housenumber":"5","addr:street":"Säbygatan","building":"commercial","leisure":"fitness_centre","name":"Actic"}},"geometry":{"type":"Point","coordinates":[17.6564007,59.8553091]}},{"type":"Feature","properties":{"id":269715198,"osm_type":"way","name":"Fyrishov","category":"sports_centre","tags":{"building":"yes","leisure":"sports_centre","name":"Fyrishov","wheelchair":"yes"}},"geometry":{"type":"Point","coordinates":[17.6253887,59.8702359]}},{"type":"Feature","properties":{"id":269802218,"osm_type":"way","name":"","category":"sports_centre","tags":{"access":"customers","leisure":"swimming_pool","wheelchair":"limited"}},"geometry":{"type":"Point","coordinates":[17.6211985,59.8707632]}},{"type":"Feature","properties":{"id":269802219,"osm_type":"way","name":"","category":"sports_centre","tags":{"access":"customers","leisure":"swimming_pool"}},"geometry":{"type":"Point","coordinates":[17.6219454,59.8703488]}},{"type":"Feature","properties":{"id":314570608,"osm_type":"way","name":"Sunnersta motorikbana","category":"sports_centre","tags":{"alt_name":"Motorikbanan Sunnerstaåsen","leisure":"fitness_station","lit":"yes","name":"Sunnersta motorikbana","sport":"fitness","wikidata":"Q107405326"}},"geometry":{"type":"Point","coordinates":[17.6584904,59.7930133]}},{"type":"Feature","properties":{"id":362823002,"osm_type":"way","name":"Utegym","category":"sports_centre","tags":{"fee":"no","fitness_station":"log_lifting","leisure":"fitness_station","name":"Utegym","sport":"exercise","website":"https://www.knivsta.se/sv-SE/Kommun-och-politik/Nyheter-och-pressinformation/Nyheter-2013/2013/maj/gym.aspx","wikidata":"Q107419877"}},"geometry":{"type":"Point","coordinates":[17.7947919,59.7404279]}},{"type":"Feature","properties":{"id":380040909,"osm_type":"way","name":"","category":"sports_centre","tags":{"building":"yes","leisure":"swimming_pool","sport":"swimming"}},"geometry":{"type":"Point","coordinates":[17.7948886,59.7218473]}},{"type":"Feature","properties":{"id":436027013,"osm_type":"way","name":"Lötens idrottsplats","category":"sports_centre","tags":{"landuse":"recreation_ground","leisure":"sports_centre","name":"Lötens idrottsplats","short_name":"Lötens IP","sport":"multi","wikidata":"Q18292134","wikipedia":"sv:Lötens IP"}},"geometry":{"type":"Point","coordinates":[17.6374356,59.8768881]}},{"type":"Feature","properties":{"id":443563619,"osm_type":"way","name":"Utegym","category":"sports_centre","tags":{"leisure":"fitness_centre","name":"Utegym","sport":"exercise","wikidata":"Q107419867"}},"geometry":{"type":"Point","coordinates":[17.7775689,59.762492]}},{"type":"Feature","properties":{"id":488723590,"osm_type":"way","name":"IFU Arena","category":"sports_centre","tags":{"addr:city":"Uppsala","addr:country":"SE","addr:housenumber":"77","addr:street":"Råbyvägen","building":"yes","leisure":"sports_centre","name":"IFU Arena","phone":"+46 18 201010","sport":"multi","website":"https://www.ifuarena.se/","wikidata":"Q31895659","wikipedia":"sv:IFU Arena"}},"geometry":{"type":"Point","coordinates":[17.6574191,59.8820864]}},{"type":"Feature","properties":{"id":490726612,"osm_type":"way","name":"","category":"sports_centre","tags":{"access":"private","leisure":"swimming_pool"}},"geometry":{"type":"Point","coordinates":[17.6847583,59.9307624]}},{"type":"Feature","properties":{"id":490726616,"osm_type":"way","name":"","category":"sports_centre","tags":{"access":"private","leisure":"swimming_pool"}},"geometry":{"type":"Point","coordinates":[17.6813549,59.9304211]}},{"type":"Feature","properties":{"id":490726646,"osm_type":"way","name":"","category":"sports_centre","tags":{"access":"private","leisure":"swimming_pool"}},"geometry":{"type":"Point","coordinates":[17.6703937,59.9264504]}},{"type":"Feature","properties":{"id":490752631,"osm_type":"way","name":"","category":"sports_centre","tags":{"access":"private","leisure":"swimming_pool"}},"geometry":{"type":"Point","coordinates":[17.7024094,59.8956855]}},{"type":"Feature","properties":{"id":492108171,"osm_type":"way","name":"","category":"sports_centre","tags":{"access":"private","leisure":"swimming_pool"}},"geometry":{"type":"Point","coordinates":[17.5382758,59.8749122]}},{"type":"Feature","properties":{"id":492135998,"osm_type":"way","name":"","category":"sports_centre","tags":{"access":"private","leisure":"swimming_pool"}},"geometry":{"type":"Point","coordinates":[17.7563893,59.8593963]}},{"type":"Feature","properties":{"id":499004927,"osm_type":"way","name":"","category":"sports_centre","tags":{"access":"private","leisure":"swimming_pool"}},"geometry":{"type":"Point","coordinates":[17.4853276,59.9064263]}},{"type":"Feature","properties":{"id":499048876,"osm_type":"way","name":"","category":"sports_centre","tags":{"access":"private","leisure":"swimming_pool"}},"geometry":{"type":"Point","coordinates":[17.6388091,59.9089148]}},{"type":"Feature","properties":{"id":499825628,"osm_type":"way","name":"","category":"sports_centre","tags":{"access":"private","leisure":"swimming_pool"}},"geometry":{"type":"Point","coordinates":[17.4982013,59.94392]}},{"type":"Feature","properties":{"id":499829818,"osm_type":"way","name":"","category":"sports_centre","tags":{"access":"private","leisure":"swimming_pool"}},"geometry":{"type":"Point","coordinates":[17.5157971,59.9436451]}},{"type":"Feature","properties":{"id":503319702,"osm_type":"way","name":"","category":"sports_centre","tags":{"access":"private","leisure":"swimming_pool"}},"geometry":{"type":"Point","coordinates":[17.6367675,59.9429338]}},{"type":"Feature","properties":{"id":503927106,"osm_type":"way","name":"","category":"sports_centre","tags":{"access":"private","leisure":"swimming_pool"}},"geometry":{"type":"Point","coordinates":[17.5143908,59.9041467]}},{"type":"Feature","properties":{"id":515505763,"osm_type":"way","name":"","category":"sports_centre","tags":{"area":"yes","leisure":"sports_centre","sport":"boules"}},"geometry":{"type":"Point","coordinates":[17.6450322,59.7348936]}},{"type":"Feature","properties":{"id":583989364,"osm_type":"way","name":"Uppsala Friidrottsarena","category":"sports_centre","tags":{"leisure":"sports_centre","name":"Uppsala Friidrottsarena","operator":"Uppsala Kommun Sportfastigheter","sport":"athletics"}},"geometry":{"type":"Point","coordinates":[17.662635,59.8812815]}},{"type":"Feature","properties":{"id":625646967,"osm_type":"way","name":"Sunnerstaåsens friluftsområde","category":"sports_centre","tags":{"landuse":"winter_sports","leisure":"sports_centre","name":"Sunnerstaåsens friluftsområde"}},"geometry":{"type":"Point","coordinates":[17.6617171,59.7922554]}},{"type":"Feature","properties":{"id":674232540,"osm_type":"way","name":"Österängens idrottsplats","category":"sports_centre","tags":{"leisure":"sports_centre","location":"outdoor","name":"Österängens idrottsplats","phone":"+46 18 7271390","short_name":"Österängens IP","sport":"multi","website":"https://www.sportfastigheter.se/sv/Amne2/Osterangens-IP/","wikidata":"Q19946495","wikipedia":"sv:Österängens IP"}},"geometry":{"type":"Point","coordinates":[17.6599972,59.8648615]}},{"type":"Feature","properties":{"id":719960660,"osm_type":"way","name":"","category":"sports_centre","tags":{"description":"Open air Gym","fitness_station":"horizontal_bar","leisure":"fitness_station","lit":"yes","noname":"yes","opening_hours":"24/7","sport":"fitness","wheelchair":"limited"}},"geometry":{"type":"Point","coordinates":[17.5886883,59.8504451]}},{"type":"Feature","properties":{"id":719973853,"osm_type":"way","name":"","category":"sports_centre","tags":{"leisure":"fitness_station","sport":"fitness","wikidata":"Q107405338"}},"geometry":{"type":"Point","coordinates":[17.5575677,59.8531246]}},{"type":"Feature","properties":{"id":771960573,"osm_type":"way","name":"Studenternas","category":"sports_centre","tags":{"access":"yes","alt_name":"Studenternas IP","leisure":"sports_centre","name":"Studenternas","operator":"Uppsala Kommun","sport":"football;dancing;bandy","website":"https://studenternas.se/","wikidata":"Q4444527"}},"geometry":{"type":"Point","coordinates":[17.6463998,59.8486592]}},{"type":"Feature","properties":{"id":777015150,"osm_type":"way","name":"","category":"sports_centre","tags":{"leisure":"fitness_station","wikidata":"Q107486772"}},"geometry":{"type":"Point","coordinates":[17.6580555,59.8167155]}},{"type":"Feature","properties":{"id":785688988,"osm_type":"way","name":"Skidskytte","category":"sports_centre","tags":{"leisure":"sports_centre","name":"Skidskytte","sport":"skidskytte"}},"geometry":{"type":"Point","coordinates":[17.7136847,59.9523269]}},{"type":"Feature","properties":{"id":793286974,"osm_type":"way","name":"Skogsvallen","category":"sports_centre","tags":{"addr:city":"Storvreta","addr:country":"SE","addr:housenumber":"15","addr:postcode":"74340","addr:street":"Skogsvallsvägen","leisure":"sports_centre","name":"Skogsvallen","sport":"soccer;table_tennis;cross_country_skiing;biathlon","website":"https://www.laget.se/Storvreta_IK"}},"geometry":{"type":"Point","coordinates":[17.7123447,59.9535903]}},{"type":"Feature","properties":{"id":839396091,"osm_type":"way","name":"Life Arena","category":"sports_centre","tags":{"building":"yes","leisure":"fitness_centre","name":"Life Arena","opening_hours":"Mo-Su 06:00-23:00"}},"geometry":{"type":"Point","coordinates":[17.6898671,59.8578773]}},{"type":"Feature","properties":{"id":851989247,"osm_type":"way","name":"","category":"sports_centre","tags":{"leisure":"fitness_station","sport":"fitness"}},"geometry":{"type":"Point","coordinates":[17.644548,59.814117]}},{"type":"Feature","properties":{"id":888934627,"osm_type":"way","name":"","category":"sports_centre","tags":{"leisure":"fitness_station","sport":"fitness","wikidata":"Q107405329"}},"geometry":{"type":"Point","coordinates":[17.697387,59.9564384]}},{"type":"Feature","properties":{"id":954035019,"osm_type":"way","name":"","category":"sports_centre","tags":{"leisure":"fitness_station","lit":"yes","sport":"gymnastics","wikidata":"Q107486384"}},"geometry":{"type":"Point","coordinates":[17.6310795,59.8318485]}},{"type":"Feature","properties":{"id":960057245,"osm_type":"way","name":"","category":"sports_centre","tags":{"blind":"yes","fitness_station":"yes","leisure":"fitness_station","sport":"fitness","wheelchair":"yes"}},"geometry":{"type":"Point","coordinates":[17.6564822,59.838974]}},{"type":"Feature","properties":{"id":1018647046,"osm_type":"way","name":"","category":"sports_centre","tags":{"leisure":"fitness_station","sport":"fitness","website":"https://www.uppsala.se/kultur-och-fritid/aktiviteter-motion-och-idrott/motion-och-bad/utegym/utegymmet-i-libroback/","wikidata":"Q107405323"}},"geometry":{"type":"Point","coordinates":[17.6027859,59.877183]}},{"type":"Feature","properties":{"id":1018769592,"osm_type":"way","name":"City padel","category":"sports_centre","tags":{"check_date":"2024-07-10","leisure":"sports_centre","name":"City padel"}},"geometry":{"type":"Point","coordinates":[17.6709355,59.8551136]}},{"type":"Feature","properties":{"id":1092088548,"osm_type":"way","name":"","category":"sports_centre","tags":{"access":"private","leisure":"swimming_pool"}},"geometry":{"type":"Point","coordinates":[17.769737,59.7577818]}},{"type":"Feature","properties":{"id":1101797559,"osm_type":"way","name":"","category":"sports_centre","tags":{"leisure":"fitness_station","sport":"fitness"}},"geometry":{"type":"Point","coordinates":[17.7905137,59.7211843]}},{"type":"Feature","properties":{"id":1101797560,"osm_type":"way","name":"","category":"sports_centre","tags":{"leisure":"fitness_station","sport":"fitness"}},"geometry":{"type":"Point","coordinates":[17.7909052,59.7206916]}},{"type":"Feature","properties":{"id":1104499876,"osm_type":"way","name":"","category":"sports_centre","tags":{"fee":"no","leisure":"fitness_station","sport":"fitness"}},"geometry":{"type":"Point","coordinates":[17.5518065,59.9443846]}},{"type":"Feature","properties":{"id":1104499878,"osm_type":"way","name":"","category":"sports_centre","tags":{"fee":"no","leisure":"fitness_station","sport":"fitness"}},"geometry":{"type":"Point","coordinates":[17.5463529,59.9459681]}},{"type":"Feature","properties":{"id":1130711216,"osm_type":"way","name":"","category":"sports_centre","tags":{"fitness_station":"yes","leisure":"fitness_station","lit":"yes","sport":"fitness","wheelchair":"no"}},"geometry":{"type":"Point","coordinates":[17.5582296,59.8497483]}},{"type":"Feature","properties":{"id":1171508250,"osm_type":"way","name":"","category":"sports_centre","tags":{"access":"private","leisure":"swimming_pool"}},"geometry":{"type":"Point","coordinates":[17.7560612,59.7309662]}},{"type":"Feature","properties":{"id":1171508251,"osm_type":"way","name":"","category":"sports_centre","tags":{"access":"private","leisure":"swimming_pool"}},"geometry":{"type":"Point","coordinates":[17.7559635,59.7314991]}},{"type":"Feature","properties":{"id":1171583918,"osm_type":"way","name":"","category":"sports_centre","tags":{"access":"private","leisure":"swimming_pool"}},"geometry":{"type":"Point","coordinates":[17.7499093,59.7360988]}},{"type":"Feature","properties":{"id":1173582235,"osm_type":"way","name":"","category":"sports_centre","tags":{"building:part":"yes","leisure":"sports_hall","sport":"soccer;basketball;handball;floorball"}},"geometry":{"type":"Point","coordinates":[17.7925099,59.7209991]}},{"type":"Feature","properties":{"id":1173582237,"osm_type":"way","name":"","category":"sports_centre","tags":{"building:part":"yes","leisure":"ice_rink"}},"geometry":{"type":"Point","coordinates":[17.7917612,59.7216738]}},{"type":"Feature","properties":{"id":1178554350,"osm_type":"way","name":"","category":"sports_centre","tags":{"access":"private","leisure":"swimming_pool"}},"geometry":{"type":"Point","coordinates":[17.7871354,59.7415519]}},{"type":"Feature","properties":{"id":1178554357,"osm_type":"way","name":"","category":"sports_centre","tags":{"access":"private","leisure":"swimming_pool"}},"geometry":{"type":"Point","coordinates":[17.7726689,59.7477088]}},{"type":"Feature","properties":{"id":1178554358,"osm_type":"way","name":"","category":"sports_centre","tags":{"access":"private","leisure":"swimming_pool"}},"geometry":{"type":"Point","coordinates":[17.7717778,59.7474096]}},{"type":"Feature","properties":{"id":1178554361,"osm_type":"way","name":"","category":"sports_centre","tags":{"access":"private","leisure":"swimming_pool"}},"geometry":{"type":"Point","coordinates":[17.7705777,59.7531134]}},{"type":"Feature","properties":{"id":1178739775,"osm_type":"way","name":"","category":"sports_centre","tags":{"access":"private","leisure":"swimming_pool"}},"geometry":{"type":"Point","coordinates":[17.7566706,59.7531362]}},{"type":"Feature","properties":{"id":1178739776,"osm_type":"way","name":"","category":"sports_centre","tags":{"access":"private","leisure":"swimming_pool"}},"geometry":{"type":"Point","coordinates":[17.7604114,59.7543732]}},{"type":"Feature","properties":{"id":1178739782,"osm_type":"way","name":"","category":"sports_centre","tags":{"access":"private","leisure":"swimming_pool"}},"geometry":{"type":"Point","coordinates":[17.7611303,59.7505498]}},{"type":"Feature","properties":{"id":1178798027,"osm_type":"way","name":"","category":"sports_centre","tags":{"access":"private","leisure":"swimming_pool"}},"geometry":{"type":"Point","coordinates":[17.7619591,59.7663271]}},{"type":"Feature","properties":{"id":1185990351,"osm_type":"way","name":"","category":"sports_centre","tags":{"access":"private","leisure":"swimming_pool"}},"geometry":{"type":"Point","coordinates":[17.6497216,59.7120089]}},{"type":"Feature","properties":{"id":1185990352,"osm_type":"way","name":"","category":"sports_centre","tags":{"access":"private","leisure":"swimming_pool"}},"geometry":{"type":"Point","coordinates":[17.6498458,59.7122547]}},{"type":"Feature","properties":{"id":1186684333,"osm_type":"way","name":"","category":"sports_centre","tags":{"access":"private","building":"yes","leisure":"swimming_pool"}},"geometry":{"type":"Point","coordinates":[17.6988546,59.73433]}},{"type":"Feature","properties":{"id":1187248436,"osm_type":"way","name":"","category":"sports_centre","tags":{"access":"private","leisure":"swimming_pool"}},"geometry":{"type":"Point","coordinates":[17.736659,59.7539173]}},{"type":"Feature","properties":{"id":1187248438,"osm_type":"way","name":"","category":"sports_centre","tags":{"access":"private","leisure":"swimming_pool"}},"geometry":{"type":"Point","coordinates":[17.7300443,59.7478808]}},{"type":"Feature","properties":{"id":1187248443,"osm_type":"way","name":"","category":"sports_centre","tags":{"access":"private","leisure":"swimming_pool"}},"geometry":{"type":"Point","coordinates":[17.731894,59.7498308]}},{"type":"Feature","properties":{"id":1187263989,"osm_type":"way","name":"","category":"sports_centre","tags":{"access":"private","leisure":"swimming_pool"}},"geometry":{"type":"Point","coordinates":[17.7475346,59.7441174]}},{"type":"Feature","properties":{"id":1187263992,"osm_type":"way","name":"","category":"sports_centre","tags":{"access":"private","leisure":"swimming_pool"}},"geometry":{"type":"Point","coordinates":[17.747894,59.7432239]}},{"type":"Feature","properties":{"id":1187271317,"osm_type":"way","name":"","category":"sports_centre","tags":{"access":"private","leisure":"swimming_pool"}},"geometry":{"type":"Point","coordinates":[17.7384782,59.7050148]}},{"type":"Feature","properties":{"id":1187374362,"osm_type":"way","name":"","category":"sports_centre","tags":{"access":"private","leisure":"swimming_pool"}},"geometry":{"type":"Point","coordinates":[17.6470444,59.6990845]}},{"type":"Feature","properties":{"id":1187379236,"osm_type":"way","name":"","category":"sports_centre","tags":{"access":"private","leisure":"swimming_pool"}},"geometry":{"type":"Point","coordinates":[17.6432534,59.6994176]}},{"type":"Feature","properties":{"id":1187541858,"osm_type":"way","name":"","category":"sports_centre","tags":{"access":"private","leisure":"swimming_pool"}},"geometry":{"type":"Point","coordinates":[17.6827356,59.7046001]}},{"type":"Feature","properties":{"id":1187841732,"osm_type":"way","name":"","category":"sports_centre","tags":{"access":"private","leisure":"swimming_pool"}},"geometry":{"type":"Point","coordinates":[17.7764818,59.7767163]}},{"type":"Feature","properties":{"id":1187841743,"osm_type":"way","name":"","category":"sports_centre","tags":{"access":"private","leisure":"swimming_pool"}},"geometry":{"type":"Point","coordinates":[17.7756131,59.7776355]}},{"type":"Feature","properties":{"id":1187841744,"osm_type":"way","name":"","category":"sports_centre","tags":{"access":"private","leisure":"swimming_pool"}},"geometry":{"type":"Point","coordinates":[17.7747185,59.7777759]}},{"type":"Feature","properties":{"id":1193005128,"osm_type":"way","name":"","category":"sports_centre","tags":{"access":"customers","leisure":"swimming_pool"}},"geometry":{"type":"Point","coordinates":[17.5419018,59.9490904]}},{"type":"Feature","properties":{"id":1193005129,"osm_type":"way","name":"","category":"sports_centre","tags":{"access":"customers","leisure":"swimming_pool"}},"geometry":{"type":"Point","coordinates":[17.5413047,59.9491411]}},{"type":"Feature","properties":{"id":1193005130,"osm_type":"way","name":"","category":"sports_centre","tags":{"access":"customers","leisure":"swimming_pool"}},"geometry":{"type":"Point","coordinates":[17.5414318,59.9489478]}},{"type":"Feature","properties":{"id":1199261277,"osm_type":"way","name":"Bälinge IP","category":"sports_centre","tags":{"leisure":"sports_centre","name":"Bälinge IP","sport":"soccer"}},"geometry":{"type":"Point","coordinates":[17.5435256,59.9476847]}},{"type":"Feature","properties":{"id":1241024751,"osm_type":"way","name":"","category":"sports_centre","tags":{"access":"private","leisure":"swimming_pool"}},"geometry":{"type":"Point","coordinates":[17.7624504,59.7633821]}},{"type":"Feature","properties":{"id":1241024754,"osm_type":"way","name":"","category":"sports_centre","tags":{"access":"private","leisure":"swimming_pool"}},"geometry":{"type":"Point","coordinates":[17.7620915,59.7632581]}},{"type":"Feature","properties":{"id":1241034065,"osm_type":"way","name":"","category":"sports_centre","tags":{"addr:city":"Uppsala","addr:country":"SE","contact:website":"https://danmarks-mk.webnode.se/","leisure":"sports_centre","operator":"Danmarks MK","sport":"motor"}},"geometry":{"type":"Point","coordinates":[17.729549,59.8118269]}},{"type":"Feature","properties":{"id":1255204114,"osm_type":"way","name":"","category":"sports_centre","tags":{"blind":"yes","fitness_station":"yes","leisure":"fitness_station","lit":"yes","sport":"fitness","wheelchair":"yes"}},"geometry":{"type":"Point","coordinates":[17.6941254,59.8666711]}},{"type":"Feature","properties":{"id":1270696881,"osm_type":"way","name":"","category":"sports_centre","tags":{"leisure":"fitness_station","sport":"fitness"}},"geometry":{"type":"Point","coordinates":[17.550491,59.8504045]}},{"type":"Feature","properties":{"id":1293731755,"osm_type":"way","name":"Rosendals multihus","category":"sports_centre","tags":{"addr:city":"Uppsala","addr:housenumber":"4","addr:postcode":"752 55","addr:street":"Rosendals torg","amenity":"library;arts_centre","building:levels":"6","building:part":"yes","leisure":"sports_hall","name":"Rosendals multihus"}},"geometry":{"type":"Point","coordinates":[17.6317156,59.8344768]}},{"type":"Feature","properties":{"id":1299715516,"osm_type":"way","name":"Röbo utomhusgym","category":"sports_centre","tags":{"leisure":"fitness_station","name":"Röbo utomhusgym","operator":"Uppsala kommun","sport":"fitness","website":"https://www.uppsala.se/kultur-och-fritid/aktiviteter-motion-och-idrott/motion-och-bad/utegym/utegymmet-i-robo/","wikidata":"Q107405328"}},"geometry":{"type":"Point","coordinates":[17.6256091,59.8828754]}},{"type":"Feature","properties":{"id":1304419978,"osm_type":"way","name":"","category":"sports_centre","tags":{"access":"private","leisure":"swimming_pool"}},"geometry":{"type":"Point","coordinates":[17.5863489,59.9565359]}},{"type":"Feature","properties":{"id":1312323197,"osm_type":"way","name":"Lindbackens idrottshall","category":"sports_centre","tags":{"addr:city":"Uppsala","addr:housenumber":"55","addr:postcode":"75471","addr:street":"Hagtorpsvägen","building":"yes","leisure":"sports_hall","name":"Lindbackens idrottshall","operator":"Uppsala kommun","operator:wikidata":"Q59091","sport":"basketball;handball;volleyball;floorball;futsal;gymnastics;badminton;table_tennis"}},"geometry":{"type":"Point","coordinates":[17.7450319,59.9092244]}},{"type":"Feature","properties":{"id":1313089307,"osm_type":"way","name":"","category":"sports_centre","tags":{"area":"yes","fitness_station":"yes","leisure":"fitness_station","sport":"fitness"}},"geometry":{"type":"Point","coordinates":[17.6292036,59.8336476]}},{"type":"Feature","properties":{"id":1348301192,"osm_type":"way","name":"","category":"sports_centre","tags":{"access":"private","leisure":"swimming_pool"}},"geometry":{"type":"Point","coordinates":[17.7586857,59.8790537]}},{"type":"Feature","properties":{"id":1348301241,"osm_type":"way","name":"","category":"sports_centre","tags":{"access":"private","leisure":"swimming_pool"}},"geometry":{"type":"Point","coordinates":[17.7586941,59.8776385]}},{"type":"Feature","properties":{"id":1355737121,"osm_type":"way","name":"","category":"sports_centre","tags":{"leisure":"fitness_station","sport":"fitness"}},"geometry":{"type":"Point","coordinates":[17.6601401,59.8745703]}},{"type":"Feature","properties":{"id":1410709543,"osm_type":"way","name":"","category":"sports_centre","tags":{"leisure":"ice_rink","seasonal":"yes","sport":"bandy"}},"geometry":{"type":"Point","coordinates":[17.6483539,59.8471546]}},{"type":"Feature","properties":{"id":1450376680,"osm_type":"way","name":"","category":"sports_centre","tags":{"leisure":"swimming_pool"}},"geometry":{"type":"Point","coordinates":[17.7534392,59.8605795]}},{"type":"Feature","properties":{"id":1456069052,"osm_type":"way","name":"","category":"sports_centre","tags":{"access":"private","leisure":"swimming_pool","swimming_pool":"personal"}},"geometry":{"type":"Point","coordinates":[17.6299164,59.8773061]}},{"type":"Feature","properties":{"id":1485028103,"osm_type":"way","name":"","category":"sports_centre","tags":{"fitness_station":"yes","leisure":"fitness_station","lit":"yes","sport":"fitness"}},"geometry":{"type":"Point","coordinates":[17.7306556,59.9061344]}},{"type":"Feature","properties":{"id":1489207151,"osm_type":"way","name":"","category":"sports_centre","tags":{"access":"private","leisure":"swimming_pool","swimming_pool":"personal"}},"geometry":{"type":"Point","coordinates":[17.7367593,59.9049846]}},{"type":"Feature","properties":{"id":1489276629,"osm_type":"way","name":"","category":"sports_centre","tags":{"access":"private","leisure":"swimming_pool","swimming_pool":"personal"}},"geometry":{"type":"Point","coordinates":[17.7355301,59.9029581]}},{"type":"Feature","properties":{"id":1489603307,"osm_type":"way","name":"","category":"sports_centre","tags":{"access":"private","leisure":"swimming_pool","swimming_pool":"personal"}},"geometry":{"type":"Point","coordinates":[17.7332131,59.9033524]}},{"type":"Feature","properties":{"id":1489603326,"osm_type":"way","name":"","category":"sports_centre","tags":{"access":"private","leisure":"swimming_pool","swimming_pool":"personal"}},"geometry":{"type":"Point","coordinates":[17.7353702,59.9023974]}},{"type":"Feature","properties":{"id":1490282924,"osm_type":"way","name":"","category":"sports_centre","tags":{"access":"private","leisure":"swimming_pool","swimming_pool":"personal"}},"geometry":{"type":"Point","coordinates":[17.7350871,59.9096531]}},{"type":"Feature","properties":{"id":2587443,"osm_type":"relation","name":"Gränby sportfält","category":"sports_centre","tags":{"leisure":"sports_centre","name":"Gränby sportfält","type":"multipolygon"}},"geometry":{"type":"Point","coordinates":[17.660017,59.8814139]}},{"type":"Feature","properties":{"id":9369379,"osm_type":"relation","name":"UTK-hallarna","category":"sports_centre","tags":{"building":"sports_hall","leisure":"sports_centre","location":"indoor","name":"UTK-hallarna","sport":"tennis","type":"multipolygon"}},"geometry":{"type":"Point","coordinates":[17.6619844,59.8828786]}}]}