{"type":"FeatureCollection","features":[{"type":"Feature","properties":{"id":413635203,"osm_type":"node","name":"Fyrisbiografen","category":"theatre","tags":{"addr:city":"Uppsala","addr:country":"SE","addr:housenumber":"10","addr:street":"Sankt Olofsgatan","amenity":"cinema","check_date":"2024-07-11","name":"Fyrisbiografen","phone":"+46 18 150346","website":"https://www.fyrisbiografen.com/","wheelchair":"no","wikidata":"Q973772","wikipedia":"sv:Fyrisbiografen"}},"geometry":{"type":"Point","coordinates":[17.6291603,59.8582271]}},{"type":"Feature","properties":{"id":413639599,"osm_type":"node","name":"Slottsbiografen","category":"theatre","tags":{"addr:city":"Uppsala","addr:country":"SE","addr:housenumber":"6","addr:street":"Nedre Slottsgatan","amenity":"cinema","check_date":"2025-07-17","name":"Slottsbiografen","website":"http://www.slottsbio.com/","wheelchair":"limited","wikidata":"Q3486770","wikipedia":"sv:Slottsbiografen"}},"geometry":{"type":"Point","coordinates":[17.6344116,59.8562412]}},{"type":"Feature","properties":{"id":455006651,"osm_type":"node","name":"Uppsala Stadsteater","category":"theatre","tags":{"addr:city":"Uppsala","addr:country":"SE","addr:housenumber":"53","addr:postcode":"75140","addr:street":"Kungsgatan","amenity":"theatre","check_date":"2025-08-16","name":"Uppsala Stadsteater","phone":"+46 18 146200","website":"https://uppsalastadsteater.se/","wheelchair":"yes","wikidata":"Q10710226","wikipedia":"sv:Uppsala Stadsteater"}},"geometry":{"type":"Point","coordinates":[17.6429753,59.8589349]}},{"type":"Feature","properties":{"id":3071369310,"osm_type":"node","name":"Grand","category":"theatre","tags":{"addr:city":"Uppsala","addr:country":"SE","addr:housenumber":"5","addr:postcode":"753 09","addr:street":"Trädgårdsgatan","amenity":"arts_centre","check_date":"2025-08-09","name":"Grand","wheelchair":"yes"}},"geometry":{"type":"Point","coordinates":[17.6361376,59.8567036]}},{"type":"Feature","properties":{"id":3402798228,"osm_type":"node","name":"Alfvénsalen","category":"theatre","tags":{"amenity":"concert_hall","check_date":"2024-07-31","name":"Alfvénsalen"}},"geometry":{"type":"Point","coordinates":[17.6317001,59.8604578]}},{"type":"Feature","properties":{"id":4086330675,"osm_type":"node","name":"Sävja kulturcentrum","category":"theatre","tags":{"amenity":"theatre","check_date":"2024-09-20","name":"Sävja kulturcentrum","operator":"Uppsala Kommun"}},"geometry":{"type":"Point","coordinates":[17.7025991,59.8107804]}},{"type":"Feature","properties":{"id":4345053340,"osm_type":"node","name":"Den Lilla Teatern","category":"theatre","tags":{"addr:city":"Uppsala","addr:country":"SE","addr:housenumber":"22","addr:postcode":"75329","addr:street":"Sankt Persgatan","amenity":"theatre","check_date":"2024-08-30","contact:phone":"+46 18 131556","contact:website":"https://denlillateatern.se/","name":"Den Lilla Teatern","wikidata":"Q10468701","wikipedia":"sv:Den lilla teatern"}},"geometry":{"type":"Point","coordinates":[17.6420061,59.8621467]}},{"type":"Feature","properties":{"id":4345079303,"osm_type":"node","name":"Reginateatern","category":"theatre","tags":{"addr:city":"Uppsala","addr:country":"SE","addr:housenumber":"6","addr:street":"Trädgårdsgatan","amenity":"theatre","check_date":"2026-05-12","name":"Reginateatern","phone":"+46 18 7278340","website":"https://www.reginateatern.se/","wikidata":"Q10650499","wikipedia":"sv:Reginateatern"}},"geometry":{"type":"Point","coordinates":[17.6361266,59.8569052]}},{"type":"Feature","properties":{"id":11109195777,"osm_type":"node","name":"Kultur vid Ekoln","category":"theatre","tags":{"amenity":"arts_centre","name":"Kultur vid Ekoln"}},"geometry":{"type":"Point","coordinates":[17.6490776,59.785912]}},{"type":"Feature","properties":{"id":11196498930,"osm_type":"node","name":"Sprakateatern","category":"theatre","tags":{"addr:housenumber":"24","addr:street":"Salagatan","amenity":"theatre","check_date":"2024-07-23","name":"Sprakateatern","website":"https://teateraros.se/sprakateatern/"}},"geometry":{"type":"Point","coordinates":[17.6459101,59.8621834]}},{"type":"Feature","properties":{"id":12067885577,"osm_type":"node","name":"Konstjord","category":"theatre","tags":{"amenity":"arts_centre","check_date":"2024-07-22","level":"0","name":"Konstjord"}},"geometry":{"type":"Point","coordinates":[17.6305601,59.8097801]}},{"type":"Feature","properties":{"id":12169506667,"osm_type":"node","name":"Nordisk Film Bio","category":"theatre","tags":{"amenity":"cinema","check_date":"2024-09-11","level":"1","name":"Nordisk Film Bio"}},"geometry":{"type":"Point","coordinates":[17.675241,59.8756421]}},{"type":"Feature","properties":{"id":13256356901,"osm_type":"node","name":"The Kaliber Room","category":"theatre","tags":{"addr:city":"Uppsala","addr:housenumber":"27","addr:postcode":"753 31","addr:street":"Storgatan","amenity":"events_venue","name":"The Kaliber Room","website":"https://kaliberroom.com"}},"geometry":{"type":"Point","coordinates":[17.6462461,59.8599482]}},{"type":"Feature","properties":{"id":32119015,"osm_type":"way","name":"Uppsala Konsert & Kongress","category":"theatre","tags":{"amenity":"concert_hall","building":"yes","building:levels":"8","check_date":"2024-06-29","height":"37","name":"Uppsala Konsert & Kongress","name:ko":"웁살라 콘서트 & 컨벤션 홀","old_name":"Musikens hus","roof:shape":"flat","short_name":"UKK","website":"https://www.ukk.se/","wheelchair":"yes","wikidata":"Q7899168","wikipedia":"sv:Uppsala Konsert & Kongress"}},"geometry":{"type":"Point","coordinates":[17.6459599,59.8611758]}},{"type":"Feature","properties":{"id":83253708,"osm_type":"way","name":"Parksnäckan","category":"theatre","tags":{"amenity":"theatre","building":"yes","check_date":"2024-06-18","name":"Parksnäckan","website":"https://parksnackan.se/"}},"geometry":{"type":"Point","coordinates":[17.6444873,59.8514287]}},{"type":"Feature","properties":{"id":121510811,"osm_type":"way","name":"","category":"theatre","tags":{"amenity":"theatre","check_date":"2025-03-01","theatre:type":"amphi"}},"geometry":{"type":"Point","coordinates":[17.6747042,59.8700254]}},{"type":"Feature","properties":{"id":127460274,"osm_type":"way","name":"Arken","category":"theatre","tags":{"addr:city":"Uppsala","addr:country":"SE","addr:housenumber":"2","addr:postcode":"75434","addr:street":"Skomakargatan","amenity":"events_venue","building":"yes","name":"Arken","operator":"Festlokaler i Uppsala","phone":"+46 18 123 567","website":"https://www.festlokaluppsala.se/salabacke-arken/"}},"geometry":{"type":"Point","coordinates":[17.6683203,59.8706787]}},{"type":"Feature","properties":{"id":768304894,"osm_type":"way","name":"Bylunds backe","category":"theatre","tags":{"amenity":"theatre","name":"Bylunds backe","theatre:type":"amphi"}},"geometry":{"type":"Point","coordinates":[17.6622901,59.8147563]}},{"type":"Feature","properties":{"id":804317259,"osm_type":"way","name":"","category":"theatre","tags":{"amenity":"theatre","theatre:type":"amphi"}},"geometry":{"type":"Point","coordinates":[17.6946347,59.9613309]}},{"type":"Feature","properties":{"id":1125816744,"osm_type":"way","name":"Filmstaden LUXE","category":"theatre","tags":{"addr:city":"Uppsala","addr:housenumber":"22","addr:postcode":"75320","addr:street":"Dragarbrunnsgatan","amenity":"cinema","brand":"Filmstaden","brand:wikidata":"Q3459512","building":"yes","check_date":"2024-07-24","name":"Filmstaden LUXE","payment:cash":"yes","payment:credit_cards":"yes","payment:debit_cards":"yes","screen":"13","source":"survey","website":"https://www.filmstaden.se/uppsala/biograf/filmstaden-luxe-uppsala/","wheelchair":"yes"}},"geometry":{"type":"Point","coordinates":[17.6375847,59.8612622]}},{"type":"Feature","properties":{"id":1173582234,"osm_type":"way","name":"","category":"theatre","tags":{"amenity":"theatre","building:part":"yes"}},"geometry":{"type":"Point","coordinates":[17.7921319,59.721299]}},{"type":"Feature","properties":{"id":1462540892,"osm_type":"way","name":"","category":"theatre","tags":{"amenity":"theatre","theatre:type":"amphi"}},"geometry":{"type":"Point","coordinates":[17.6266215,59.8782002]}},{"type":"Feature","properties":{"id":1464111278,"osm_type":"way","name":"","category":"theatre","tags":{"amenity":"theatre","theatre:type":"amphi"}},"geometry":{"type":"Point","coordinates":[17.6480589,59.8332159]}}]}