{"type":"FeatureCollection","features":[{"type":"Feature","properties":{"id":244093137,"osm_type":"node","name":"Folkuniversitetet","category":"university","tags":{"amenity":"university","check_date":"2024-06-18","education":"university","name":"Folkuniversitetet"}},"geometry":{"type":"Point","coordinates":[17.6572662,59.8563404]}},{"type":"Feature","properties":{"id":473487839,"osm_type":"node","name":"Department of business studies","category":"university","tags":{"amenity":"university","check_date":"2026-02-04","name":"Department of business studies","wheelchair":"yes"}},"geometry":{"type":"Point","coordinates":[17.6194317,59.859947]}},{"type":"Feature","properties":{"id":4339482628,"osm_type":"node","name":"Uppsala Universitet Gamla Torget","category":"university","tags":{"amenity":"university","check_date":"2025-07-19","education":"university","name":"Uppsala Universitet Gamla Torget"}},"geometry":{"type":"Point","coordinates":[17.6366551,59.8593087]}},{"type":"Feature","properties":{"id":4345447058,"osm_type":"node","name":"Uppsala universitets tentamenslokal Bergsbrunnagatan","category":"university","tags":{"amenity":"university","check_date":"2024-06-18","education":"university","name":"Uppsala universitets tentamenslokal Bergsbrunnagatan"}},"geometry":{"type":"Point","coordinates":[17.663355,59.8559511]}},{"type":"Feature","properties":{"id":4573825318,"osm_type":"node","name":"Studenthälsan","category":"university","tags":{"amenity":"university","name":"Studenthälsan"}},"geometry":{"type":"Point","coordinates":[17.6301676,59.8566048]}},{"type":"Feature","properties":{"id":5559722998,"osm_type":"node","name":"Uppsala universitets tentamenslokal Fyrislundsgatan","category":"university","tags":{"addr:city":"Uppsala","addr:country":"SE","addr:housenumber":"80","addr:street":"Fyrislundsgatan","amenity":"university","name":"Uppsala universitets tentamenslokal Fyrislundsgatan"}},"geometry":{"type":"Point","coordinates":[17.6956985,59.8519424]}},{"type":"Feature","properties":{"id":6539308336,"osm_type":"node","name":"Uppsala universitet","category":"university","tags":{"amenity":"university","check_date":"2024-07-08","education":"university","name":"Uppsala universitet","name:en":"Uppsala University","start_date":"1477"}},"geometry":{"type":"Point","coordinates":[17.6294616,59.8576363]}},{"type":"Feature","properties":{"id":12796207046,"osm_type":"node","name":"Human Geography Department","category":"university","tags":{"amenity":"university","level":"4","name":"Human Geography Department","operator":"Uppsala University","website":"https://www.uu.se/en/department/human-geography"}},"geometry":{"type":"Point","coordinates":[17.6190505,59.8594973]}},{"type":"Feature","properties":{"id":97558529,"osm_type":"way","name":"Campus Polacksbacken","category":"university","tags":{"amenity":"university","education":"university","name":"Campus Polacksbacken","wikidata":"Q10635826","wikipedia":"sv:Polacksbacken"}},"geometry":{"type":"Point","coordinates":[17.6489216,59.839554]}},{"type":"Feature","properties":{"id":184650254,"osm_type":"way","name":"Blåsenhus","category":"university","tags":{"amenity":"university","name":"Blåsenhus","wheelchair":"yes","wikidata":"Q10431750","wikipedia":"sv:Blåsenhus"}},"geometry":{"type":"Point","coordinates":[17.6301638,59.851038]}},{"type":"Feature","properties":{"id":184650275,"osm_type":"way","name":"Evolutionsbiologiskt centrum","category":"university","tags":{"alt_name":"EBC","amenity":"university","check_date":"2024-09-13","education":"university","name":"Evolutionsbiologiskt centrum"}},"geometry":{"type":"Point","coordinates":[17.6240876,59.8495415]}},{"type":"Feature","properties":{"id":184653677,"osm_type":"way","name":"Campus Engelska parken","category":"university","tags":{"alt_name":"Humanistiskt centrum","amenity":"university","education":"university","name":"Campus Engelska parken","operator":"Uppsala universitet","wheelchair":"yes","wikidata":"Q10676653","wikipedia":"sv:Språkvetenskapliga fakulteten vid Uppsala universitet"}},"geometry":{"type":"Point","coordinates":[17.6262925,59.8535629]}},{"type":"Feature","properties":{"id":184654161,"osm_type":"way","name":"Biomedicinskt centrum","category":"university","tags":{"addr:city":"Uppsala","addr:country":"SE","addr:housenumber":"3","addr:street":"Husargatan","alt_name":"Biomedicum","amenity":"university","education":"university","name":"Biomedicinskt centrum","name:en":"Uppsala Biomedical Centre","short_name":"BMC","start_date":"1977","website":"https://www.bmc.uu.se/","wheelchair":"yes","wikipedia":"sv:Uppsala biomedicinska centrum"}},"geometry":{"type":"Point","coordinates":[17.6344424,59.8419178]}},{"type":"Feature","properties":{"id":914647709,"osm_type":"way","name":"","category":"university","tags":{"amenity":"university"}},"geometry":{"type":"Point","coordinates":[17.6316101,59.8480483]}},{"type":"Feature","properties":{"id":1001342163,"osm_type":"way","name":"","category":"university","tags":{"amenity":"university"}},"geometry":{"type":"Point","coordinates":[17.643309,59.8444191]}},{"type":"Feature","properties":{"id":5899573,"osm_type":"relation","name":"Kvarteret Munken","category":"university","tags":{"amenity":"university","education":"university","name":"Kvarteret Munken","operator":"Uppsala universitet","type":"multipolygon","website":"https://www.uu.se/om-uu/historia/historiska-kulturmiljoer/kvarteret-munken/","wikidata":"Q26256718","wikipedia":"sv:Kvarteret Munken"}},"geometry":{"type":"Point","coordinates":[17.6397532,59.8553076]}},{"type":"Feature","properties":{"id":6911919,"osm_type":"relation","name":"Informationsteknologiskt centrum","category":"university","tags":{"amenity":"university","name":"Informationsteknologiskt centrum","name:en":"Information Technology Center","note":"The buildings of ITC are also part of the Polacksbacken campus","short_name":"ITC","type":"site"}},"geometry":{"type":"Point","coordinates":[17.6495636,59.8409036]}},{"type":"Feature","properties":{"id":19246053,"osm_type":"relation","name":"Sveriges lantbruksuniversitet","category":"university","tags":{"amenity":"university","campus":"Campus Ultuna","name":"Sveriges lantbruksuniversitet","short_name":"SLU","type":"multipolygon"}},"geometry":{"type":"Point","coordinates":[17.6611892,59.8160412]}}]}