{"type":"FeatureCollection","features":[{"type":"Feature","properties":{"id":1096391136,"osm_type":"node","name":"Universitetsdjursjukhuset","category":"veterinary","tags":{"addr:city":"Uppsala","addr:country":"SE","addr:housenumber":"5","addr:street":"Ultunaallén","alt_name":"Smådjurskliniken","amenity":"veterinary","name":"Universitetsdjursjukhuset","toilets:wheelchair":"yes","wheelchair":"yes"}},"geometry":{"type":"Point","coordinates":[17.6566201,59.813916]}},{"type":"Feature","properties":{"id":4339467797,"osm_type":"node","name":"Djurdoktorn","category":"veterinary","tags":{"amenity":"veterinary","name":"Djurdoktorn","phone":"+46-18502878"}},"geometry":{"type":"Point","coordinates":[17.6160974,59.845101]}},{"type":"Feature","properties":{"id":5169959764,"osm_type":"node","name":"","category":"veterinary","tags":{"amenity":"veterinary"}},"geometry":{"type":"Point","coordinates":[17.7783095,59.7326685]}},{"type":"Feature","properties":{"id":6297122486,"osm_type":"node","name":"Hellströms Veterinärpraktik","category":"veterinary","tags":{"addr:city":"Uppsala","addr:country":"SE","addr:housenumber":"56","addr:postcode":"75229","addr:street":"Börjegatan","amenity":"veterinary","name":"Hellströms Veterinärpraktik","phone":"+46 18 550015","website":"https://www.hellstromsvet.se/"}},"geometry":{"type":"Point","coordinates":[17.6096039,59.8650038]}},{"type":"Feature","properties":{"id":11486668920,"osm_type":"node","name":"Djur doktorn i Årsta","category":"veterinary","tags":{"amenity":"veterinary","check_date":"2026-02-24","level":"0","name":"Djur doktorn i Årsta","name:sv":"Djur doktorn i Årsta","opening_hours":"Mo,We 09:00-19:00; Tu 09:00-17:00; Th 09:00-12:30,13:30-19:00; Fr 08:00-12:00,13:00-16:00; Sa-Su off","phone":"+46 18 221 10 0"}},"geometry":{"type":"Point","coordinates":[17.6845518,59.8664628]}},{"type":"Feature","properties":{"id":13074804751,"osm_type":"node","name":"R&S Veterinärpraktik","category":"veterinary","tags":{"addr:city":"Uppsala","addr:housenumber":"8","addr:postcode":"75649","addr:street":"Stenhammars Väg","amenity":"veterinary","name":"R&S Veterinärpraktik","website":"https://rsvet.se/"}},"geometry":{"type":"Point","coordinates":[17.6215259,59.8114867]}},{"type":"Feature","properties":{"id":13668265689,"osm_type":"node","name":"AniCura Uppsala Djurklinik","category":"veterinary","tags":{"addr:housenumber":"6","addr:postcode":"75228","addr:street":"Libro Ringväg","alt_name":"Uppsala veterinärmottagning","amenity":"veterinary","check_date":"2026-03-22","name":"AniCura Uppsala Djurklinik","name:sv":"AniCura Uppsala Djurklinik","opening_hours":"Mo-Fr 08:00-17:00; Sa-Su off","operator":"AniCura","phone":"+46 18 300 66 0","website":"https://www.anicura.se/hitta-klinik/uppsala-djurklinik/"}},"geometry":{"type":"Point","coordinates":[17.5832725,59.8794476]}},{"type":"Feature","properties":{"id":13676993316,"osm_type":"node","name":"VR Hemveterinär","category":"veterinary","tags":{"addr:floor":"0","addr:housenumber":"91a","addr:street":"Kungsgatan","amenity":"veterinary","check_date":"2026-03-22","level":"0","name":"VR Hemveterinär"}},"geometry":{"type":"Point","coordinates":[17.6548058,59.8521571]}}]}