{"type":"FeatureCollection","features":[{"type":"Feature","properties":{"id":2449188784,"osm_type":"node","name":"Gribbylundsfortet","category":"castle","tags":{"alt_name":"Margretelundsfortet","description":"Small World War I fort, still fully roofed, part of Korvlinjen","historic":"fort","military":"bunker","name":"Gribbylundsfortet","wikidata":"Q10577163","wikipedia":"sv:Margretelundsfortet"}},"geometry":{"type":"Point","coordinates":[18.0811,59.4711833]}},{"type":"Feature","properties":{"id":2456887309,"osm_type":"node","name":"Gullsjöfortet","category":"castle","tags":{"historic":"fort","military":"bunker","name":"Gullsjöfortet"}},"geometry":{"type":"Point","coordinates":[18.0809,59.47495]}},{"type":"Feature","properties":{"id":2459240333,"osm_type":"node","name":"Skogbergafortet","category":"castle","tags":{"description":"Fully roofed World War I fort","historic":"fort","military":"bunker","name":"Skogbergafortet","tourism":"attraction"}},"geometry":{"type":"Point","coordinates":[18.0779666,59.4791671]}},{"type":"Feature","properties":{"id":4868253153,"osm_type":"node","name":"","category":"castle","tags":{"historic":"fort","military":"bunker"}},"geometry":{"type":"Point","coordinates":[18.0795882,59.4802233]}},{"type":"Feature","properties":{"id":6126541585,"osm_type":"node","name":"Rydboholms slott","category":"castle","tags":{"addr:postcode":"18494","historic":"castle","name":"Rydboholms slott","name:en":"Rydboholm Castle","name:fi":"Rydboholman linna","name:sv":"Rydboholms slott","wikidata":"Q366683"}},"geometry":{"type":"Point","coordinates":[18.1855489,59.4401109]}},{"type":"Feature","properties":{"id":7847377214,"osm_type":"node","name":"Måndalsfortet","category":"castle","tags":{"historic":"fort","military":"bunker","name":"Måndalsfortet","ruins":"yes"}},"geometry":{"type":"Point","coordinates":[18.2198378,59.2151675]}},{"type":"Feature","properties":{"id":7881149214,"osm_type":"node","name":"Sjötorpsfortet","category":"castle","tags":{"historic":"fort","military":"bunker","name":"Sjötorpsfortet"}},"geometry":{"type":"Point","coordinates":[18.163153,59.2100464]}},{"type":"Feature","properties":{"id":7881154885,"osm_type":"node","name":"Lännafortet","category":"castle","tags":{"access":"yes","historic":"fort","military":"bunker","name":"Lännafortet"}},"geometry":{"type":"Point","coordinates":[18.1493676,59.2127941]}},{"type":"Feature","properties":{"id":7881541608,"osm_type":"node","name":"","category":"castle","tags":{"historic":"fort","military":"bunker"}},"geometry":{"type":"Point","coordinates":[18.1488332,59.2125122]}},{"type":"Feature","properties":{"id":7881548354,"osm_type":"node","name":"Sjötorpsfortet","category":"castle","tags":{"historic":"fort","military":"bunker","name":"Sjötorpsfortet"}},"geometry":{"type":"Point","coordinates":[18.1632469,59.2105775]}},{"type":"Feature","properties":{"id":7996606316,"osm_type":"node","name":"Karby batteri","category":"castle","tags":{"historic":"fort","military":"bunker","name":"Karby batteri","wikidata":"Q10543574","wikipedia":"sv:Karby batteri"}},"geometry":{"type":"Point","coordinates":[18.0580571,59.4724941]}},{"type":"Feature","properties":{"id":8043713222,"osm_type":"node","name":"Magelungsfortet","category":"castle","tags":{"access":"yes","historic":"fort","name":"Magelungsfortet"}},"geometry":{"type":"Point","coordinates":[18.1305457,59.2241645]}},{"type":"Feature","properties":{"id":13305665714,"osm_type":"node","name":"","category":"castle","tags":{"historic":"fort"}},"geometry":{"type":"Point","coordinates":[18.0334283,59.3741179]}},{"type":"Feature","properties":{"id":13305665715,"osm_type":"node","name":"","category":"castle","tags":{"historic":"fort"}},"geometry":{"type":"Point","coordinates":[18.0338385,59.3741755]}},{"type":"Feature","properties":{"id":13305665716,"osm_type":"node","name":"","category":"castle","tags":{"historic":"fort"}},"geometry":{"type":"Point","coordinates":[18.0336945,59.3741539]}},{"type":"Feature","properties":{"id":13305665717,"osm_type":"node","name":"","category":"castle","tags":{"historic":"fort"}},"geometry":{"type":"Point","coordinates":[18.0335705,59.3741364]}},{"type":"Feature","properties":{"id":13305665718,"osm_type":"node","name":"","category":"castle","tags":{"historic":"fort"}},"geometry":{"type":"Point","coordinates":[18.0351753,59.3747604]}},{"type":"Feature","properties":{"id":13305665719,"osm_type":"node","name":"","category":"castle","tags":{"historic":"fort"}},"geometry":{"type":"Point","coordinates":[18.0352561,59.3745367]}},{"type":"Feature","properties":{"id":13305665720,"osm_type":"node","name":"","category":"castle","tags":{"historic":"fort"}},"geometry":{"type":"Point","coordinates":[18.0355185,59.3745567]}},{"type":"Feature","properties":{"id":13305665721,"osm_type":"node","name":"","category":"castle","tags":{"historic":"fort"}},"geometry":{"type":"Point","coordinates":[18.0355736,59.3744501]}},{"type":"Feature","properties":{"id":13305665726,"osm_type":"node","name":"","category":"castle","tags":{"historic":"fort"}},"geometry":{"type":"Point","coordinates":[18.0356615,59.3743966]}},{"type":"Feature","properties":{"id":13305665727,"osm_type":"node","name":"","category":"castle","tags":{"historic":"fort"}},"geometry":{"type":"Point","coordinates":[18.0356405,59.3743288]}},{"type":"Feature","properties":{"id":13305665732,"osm_type":"node","name":"","category":"castle","tags":{"historic":"fort"}},"geometry":{"type":"Point","coordinates":[18.0356763,59.3743222]}},{"type":"Feature","properties":{"id":13305665737,"osm_type":"node","name":"","category":"castle","tags":{"historic":"fort"}},"geometry":{"type":"Point","coordinates":[18.0330131,59.3748923]}},{"type":"Feature","properties":{"id":13305665738,"osm_type":"node","name":"","category":"castle","tags":{"historic":"fort"}},"geometry":{"type":"Point","coordinates":[18.033066,59.3747379]}},{"type":"Feature","properties":{"id":13305665739,"osm_type":"node","name":"","category":"castle","tags":{"historic":"fort"}},"geometry":{"type":"Point","coordinates":[18.0336454,59.3748439]}},{"type":"Feature","properties":{"id":13305665740,"osm_type":"node","name":"","category":"castle","tags":{"historic":"fort"}},"geometry":{"type":"Point","coordinates":[18.0335207,59.374653]}},{"type":"Feature","properties":{"id":13305665741,"osm_type":"node","name":"","category":"castle","tags":{"historic":"fort"}},"geometry":{"type":"Point","coordinates":[18.0340741,59.3746853]}},{"type":"Feature","properties":{"id":13305665747,"osm_type":"node","name":"","category":"castle","tags":{"historic":"fort"}},"geometry":{"type":"Point","coordinates":[18.0338064,59.3750454]}},{"type":"Feature","properties":{"id":13305665749,"osm_type":"node","name":"","category":"castle","tags":{"historic":"fort"}},"geometry":{"type":"Point","coordinates":[18.0352275,59.3749354]}},{"type":"Feature","properties":{"id":13305665753,"osm_type":"node","name":"","category":"castle","tags":{"historic":"fort"}},"geometry":{"type":"Point","coordinates":[18.0342305,59.3748288]}},{"type":"Feature","properties":{"id":13305665754,"osm_type":"node","name":"","category":"castle","tags":{"historic":"fort"}},"geometry":{"type":"Point","coordinates":[18.0343366,59.3744052]}},{"type":"Feature","properties":{"id":13305665769,"osm_type":"node","name":"","category":"castle","tags":{"historic":"fort"}},"geometry":{"type":"Point","coordinates":[18.0345801,59.3747153]}},{"type":"Feature","properties":{"id":13305708109,"osm_type":"node","name":"","category":"castle","tags":{"historic":"fort"}},"geometry":{"type":"Point","coordinates":[18.0331579,59.3743498]}},{"type":"Feature","properties":{"id":13306550547,"osm_type":"node","name":"","category":"castle","tags":{"historic":"fort"}},"geometry":{"type":"Point","coordinates":[18.0339204,59.3756221]}},{"type":"Feature","properties":{"id":13311416069,"osm_type":"node","name":"","category":"castle","tags":{"historic":"fort"}},"geometry":{"type":"Point","coordinates":[18.0334227,59.3750118]}},{"type":"Feature","properties":{"id":13314475166,"osm_type":"node","name":"","category":"castle","tags":{"historic":"fort"}},"geometry":{"type":"Point","coordinates":[18.0330029,59.374307]}},{"type":"Feature","properties":{"id":13314475179,"osm_type":"node","name":"","category":"castle","tags":{"historic":"fort"}},"geometry":{"type":"Point","coordinates":[18.0346104,59.3744664]}},{"type":"Feature","properties":{"id":13314475180,"osm_type":"node","name":"","category":"castle","tags":{"historic":"fort"}},"geometry":{"type":"Point","coordinates":[18.0323766,59.3748176]}},{"type":"Feature","properties":{"id":13331180880,"osm_type":"node","name":"","category":"castle","tags":{"historic":"fort"}},"geometry":{"type":"Point","coordinates":[18.0338929,59.3745949]}},{"type":"Feature","properties":{"id":13625166864,"osm_type":"node","name":"","category":"castle","tags":{"historic":"fort","source:url":"https://app.raa.se/open/fornsok/lamning/b24aae0e-3c4f-44ca-b0b3-ec936c8ef592"}},"geometry":{"type":"Point","coordinates":[18.0458961,59.3751283]}},{"type":"Feature","properties":{"id":5229596,"osm_type":"way","name":"Edsbergs slott","category":"castle","tags":{"addr:city":"Sollentuna","addr:country":"SE","addr:housenumber":"10","addr:postcode":"19186","addr:street":"Landsnoravägen","alt_name":"Edsbergs slott","building":"palace","building:colour":"yellow","building:levels":"2","contact:email":"edsvik@sollentuna.se","contact:phone":"+46857921000","contact:website":"https://www.sollentuna.se/uweb/edsvik/edsbergs-slott/","historic":"castle","name":"Edsbergs slott","opening_hours":"We, Su 12:00-16:00","roof:colour":"red","roof:material":"tiles","wikidata":"Q5340274"}},"geometry":{"type":"Point","coordinates":[17.9556621,59.4410455]}},{"type":"Feature","properties":{"id":8049544,"osm_type":"way","name":"Riddarhuset","category":"castle","tags":{"architect":"Simon de la Vallée, Heinrich Wilhelm, Justus Vingboons,","architect:wikidata":"Q321478;Q30106546;","building":"public","building:architecture":"baroque","building:colour":"brown","building:levels":"2","building:material":"brick","castle_type":"stately","historic":"castle","name":"Riddarhuset","name:de":"Ritterhaus","name:en":"House of Nobility","name:es":"Palacio de la Nobleza","name:fi":"Ritarihuone","name:fr":"Palais de la Noblesse","name:ru":"Дворянское собрание","roof:colour":"MediumAquamarine","roof:material":"copper","start_date":"1674","tourism":"attraction","website":"https://www.riddarhuset.se/","wikidata":"Q1547268","wikimedia_commons":"Category:Riddarhuspalatset","wikipedia":"sv:Riddarhuspalatset"}},"geometry":{"type":"Point","coordinates":[18.0657197,59.3259312]}},{"type":"Feature","properties":{"id":16095343,"osm_type":"way","name":"Bondeska palatset","category":"castle","tags":{"architect":"Nicodemus Tessin, Jean de la Vallée","architect:wikidata":"Q61188;Q1685968","building":"palace","building:architecture":"baroque","building:colour":"white","building:levels":"3","castle_type":"stately","heritage":"4","heritage:operator":"raa","heritage:website":"https://bebyggelseregistret.raa.se/bbr2/anlaggning/visaHistorik.raa?page=historik&visaHistorik=true&anlaggningId=21300000010172","historic":"castle","name":"Bondeska palatset","name:de":"Bondesches Palais","name:en":"Bonde Palace","name:fi":"Bonden palatsi","name:fr":"Palais Bonde","name:pt":"Palácio Bonde","name:ru":"Верховный суд Швеции","ref:SE:raa":"21300000010172","roof:colour":"green","roof:levels":"1","roof:material":"copper","start_date":"1673","wikidata":"Q892231","wikimedia_commons":"Category:Bondeska palatset","wikipedia":"sv:Bondeska palatset","year_of_construction":"1662 –1673"}},"geometry":{"type":"Point","coordinates":[18.0664411,59.3262632]}},{"type":"Feature","properties":{"id":23841356,"osm_type":"way","name":"Schering Rosenhanes palats","category":"castle","tags":{"architect":"Nicodemus Tessin","architect:wikidata":"Q61188","building":"palace","building:levels":"3","castle_type":"palace","heritage":"2","heritage:operator":"raa","heritage:website":"https://bebyggelseregistret.raa.se/bbr2/byggnad/visaHistorik.raa?byggnadId=21400000297505&page=historik","historic":"castle","name":"Schering Rosenhanes palats","ref:SE:raa":"21400000297505","roof:colour":"black","start_date":"1656","wikidata":"Q3424988","wikimedia_commons":"Category:Schering Rosenhanes palats","wikipedia":"sv:Schering Rosenhanes palats","year_of_construction":"1652 - 1656"}},"geometry":{"type":"Point","coordinates":[18.0626291,59.32569]}},{"type":"Feature","properties":{"id":23841408,"osm_type":"way","name":"Hessensteinska palatset","category":"castle","tags":{"architect":"Nicodemus Tessin","architect:wikidata":"Q61188","building":"palace","building:architecture":"baroque","building:colour":"yellow","building:levels":"3","castle_type":"palace","heritage":"2","heritage:operator":"raa","heritage:website":"https://bebyggelseregistret.raa.se/bbr2/byggnad/visaHistorik.raa?byggnadId=21400000297502&page=historik","historic":"castle","name":"Hessensteinska palatset","ref:SE:raa":"21400000297502","roof:colour":"firebrick","start_date":"1630s","wikidata":"Q1143871","wikimedia_commons":"Category:Hessensteinska palatset","wikipedia":"sv:Hessensteinska palatset"}},"geometry":{"type":"Point","coordinates":[18.0645746,59.3252829]}},{"type":"Feature","properties":{"id":23841414,"osm_type":"way","name":"Stenbockska palatset","category":"castle","tags":{"architect":"Nicodemus Tessin","architect:wikidata":"Q61188","building":"palace","building:architecture":"baroque","building:colour":"pink","building:levels":"3","castle_type":"palace","heritage":"2","heritage:operator":"raa","heritage:website":"https://bebyggelseregistret.raa.se/bbr2/byggnad/visaHistorik.raa?byggnadId=21420000045531&page=historik","historic":"castle","name":"Stenbockska palatset","name:fi":"Stenbockin palatsi","name:sv":"Stenbockska palatset","ref:SE:raa":"21420000045531","roof:colour":"MediumAquamarine","roof:material":"copper","start_date":"1649","wikidata":"Q1788133","wikimedia_commons":"Category:Stenbockska Palatset","wikipedia":"sv:Stenbockska palatset","year_of_construction":"1640 - 1649"}},"geometry":{"type":"Point","coordinates":[18.063742,59.3254082]}},{"type":"Feature","properties":{"id":24239453,"osm_type":"way","name":"Gustav III:s paviljong","category":"castle","tags":{"building":"palace","building:colour":"yellow","historic":"castle","name":"Gustav III:s paviljong","name:fi":"Kustaa lll:n paviljonki","name:sv":"Gustav III:s paviljong","start_date":"1792","wikidata":"Q1191599","wikimedia_commons":"Category:Gustav III's Pavilion","wikipedia":"sv:Gustav III:s paviljong"}},"geometry":{"type":"Point","coordinates":[18.0391272,59.362618]}},{"type":"Feature","properties":{"id":34590009,"osm_type":"way","name":"Wrangelska palatset","category":"castle","tags":{"building":"palace","building:architecture":"renaissance, baroque","building:colour":"white","building:levels":"4","castle_type":"palace","heritage":"2","heritage:operator":"raa","heritage:website":"https://bebyggelseregistret.raa.se/bbr2/byggnad/visaHistorik.raa?byggnadId=21400000297501&page=historik","historic":"castle","name":"Wrangelska palatset","ref:SE:raa":"21400000297501","roof:colour":"black","roof:levels":"1","wikidata":"Q772914","wikipedia":"sv:Wrangelska palatset","year_of_construction":"1630 - 1640"}},"geometry":{"type":"Point","coordinates":[18.062959,59.3251085]}},{"type":"Feature","properties":{"id":41079299,"osm_type":"way","name":"Tessinska palatset","category":"castle","tags":{"addr:city":"Stockholm","architect":"Nicodemus Tessin","architect:wikidata":"Q455143","building":"yes","building:architecture":"baroque","castle_type":"palace","heritage":"2","heritage:operator":"raa","heritage:website":"https://bebyggelseregistret.raa.se/bbr2/byggnad/visaHistorik.raa?byggnadId=21400000291700&page=historik","historic":"castle","name":"Tessinska palatset","name:de":"Tessinsches Palais","name:en":"Tessin Palace","name:pt":"Palácio Tessin","start_date":"1701","wikidata":"Q783848","wikimedia_commons":"Category:Tessinska palatset","wikipedia":"sv:Tessinska palatset","year_of_construction":"1694 - 1701"}},"geometry":{"type":"Point","coordinates":[18.0729847,59.3256312]}},{"type":"Feature","properties":{"id":41962342,"osm_type":"way","name":"Näsby slott","category":"castle","tags":{"building":"yes","historic":"castle","name":"Näsby slott"}},"geometry":{"type":"Point","coordinates":[18.0865834,59.4241266]}},{"type":"Feature","properties":{"id":46934908,"osm_type":"way","name":"Svindersvik","category":"castle","tags":{"building":"yes","building:colour":"yellow","building:levels":"1","building:material":"plaster","castle_type":"manor","fee":"yes","historic":"castle","name":"Svindersvik","payment:cash":"no","roof:colour":"red","roof:levels":"1","roof:material":"metal","roof:shape":"half-hipped","start_date":"1740s","tourism":"museum","website":"https://www.nordiskamuseet.se/slott-och-gardar/svindersvik","wikidata":"Q630822","wikipedia":"sv:Svindersvik"}},"geometry":{"type":"Point","coordinates":[18.1305018,59.3102156]}},{"type":"Feature","properties":{"id":49744847,"osm_type":"way","name":"Kastellet","category":"castle","tags":{"building":"yes","building:colour":"red","building:levels":"1","building:material":"brick","historic":"castle","name":"Kastellet","roof:colour":"grey","roof:shape":"flat","ruins":"no","start_date":"1848","wikidata":"Q4176816","wikimedia_commons":"Category:Kastellet, Stockholm","wikipedia":"sv:Kastellet, Stockholm"}},"geometry":{"type":"Point","coordinates":[18.0901455,59.3225975]}},{"type":"Feature","properties":{"id":108507585,"osm_type":"way","name":"Sparreska palatset","category":"castle","tags":{"building":"office","building:colour":"white","building:levels":"4","castle_type":"palace","heritage":"2","heritage:operator":"raa","heritage:website":"https://bebyggelseregistret.raa.se/bbr2/byggnad/visaHistorik.raa?byggnadId=21420000045532&page=historik","historic":"castle","name":"Sparreska palatset","ref:SE:raa":"21420000045532","roof:colour":"darkgray","start_date":"1640","wikidata":"Q10674465","wikimedia_commons":"Category:Sparreska palatset, Riddarholmen","wikipedia":"sv:Sparreska palatset, Riddarholmen","year_of_construction":"1630 - 1649"}},"geometry":{"type":"Point","coordinates":[18.0636367,59.3244496]}},{"type":"Feature","properties":{"id":108821968,"osm_type":"way","name":"","category":"castle","tags":{"barrier":"ditch","historic":"fort"}},"geometry":{"type":"Point","coordinates":[18.0803325,59.478877]}},{"type":"Feature","properties":{"id":120831032,"osm_type":"way","name":"Djursholms Slott","category":"castle","tags":{"building":"castle","historic":"castle","name":"Djursholms Slott","wikidata":"Q4356558","wikipedia":"sv:Djursholms slott"}},"geometry":{"type":"Point","coordinates":[18.0891322,59.4011933]}},{"type":"Feature","properties":{"id":141844590,"osm_type":"way","name":"Sagerska huset","category":"castle","tags":{"alt_name":"Sagerska palatset","alt_name:de":"Sagersches Palais","alt_name:en":"Sager Palace","building":"office","building:colour":"beige","building:levels":"3","castle_type":"palace","description":"Official residence of Swedish prime minister","government":"presidency","heritage":"2","heritage:operator":"raa","heritage:website":"https://bebyggelseregistret.raa.se/bbr2/byggnad/visaHistorik.raa?byggnadId=21400000310814&page=historik","historic":"castle","name":"Sagerska huset","name:de":"Sagersches Haus","name:en":"Sager House","name:fr":"Maison Sager","name:pt":"Casa Sagerska","office":"government","ref:SE:raa":"21400000310814","roof:colour":"black","roof:levels":"1","start_date":"1893","wikidata":"Q1886105","wikipedia":"sv:Sagerska huset"}},"geometry":{"type":"Point","coordinates":[18.0672841,59.3287624]}},{"type":"Feature","properties":{"id":145662484,"osm_type":"way","name":"Rosendals slott","category":"castle","tags":{"building":"palace","building:colour":"peachpuff","building:levels":"2","building:material":"plaster","historic":"castle","name":"Rosendals slott","name:en":"Rosendal Palace","name:fi":"Rosendalin linna","name:ru":"дворец Розендаль","name:sv":"Rosendals slott","operator":"Sveriges Kungahus","roof:colour":"black","roof:material":"metal","roof:shape":"gabled","start_date":"1826","tourism":"attraction","website":"https://www.kungligaslotten.se/vara-besoksmal/rosendals-slott.html","wikidata":"Q59482","wikimedia_commons":"Category:Rosendals slott","wikipedia":"sv:Rosendals slott"}},"geometry":{"type":"Point","coordinates":[18.117334,59.328909]}},{"type":"Feature","properties":{"id":148212373,"osm_type":"way","name":"Ulriksdals slott","category":"castle","tags":{"addr:city":"Solna","addr:postcode":"17079","addr:street":"Slottsallén","building":"palace","historic":"castle","name":"Ulriksdals slott","name:en":"Ulriksdals Castle","name:fi":"Ulriksdalin linna","name:sv":"Ulriksdals slott","tourism":"attraction","wikidata":"Q176860","wikipedia":"sv:Ulriksdals slott"}},"geometry":{"type":"Point","coordinates":[18.0165397,59.3904224]}},{"type":"Feature","properties":{"id":166870842,"osm_type":"way","name":"Flemingska palatset","category":"castle","tags":{"addr:city":"Stockholm","building":"palace","building:architecture":"baroque","building:colour":"bisque","building:levels":"4","building:material":"plaster","castle_type":"palace","heritage":"2","heritage:operator":"raa","heritage:website":"https://bebyggelseregistret.raa.se/bbr2/byggnad/visaHistorik.raa?byggnadId=21400000693151&page=historik","historic":"castle","name":"Flemingska palatset","roof:colour":"MediumAquamarine","roof:material":"copper","roof:shape":"hipped","start_date":"1650s","wikidata":"Q10496643","wikimedia_commons":"Category:Flemingska palatset","wikipedia":"sv:Flemingska palatset"}},"geometry":{"type":"Point","coordinates":[18.0739291,59.3260445]}},{"type":"Feature","properties":{"id":170363224,"osm_type":"way","name":"Axel Oxenstiernas palats","category":"castle","tags":{"addr:city":"Stockholm","architect":"Jean de la Vallée","architect:wikidata":"Q1685968","building":"yes","building:architecture":"renaissance, baroque","building:colour":"red","building:levels":"4","castle_type":"palace","heritage":"4","heritage:operator":"raa","heritage:website":"https://bebyggelseregistret.raa.se/bbr2/byggnad/visaHistorik.raa?byggnadId=21400000316310&page=historik","historic":"castle","name":"Axel Oxenstiernas palats","roof:colour":"black","start_date":"1653","wikidata":"Q403404","wikimedia_commons":"Category:Oxenstiernska palatset","wikipedia":"sv:Axel Oxenstiernas palats"}},"geometry":{"type":"Point","coordinates":[18.0696217,59.3259282]}},{"type":"Feature","properties":{"id":255842905,"osm_type":"way","name":"Nyckelviken","category":"castle","tags":{"historic":"castle","leisure":"park","name":"Nyckelviken"}},"geometry":{"type":"Point","coordinates":[18.1886572,59.3228137]}},{"type":"Feature","properties":{"id":437550275,"osm_type":"way","name":"Sunbyfortet","category":"castle","tags":{"castle_type":"fortress","historic":"fortress","name":"Sunbyfortet","source:url":"https://sv.wikipedia.org/wiki/Sundbyfortet"}},"geometry":{"type":"Point","coordinates":[18.0167129,59.1948258]}},{"type":"Feature","properties":{"id":1049140489,"osm_type":"way","name":"Cedergrenska tornet","category":"castle","tags":{"building":"yes","historic":"castle","name":"Cedergrenska tornet","tourism":"yes","wikidata":"Q10444370","wikimedia_commons":"Category:Cedergrenska tornet","wikipedia":"sv:Cedergrenska tornet"}},"geometry":{"type":"Point","coordinates":[18.0555078,59.380395]}},{"type":"Feature","properties":{"id":1449508298,"osm_type":"way","name":"","category":"castle","tags":{"abandoned":"yes","building":"yes","historic":"fort"}},"geometry":{"type":"Point","coordinates":[18.0356426,59.3743204]}},{"type":"Feature","properties":{"id":1450784297,"osm_type":"way","name":"","category":"castle","tags":{"building":"yes","historic":"fort"}},"geometry":{"type":"Point","coordinates":[18.0355912,59.374461]}},{"type":"Feature","properties":{"id":34394,"osm_type":"relation","name":"Stockholms slott","category":"castle","tags":{"addr:city":"Stockholm","addr:country":"SE","addr:housenumber":"1","addr:street":"Slottsbacken","alt_name:fi":"Kuninkaanlinna","architect":"Nicodemus Tessin, Carl Hårleman","architect:wikidata":"Q455143;Q1038985","building":"palace","building:architecture":"baroque","building:colour":"#A99177","building:levels":"4","castle_type":"palace","description:en":"Official residence of the Swedish monarch. Baraque-styel, Main cortyard and several mseums are open to the public.","heritage":"4","heritage:operator":"raa","heritage:website":"https://bebyggelseregistret.raa.se/bbr2/byggnad/visaHistorik.raa?byggnadId=21400000339822&page=historik","historic":"castle","name":"Stockholms slott","name:ca":"Palau Reial","name:da":"Stockholms Slot","name:de":"Stockholmer Schloss","name:en":"Royal Palace","name:es":"Palacio Real de Estocolmo","name:et":"Stockholmi kuningaloss","name:fi":"Tukholman linna","name:fr":"Palais royal de Stockholm","name:it":"Palazzo di Stoccolma","name:ko":"스톡홀름 궁전","name:pl":"Pałac Królewski w Sztokholmie","name:pt":"Palácio Real de Estocolmo","name:ru":"Королевский дворец","official_name":"Kungliga slottet","roof:material":"copper","start_date":"1754","tourism":"attraction","type":"multipolygon","website":"https://www.kungligaslotten.se","wikidata":"Q750444","wikipedia":"sv:Stockholms slott"}},"geometry":{"type":"Point","coordinates":[18.0716881,59.3268923]}},{"type":"Feature","properties":{"id":279567,"osm_type":"relation","name":"Arvfurstens palats","category":"castle","tags":{"addr:city":"Stockholm","architect":"Erik Palmstedt, Louis Masreliez","architect:wikidata":"Q368317;Q351891","building":"palace","building:architecture":"baroque-classicism","building:levels":"3","castle_type":"palace","heritage":"2","heritage:operator":"raa","heritage:website":"https://bebyggelseregistret.raa.se/bbr2/byggnad/visaHistorik.raa?byggnadId=21400000310815&page=historik","historic":"castle","name":"Arvfurstens palats","name:de":"Erbfürstenpalais","name:fi":"Perintöruhtinaan palatsi","name:sv":"Arvfurstens palats","ref:SE:raa":"21400000310815","roof:colour":"green","roof:material":"metal","type":"multipolygon","wikidata":"Q717105","wikipedia":"sv:Arvfurstens palats","year_of_construction":"1648 / 1783 - 1794"}},"geometry":{"type":"Point","coordinates":[18.0675637,59.3290337]}},{"type":"Feature","properties":{"id":551226,"osm_type":"relation","name":"Haga slott","category":"castle","tags":{"building":"palace","historic":"castle","name":"Haga slott","name:en":"Haga Palace","name:fi":"Hagan linna","name:sv":"Haga slott","type":"multipolygon","website":"https://www.sfv.se/sv/fastigheter/sverige/stockholms-lan-ab/slott/haga-slott/","wikidata":"Q5574523","wikipedia":"sv:Haga slott"}},"geometry":{"type":"Point","coordinates":[18.0396864,59.3633833]}},{"type":"Feature","properties":{"id":2171352,"osm_type":"relation","name":"Bååtska palatset","category":"castle","tags":{"architect":"Nicodemus Tessin","architect:wikidata":"Q61188","building":"palace","building:architecture":"baroque","building:colour":"yellow","building:levels":"3","castle_type":"palace","heritage":"4","heritage:operator":"raa","heritage:website":"https://bebyggelseregistret.raa.se/bbr2/anlaggning/visaHistorik.raa?page=historik&visaHistorik=true&anlaggningId=21300000010178","historic":"castle","name":"Bååtska palatset","name:fi":"Bååtin palatsi","name:sv":"Bååtska palatset","ref:SE:raa":"21300000010178","roof:colour":"MediumAquamarine","roof:levels":"1","roof:material":"copper","start_date":"1660s","type":"multipolygon","wikidata":"Q10438659","wikipedia":"sv:Bååtska palatset"}},"geometry":{"type":"Point","coordinates":[18.0764379,59.3305453]}},{"type":"Feature","properties":{"id":2440883,"osm_type":"relation","name":"Hallwylska palatset","category":"castle","tags":{"addr:city":"Stockholm","addr:housenumber":"4","addr:postcode":"111 47","addr:street":"Hamngatan","architect":"Isak Gustaf Clason, Albert Collett","architect:wikidata":"Q931295;Q22001646","building":"palace","building:levels":"4","castle_type":"palace","contact:facebook":"Hallwylskamuseet","contact:instagram":"hallwylskamuseet","description":"Private late 19th century palace with Wilhelmina von Hallwyl's collection of Dutch and Flemish painting, porcelain, silver , weapons textiles and household objects.","email":"bokning@hallwylskamuseet.se","heritage":"2","heritage:operator":"raa","heritage:website":"https://bebyggelseregistret.raa.se/bbr2/byggnad/visaKartlankar.raa?byggnadId=21420000008927&page=kartlankar","historic":"castle","name":"Hallwylska palatset","name:en":"Hallwyl Museum","opening_hours":"Tu, Th-Fr 12:00-16:00; We 12:00-19:00; Sa-Su 11:00-17:00","phone":"+46 8 4023099","ref:SE:raa":"21400000328890","tourism":"museum","type":"multipolygon","website":"https://hallwylskamuseet.se/","wikidata":"Q4346239","wikipedia":"sv:Hallwylska museet","year_of_construction":"1893 - 1898"}},"geometry":{"type":"Point","coordinates":[18.0745279,59.3332771]}},{"type":"Feature","properties":{"id":11144024,"osm_type":"relation","name":"Karlbergs slott","category":"castle","tags":{"access":"private","building":"palace","castle_type":"palace","end_date":"1795","historic":"castle","name":"Karlbergs slott","name:de":"Schloss Karlberg","name:en":"Karlberg Palace","name:fi":"Karlbergin linna","name:fr":"Château de Karlberg","name:sv":"Karlbergs slott","start_date":"1634","type":"multipolygon","wikidata":"Q335491","wikipedia":"sv:Karlbergs slott"}},"geometry":{"type":"Point","coordinates":[18.0220271,59.3411234]}}]}