{"type":"FeatureCollection","features":[{"type":"Feature","properties":{"id":4880647,"osm_type":"way","name":"Lidingö kyrkogård","category":"cemetery","tags":{"landuse":"cemetery","name":"Lidingö kyrkogård","wikidata":"Q10561360"}},"geometry":{"type":"Point","coordinates":[18.1612497,59.3656094]}},{"type":"Feature","properties":{"id":7268195,"osm_type":"way","name":"Maria Magdalena kyrkogård","category":"cemetery","tags":{"landuse":"cemetery","name":"Maria Magdalena kyrkogård","religion":"christian","wikidata":"Q10577195","wikimedia_commons":"Category:Maria Magdalena kyrkogård"}},"geometry":{"type":"Point","coordinates":[18.0668275,59.3188392]}},{"type":"Feature","properties":{"id":7268579,"osm_type":"way","name":"Katarina kyrkogård","category":"cemetery","tags":{"landuse":"cemetery","name":"Katarina kyrkogård","religion":"christian","wikidata":"Q10544305"}},"geometry":{"type":"Point","coordinates":[18.0783944,59.3165606]}},{"type":"Feature","properties":{"id":11774877,"osm_type":"way","name":"Spånga kyrka kyrkogård","category":"cemetery","tags":{"landuse":"cemetery","name":"Spånga kyrka kyrkogård","wikidata":"Q29032934"}},"geometry":{"type":"Point","coordinates":[17.9124505,59.3916445]}},{"type":"Feature","properties":{"id":15802789,"osm_type":"way","name":"","category":"cemetery","tags":{"amenity":"grave_yard","check_date":"2020-08-14","religion":"christian","wikidata":"Q19781340","wikimedia_commons":"Category:Adolf Fredriks kyrkogård"}},"geometry":{"type":"Point","coordinates":[18.0601149,59.3379582]}},{"type":"Feature","properties":{"id":23513714,"osm_type":"way","name":"","category":"cemetery","tags":{"landuse":"cemetery","wikidata":"Q19639133","wikimedia_commons":"Category:Solna kyrkogård"}},"geometry":{"type":"Point","coordinates":[18.0262553,59.3524965]}},{"type":"Feature","properties":{"id":23633479,"osm_type":"way","name":"Stora Sköndals Kyrkogård","category":"cemetery","tags":{"landuse":"cemetery","name":"Stora Sköndals Kyrkogård"}},"geometry":{"type":"Point","coordinates":[18.1251939,59.2549985]}},{"type":"Feature","properties":{"id":24011070,"osm_type":"way","name":"Silverdals Griftegård","category":"cemetery","tags":{"amenity":"grave_yard","landuse":"cemetery","name":"Silverdals Griftegård","wikidata":"Q10667898","wikipedia":"sv:Silverdals griftegård"}},"geometry":{"type":"Point","coordinates":[17.9706488,59.406077]}},{"type":"Feature","properties":{"id":24309791,"osm_type":"way","name":"Strandkyrkogården","category":"cemetery","tags":{"landuse":"cemetery","name":"Strandkyrkogården","wikidata":"Q10681544","wikipedia":"sv:Strandkyrkogården"}},"geometry":{"type":"Point","coordinates":[18.184089,59.2377743]}},{"type":"Feature","properties":{"id":24354728,"osm_type":"way","name":"","category":"cemetery","tags":{"amenity":"grave_yard","wikidata":"Q115305155","wikipedia":"sv:Klara kyrkogård"}},"geometry":{"type":"Point","coordinates":[18.0616644,59.3311697]}},{"type":"Feature","properties":{"id":24488927,"osm_type":"way","name":"","category":"cemetery","tags":{"amenity":"grave_yard","religion":"christian","wikidata":"Q20683290"}},"geometry":{"type":"Point","coordinates":[18.0486447,59.3287402]}},{"type":"Feature","properties":{"id":25334489,"osm_type":"way","name":"","category":"cemetery","tags":{"landuse":"cemetery","wikidata":"Q19682168"}},"geometry":{"type":"Point","coordinates":[18.145205,59.3075456]}},{"type":"Feature","properties":{"id":27810572,"osm_type":"way","name":"Ulriksdals begravningsplats","category":"cemetery","tags":{"landuse":"cemetery","name":"Ulriksdals begravningsplats","website":"http://solnaforsamling.se/locations/ulriksdals-begravningsplats-2/","wikidata":"Q19978994","wikipedia":"sv:Ulriksdals begravningsplats"}},"geometry":{"type":"Point","coordinates":[18.0041334,59.3912834]}},{"type":"Feature","properties":{"id":29877942,"osm_type":"way","name":"Mosaiska begravningsplatsen Aronsberg","category":"cemetery","tags":{"access":"private","barrier":"fence","landuse":"cemetery","name":"Mosaiska begravningsplatsen Aronsberg","religion":"jewish","start_date":"1782","wikidata":"Q10589492","wikipedia":"sv:Judiska begravningsplatsen Aronsberg"}},"geometry":{"type":"Point","coordinates":[18.0266978,59.3363035]}},{"type":"Feature","properties":{"id":29877943,"osm_type":"way","name":"Judiska begravningsplatsen Kronoberg","category":"cemetery","tags":{"barrier":"fence","check_date":"2020-06-13","landuse":"cemetery","name":"Judiska begravningsplatsen Kronoberg","religion":"jewish","start_date":"1787","wikidata":"Q1716705","wikipedia":"sv:Judiska begravningsplatsen Kronoberg"}},"geometry":{"type":"Point","coordinates":[18.0340426,59.3328144]}},{"type":"Feature","properties":{"id":33101105,"osm_type":"way","name":"Galärvarvskyrkogården","category":"cemetery","tags":{"landuse":"cemetery","name":"Galärvarvskyrkogården","religion":"christian","wikidata":"Q10502323","wikipedia":"sv:Galärvarvskyrkogården"}},"geometry":{"type":"Point","coordinates":[18.0940255,59.3281655]}},{"type":"Feature","properties":{"id":34581134,"osm_type":"way","name":"Kaknäs djurkyrkogård","category":"cemetery","tags":{"description":"Djurkyrkogård","description:en":"Pet cemetery","landuse":"cemetery","name":"Kaknäs djurkyrkogård","wikidata":"Q10542534","wikipedia":"sv:Kaknäs djurkyrkogård"}},"geometry":{"type":"Point","coordinates":[18.1398359,59.3344728]}},{"type":"Feature","properties":{"id":37521012,"osm_type":"way","name":"Tomtberga kyrkogård","category":"cemetery","tags":{"amenity":"grave_yard","denomination":"protestant","name":"Tomtberga kyrkogård","religion":"christian","wikidata":"Q10699797","wikipedia":"sv:Tomtberga kyrkogård"}},"geometry":{"type":"Point","coordinates":[17.9891945,59.2379334]}},{"type":"Feature","properties":{"id":37719874,"osm_type":"way","name":"Sandsborgskyrkogården","category":"cemetery","tags":{"landuse":"cemetery","name":"Sandsborgskyrkogården","wikidata":"Q10661221"}},"geometry":{"type":"Point","coordinates":[18.0960446,59.2821701]}},{"type":"Feature","properties":{"id":39297824,"osm_type":"way","name":"","category":"cemetery","tags":{"landuse":"cemetery"}},"geometry":{"type":"Point","coordinates":[18.0833748,59.2987149]}},{"type":"Feature","properties":{"id":39839768,"osm_type":"way","name":"Danvikens begravningsplats","category":"cemetery","tags":{"end_date":"1956","landuse":"cemetery","name":"Danvikens begravningsplats","natural":"wood","religion":"christian","wikidata":"Q10466773","wikipedia":"sv:Danvikens begravningsplats"}},"geometry":{"type":"Point","coordinates":[18.1188189,59.313406]}},{"type":"Feature","properties":{"id":40880894,"osm_type":"way","name":"","category":"cemetery","tags":{"amenity":"grave_yard","denomination":"protestant","religion":"christian","wikidata":"Q55548800"}},"geometry":{"type":"Point","coordinates":[17.9853684,59.2401122]}},{"type":"Feature","properties":{"id":43395692,"osm_type":"way","name":"Bromma kyrkogård","category":"cemetery","tags":{"denomination":"lutheran","landuse":"cemetery","name":"Bromma kyrkogård","religion":"christian","source":"Yahoo","wikidata":"Q19672911"}},"geometry":{"type":"Point","coordinates":[17.9207086,59.3542152]}},{"type":"Feature","properties":{"id":57852556,"osm_type":"way","name":"Djursholms begravningsplats","category":"cemetery","tags":{"amenity":"grave_yard","landuse":"cemetery","name":"Djursholms begravningsplats","note":"area corrected 2011-10-02","wikidata":"Q10474982"}},"geometry":{"type":"Point","coordinates":[18.0770043,59.4076275]}},{"type":"Feature","properties":{"id":58789012,"osm_type":"way","name":"Nacka gamla kyrkogård","category":"cemetery","tags":{"landuse":"cemetery","name":"Nacka gamla kyrkogård","website":"https://www.svenskakyrkan.se/nacka/nacka-sodra-kyrkogard","wikidata":"Q10689058","wikipedia":"sv:Södra kyrkogården, Nacka kommun"}},"geometry":{"type":"Point","coordinates":[18.1436061,59.2950424]}},{"type":"Feature","properties":{"id":65071449,"osm_type":"way","name":"","category":"cemetery","tags":{"amenity":"grave_yard","source":"Yahoo","wikidata":"Q115303282"}},"geometry":{"type":"Point","coordinates":[18.1966466,59.4487173]}},{"type":"Feature","properties":{"id":80173117,"osm_type":"way","name":"Romersk-Katolska församlingens begravningsplats","category":"cemetery","tags":{"barrier":"fence","landuse":"cemetery","name":"Romersk-Katolska församlingens begravningsplats","religion":"christian","wikidata":"Q28007201"}},"geometry":{"type":"Point","coordinates":[18.0288415,59.3572293]}},{"type":"Feature","properties":{"id":82626057,"osm_type":"way","name":"","category":"cemetery","tags":{"amenity":"grave_yard","religion":"christian","wikidata":"Q53610076","wikimedia_commons":"Category:Sankt Johannes kyrkogård"}},"geometry":{"type":"Point","coordinates":[18.0637859,59.3386514]}},{"type":"Feature","properties":{"id":84579270,"osm_type":"way","name":"Storkällans begravningsplats","category":"cemetery","tags":{"landuse":"cemetery","name":"Storkällans begravningsplats","wikidata":"Q38034671"}},"geometry":{"type":"Point","coordinates":[18.2126159,59.2523815]}},{"type":"Feature","properties":{"id":120965702,"osm_type":"way","name":"","category":"cemetery","tags":{"landuse":"cemetery","source":"Bing;survey","wikidata":"Q19652332"}},"geometry":{"type":"Point","coordinates":[18.0382024,59.4064718]}},{"type":"Feature","properties":{"id":121813938,"osm_type":"way","name":"","category":"cemetery","tags":{"amenity":"grave_yard","religion":"christian","source":"Bing","wikidata":"Q115210732","wikimedia_commons":"Category:Hedvig Eleonora kyrkogård"}},"geometry":{"type":"Point","coordinates":[18.0806117,59.3352371]}},{"type":"Feature","properties":{"id":154543838,"osm_type":"way","name":"","category":"cemetery","tags":{"landuse":"cemetery","wikidata":"Q115198668"}},"geometry":{"type":"Point","coordinates":[18.2135188,59.2462907]}},{"type":"Feature","properties":{"id":159404132,"osm_type":"way","name":"Västberga begravningsplats","category":"cemetery","tags":{"landuse":"cemetery","name":"Västberga begravningsplats","start_date":"1800s","wikidata":"Q19979120","wikipedia":"sv:Västberga begravningsplats"}},"geometry":{"type":"Point","coordinates":[18.0177806,59.2868318]}},{"type":"Feature","properties":{"id":183616163,"osm_type":"way","name":"Artillerikyrkogården","category":"cemetery","tags":{"amenity":"grave_yard","barrier":"fence","name":"Artillerikyrkogården","religion":"christian","wikidata":"Q10418866","wikimedia_commons":"File:Artillerikyrkogården 2008.jpg","wikipedia":"sv:Artillerikyrkogården"}},"geometry":{"type":"Point","coordinates":[18.1031292,59.3335815]}},{"type":"Feature","properties":{"id":186663600,"osm_type":"way","name":"","category":"cemetery","tags":{"landuse":"cemetery","wikidata":"Q44894195"}},"geometry":{"type":"Point","coordinates":[17.915956,59.467219]}},{"type":"Feature","properties":{"id":191805452,"osm_type":"way","name":"","category":"cemetery","tags":{"amenity":"grave_yard","religion":"christian"}},"geometry":{"type":"Point","coordinates":[18.0704151,59.3306983]}},{"type":"Feature","properties":{"id":236563790,"osm_type":"way","name":"","category":"cemetery","tags":{"amenity":"grave_yard","wikidata":"Q91422098"}},"geometry":{"type":"Point","coordinates":[18.0223784,59.2820743]}},{"type":"Feature","properties":{"id":236563792,"osm_type":"way","name":"Minneslund","category":"cemetery","tags":{"amenity":"grave_yard","name":"Minneslund"}},"geometry":{"type":"Point","coordinates":[18.0221164,59.2826282]}},{"type":"Feature","properties":{"id":244437539,"osm_type":"way","name":"Judiska Församlingens Begravningsplats","category":"cemetery","tags":{"landuse":"cemetery","name":"Judiska Församlingens Begravningsplats","religion":"jewish","source":"survey;Bing","wikidata":"Q28007260"}},"geometry":{"type":"Point","coordinates":[18.0264611,59.3584486]}},{"type":"Feature","properties":{"id":244445001,"osm_type":"way","name":"Lindhagens kulle","category":"cemetery","tags":{"description":"Minneslund Norra Begravningsplatsen","landuse":"cemetery","leisure":"garden","name":"Lindhagens kulle","wikidata":"Q28006122","wikipedia":"sv:Norra begravningsplatsens minneslund"}},"geometry":{"type":"Point","coordinates":[18.0185405,59.3561094]}},{"type":"Feature","properties":{"id":298663667,"osm_type":"way","name":"Grevinnans grav","category":"cemetery","tags":{"historic":"tomb","landuse":"cemetery","name":"Grevinnans grav","source":"survey"}},"geometry":{"type":"Point","coordinates":[18.045376,59.203898]}},{"type":"Feature","properties":{"id":686445660,"osm_type":"way","name":"Lings kulle","category":"cemetery","tags":{"landuse":"cemetery","name":"Lings kulle","name:en":"Ling's hill","name:sv":"Lings kulle","wikidata":"Q29789236","wikipedia":"sv:Lings kulle"}},"geometry":{"type":"Point","coordinates":[18.0203601,59.3751641]}},{"type":"Feature","properties":{"id":760089959,"osm_type":"way","name":"","category":"cemetery","tags":{"amenity":"grave_yard"}},"geometry":{"type":"Point","coordinates":[17.9533651,59.4323388]}},{"type":"Feature","properties":{"id":798784710,"osm_type":"way","name":"Invalidkyrkogården","category":"cemetery","tags":{"landuse":"cemetery","name":"Invalidkyrkogården","name:en":"The Invalid Graveyard","name:sv":"Invalidkyrkogården","wikidata":"Q10536411"}},"geometry":{"type":"Point","coordinates":[18.0226367,59.3841063]}},{"type":"Feature","properties":{"id":836509374,"osm_type":"way","name":"Kungliga begravningsplatsen","category":"cemetery","tags":{"landuse":"cemetery","name":"Kungliga begravningsplatsen","religion":"christian","wikidata":"Q1457348","wikimedia_commons":"Category:Kungliga begravningsplatsen (Royal Cemetery)","wikipedia":"sv:Kungliga begravningsplatsen"}},"geometry":{"type":"Point","coordinates":[18.0455421,59.3562445]}},{"type":"Feature","properties":{"id":1173017401,"osm_type":"way","name":"","category":"cemetery","tags":{"landuse":"cemetery","wikidata":"Q20782305","wikimedia_commons":"Category:Sundbybergs begravningsplats"}},"geometry":{"type":"Point","coordinates":[17.9597835,59.3736885]}},{"type":"Feature","properties":{"id":1349122413,"osm_type":"way","name":"Södra judiska begravningsplatsen","category":"cemetery","tags":{"landuse":"cemetery","name":"Södra judiska begravningsplatsen","religion":"jewish","start_date":"1952","wikidata":"Q48599129","wikipedia":"sv:Södra judiska begravningsplatsen i Stockholm"}},"geometry":{"type":"Point","coordinates":[18.1023036,59.264982]}},{"type":"Feature","properties":{"id":1349122414,"osm_type":"way","name":"Skogskyrkogården","category":"cemetery","tags":{"heritage":"1","heritage:operator":"whc","heritage:website":"http://whc.unesco.org/en/list/558","landuse":"cemetery","name":"Skogskyrkogården","ref:whc":"558","start_date":"1920","whc:criteria":"(ii)(iv)","whc:inscription_date":"1994","wikidata":"Q213988","wikipedia":"sv:Skogskyrkogården"}},"geometry":{"type":"Point","coordinates":[18.1026707,59.2710759]}},{"type":"Feature","properties":{"id":1382141514,"osm_type":"way","name":"Sandsborgs Askgravlund","category":"cemetery","tags":{"landuse":"cemetery","name":"Sandsborgs Askgravlund"}},"geometry":{"type":"Point","coordinates":[18.0982099,59.2803519]}},{"type":"Feature","properties":{"id":1450070436,"osm_type":"way","name":"","category":"cemetery","tags":{"landuse":"cemetery"}},"geometry":{"type":"Point","coordinates":[18.0296686,59.3747038]}},{"type":"Feature","properties":{"id":14869678,"osm_type":"relation","name":"Norra begravningsplatsen","category":"cemetery","tags":{"barrier":"fence","landuse":"cemetery","name":"Norra begravningsplatsen","source":"local_knowledge","type":"multipolygon","wikidata":"Q252312","wikipedia":"sv:Norra begravningsplatsen"}},"geometry":{"type":"Point","coordinates":[18.0259419,59.3583553]}}]}