{"type":"FeatureCollection","features":[{"type":"Feature","properties":{"id":208275858,"osm_type":"node","name":"Timmermansgården","category":"community_centre","tags":{"amenity":"community_centre","name":"Timmermansgården","note":"Dagis, Fritidsgård och Vuxenfritis..","website":"https://www.timmermansgarden.se","wheelchair":"yes"}},"geometry":{"type":"Point","coordinates":[18.0611661,59.3142726]}},{"type":"Feature","properties":{"id":721152442,"osm_type":"node","name":"Skytteholmsparken Mötesplats & Café","category":"community_centre","tags":{"amenity":"community_centre","check_date":"2026-04-26","name":"Skytteholmsparken Mötesplats & Café"}},"geometry":{"type":"Point","coordinates":[17.9920326,59.3587755]}},{"type":"Feature","properties":{"id":990253181,"osm_type":"node","name":"Bagarmossen Folkets hus","category":"community_centre","tags":{"addr:housenumber":"44","addr:postcode":"128 45","addr:street":"Lillåvägen","amenity":"community_centre","check_date":"2026-04-29","email":"info@bagisfh.se","name":"Bagarmossen Folkets hus","phone":"+4686492755","website":"https://bagisfh.se/"}},"geometry":{"type":"Point","coordinates":[18.1326665,59.2768735]}},{"type":"Feature","properties":{"id":1604844049,"osm_type":"node","name":"oaSen","category":"community_centre","tags":{"access":"private","alcohol":"on_site_only","amenity":"community_centre","community_centre:for":"student","level":"0","microwave_oven":"yes","name":"oaSen","opening_hours":"Mo-Fr 08:00-16:00","outdoor_seating":"no","website":"https://s-sektionen.se/uthyrningstjanster","wheelchair":"yes"}},"geometry":{"type":"Point","coordinates":[18.0691336,59.3501268]}},{"type":"Feature","properties":{"id":2786032159,"osm_type":"node","name":"Folkets hus","category":"community_centre","tags":{"addr:country":"SE","addr:housenumber":"11","addr:postcode":"124 65","addr:street":"Rågsvedstorget","amenity":"community_centre","internet_access":"yes","name":"Folkets hus","phone":"+46 8 727 67 70","website":"https://www.nyaragsvedsfolketshus.se/"}},"geometry":{"type":"Point","coordinates":[18.0274713,59.2572671]}},{"type":"Feature","properties":{"id":3299262347,"osm_type":"node","name":"Lilla Södergården (Hemgård)","category":"community_centre","tags":{"amenity":"community_centre","email":"info@sodergarden.org","name":"Lilla Södergården (Hemgård)","note":"Used to be \"Via Emilia\"","payment:bank_transfer":"yes","payment:swish":"yes","phone":"+4686436689","website":"https://sodergarden.org/"}},"geometry":{"type":"Point","coordinates":[18.0741568,59.3153943]}},{"type":"Feature","properties":{"id":3563621595,"osm_type":"node","name":"Fritidsgården Morris","category":"community_centre","tags":{"amenity":"community_centre","name":"Fritidsgården Morris"}},"geometry":{"type":"Point","coordinates":[18.0785708,59.2533665]}},{"type":"Feature","properties":{"id":3704238725,"osm_type":"node","name":"Föreningsgården Larsberg","category":"community_centre","tags":{"amenity":"community_centre","name":"Föreningsgården Larsberg"}},"geometry":{"type":"Point","coordinates":[18.1454092,59.3485772]}},{"type":"Feature","properties":{"id":5369017742,"osm_type":"node","name":"Kulturfyren","category":"community_centre","tags":{"amenity":"community_centre","name":"Kulturfyren"}},"geometry":{"type":"Point","coordinates":[18.0827851,59.3277655]}},{"type":"Feature","properties":{"id":5523378549,"osm_type":"node","name":"Melodybox","category":"community_centre","tags":{"amenity":"community_centre","name":"Melodybox","url":"https://melodyboxsthlm.wordpress.com/om-oss/"}},"geometry":{"type":"Point","coordinates":[17.9894813,59.2935828]}},{"type":"Feature","properties":{"id":5775168579,"osm_type":"node","name":"Svenska kyrkan","category":"community_centre","tags":{"amenity":"community_centre","community_centre":"parish_hall","name":"Svenska kyrkan","operator":"Svenska kyrkan","operator:type":"religious","operator:wikidata":"Q749243","religion":"christian"}},"geometry":{"type":"Point","coordinates":[18.0344906,59.3063475]}},{"type":"Feature","properties":{"id":6389309985,"osm_type":"node","name":"Sockerbiten","category":"community_centre","tags":{"addr:housenumber":"23","addr:street":"Regementsgatan","amenity":"community_centre","check_date:opening_hours":"2022-12-26","community_centre:for":"senior","name":"Sockerbiten","opening_hours":"Tu-Th 09:00-15:00","website":"https://www.solna.se/omsorg--stod/stod-for-aldre/sociala-aktiviteter/seniortraffar","wheelchair":"yes"}},"geometry":{"type":"Point","coordinates":[18.0090319,59.3755255]}},{"type":"Feature","properties":{"id":6631922810,"osm_type":"node","name":"Brandbergens seniorcenter","category":"community_centre","tags":{"amenity":"community_centre","community_centre:for":"senior","name":"Brandbergens seniorcenter"}},"geometry":{"type":"Point","coordinates":[18.1694998,59.1717994]}},{"type":"Feature","properties":{"id":6939292820,"osm_type":"node","name":"Ankaret","category":"community_centre","tags":{"amenity":"community_centre","community_centre:for":"senior","email":"seniortraff@solna.se","name":"Ankaret","phone":"+46 8 746 31 45"}},"geometry":{"type":"Point","coordinates":[18.0132437,59.3622049]}},{"type":"Feature","properties":{"id":6939292827,"osm_type":"node","name":"Kristet center","category":"community_centre","tags":{"amenity":"community_centre","name":"Kristet center"}},"geometry":{"type":"Point","coordinates":[18.0093549,59.3629359]}},{"type":"Feature","properties":{"id":7082374299,"osm_type":"node","name":"Nattsvart verkstad","category":"community_centre","tags":{"addr:city":"Högdalen","addr:country":"SE","addr:housenumber":"5","addr:postcode":"124 30","addr:street":"Herrestagränd","amenity":"community_centre","email":"nattsvart_verkstad@riseup.net","entrance":"yes","internet_access":"no","name":"Nattsvart verkstad","opening_hours":"\"By event\"","website":"https://nattsvartverkstad.noblogs.org/","wheelchair":"no"}},"geometry":{"type":"Point","coordinates":[18.0572653,59.2620493]}},{"type":"Feature","properties":{"id":7658289953,"osm_type":"node","name":"Unga Kontoret","category":"community_centre","tags":{"amenity":"community_centre","name":"Unga Kontoret","operator:type":"community"}},"geometry":{"type":"Point","coordinates":[18.081135,59.2575444]}},{"type":"Feature","properties":{"id":9763647990,"osm_type":"node","name":"Mentor Sverige","category":"community_centre","tags":{"amenity":"community_centre","contact:email":"info@mentor.se","contact:phone":"+4687891180","contact:website":"https://mentor.se","name":"Mentor Sverige"}},"geometry":{"type":"Point","coordinates":[18.0682299,59.3239152]}},{"type":"Feature","properties":{"id":9784891346,"osm_type":"node","name":"Södergården (Hemgård)","category":"community_centre","tags":{"amenity":"community_centre","check_date":"2025-12-11","check_date:opening_hours":"2025-12-11","community_centre":"settlement_movement","contact:email":"info@sodergarden.org","contact:instagram":"fsodergarden","contact:phone":"+4686436689","contact:website":"https://sodergarden.org/","image":"https://sodergarden.org/wp-content/uploads/2012/10/s%C3%B6derg%C3%A5rden-e1614862710756-700x513.jpg","name":"Södergården (Hemgård)","opening_hours":"Mo-Th 10:00-16:00; Fr 10:00-14:30","opening_hours:signed":"no","wheelchair":"no","wikidata":"Q10688528","wikipedia":"sv:Södergården, Stockholm"}},"geometry":{"type":"Point","coordinates":[18.0725017,59.3161105]}},{"type":"Feature","properties":{"id":11064704110,"osm_type":"node","name":"Dalens fritidsgård","category":"community_centre","tags":{"amenity":"community_centre","name":"Dalens fritidsgård"}},"geometry":{"type":"Point","coordinates":[18.0980054,59.2873248]}},{"type":"Feature","properties":{"id":11537764418,"osm_type":"node","name":"Hjorthagsträffen","category":"community_centre","tags":{"amenity":"community_centre","community_centre:for":"senior","name":"Hjorthagsträffen"}},"geometry":{"type":"Point","coordinates":[18.1028253,59.3540937]}},{"type":"Feature","properties":{"id":11700246176,"osm_type":"node","name":"Finlandsinstitutet","category":"community_centre","tags":{"amenity":"community_centre","check_date":"2025-12-05","contact:email":"info@finlandsinstitutet.se","contact:website":"https://finlandsinstitutet.se/","name":"Finlandsinstitutet"}},"geometry":{"type":"Point","coordinates":[18.067997,59.3380738]}},{"type":"Feature","properties":{"id":11700487639,"osm_type":"node","name":"Eesti Maja","category":"community_centre","tags":{"amenity":"community_centre","name":"Eesti Maja","name:sv":"Estniska huset","website":"https://eestimaja.se/"}},"geometry":{"type":"Point","coordinates":[18.053657,59.3362415]}},{"type":"Feature","properties":{"id":11868306932,"osm_type":"node","name":"Welcome House","category":"community_centre","tags":{"amenity":"community_centre","check_date":"2024-07-08","email":"funktion.sof.intro-radgivning@stockholm.se","level":"0","name":"Welcome House","opening_hours":"Mo-Th 10:00-15:00","operator:type":"public","phone":"+46 8 508 257 73","website":"https://socialtstod.stockholm/nyanlanda/vagen-in-i-samhallet/welcome-house/information-about-welcome-house-in-different-languages/welcome-house-english/","wheelchair":"yes"}},"geometry":{"type":"Point","coordinates":[18.071148,59.3156312]}},{"type":"Feature","properties":{"id":11901021111,"osm_type":"node","name":"Folkets Hus och Parker","category":"community_centre","tags":{"amenity":"community_centre","check_date":"2025-12-12","check_date:opening_hours":"2025-04-23","contact:phone":"+4684522500","contact:website":"https://www.folketshusochparker.se/","name":"Folkets Hus och Parker","opening_hours:signed":"no","wheelchair":"no"}},"geometry":{"type":"Point","coordinates":[18.0634361,59.3174272]}},{"type":"Feature","properties":{"id":11922070127,"osm_type":"node","name":"Verdandi","category":"community_centre","tags":{"amenity":"community_centre","check_date":"2025-12-12","contact:email":"info@verdandi.se","contact:phone":"+46765313262","contact:website":"https://www.verdandi.se","level":"0","name":"Verdandi"}},"geometry":{"type":"Point","coordinates":[18.064442,59.3144955]}},{"type":"Feature","properties":{"id":11952587142,"osm_type":"node","name":"Stockholm Stadsmission","category":"community_centre","tags":{"amenity":"community_centre","check_date":"2024-06-02","community_centre":"social_centre","email":"info.mariatorget@stadsmissionen.se","name":"Stockholm Stadsmission","opening_hours":"Mo 11:00-15:00; Tu-Fr 11:00-18:00; Sa-Su 11:00-16:00","operator":"Sockhols Stadsmission","operator:type":"ngo","phone":"+46 8 684 231 25","website":"https://www.stadsmissionen.se/motesplats-mariatorget"}},"geometry":{"type":"Point","coordinates":[18.0621361,59.3176971]}},{"type":"Feature","properties":{"id":11981222464,"osm_type":"node","name":"Katarina Församlingshus","category":"community_centre","tags":{"amenity":"community_centre","check_date":"2025-12-12","contact:email":"katarina.forsamling@svenskakyrkan.se","contact:phone":"+4687436800","contact:website":"https://www.svenskakyrkan.se/katarina","name":"Katarina Församlingshus","operator":"Svenska Kyrka"}},"geometry":{"type":"Point","coordinates":[18.0760171,59.3169618]}},{"type":"Feature","properties":{"id":12219249987,"osm_type":"node","name":"Svenska Frimurare Orden","category":"community_centre","tags":{"amenity":"community_centre","club":"freemasonry","community_centre":"club_home","name":"Svenska Frimurare Orden","website":"https://frimurarorden.se/"}},"geometry":{"type":"Point","coordinates":[18.0763256,59.3304989]}},{"type":"Feature","properties":{"id":12985680767,"osm_type":"node","name":"","category":"community_centre","tags":{"amenity":"community_centre","community_centre":"village_hall"}},"geometry":{"type":"Point","coordinates":[18.1358568,59.2335721]}},{"type":"Feature","properties":{"id":13119393936,"osm_type":"node","name":"Malmgården","category":"community_centre","tags":{"amenity":"community_centre","community_centre":"club_home","name":"Malmgården","opening_hours":"Mo-We 09:00-15:30; Th 09:30-15:30","phone":"+46 8 579 220 33","website":"https://www.sollentuna.se/uppleva--gora/aktiviteter-for-seniorer/traffpunkter-och-aktiviteter/traffpunkt-malmgarden/"}},"geometry":{"type":"Point","coordinates":[17.94564,59.4263964]}},{"type":"Feature","properties":{"id":13190073150,"osm_type":"node","name":"S:ta Maria Scoutkår","category":"community_centre","tags":{"amenity":"community_centre","community_centre":"club_home","community_centre:for":"scout","name":"S:ta Maria Scoutkår","website":"https://sanctamaria.scout.se/"}},"geometry":{"type":"Point","coordinates":[18.0593617,59.3139671]}},{"type":"Feature","properties":{"id":13308618191,"osm_type":"node","name":"Solidaria Social Center","category":"community_centre","tags":{"amenity":"community_centre","community_centre":"social_centre","contact:instagram":"solidariacenter","contact:mastodon":"@solidariacenter@kolektiva.social","name":"Solidaria Social Center","website":"https://solidaria.space/"}},"geometry":{"type":"Point","coordinates":[17.960381,59.3653439]}},{"type":"Feature","properties":{"id":13878925001,"osm_type":"node","name":"Frihamnstorget","category":"community_centre","tags":{"addr:housenumber":"9","addr:postcode":"11541","addr:street":"Södra Hamnvägen","amenity":"community_centre","check_date":"2026-05-25","check_date:opening_hours":"2026-05-25","contact:instagram":"frihamnstorget","level":"0","name":"Frihamnstorget","opening_hours":"24/7","website":"https://www.frihamnstorget.se/"}},"geometry":{"type":"Point","coordinates":[18.1173269,59.3428245]}},{"type":"Feature","properties":{"id":13928612953,"osm_type":"node","name":"Turebergs Fritidsgård","category":"community_centre","tags":{"amenity":"community_centre","community_centre":"youth_centre","name":"Turebergs Fritidsgård","opening_hours":"Mo 13:00-17:00; Tu 15:00-21:00; We 13:00-19:30; Th 13:00-21:00; Fr 13:00-23:00; Sa 16:00-23:00"}},"geometry":{"type":"Point","coordinates":[17.946333,59.4263992]}},{"type":"Feature","properties":{"id":13928621956,"osm_type":"node","name":"Turebergs familjecentral","category":"community_centre","tags":{"amenity":"community_centre","community_centre":"family_centre","name":"Turebergs familjecentral"}},"geometry":{"type":"Point","coordinates":[17.9489249,59.4256757]}},{"type":"Feature","properties":{"id":5365128,"osm_type":"way","name":"Sollentuna församlingshus","category":"community_centre","tags":{"addr:city":"Sollentuna","addr:country":"SE","addr:housenumber":"10A","addr:postcode":"19147","addr:street":"Sköldvägen","amenity":"community_centre","building":"civic","community_centre":"parish_hall","contact:email":"sollentuna.forsamling@svenskakyrkan.se","contact:phone":"+46850551300","denomination":"lutheran","name":"Sollentuna församlingshus","operator":"Svenska kyrkan","operator:type":"religious","operator:wikidata":"Q749243","religion":"christian","website":"https://www.svenskakyrkan.se/sollentuna/forsamlingshuset"}},"geometry":{"type":"Point","coordinates":[17.9496677,59.4279164]}},{"type":"Feature","properties":{"id":23316489,"osm_type":"way","name":"Lidingö-Breviks Sjöscoutkår","category":"community_centre","tags":{"addr:city":"Lidingö","addr:country":"SE","addr:housenumber":"50","addr:postcode":"18162","addr:street":"Saltsjövägen","amenity":"community_centre","building":"civic","community_centre":"club_home","name":"Lidingö-Breviks Sjöscoutkår","name:en":"Sea Scouts"}},"geometry":{"type":"Point","coordinates":[18.2087261,59.3420829]}},{"type":"Feature","properties":{"id":23544619,"osm_type":"way","name":"Sollentuna Norra Scoutkår","category":"community_centre","tags":{"addr:city":"Sollentuna","addr:country":"SE","addr:housenumber":"11","addr:postcode":"192 67","addr:street":"Kistavägen","amenity":"community_centre","building":"civic","community_centre":"club_home","community_centre:for":"scout","name":"Sollentuna Norra Scoutkår","operator":"Sollentuna Norra Scoutkår"}},"geometry":{"type":"Point","coordinates":[17.9158397,59.4553688]}},{"type":"Feature","properties":{"id":25112952,"osm_type":"way","name":"Solna Folkets Hus","category":"community_centre","tags":{"addr:city":"Solna","addr:country":"SE","addr:housenumber":"2","addr:postcode":"17125","addr:street":"Skytteholmsvägen","amenity":"community_centre","building":"office","building:levels":"8","community_centre":"cultural_centre","email":"bokning@solnafolketshus.se","name":"Solna Folkets Hus","opening_hours":"Mo-Th 08:00-16:30; Fr 08:00-12:00","phone":"+46 10 6011600","website":"https://solnafolketshus.se"}},"geometry":{"type":"Point","coordinates":[18.0001182,59.3560155]}},{"type":"Feature","properties":{"id":27775532,"osm_type":"way","name":"Klockargården","category":"community_centre","tags":{"addr:city":"Huddinge","addr:country":"SE","addr:housenumber":"21","addr:street":"Kommunalvägen","amenity":"community_centre","building":"yes","community_centre":"parish_hall","denomination":"lutheran","name":"Klockargården","operator":"Svenska kyrkan","operator:type":"religious","operator:wikidata":"Q749243","religion":"christian","website":"https://www.svenskakyrkan.se/platser/2198-huddinge-forsamling-klockargarden"}},"geometry":{"type":"Point","coordinates":[17.9847905,59.2391894]}},{"type":"Feature","properties":{"id":27775535,"osm_type":"way","name":"Gamla kyrkskolan","category":"community_centre","tags":{"addr:city":"Huddinge","addr:country":"SE","addr:housenumber":"25","addr:street":"Kommunalvägen","amenity":"community_centre","building":"civic","building:levels":"2","community_centre":"parish_hall","denomination":"lutheran","name":"Gamla kyrkskolan","operator":"Svenska kyrkan","operator:type":"religious","operator:wikidata":"Q749243","religion":"christian","website":"https://www.svenskakyrkan.se/platser/2198-huddinge-forsamling-kyrkskolan","wikidata":"Q10526836","wikipedia":"sv:Huddinge kyrkskola"}},"geometry":{"type":"Point","coordinates":[17.9866343,59.2392237]}},{"type":"Feature","properties":{"id":32262176,"osm_type":"way","name":"Lidingö Golfklubb","category":"community_centre","tags":{"amenity":"community_centre","building":"civic","building:levels":"1","community_centre":"club_home","description":"The golf course is Swedens oldest 18 hole golf course.","name":"Lidingö Golfklubb","source":"survey;yahoo_imagery","sport":"golf","website":"https://www.lidingogk.se/","wikidata":"Q89303488"}},"geometry":{"type":"Point","coordinates":[18.1273803,59.3792673]}},{"type":"Feature","properties":{"id":37703924,"osm_type":"way","name":"","category":"community_centre","tags":{"addr:city":"Lidingö","addr:country":"SE","amenity":"community_centre","building":"civic","community_centre":"club_home","source":"yahoo_imagery"}},"geometry":{"type":"Point","coordinates":[18.1167946,59.3698874]}},{"type":"Feature","properties":{"id":40653784,"osm_type":"way","name":"Timmermansorden","category":"community_centre","tags":{"access":"private","amenity":"community_centre","building":"yes","building:colour":"peachpuff","building:levels":"3","building:material":"plaster","community_centre":"club_home","denomination":"protestant","name":"Timmermansorden","religion":"christian","roof:colour":"#6EBE9F","roof:material":"copper","roof:shape":"hipped","start_date":"1927","website":"https://timmermansorden.se/","wikidata":"Q10698180","wikimedia_commons":"Category:Timmermansorden","wikipedia":"sv:Timmermansorden"}},"geometry":{"type":"Point","coordinates":[18.0677265,59.3416066]}},{"type":"Feature","properties":{"id":40848532,"osm_type":"way","name":"Prästgården","category":"community_centre","tags":{"addr:city":"Huddinge","addr:country":"SE","addr:housenumber":"29","addr:postcode":"141 48","addr:street":"Kommunalvägen","amenity":"community_centre","building":"house","community_centre":"parish_hall","denomination":"lutheran","name":"Prästgården","operator":"Svenska kyrkan","operator:type":"religious","operator:wikidata":"Q749243","religion":"christian","website":"https://www.svenskakyrkan.se/platser/2198-huddinge-forsamling-prastgarden"}},"geometry":{"type":"Point","coordinates":[17.989218,59.2399809]}},{"type":"Feature","properties":{"id":40855270,"osm_type":"way","name":"ABF Huddinge","category":"community_centre","tags":{"addr:city":"Huddinge","addr:country":"SE","addr:housenumber":"26","addr:postcode":"141 61","addr:street":"Kommunalvägen","amenity":"community_centre","building":"public","name":"ABF Huddinge","website":"https://www.abf.se/huddinge/"}},"geometry":{"type":"Point","coordinates":[17.985655,59.238447]}},{"type":"Feature","properties":{"id":42675753,"osm_type":"way","name":"Skarpnäcks Kulturhus","category":"community_centre","tags":{"addr:city":"Skarpnäck","addr:country":"SE","addr:housenumber":"25","addr:postcode":"12833","addr:street":"Skarpnäcks Allé","amenity":"community_centre","building":"public","building:colour":"lightgray","name":"Skarpnäcks Kulturhus","opening_hours":"Mo 11:00-19:00; Tu 11:00-17:00; We 10:00-19:00; Th 10:00-17:00; Sa 10:00-15:00","roof:colour":"firebrick","roof:material":"roof_tiles","start_date":"1985","website":"https://skarpnackskulturhus.stockholm/","wikidata":"Q31896646","wikipedia":"sv:Skarpnäcks kulturhus"}},"geometry":{"type":"Point","coordinates":[18.1289629,59.2678879]}},{"type":"Feature","properties":{"id":47581328,"osm_type":"way","name":"Midsommargården","category":"community_centre","tags":{"amenity":"community_centre","building":"public","building:colour":"wheat","building:levels":"2","building:material":"plaster","name":"Midsommargården","roof:colour":"firebrick","roof:shape":"gabled","start_date":"1946","wikidata":"Q10585100","wikipedia":"sv:Midsommargården"}},"geometry":{"type":"Point","coordinates":[17.9965885,59.2989281]}},{"type":"Feature","properties":{"id":50857586,"osm_type":"way","name":"OK Ravinen","category":"community_centre","tags":{"amenity":"community_centre","building":"yes","club":"sport","community_centre":"club_home","description":"OK Ravinens klubbstuga","name":"OK Ravinen","sport":"orienteering","website":"https://www.ravinen.org/"}},"geometry":{"type":"Point","coordinates":[18.1609005,59.2881468]}},{"type":"Feature","properties":{"id":55462855,"osm_type":"way","name":"","category":"community_centre","tags":{"amenity":"community_centre","building":"civic","community_centre":"club_home"}},"geometry":{"type":"Point","coordinates":[17.9398182,59.3323079]}},{"type":"Feature","properties":{"id":62111049,"osm_type":"way","name":"Danderyds Golfkubb","category":"community_centre","tags":{"addr:city":"Danderyd","addr:country":"SE","addr:housenumber":"2","addr:postcode":"182 34","addr:street":"Edsbergsvägen","amenity":"community_centre","building":"civic","community_centre":"club_home","name":"Danderyds Golfkubb","sport":"golf"}},"geometry":{"type":"Point","coordinates":[18.0196865,59.4152789]}},{"type":"Feature","properties":{"id":62790821,"osm_type":"way","name":"","category":"community_centre","tags":{"amenity":"community_centre","building":"civic","community_centre":"club_home","source":"Yahoo"}},"geometry":{"type":"Point","coordinates":[18.092398,59.3930323]}},{"type":"Feature","properties":{"id":93375011,"osm_type":"way","name":"Kulturskolan Bagarmossen","category":"community_centre","tags":{"addr:city":"Bagarmossen","addr:country":"SE","addr:housenumber":"35","addr:postcode":"128 45","addr:street":"Lillåvägen","amenity":"community_centre","building":"yes","name":"Kulturskolan Bagarmossen","opening_hours:signed":"no"}},"geometry":{"type":"Point","coordinates":[18.1325186,59.277074]}},{"type":"Feature","properties":{"id":100963680,"osm_type":"way","name":"","category":"community_centre","tags":{"amenity":"community_centre","building":"civic","community_centre":"club_home","source":"Yahoo"}},"geometry":{"type":"Point","coordinates":[18.092111,59.3929645]}},{"type":"Feature","properties":{"id":117405914,"osm_type":"way","name":"Tvåans Fritidsgård","category":"community_centre","tags":{"addr:country":"SE","addr:housenumber":"2","addr:street":"Granitvägen","amenity":"community_centre","building":"kindergarten","building:levels":"1","name":"Tvåans Fritidsgård","source":"Bing"}},"geometry":{"type":"Point","coordinates":[18.162158,59.3094477]}},{"type":"Feature","properties":{"id":128284430,"osm_type":"way","name":"Djursholms Scout","category":"community_centre","tags":{"amenity":"community_centre","building":"civic","community_centre":"club_home","name":"Djursholms Scout","source":"Bing"}},"geometry":{"type":"Point","coordinates":[18.0918231,59.4136165]}},{"type":"Feature","properties":{"id":155589202,"osm_type":"way","name":"Kulturcentrum Kvarnhjulet","category":"community_centre","tags":{"amenity":"community_centre","community_centre":"cultural_centre","name":"Kulturcentrum Kvarnhjulet"}},"geometry":{"type":"Point","coordinates":[18.2301917,59.2411449]}},{"type":"Feature","properties":{"id":157498630,"osm_type":"way","name":"Allaktivitetshuset","category":"community_centre","tags":{"amenity":"community_centre","building":"yes","check_date":"2025-11-30","name":"Allaktivitetshuset","wikidata":"Q26256783"}},"geometry":{"type":"Point","coordinates":[17.9723715,59.3619936]}},{"type":"Feature","properties":{"id":157514685,"osm_type":"way","name":"Curlingklubben","category":"community_centre","tags":{"amenity":"community_centre","building":"sport","community_centre":"club_home","name":"Curlingklubben","source:name":"survey"}},"geometry":{"type":"Point","coordinates":[17.9656275,59.3704392]}},{"type":"Feature","properties":{"id":163057914,"osm_type":"way","name":"Kyrkans hus","category":"community_centre","tags":{"addr:city":"Solna","addr:country":"SE","addr:housenumber":"14","addr:street":"Skytteholmsvägen","amenity":"community_centre","building":"government","building:levels":"4","name":"Kyrkans hus","phone":"+46 8 54664600","source":"Bing","website":"https://www.svenskakyrkan.se/solna/kyrkans-hus"}},"geometry":{"type":"Point","coordinates":[18.0000832,59.3569386]}},{"type":"Feature","properties":{"id":173690987,"osm_type":"way","name":"Östberga Kulturhus","category":"community_centre","tags":{"addr:city":"Älvsjö","addr:country":"SE","addr:housenumber":"14","addr:street":"Östbergatorget","amenity":"community_centre","building":"public","building:colour":"whitesmoke","building:levels":"2","name":"Östberga Kulturhus","opening_hours":"Mo-We,Fr 10:00-17:00; Th 12:00-19:00; Su 11:00-15:00"}},"geometry":{"type":"Point","coordinates":[18.0332617,59.2889009]}},{"type":"Feature","properties":{"id":199888032,"osm_type":"way","name":"Hägerstensåsens medborgarhus","category":"community_centre","tags":{"addr:city":"Hägersten","addr:country":"SE","addr:housenumber":"2","addr:postcode":"129 32","addr:street":"Riksdalervägen","amenity":"community_centre","building":"public","building:colour":"firebrick","building:levels":"2","building:material":"brick","name":"Hägerstensåsens medborgarhus","opening_hours":"Mo-Fr 09:00-22:00","operator":"Stockholms stad","roof:colour":"gray","roof:shape":"flat","start_date":"1957","wikidata":"Q10531263","wikipedia":"sv:Hägerstensåsens medborgarhus"}},"geometry":{"type":"Point","coordinates":[17.984055,59.2971098]}},{"type":"Feature","properties":{"id":224083571,"osm_type":"way","name":"","category":"community_centre","tags":{"amenity":"community_centre","building":"yes","building:colour":"yellow","building:levels":"3","building:material":"plaster","roof:colour":"firebrick","roof:shape":"hipped"}},"geometry":{"type":"Point","coordinates":[18.2119046,59.3138225]}},{"type":"Feature","properties":{"id":251323796,"osm_type":"way","name":"Kulturhuset Cyklopen","category":"community_centre","tags":{"addr:city":"Bandhagen","addr:country":"SE","addr:housename":"Cyklopen","addr:housenumber":"170","addr:postcode":"124 59","addr:street":"Magelungsvägen","amenity":"community_centre","building":"yes","building:levels":"4","check_date":"2023-07-20","description":"Cyklopen är ett självförvaltat och frihetligt kulturhus i Högdalen.","email":"info@cyklopen.se","internet_access":"no","name":"Kulturhuset Cyklopen","opening_hours":"\"Events and organizations\"","website":"https://www.cyklopen.se/","wheelchair":"yes","wikidata":"Q10464352","wikipedia":"sv:Cyklopen (kulturhus)"}},"geometry":{"type":"Point","coordinates":[18.040947,59.2591828]}},{"type":"Feature","properties":{"id":305523155,"osm_type":"way","name":"Parkleken Starrmyran","category":"community_centre","tags":{"amenity":"community_centre","building":"civic","name":"Parkleken Starrmyran","start_date":"1970"}},"geometry":{"type":"Point","coordinates":[18.0912534,59.2578288]}},{"type":"Feature","properties":{"id":340440444,"osm_type":"way","name":"OK Älvsjö Örby","category":"community_centre","tags":{"amenity":"community_centre","building":"yes","club":"sport","community_centre":"club_home","description":"OK Älvsjö Örbys klubbstuga","name":"OK Älvsjö Örby","sport":"orienteering","website":"https://www.svenskalag.se/okalvsjoorby"}},"geometry":{"type":"Point","coordinates":[17.9947068,59.271973]}},{"type":"Feature","properties":{"id":397866356,"osm_type":"way","name":"Kapellgården","category":"community_centre","tags":{"addr:city":"Täby","addr:country":"SE","addr:housenumber":"45A","addr:street":"Gribbylundsvägen","amenity":"community_centre","building":"civic","community_centre":"parish_hall","denomination":"lutheran","name":"Kapellgården","operator":"Svenska kyrkan","operator:type":"religious","operator:wikidata":"Q749243","religion":"christian","website":"https://www.svenskakyrkan.se/platser/66-taby-forsamling-kapellgarden-gribbylunds-kapell"}},"geometry":{"type":"Point","coordinates":[18.0861981,59.4627637]}},{"type":"Feature","properties":{"id":540076557,"osm_type":"way","name":"Liljeholmshuset","category":"community_centre","tags":{"amenity":"community_centre","community_centre":"youth_centre","layer":"-1","name":"Liljeholmshuset","operator":"Stockholms stad","operator:type":"government","operator:wikidata":"Q10680648","website":"https://ung.stockholm/hitta-fritidsgard-och-ungdomsgard/fritidsgard-och-ungdomsgard/liljeholmshuset"}},"geometry":{"type":"Point","coordinates":[18.0250574,59.3118151]}},{"type":"Feature","properties":{"id":1477896810,"osm_type":"way","name":"Tyresö FF","category":"community_centre","tags":{"amenity":"community_centre","building":"yes","club":"sport","community_centre":"club_home","name":"Tyresö FF","website":"https://www.tyresofotboll.se/"}},"geometry":{"type":"Point","coordinates":[18.2255923,59.2475254]}},{"type":"Feature","properties":{"id":2998528,"osm_type":"relation","name":"Årsta församlingshus","category":"community_centre","tags":{"amenity":"community_centre","building":"church","building:levels":"1","community_centre":"parish_hall","denomination":"lutheran","name":"Årsta församlingshus","operator":"Svenska kyrkan","operator:type":"religious","operator:wikidata":"Q749243","religion":"christian","roof:shape":"flat","type":"multipolygon","website":"https://www.svenskakyrkan.se/enskede-arsta/arsta-forsamlingshus","wheelchair":"yes"}},"geometry":{"type":"Point","coordinates":[18.0517116,59.2956361]}},{"type":"Feature","properties":{"id":14869673,"osm_type":"relation","name":"Hagalundsparken","category":"community_centre","tags":{"amenity":"community_centre","community_centre:for":"juvenile","email":"hagalundsparken@solna.se","leisure":"playground","name":"Hagalundsparken","phone":"+46 8 746 39 04","type":"multipolygon","website":"https://www.solna.se/sv/idrott-fritid/ung-i-solna1/fritidsgardar-och-kvartersgardar/hagalundsparken/"}},"geometry":{"type":"Point","coordinates":[18.0068198,59.3610487]}}]}