{"type":"FeatureCollection","features":[{"type":"Feature","properties":{"id":715710152,"osm_type":"node","name":"Oral Care","category":"dentistry","tags":{"amenity":"dentist","healthcare":"dentist","name":"Oral Care"}},"geometry":{"type":"Point","coordinates":[18.0785632,59.3147096]}},{"type":"Feature","properties":{"id":727631963,"osm_type":"node","name":"Reza Noori","category":"dentistry","tags":{"addr:city":"Nacka","addr:country":"SE","addr:housenumber":"37B","addr:postcode":"131 34","addr:street":"Atlasvägen","amenity":"dentist","entrance":"yes","name":"Reza Noori"}},"geometry":{"type":"Point","coordinates":[18.126951,59.3042099]}},{"type":"Feature","properties":{"id":1098148035,"osm_type":"node","name":"Dina tandläkare","category":"dentistry","tags":{"amenity":"dentist","healthcare":"dentist","name":"Dina tandläkare"}},"geometry":{"type":"Point","coordinates":[18.0948929,59.3459982]}},{"type":"Feature","properties":{"id":1132494946,"osm_type":"node","name":"Dental kompaniet","category":"dentistry","tags":{"amenity":"dentist","name":"Dental kompaniet"}},"geometry":{"type":"Point","coordinates":[18.0321246,59.4442049]}},{"type":"Feature","properties":{"id":1177116285,"osm_type":"node","name":"Per-Olof Cendrin","category":"dentistry","tags":{"amenity":"dentist","healthcare":"dentist","name":"Per-Olof Cendrin"}},"geometry":{"type":"Point","coordinates":[18.0861732,59.3346385]}},{"type":"Feature","properties":{"id":1192818906,"osm_type":"node","name":"","category":"dentistry","tags":{"amenity":"dentist"}},"geometry":{"type":"Point","coordinates":[18.03989,59.433252]}},{"type":"Feature","properties":{"id":1202965124,"osm_type":"node","name":"Artos Dental","category":"dentistry","tags":{"amenity":"dentist","check_date:opening_hours":"2023-12-22","healthcare":"dentist","name":"Artos Dental","opening_hours:signed":"no"}},"geometry":{"type":"Point","coordinates":[17.9942339,59.3647423]}},{"type":"Feature","properties":{"id":1215216738,"osm_type":"node","name":"Shifa Dental","category":"dentistry","tags":{"amenity":"dentist","healthcare":"dentist","name":"Shifa Dental"}},"geometry":{"type":"Point","coordinates":[18.0987729,59.2450342]}},{"type":"Feature","properties":{"id":1252652094,"osm_type":"node","name":"Tandläkarna Stora Gungan","category":"dentistry","tags":{"amenity":"dentist","name":"Tandläkarna Stora Gungan"}},"geometry":{"type":"Point","coordinates":[18.0884047,59.2849616]}},{"type":"Feature","properties":{"id":1252783215,"osm_type":"node","name":"","category":"dentistry","tags":{"amenity":"dentist","healthcare":"dentist"}},"geometry":{"type":"Point","coordinates":[18.0733334,59.2838369]}},{"type":"Feature","properties":{"id":1292046056,"osm_type":"node","name":"Stockholms dental team","category":"dentistry","tags":{"addr:country":"SE","addr:housenumber":"17","addr:street":"Stockholmsvägen","amenity":"dentist","name":"Stockholms dental team"}},"geometry":{"type":"Point","coordinates":[18.0875062,59.2851221]}},{"type":"Feature","properties":{"id":1312306740,"osm_type":"node","name":"Tandläkare Ulf Sundell","category":"dentistry","tags":{"amenity":"dentist","name":"Tandläkare Ulf Sundell"}},"geometry":{"type":"Point","coordinates":[18.0900061,59.2850452]}},{"type":"Feature","properties":{"id":1417428325,"osm_type":"node","name":"Östbergatandläkarna","category":"dentistry","tags":{"addr:country":"SE","addr:housenumber":"3","addr:street":"Stamgatan","amenity":"dentist","healthcare":"dentist","name":"Östbergatandläkarna","opening_hours":"\"bokade tider\""}},"geometry":{"type":"Point","coordinates":[18.0424501,59.2833569]}},{"type":"Feature","properties":{"id":1443446552,"osm_type":"node","name":"Tandlaget","category":"dentistry","tags":{"amenity":"dentist","entrance":"yes","name":"Tandlaget"}},"geometry":{"type":"Point","coordinates":[18.2006579,59.2226026]}},{"type":"Feature","properties":{"id":1757391814,"osm_type":"node","name":"","category":"dentistry","tags":{"amenity":"dentist","healthcare":"dentist"}},"geometry":{"type":"Point","coordinates":[17.9974808,59.3534271]}},{"type":"Feature","properties":{"id":1831828775,"osm_type":"node","name":"Dentrum","category":"dentistry","tags":{"amenity":"dentist","check_date":"2026-04-12","check_date:opening_hours":"2026-04-12","healthcare":"dentist","name":"Dentrum","opening_hours":"Mo 08:00-18:00; Tu-Th 08:00-17:00; Fr 08:00-15:00"}},"geometry":{"type":"Point","coordinates":[17.972094,59.365444]}},{"type":"Feature","properties":{"id":2171149290,"osm_type":"node","name":"Folktandvården","category":"dentistry","tags":{"amenity":"dentist","branch":"Kista","brand":"Folktandvården","brand:wikidata":"Q10497476","check_date":"2025-02-16","healthcare":"dentist","name":"Folktandvården"}},"geometry":{"type":"Point","coordinates":[17.9463143,59.402927]}},{"type":"Feature","properties":{"id":2268440876,"osm_type":"node","name":"Folktandvården","category":"dentistry","tags":{"amenity":"dentist","brand":"Folktandvården","brand:wikidata":"Q10497476","brand:wikipedia":"sv:Folktandvården","healthcare":"dentist","name":"Folktandvården","source":"survey"}},"geometry":{"type":"Point","coordinates":[18.1223427,59.3622438]}},{"type":"Feature","properties":{"id":2284766611,"osm_type":"node","name":"Akuttandvården Sätra","category":"dentistry","tags":{"amenity":"dentist","level":"0","name":"Akuttandvården Sätra","phone":"+46 878087190","source":"knowledge"}},"geometry":{"type":"Point","coordinates":[17.9211352,59.2850138]}},{"type":"Feature","properties":{"id":2288368234,"osm_type":"node","name":"Bredäng Tandvård","category":"dentistry","tags":{"amenity":"dentist","healthcare":"dentist","name":"Bredäng Tandvård","source":"survey","survey:date":"2013-05-01"}},"geometry":{"type":"Point","coordinates":[17.9340268,59.2943521]}},{"type":"Feature","properties":{"id":2383805979,"osm_type":"node","name":"Folktandvården","category":"dentistry","tags":{"amenity":"dentist","brand":"Folktandvården","brand:wikidata":"Q10497476","brand:wikipedia":"sv:Folktandvården","contact:phone":"+46812316380","contact:website":"https://www.folktandvardenstockholm.se/vara-kliniker/allmantandvard/rotebro/","healthcare":"dentist","name":"Folktandvården","opening_hours":"Mo-Tu 07:30-19:00; We-Fr 07:30-17:00"}},"geometry":{"type":"Point","coordinates":[17.9112644,59.4769049]}},{"type":"Feature","properties":{"id":2407174561,"osm_type":"node","name":"Birka Tandhälsa","category":"dentistry","tags":{"amenity":"dentist","check_date":"2025-11-15","check_date:opening_hours":"2025-11-15","contact:email":"info@birkatandhalsa.se","contact:phone":"+468309297","contact:website":"https://www.birkatandhalsa.se","healthcare":"dentist","name":"Birka Tandhälsa","opening_hours":"Mo-Th 07:00-20:00; Fr 07:00-18:00"}},"geometry":{"type":"Point","coordinates":[18.0343339,59.3400273]}},{"type":"Feature","properties":{"id":2476533751,"osm_type":"node","name":"Folktandvården","category":"dentistry","tags":{"addr:city":"Huddinge","addr:country":"SE","addr:housenumber":"16","addr:street":"Paradistorget","amenity":"dentist","brand":"Folktandvården","brand:wikidata":"Q10497476","brand:wikipedia":"sv:Folktandvården","contact:phone":"+46 8 123 155 00","healthcare":"dentist","name":"Folktandvården"}},"geometry":{"type":"Point","coordinates":[17.9806711,59.2352313]}},{"type":"Feature","properties":{"id":2694362495,"osm_type":"node","name":"Finntorpstandläkarna AB","category":"dentistry","tags":{"addr:city":"Nacka","addr:country":"SE","addr:housenumber":"23","addr:street":"Becksjudarvägen","amenity":"dentist","contact:website":"http://www.nackatand.com/","healthcare":"dentist","name":"Finntorpstandläkarna AB"}},"geometry":{"type":"Point","coordinates":[18.1332974,59.3072459]}},{"type":"Feature","properties":{"id":2712407946,"osm_type":"node","name":"Karlaplans Tandläkarna","category":"dentistry","tags":{"amenity":"dentist","healthcare":"dentist","name":"Karlaplans Tandläkarna"}},"geometry":{"type":"Point","coordinates":[18.0917967,59.3381285]}},{"type":"Feature","properties":{"id":2817618656,"osm_type":"node","name":"Tandea","category":"dentistry","tags":{"amenity":"dentist","healthcare":"dentist","name":"Tandea"}},"geometry":{"type":"Point","coordinates":[18.144719,59.1689875]}},{"type":"Feature","properties":{"id":2838025108,"osm_type":"node","name":"Älvsjö Tandläkaren","category":"dentistry","tags":{"addr:city":"Älvsjö","addr:country":"SE","addr:housenumber":"202","addr:postcode":"12534","addr:street":"Johan Skyttes Väg","amenity":"dentist","healthcare":"dentist","name":"Älvsjö Tandläkaren"}},"geometry":{"type":"Point","coordinates":[18.0059938,59.2780057]}},{"type":"Feature","properties":{"id":2960845221,"osm_type":"node","name":"City Tandakut","category":"dentistry","tags":{"amenity":"dentist","healthcare":"dentist","name":"City Tandakut","opening_hours":"Mo-Fr 07:00-21:00; Sa,Su 09:00-15:00"}},"geometry":{"type":"Point","coordinates":[18.0305273,59.3406702]}},{"type":"Feature","properties":{"id":3065766288,"osm_type":"node","name":"Folktandvården","category":"dentistry","tags":{"amenity":"dentist","brand":"Folktandvården","brand:wikidata":"Q10497476","brand:wikipedia":"sv:Folktandvården","healthcare":"dentist","name":"Folktandvården"}},"geometry":{"type":"Point","coordinates":[18.101171,59.3131282]}},{"type":"Feature","properties":{"id":3105317909,"osm_type":"node","name":"Rotebro Tandvård","category":"dentistry","tags":{"amenity":"dentist","healthcare":"dentist","name":"Rotebro Tandvård"}},"geometry":{"type":"Point","coordinates":[17.9117435,59.4764177]}},{"type":"Feature","properties":{"id":3352022454,"osm_type":"node","name":"Råsunda Tandklinik","category":"dentistry","tags":{"addr:city":"Solna","addr:country":"SE","addr:housenumber":"4","addr:postcode":"169 68","addr:street":"Förvaltarvägen","amenity":"dentist","email":"rasunda.tandklinik@outlook.com","healthcare":"dentist","name":"Råsunda Tandklinik","opening_hours":"Mo-Th 08:00-12:00, 13:00-16:00; Fr 08:00-13:00","phone":"+46 8 27 90 10","website":"https://rasundatandklinik.se/"}},"geometry":{"type":"Point","coordinates":[18.0112151,59.3649001]}},{"type":"Feature","properties":{"id":3438952583,"osm_type":"node","name":"Tandläkare Camilla Hildebrand","category":"dentistry","tags":{"addr:city":"Lidingö","addr:country":"SE","addr:housenumber":"13","addr:postcode":"181 61","addr:street":"Pyrolavägen","amenity":"dentist","name":"Tandläkare Camilla Hildebrand","source":"survey"}},"geometry":{"type":"Point","coordinates":[18.1707426,59.3447407]}},{"type":"Feature","properties":{"id":3485125225,"osm_type":"node","name":"Hägerstens tandvårdsteam","category":"dentistry","tags":{"addr:city":"Hägersten","addr:country":"SE","addr:housenumber":"20-22","addr:postcode":"129 32","addr:street":"Sparbanksvägen","amenity":"dentist","healthcare":"dentist","name":"Hägerstens tandvårdsteam","opening_hours":"Mo 09:00-20:00; Tu 08:45-18:00; We 08:00-18:00; Th 08:00-16:00; Fr 08:00-14:00","operator":"Hägerstensåsens Tandteam AB"}},"geometry":{"type":"Point","coordinates":[17.9826565,59.2975127]}},{"type":"Feature","properties":{"id":3597242235,"osm_type":"node","name":"Tandgården","category":"dentistry","tags":{"amenity":"dentist","healthcare":"dentist","name":"Tandgården"}},"geometry":{"type":"Point","coordinates":[17.9200509,59.4663897]}},{"type":"Feature","properties":{"id":3903003022,"osm_type":"node","name":"TandClinic","category":"dentistry","tags":{"amenity":"dentist","healthcare":"dentist","name":"TandClinic"}},"geometry":{"type":"Point","coordinates":[18.0880048,59.3426704]}},{"type":"Feature","properties":{"id":3947595991,"osm_type":"node","name":"Folktandvården Fridhemsplan","category":"dentistry","tags":{"amenity":"dentist","check_date":"2025-11-11","level":"5","name":"Folktandvården Fridhemsplan"}},"geometry":{"type":"Point","coordinates":[18.0323888,59.3349263]}},{"type":"Feature","properties":{"id":4465447095,"osm_type":"node","name":"Tandläkarhuset","category":"dentistry","tags":{"addr:city":"Solna","addr:country":"SE","addr:housenumber":"47","addr:postcode":"17144","addr:street":"Skytteholmsvägen","amenity":"dentist","healthcare":"dentist","name":"Tandläkarhuset"}},"geometry":{"type":"Point","coordinates":[17.9993868,59.3582287]}},{"type":"Feature","properties":{"id":4840065121,"osm_type":"node","name":"Solna Dental Arenatandläkarna","category":"dentistry","tags":{"addr:country":"SE","addr:housenumber":"16","addr:street":"Evenemangsgatan","amenity":"dentist","check_date":"2026-04-12","check_date:opening_hours":"2026-04-12","email":"arena@solnadental.se","healthcare":"dentist","name":"Solna Dental Arenatandläkarna","name:sv":"Solna Dental Arenatandläkarna","opening_hours":"Fr 08:00-13:00; Mo,Tu 08:00-18:00; We,Th 08:00-17:00","phone":"+46 8 553 939 99","website":"https://www.solnadental.se/"}},"geometry":{"type":"Point","coordinates":[17.9988781,59.3710929]}},{"type":"Feature","properties":{"id":5059200336,"osm_type":"node","name":"Folktandvården","category":"dentistry","tags":{"amenity":"dentist","branch":"Björkhagen","brand":"Folktandvården","brand:wikidata":"Q10497476","brand:wikipedia":"sv:Folktandvården","healthcare":"dentist","name":"Folktandvården"}},"geometry":{"type":"Point","coordinates":[18.1171234,59.2902361]}},{"type":"Feature","properties":{"id":5495784123,"osm_type":"node","name":"Aqua Dental Express","category":"dentistry","tags":{"amenity":"dentist","check_date":"2025-12-03","check_date:opening_hours":"2025-12-03","contact:email":"servicecenter@aquadental.se","contact:phone":"+46101880000","contact:website":"https://www.aquadental.se/tandlakare-stockholm/expressen","healthcare":"dentist","level":"2","name":"Aqua Dental Express","name:en":"Aqua Dental Express","name:sv":"Aqua Dental Express","opening_hours":"Mo-Th 07:00-20:00; Fr 07:00-17:00; Sa-Su 08:00-16:00"}},"geometry":{"type":"Point","coordinates":[18.060463,59.3298765]}},{"type":"Feature","properties":{"id":5495784124,"osm_type":"node","name":"Aqua Dental: Tandläkare Mörby","category":"dentistry","tags":{"addr:country":"SE","addr:housenumber":"8","addr:postcode":"18231","addr:street":"Golfvägen","amenity":"dentist","contact:email":"servicecenter@aquadental.se","contact:phone":"+46101880000","contact:website":"https://www.aquadental.se/","healthcare":"dentist","healthcare:speciality":"stomatology","level":"5","name":"Aqua Dental: Tandläkare Mörby","name:en":"Aqua Dental: Mörby Centrum","name:sv":"Aqua Dental: Tandläkare Mörby","opening_hours":"\"by appointment\"","operator":"Aqua Dental"}},"geometry":{"type":"Point","coordinates":[18.0363883,59.3985769]}},{"type":"Feature","properties":{"id":5495784125,"osm_type":"node","name":"Aqua Dental: Tandläkare Sollentuna","category":"dentistry","tags":{"addr:city":"Sollentuna","addr:country":"SE","addr:housenumber":"163C","addr:postcode":"19147","addr:street":"Sollentunavägen","amenity":"dentist","check_date":"2025-11-18","check_date:opening_hours":"2025-11-18","contact:email":"servicecenter@aquadental.se","contact:phone":"+46101880000","contact:website":"https://www.aquadental.se","healthcare":"dentist","healthcare:speciality":"dentist;dentistry;dental","level":"4","name":"Aqua Dental: Tandläkare Sollentuna","name:en":"Aqua Dental: Sollentuna Centrum","name:sv":"Aqua Dental: Tandläkare Sollentuna","opening_hours":"Mo-Tu 07:00-19:00; We-Th 07:00-17:00; Fr 07:00-15:00","wheelchair":"yes"}},"geometry":{"type":"Point","coordinates":[17.9510173,59.4279105]}},{"type":"Feature","properties":{"id":5497300364,"osm_type":"node","name":"Aqua Dental Centralen","category":"dentistry","tags":{"amenity":"dentist","contact:email":"servicecenter@aquadental.se","contact:phone":"+46101880000","contact:website":"https://www.aquadental.se/tandlakare-stockholm/expressen","healthcare":"dentist","name":"Aqua Dental Centralen","opening_hours":"Mo-Th 07:00-20:00; Fr 07:00-17:00; Sa,Su 08:00-16:00"}},"geometry":{"type":"Point","coordinates":[18.0569947,59.3336808]}},{"type":"Feature","properties":{"id":5497300365,"osm_type":"node","name":"Aqua Dental Östermalm","category":"dentistry","tags":{"amenity":"dentist","check_date:opening_hours":"2024-03-12","email":"servicecenter@aquadental.se","healthcare":"dentist","name":"Aqua Dental Östermalm","opening_hours:signed":"no","phone":"+46101880000","website":"https://www.aquadental.se/"}},"geometry":{"type":"Point","coordinates":[18.077516,59.341506]}},{"type":"Feature","properties":{"id":5653674333,"osm_type":"node","name":"Folktandvården","category":"dentistry","tags":{"addr:country":"SE","addr:housenumber":"3","addr:street":"Solna torg","amenity":"dentist","brand":"Folktandvården","brand:wikidata":"Q10497476","brand:wikipedia":"sv:Folktandvården","healthcare":"dentist","level":"3","name":"Folktandvården","wheelchair":"yes"}},"geometry":{"type":"Point","coordinates":[18.0018124,59.3591436]}},{"type":"Feature","properties":{"id":5659015504,"osm_type":"node","name":"Aqua Dental Hammarby sjöstad","category":"dentistry","tags":{"amenity":"dentist","email":"servicecenter@aquadental.se","healthcare":"dentist","name":"Aqua Dental Hammarby sjöstad","name:en":"Aqua Dental Hammarby sjöstad","name:sv":"Aqua Dental Hammarby sjöstad","phone":"+46-101880000","website":"https://www.aquadental.se/"}},"geometry":{"type":"Point","coordinates":[18.1022756,59.3013894]}},{"type":"Feature","properties":{"id":5890357322,"osm_type":"node","name":"Distriktstandvården Drottninggatan","category":"dentistry","tags":{"amenity":"dentist","branch":"Drottninggatan","brand":"Distriktstandvården","brand:wikidata":"Q10474535","check_date":"2026-01-28","email":"drottninggatan@distriktstandvarden.se","healthcare":"dentist","healthcare:speciality":"dentist;dental;dentistry;emergency_dental_care;pediatric_dentist;dental_bridges;tooth_bonding;dental_extraction;dental_surgery;dental_crowns;dental_fillings;root_canals;tooth_whitening;dental_implants;dental_splints;tartar_removal;dental_examination","name":"Distriktstandvården Drottninggatan","opening_hours":"Mo-Fr 07:30-20:00; Sa 09:00-15:00; Su 10:00-15:00","operator":"Distriktstandvården","phone":"+46841200750","website":"https://distriktstandvarden.se/drottninggatan-65/","wheelchair":"yes"}},"geometry":{"type":"Point","coordinates":[18.0600387,59.3351004]}},{"type":"Feature","properties":{"id":5890435657,"osm_type":"node","name":"Distriktstandvården Fridhemsplan","category":"dentistry","tags":{"amenity":"dentist","branch":"Fridhemsplan","brand":"Distriktstandvården","brand:wikidata":"Q10474535","check_date":"2025-05-29","email":"fridhemsplan@distriktstandvarden.se","healthcare":"dentist","healthcare:speciality":"dentist;dental;dentistry;emergency_dental_care;pediatric_dentist;dental_bridges;tooth_bonding;dental_extraction;dental_surgery;dental_crowns;dental_fillings;root_canals;tooth_whitening;dental_implants;orthodontic_treatment;dental_splints;tartar_removal","name":"Distriktstandvården Fridhemsplan","opening_hours":"Mo 07:30-18:00; Tu 07:00-17:00; We 07:00-18:00; Th 07:30-17:00; Fr 07:00-17:00","operator":"Distriktstandvården","phone":"+46841200755","website":"https://distriktstandvarden.se/fridhemsplan/","wheelchair":"yes"}},"geometry":{"type":"Point","coordinates":[18.0313238,59.3317598]}},{"type":"Feature","properties":{"id":5890447603,"osm_type":"node","name":"Distriktstandvården Artillerigatan","category":"dentistry","tags":{"amenity":"dentist","branch":"Artillerigatan","brand":"Distriktstandvården","brand:wikidata":"Q10474535","check_date":"2025-10-22","email":"artillerigatan@distriktstandvarden.se","healthcare":"dentist","healthcare:speciality":"dentist;dental;dentistry;emergency_dental_care;pediatric_dentist;dental_bridges;tooth_bonding;dental_extraction;dental_surgery;dental_crowns;dental_fillings;root_canals;tooth_whitening;dental_implants;dental_splints;tartar_removal;dental_examination","name":"Distriktstandvården Artillerigatan","opening_hours":"Mo 08:00-17:00; Tu 07:30-17:00; We-Th 08:00-17:00; Fr 07:30-15:30","operator":"Distriktstandvården","phone":"+46841200758","website":"https://distriktstandvarden.se/artillerigatan/","wheelchair":"yes"}},"geometry":{"type":"Point","coordinates":[18.0885817,59.3431974]}},{"type":"Feature","properties":{"id":5890457372,"osm_type":"node","name":"Distriktstandvården Specialistkliniken Östermalm","category":"dentistry","tags":{"amenity":"dentist","branch":"Östermalm","brand":"Distriktstandvården","brand:wikidata":"Q10474535","check_date":"2025-09-22","email":"specialistkliniken@distriktstandvarden.se","healthcare":"dentist","healthcare:speciality":"dentist;dental;dentistry;tooth_prothetic;oral_surgery;endodontics;parodontology;emergency_dental_care;pediatric_dentist;dental_bridges;tooth_bonding;dental_extraction;dental_surgery;dental_crowns;dental_fillings;root_canals;tooth_whitening;dental_implants","name":"Distriktstandvården Specialistkliniken Östermalm","opening_hours":"Mo 07:40-16:00; Tu-Th 07:40-16:30; Fr 07:40-14:00","operator":"Distriktstandvården","phone":"+46859760255","website":"https://distriktstandvarden.se/specialistklinik-östermalm/","wheelchair":"yes"}},"geometry":{"type":"Point","coordinates":[18.0886622,59.3432622]}},{"type":"Feature","properties":{"id":5890477381,"osm_type":"node","name":"Distriktstandvården Åsögatan","category":"dentistry","tags":{"amenity":"dentist","branch":"Åsögatan","brand":"Distriktstandvården","brand:wikidata":"Q10474535","check_date":"2026-01-28","email":"asogatan@distriktstandvarden.se","healthcare":"dentist","healthcare:speciality":"dentist;dental;dentistry;emergency_dental_care;pediatric_dentist;dental_bridges;tooth_bonding;dental_extraction;dental_surgery;dental_crowns;dental_fillings;root_canals;tooth_whitening;dental_implants;orthodontic_treatment;dental_splints;tartar_removal","name":"Distriktstandvården Åsögatan","opening_hours":"Mo 08:00-17:00; Tu-Fr 07:30-17:00","operator":"Distriktstandvården","phone":"+46841200759","website":"https://distriktstandvarden.se/åsögatan/","wheelchair":"yes"}},"geometry":{"type":"Point","coordinates":[18.0723744,59.3125922]}},{"type":"Feature","properties":{"id":5890541754,"osm_type":"node","name":"Distriktstandvården Sundbyberg","category":"dentistry","tags":{"addr:city":"Sundbyberg","addr:country":"SE","addr:housenumber":"8","addr:postcode":"17278","addr:street":"Tulegatan","amenity":"dentist","branch":"Sundbyberg","brand":"Distriktstandvården","brand:wikidata":"Q10474535","check_date":"2025-05-29","email":"sundbyberg@distriktstandvarden.se","healthcare":"dentist","healthcare:speciality":"dentist;dental;dentistry;emergency_dental_care;pediatric_dentist;dental_bridges;tooth_bonding;dental_extraction;dental_surgery;dental_crowns;dental_fillings;root_canals;tooth_whitening;dental_implants;dental_splints;tartar_removal;dental_examination","name":"Distriktstandvården Sundbyberg","opening_hours":"Mo-Th 07:00-19:00; Fr 07:00-17:00","operator":"Distriktstandvården","phone":"+46859760380","website":"https://distriktstandvarden.se/sundbyberg/","wheelchair":"yes"}},"geometry":{"type":"Point","coordinates":[17.97604,59.364844]}},{"type":"Feature","properties":{"id":5890872161,"osm_type":"node","name":"Distriktstandvården Handen","category":"dentistry","tags":{"addr:city":"Handen","addr:country":"SE","addr:housenumber":"9","addr:postcode":"13640","addr:street":"Rudsjöterrassen 1, Plan","amenity":"dentist","branch":"Handen","brand":"Distriktstandvården","brand:wikidata":"Q10474535","check_date":"2025-05-29","email":"handen@distriktstandvarden.se","healthcare":"dentist","healthcare:speciality":"dentist;dental;dentistry;emergency_dental_care;pediatric_dentist;dental_bridges;tooth_bonding;dental_extraction;dental_surgery;dental_crowns;dental_fillings;root_canals;tooth_whitening;dental_implants;orthodontic_treatment;dental_splints;tartar_removal","level":"9","name":"Distriktstandvården Handen","opening_hours":"Mo 07:30-19:00; Tu 07:30-17:00; We 07:30-18:00; Th-Fr 07:30-17:00","operator":"Distriktstandvården","phone":"+4687772780","website":"https://distriktstandvarden.se/handen/","wheelchair":"yes"}},"geometry":{"type":"Point","coordinates":[18.13553,59.16612]}},{"type":"Feature","properties":{"id":5966364942,"osm_type":"node","name":"Distriktstandvården Solna","category":"dentistry","tags":{"addr:city":"Solna","addr:country":"SE","addr:housenumber":"4","addr:postcode":"17145","addr:street":"Solna Torg","amenity":"dentist","branch":"Solna","brand":"Distriktstandvården","brand:wikidata":"Q10474535","check_date":"2025-09-22","email":"solna@distriktstandvarden.se","healthcare":"dentist","healthcare:speciality":"dentist;dental;dentistry;emergency_dental_care;pediatric_dentist;dental_bridges;tooth_bonding;dental_extraction;dental_surgery;dental_crowns;dental_fillings;root_canals;tooth_whitening;dental_implants;dental_splints;tartar_removal;dental_examination","name":"Distriktstandvården Solna","opening_hours":"Mo 07:30-19:00; Tu 07:30-17:00; We-Th 07:30-19:00; Fr 07:30-18:00; Sa 10:00-15:00","operator":"Distriktstandvården","phone":"+468356000","website":"https://distriktstandvarden.se/solna/","wheelchair":"yes"}},"geometry":{"type":"Point","coordinates":[18.001955,59.359318]}},{"type":"Feature","properties":{"id":6123403272,"osm_type":"node","name":"Huddinge Tandvårdscenter","category":"dentistry","tags":{"amenity":"dentist","healthcare":"dentist","name":"Huddinge Tandvårdscenter"}},"geometry":{"type":"Point","coordinates":[17.9829178,59.2366081]}},{"type":"Feature","properties":{"id":6236706985,"osm_type":"node","name":"City Dental","category":"dentistry","tags":{"amenity":"dentist","check_date":"2023-10-04","healthcare":"dentist","name":"City Dental","website":"https://www.citydental.se"}},"geometry":{"type":"Point","coordinates":[18.0642022,59.3308322]}},{"type":"Feature","properties":{"id":6370116838,"osm_type":"node","name":"Skanstulls Tandklinik","category":"dentistry","tags":{"amenity":"dentist","contact:phone":"+4686430320","healthcare":"dentist","name":"Skanstulls Tandklinik","opening_hours":"Mo-Fr 08:00-12:00,13:00-17:00"}},"geometry":{"type":"Point","coordinates":[18.0795715,59.307912]}},{"type":"Feature","properties":{"id":6389315858,"osm_type":"node","name":"Boulevardtandläkarna","category":"dentistry","tags":{"amenity":"dentist","check_date:opening_hours":"2023-05-09","healthcare":"dentist","name":"Boulevardtandläkarna","opening_hours":"Mo-Fr 08:30-17:00","opening_hours:signed":"no","phone":"+46 8-36 37 28","website":"https://www.boulevardkliniken.se/"}},"geometry":{"type":"Point","coordinates":[18.0161818,59.3713372]}},{"type":"Feature","properties":{"id":6404103389,"osm_type":"node","name":"Svea Tandklinik","category":"dentistry","tags":{"amenity":"dentist","check_date":"2019-12-05","email":"office@sveatandklinik.se","healthcare":"dentist","internet_access":"wlan","name":"Svea Tandklinik","name:en":"Svea Dental clinic","name:fi":"hammaslääkäri Tukholmassa","name:sv":"Svea Tandklinik","opening_hours":"Mo-Th 08:00-19:00; Fr-Sa 08:00-17:00","phone":"+46-8-320820","website":"https://sveatandklinik.se"}},"geometry":{"type":"Point","coordinates":[18.0530238,59.3453306]}},{"type":"Feature","properties":{"id":6578920953,"osm_type":"node","name":"Renaissance dental","category":"dentistry","tags":{"amenity":"dentist","email":"info@renaissancedental.se","healthcare":"dentist","level":"6","name":"Renaissance dental","opening_hours":"Mo-Th 08:30-19:00; Fr 08:30-18:00; Sa, Su closed","opening_hours:url":"https://renaissancedental.se/kontakt/","phone":"+46 8-650-10-60","website":"https://renaissancedental.se/"}},"geometry":{"type":"Point","coordinates":[18.0160882,59.3735696]}},{"type":"Feature","properties":{"id":6925063110,"osm_type":"node","name":"Aqua Dental","category":"dentistry","tags":{"amenity":"dentist","check_date":"2020-02-13","email":"servicecenter@aquadental.se","healthcare":"dentist","name":"Aqua Dental","operator":"Aqua Dental","website":"https://www.aquadental.se/"}},"geometry":{"type":"Point","coordinates":[18.0574684,59.3407444]}},{"type":"Feature","properties":{"id":6925083141,"osm_type":"node","name":"Aqua Dental: Tandläkare Kungsholmen","category":"dentistry","tags":{"amenity":"dentist","email":"servicecenter@aquadental.se","healthcare":"dentist","name":"Aqua Dental: Tandläkare Kungsholmen","phone":"+46101880000","website":"https://www.aquadental.se/"}},"geometry":{"type":"Point","coordinates":[18.0348334,59.3279209]}},{"type":"Feature","properties":{"id":6925087904,"osm_type":"node","name":"Aqua Dental Nacka","category":"dentistry","tags":{"amenity":"dentist","email":"servicecenter@aquadental.se","healthcare":"dentist","level":"5","name":"Aqua Dental Nacka","name:en":"Aqua Dental Nacka","name:sv":"Aqua Dental Nacka","phone":"+46-101880000","website":"https://www.aquadental.se/"}},"geometry":{"type":"Point","coordinates":[18.1647108,59.3099516]}},{"type":"Feature","properties":{"id":6984343939,"osm_type":"node","name":"Novo Dental","category":"dentistry","tags":{"amenity":"dentist","check_date":"2025-11-11","email":"info@novodental.se","healthcare":"dentist","name":"Novo Dental","opening_hours":"Mo,We 08:00-17:00; Tu, Th 08:00-19:00; Fr 08:00-13:00","phone":"+46 8-659 45 00","website":"https://novodental.se"}},"geometry":{"type":"Point","coordinates":[17.9626181,59.3604326]}},{"type":"Feature","properties":{"id":7118882623,"osm_type":"node","name":"Aquadental","category":"dentistry","tags":{"amenity":"dentist","check_date":"2024-05-24","healthcare":"dentist","healthcare:speciality":"general;emergency","name":"Aquadental","opening_hours":"Mo-Fr 08:00-17:00","phone":"+46 8 34 31 22","website":"https://www.aquadental.se/tandlakare-stockholm/vastastan/odenplan"}},"geometry":{"type":"Point","coordinates":[18.0466036,59.3409285]}},{"type":"Feature","properties":{"id":7119142631,"osm_type":"node","name":"Folktandvården","category":"dentistry","tags":{"amenity":"dentist","branch":"Vasastan","brand":"Folktandvården","brand:wikidata":"Q10497476","brand:wikipedia":"sv:Folktandvården","check_date":"2020-01-09","healthcare":"dentist","indoor":"yes","level":"1","name":"Folktandvården"}},"geometry":{"type":"Point","coordinates":[18.0460792,59.338387]}},{"type":"Feature","properties":{"id":7133642446,"osm_type":"node","name":"Sthml Dental","category":"dentistry","tags":{"amenity":"dentist","check_date":"2025-12-13","check_date:opening_hours":"2025-12-13","contact:email":"info@sthlmdental.se","contact:phone":"+46222202060","contact:website":"https://sthlmdental.se/","healthcare":"dentist","name":"Sthml Dental","opening_hours":"Mo 08:00-19:00; Tu 08:00-17:00; We 08:00-18:00; Th 08:00-17:00; Fr 08:00-15:30"}},"geometry":{"type":"Point","coordinates":[18.0497199,59.318084]}},{"type":"Feature","properties":{"id":7253680612,"osm_type":"node","name":"Leende Tandvård","category":"dentistry","tags":{"amenity":"dentist","healthcare":"dentist","name":"Leende Tandvård"}},"geometry":{"type":"Point","coordinates":[18.0529239,59.2936162]}},{"type":"Feature","properties":{"id":7255017813,"osm_type":"node","name":"Aston Dental","category":"dentistry","tags":{"amenity":"dentist","check_date":"2025-08-21","healthcare":"dentist","name":"Aston Dental","opening_hours":"Mo-Th 08:00-17:00","payment:cash":"no","phone":"+46 8 211670","website":"https://astondental.se/"}},"geometry":{"type":"Point","coordinates":[18.0667679,59.3353658]}},{"type":"Feature","properties":{"id":7681340094,"osm_type":"node","name":"","category":"dentistry","tags":{"amenity":"dentist","healthcare":"dentist"}},"geometry":{"type":"Point","coordinates":[18.090123,59.2419214]}},{"type":"Feature","properties":{"id":7774156063,"osm_type":"node","name":"Oral Care Roslags-Näsby","category":"dentistry","tags":{"addr:city":"Täby","addr:country":"SE","addr:housenumber":"24","addr:postcode":"18338","addr:street":"Korsvägen","amenity":"dentist","healthcare":"dentist","name":"Oral Care Roslags-Näsby","website":"https://www.oralcare.se/tandvardsklinik/roslags-nasby-taby"}},"geometry":{"type":"Point","coordinates":[18.0594976,59.4353221]}},{"type":"Feature","properties":{"id":7780072788,"osm_type":"node","name":"Denton","category":"dentistry","tags":{"amenity":"dentist","email":"info@dentontandvard.se","healthcare":"dentist","name":"Denton","opening_hours":"Mo 08:00-18:00; Tu 11:30-20:00; We 08:00-18:00; Th 08:00-18:00","phone":"+46 8 655 06 55","website":"https://dentontandvard.se","wheelchair":"yes"}},"geometry":{"type":"Point","coordinates":[18.0051741,59.3811741]}},{"type":"Feature","properties":{"id":7825739268,"osm_type":"node","name":"Bergshamra Dental","category":"dentistry","tags":{"amenity":"dentist","email":"info@bergshamradental.se","healthcare":"dentist","name":"Bergshamra Dental","phone":"+46 8 650 09 50","website":"https://www.bergshamradental.se/"}},"geometry":{"type":"Point","coordinates":[18.0357263,59.3816072]}},{"type":"Feature","properties":{"id":8306041731,"osm_type":"node","name":"Folktandvården","category":"dentistry","tags":{"amenity":"dentist","brand":"Folktandvården","brand:wikidata":"Q10497476","healthcare":"dentist","name":"Folktandvården","operator":"Folktandvården"}},"geometry":{"type":"Point","coordinates":[18.1363164,59.1680474]}},{"type":"Feature","properties":{"id":8371826031,"osm_type":"node","name":"Adele Bani","category":"dentistry","tags":{"amenity":"dentist","healthcare":"dentist","name":"Adele Bani"}},"geometry":{"type":"Point","coordinates":[18.1422452,59.1665572]}},{"type":"Feature","properties":{"id":8537250344,"osm_type":"node","name":"Distriktstandvården Kungsgatan","category":"dentistry","tags":{"amenity":"dentist","branch":"Kungsgatan","brand":"Distriktstandvården","brand:wikidata":"Q10474535","check_date":"2026-01-28","email":"kungsgatan@distriktstandvarden.se","healthcare":"dentist","healthcare:speciality":"dentist;dental;dentistry;emergency_dental_care;pediatric_dentist;dental_bridges;tooth_bonding;dental_extraction;dental_surgery;dental_crowns;dental_fillings;root_canals;tooth_whitening;dental_implants;dental_splints;tartar_removal;dental_examination","name":"Distriktstandvården Kungsgatan","opening_hours":"Mo 08:00-20:00; Tu-Th 08:00-17:00; Fr 08:00-14:00","operator":"Distriktstandvården","phone":"+4684111611","website":"https://distriktstandvarden.se/kungsgatan/","wheelchair":"yes"}},"geometry":{"type":"Point","coordinates":[18.060163,59.33481]}},{"type":"Feature","properties":{"id":8537320105,"osm_type":"node","name":"Distriktstandvården Sveavägen","category":"dentistry","tags":{"amenity":"dentist","branch":"Sveavägen","brand":"Distriktstandvården","brand:wikidata":"Q10474535","check_date":"2026-01-28","email":"sveavagen@distriktstandvarden.se","healthcare":"dentist","healthcare:speciality":"dentist;dental;dentistry;emergency_dental_care;pediatric_dentist;dental_bridges;tooth_bonding;dental_extraction;dental_surgery;dental_crowns;dental_fillings;root_canals;tooth_whitening;dental_implants;dental_splints;tartar_removal;dental_examination","name":"Distriktstandvården Sveavägen","opening_hours":"Mo 08:00-17:00; Tu 08:00-17:30; We-Fr 08:00-17:00","operator":"Distriktstandvården","phone":"+468265299","website":"https://distriktstandvarden.se/sveavägen/","wheelchair":"yes"}},"geometry":{"type":"Point","coordinates":[18.060847,59.338913]}},{"type":"Feature","properties":{"id":8537324706,"osm_type":"node","name":"Distriktstandvården Skånegatan","category":"dentistry","tags":{"amenity":"dentist","branch":"Skånegatan","brand":"Distriktstandvården","brand:wikidata":"Q10474535","check_date":"2026-01-28","check_date:opening_hours":"2025-12-11","contact:email":"skanegatan@distriktstandvarden.se","contact:phone":"+468212911","contact:website":"https://distriktstandvarden.se/skånegatan/","email":"skanegatan@distriktstandvarden.se","healthcare":"dentist","healthcare:speciality":"dentist;dental;dentistry;emergency_dental_care;pediatric_dentist;dental_bridges;tooth_bonding;dental_extraction;dental_surgery;dental_crowns;dental_fillings;root_canals;tooth_whitening;dental_implants;dental_splints;tartar_removal;dental_examination","name":"Distriktstandvården Skånegatan","opening_hours":"Mo 07:30-18:00; Tu-Fr 07:30-17:00","operator":"Distriktstandvården","phone":"+468212911","website":"https://distriktstandvarden.se/skånegatan/","wheelchair":"yes"}},"geometry":{"type":"Point","coordinates":[18.0803816,59.3125089]}},{"type":"Feature","properties":{"id":8537342169,"osm_type":"node","name":"Distriktstandvården Sickla","category":"dentistry","tags":{"addr:city":"Nacka","addr:country":"SE","addr:housenumber":"18","addr:postcode":"13154","addr:street":"Smedjegatan","amenity":"dentist","branch":"Sickla","brand":"Distriktstandvården","brand:wikidata":"Q10474535","check_date":"2025-09-22","email":"sickla@distriktstandvarden.se","healthcare":"dentist","healthcare:speciality":"dentist;dental;dentistry;emergency_dental_care;pediatric_dentist;dental_bridges;tooth_bonding;dental_extraction;dental_surgery;dental_crowns;dental_fillings;root_canals;tooth_whitening;dental_implants;orthodontic_treatment;dental_splints;tartar_removal","name":"Distriktstandvården Sickla","opening_hours":"Mo-Th 07:00-20:00; Fr 07:00-17:00","operator":"Distriktstandvården","phone":"+46840074076","website":"https://distriktstandvarden.se/sickla/","wheelchair":"yes"}},"geometry":{"type":"Point","coordinates":[18.121267,59.306398]}},{"type":"Feature","properties":{"id":8537345577,"osm_type":"node","name":"Distriktstandvården","category":"dentistry","tags":{"amenity":"dentist","branch":"Liljeholmen","brand":"Distriktstandvården","brand:wikidata":"Q10474535","check_date":"2026-01-28","email":"liljeholmen@distriktstandvarden.se","healthcare":"dentist","healthcare:speciality":"dentist;dental;dentistry;emergency_dental_care;pediatric_dentist;dental_bridges;tooth_bonding;dental_extraction;dental_surgery;dental_crowns;dental_fillings;root_canals;tooth_whitening;dental_implants;dental_splints;tartar_removal;dental_examination","name":"Distriktstandvården","opening_hours":"Mo 07:30-19:15; Tu 07:00-17:00; We 07:00-19:00; Th-Fr 07:00-17:00","operator":"Distriktstandvården","phone":"+468180192","website":"https://distriktstandvarden.se/liljeholmen/","wheelchair":"yes"}},"geometry":{"type":"Point","coordinates":[18.021877,59.309844]}},{"type":"Feature","properties":{"id":8581686702,"osm_type":"node","name":"Solna Family Dental","category":"dentistry","tags":{"amenity":"dentist","check_date:opening_hours":"2024-09-03","name":"Solna Family Dental","opening_hours:signed":"no","website":"https://m.solnafamilydental.se/"}},"geometry":{"type":"Point","coordinates":[17.9924724,59.378656]}},{"type":"Feature","properties":{"id":8731729998,"osm_type":"node","name":"Specialisttandläkarna","category":"dentistry","tags":{"addr:city":"Nacka","addr:country":"SE","addr:housenumber":"18","addr:postcode":"131 54","addr:street":"Smedjegatan","amenity":"dentist","email":"info.nacka@specialisttandlakarna.se","healthcare":"dentist","name":"Specialisttandläkarna","opening_hours":"Mo-Th 08:00-17:00; Fr 08:00-16:00","operator":"GHP","phone":"+46 8 718 30 50","website":"https://specialisttandlakarna.se/kontakta-oss/nacka","wheelchair":"yes"}},"geometry":{"type":"Point","coordinates":[18.1217835,59.3063392]}},{"type":"Feature","properties":{"id":9034735817,"osm_type":"node","name":"Tandläkare Frida Sadeghi","category":"dentistry","tags":{"amenity":"dentist","healthcare":"dentist","name":"Tandläkare Frida Sadeghi","phone":"+46 8264140"}},"geometry":{"type":"Point","coordinates":[17.9492416,59.334076]}},{"type":"Feature","properties":{"id":9047980917,"osm_type":"node","name":"Tandläkare","category":"dentistry","tags":{"amenity":"dentist","name":"Tandläkare","phone":"+46 8 157484"}},"geometry":{"type":"Point","coordinates":[18.0044842,59.3310068]}},{"type":"Feature","properties":{"id":9105235622,"osm_type":"node","name":"Ålstenstandläkarna","category":"dentistry","tags":{"amenity":"dentist","healthcare":"dentist","name":"Ålstenstandläkarna"}},"geometry":{"type":"Point","coordinates":[17.9564772,59.3239447]}},{"type":"Feature","properties":{"id":9200324951,"osm_type":"node","name":"Folktandvården","category":"dentistry","tags":{"addr:country":"SE","addr:housenumber":"114","addr:street":"Gubbängstorget","amenity":"dentist","branch":"Gubbängen","brand":"Folktandvården","brand:wikidata":"Q10497476","brand:wikipedia":"sv:Folktandvården","healthcare":"dentist","healthcare:speciality":"general","internet_access":"yes","name":"Folktandvården","phone":"+46 8 12315530","website":"https://www.folktandvardenstockholm.se/vara-kliniker/allmantandvard/gubbangen/"}},"geometry":{"type":"Point","coordinates":[18.0830956,59.2621843]}},{"type":"Feature","properties":{"id":9493559675,"osm_type":"node","name":"Smajla Östermalm","category":"dentistry","tags":{"amenity":"dentist","check_date":"2025-12-05","contact:email":"info@smajla.se","contact:facebook":"SMAJLADENTAL","contact:phone":"+466114444","contact:website":"https://www.smajla.se/","healthcare":"dentist","healthcare:speciality":"orthodontics","name":"Smajla Östermalm","operator":"Smajla Dental AB"}},"geometry":{"type":"Point","coordinates":[18.0777566,59.3347696]}},{"type":"Feature","properties":{"id":9683103031,"osm_type":"node","name":"Distriktstandvården Huddinge","category":"dentistry","tags":{"addr:city":"Huddinge","addr:country":"SE","addr:housenumber":"2","addr:postcode":"14147","addr:street":"Forelltorget","amenity":"dentist","branch":"Huddinge","brand":"Distriktstandvården","brand:wikidata":"Q10474535","check_date":"2025-09-22","email":"huddinge@distriktstandvarden.se","healthcare":"dentist","healthcare:speciality":"dentist;dental;dentistry;emergency_dental_care;pediatric_dentist;dental_bridges;tooth_bonding;dental_extraction;dental_surgery;dental_crowns;dental_fillings;root_canals;tooth_whitening;dental_implants;dental_splints;tartar_removal;dental_examination","name":"Distriktstandvården Huddinge","opening_hours":"Mo-Fr 07:30-17:00","operator":"Distriktstandvården","phone":"+4687741080","website":"https://distriktstandvarden.se/huddinge/","wheelchair":"yes"}},"geometry":{"type":"Point","coordinates":[17.981251,59.236887]}},{"type":"Feature","properties":{"id":9920638073,"osm_type":"node","name":"Folktandvården","category":"dentistry","tags":{"amenity":"dentist","branch":"Akuten","brand":"Folktandvården","brand:wikidata":"Q10497476","healthcare":"dentist","name":"Folktandvården"}},"geometry":{"type":"Point","coordinates":[18.0319098,59.334727]}},{"type":"Feature","properties":{"id":9949578517,"osm_type":"node","name":"Distriktstandvården Specialistkliniken Kungsholmen","category":"dentistry","tags":{"amenity":"dentist","branch":"Kungsholmen","brand":"Distriktstandvården","brand:wikidata":"Q10474535","check_date":"2025-05-29","email":"specialistkliniken@distriktstandvarden.se","healthcare":"dentist","healthcare:speciality":"dentist;dental;dentistry;tooth_prothetic;oral_surgery;endodontics;parodontology;bite_physiology;dental_jaw_surgery;orofacial_medicine;orthodontics;periodontologists;dental_prosthetics;dental_xray","name":"Distriktstandvården Specialistkliniken Kungsholmen","opening_hours":"Mo-Th 07:00-17:00; Fr 07:00-15:00","operator":"Distriktstandvården","phone":"+46859760250","website":"https://distriktstandvarden.se/specialistklinik-kungsholmen/","wheelchair":"yes"}},"geometry":{"type":"Point","coordinates":[18.020664,59.335941]}},{"type":"Feature","properties":{"id":10270172974,"osm_type":"node","name":"SMAJLA Täby Centrum","category":"dentistry","tags":{"addr:city":"Täby","addr:country":"SE","addr:housenumber":"15","addr:street":"Stora Marknadsvägen","amenity":"dentist","email":"info@smajla.se","healthcare":"dentist","healthcare:speciality":"orthodontics","name":"SMAJLA Täby Centrum","operator":"SMAJLA Dental AB","website":"https://www.smajla.se"}},"geometry":{"type":"Point","coordinates":[18.0728234,59.4444074]}},{"type":"Feature","properties":{"id":10572679145,"osm_type":"node","name":"Tandea","category":"dentistry","tags":{"amenity":"dentist","email":"hjorthagen@tandea.se","healthcare":"dentist","name":"Tandea","opening_hours":"Mo-Fr 08:00-17:00","phone":"+46 8 506 621 03","website":"https://www.tandea.se/kliniker/tandlakare-ostermalm/"}},"geometry":{"type":"Point","coordinates":[18.1018834,59.3547502]}},{"type":"Feature","properties":{"id":10890201001,"osm_type":"node","name":"Östermalm tandvård AB","category":"dentistry","tags":{"amenity":"dentist","check_date":"2025-11-16","check_date:opening_hours":"2025-11-16","contact:email":"infotanden@gmail.com","contact:website":"https://www.ostermalmtandvard.com","healthcare":"dentist","name":"Östermalm tandvård AB","opening_hours":"Mo-Fr 10:00-18:00; Sa-Su 10:00-17:00"}},"geometry":{"type":"Point","coordinates":[18.0637363,59.3479302]}},{"type":"Feature","properties":{"id":11181559543,"osm_type":"node","name":"Kärrtorp Tandvård","category":"dentistry","tags":{"amenity":"dentist","healthcare":"dentist","name":"Kärrtorp Tandvård","opening_hours":"Mo-Fr 09:00-18:00","website":"https://www.karrtorptandvard.se"}},"geometry":{"type":"Point","coordinates":[18.1160669,59.2840797]}},{"type":"Feature","properties":{"id":11367407730,"osm_type":"node","name":"Quality Dental","category":"dentistry","tags":{"addr:housenumber":"166","addr:street":"Råsundavägen","amenity":"dentist","healthcare":"dentist","name":"Quality Dental","website":"https://qualitydentalab.se/"}},"geometry":{"type":"Point","coordinates":[17.9793435,59.3640526]}},{"type":"Feature","properties":{"id":11367410556,"osm_type":"node","name":"Tandis","category":"dentistry","tags":{"amenity":"dentist","healthcare":"dentist","name":"Tandis","opening_hours":"\"Tid enligt överenskommelse\"","website":"https://www.tandis.se/"}},"geometry":{"type":"Point","coordinates":[17.9796588,59.3637]}},{"type":"Feature","properties":{"id":11435533569,"osm_type":"node","name":"Annedals Tandklinik","category":"dentistry","tags":{"amenity":"dentist","healthcare":"dentist","name":"Annedals Tandklinik"}},"geometry":{"type":"Point","coordinates":[17.9467368,59.3651243]}},{"type":"Feature","properties":{"id":11443464475,"osm_type":"node","name":"Bandhagens Tandvård","category":"dentistry","tags":{"addr:city":"Bandhagen","addr:housenumber":"2","addr:postcode":"124 34","addr:street":"Bandhagsplan","amenity":"dentist","check_date":"2024-02-22","healthcare":"dentist","level":"1","name":"Bandhagens Tandvård","opening_hours":"Mo-Fr 10:00-17:00","phone":"+468-647 62 60","website":"https://bandhagenstandvard.se/"}},"geometry":{"type":"Point","coordinates":[18.0483838,59.2700741]}},{"type":"Feature","properties":{"id":11542818870,"osm_type":"node","name":"TandVision","category":"dentistry","tags":{"amenity":"dentist","healthcare":"dentist","name":"TandVision"}},"geometry":{"type":"Point","coordinates":[18.1356626,59.2655845]}},{"type":"Feature","properties":{"id":11594600376,"osm_type":"node","name":"Södertandläkarna","category":"dentistry","tags":{"amenity":"dentist","check_date":"2024-07-18","healthcare":"dentist","name":"Södertandläkarna"}},"geometry":{"type":"Point","coordinates":[18.0679894,59.3137433]}},{"type":"Feature","properties":{"id":11665173182,"osm_type":"node","name":"Hökarängs Tandläkarna","category":"dentistry","tags":{"amenity":"dentist","check_date":"2024-02-26","healthcare":"dentist","name":"Hökarängs Tandläkarna","phone":"+46 8 943 903"}},"geometry":{"type":"Point","coordinates":[18.0808466,59.2563155]}},{"type":"Feature","properties":{"id":11696960289,"osm_type":"node","name":"Folktandvården","category":"dentistry","tags":{"amenity":"dentist","brand":"Folktandvården","brand:wikidata":"Q10497476","healthcare":"dentist","name":"Folktandvården"}},"geometry":{"type":"Point","coordinates":[17.9668563,59.3620709]}},{"type":"Feature","properties":{"id":11861610143,"osm_type":"node","name":"tandläkare clas anderson","category":"dentistry","tags":{"amenity":"dentist","check_date":"2025-12-12","contact:email":"dr.clas@caries.nu","contact:phone":"+4686426505","contact:website":"http://www.caries.nu/","healthcare":"dentist","name":"tandläkare clas anderson","opening_hours":"Mo-Th 08:00-16:00; Fr 08:00-12:00; Sa-Su off"}},"geometry":{"type":"Point","coordinates":[18.0706793,59.3165758]}},{"type":"Feature","properties":{"id":11882942321,"osm_type":"node","name":"Family Dental Care","category":"dentistry","tags":{"amenity":"dentist","healthcare":"dentist","name":"Family Dental Care","opening_hours":"Mo-Fr 08:00-12:00,13:00-17:00","website":"https://familydental.se/"}},"geometry":{"type":"Point","coordinates":[18.0098257,59.3399169]}},{"type":"Feature","properties":{"id":11903885388,"osm_type":"node","name":"Privattandläkarna","category":"dentistry","tags":{"amenity":"dentist","healthcare":"dentist","name":"Privattandläkarna","operator":"Privattandläkarna"}},"geometry":{"type":"Point","coordinates":[17.9349897,59.2954055]}},{"type":"Feature","properties":{"id":11939781974,"osm_type":"node","name":"Pura dental","category":"dentistry","tags":{"amenity":"dentist","check_date":"2024-05-28","healthcare":"dentist","name":"Pura dental"}},"geometry":{"type":"Point","coordinates":[18.0576967,59.3489397]}},{"type":"Feature","properties":{"id":11971338052,"osm_type":"node","name":"Family Dental Care","category":"dentistry","tags":{"amenity":"dentist","healthcare":"dentist","name":"Family Dental Care"}},"geometry":{"type":"Point","coordinates":[18.0061318,59.3389989]}},{"type":"Feature","properties":{"id":11981267073,"osm_type":"node","name":"Ramstenkliniken","category":"dentistry","tags":{"amenity":"dentist","check_date":"2025-12-12","contact:email":"info@ramstenkliniken.se","contact:phone":"+46707892566","contact:website":"https://ramstenkliniken.se/","healthcare":"dentist","name":"Ramstenkliniken","wheelchair":"no"}},"geometry":{"type":"Point","coordinates":[18.0742005,59.3168762]}},{"type":"Feature","properties":{"id":11989673074,"osm_type":"node","name":"Norra Stockholm","category":"dentistry","tags":{"amenity":"dentist","healthcare":"dentist","name":"Norra Stockholm"}},"geometry":{"type":"Point","coordinates":[17.9236724,59.3868062]}},{"type":"Feature","properties":{"id":11993350131,"osm_type":"node","name":"Kista Tandläkare","category":"dentistry","tags":{"amenity":"dentist","healthcare":"dentist","name":"Kista Tandläkare"}},"geometry":{"type":"Point","coordinates":[17.9406411,59.4039927]}},{"type":"Feature","properties":{"id":11993363261,"osm_type":"node","name":"Tand Clinic","category":"dentistry","tags":{"amenity":"dentist","healthcare":"dentist","name":"Tand Clinic"}},"geometry":{"type":"Point","coordinates":[17.9386351,59.402897]}},{"type":"Feature","properties":{"id":12005717360,"osm_type":"node","name":"SthlmDental","category":"dentistry","tags":{"amenity":"dentist","healthcare":"dentist","name":"SthlmDental"}},"geometry":{"type":"Point","coordinates":[17.9477446,59.4037708]}},{"type":"Feature","properties":{"id":12005911145,"osm_type":"node","name":"Tandregleringen","category":"dentistry","tags":{"amenity":"dentist","check_date":"2025-02-16","healthcare":"dentist","name":"Tandregleringen"}},"geometry":{"type":"Point","coordinates":[17.9415235,59.404641]}},{"type":"Feature","properties":{"id":12005971403,"osm_type":"node","name":"Kista Gård Dental","category":"dentistry","tags":{"amenity":"dentist","healthcare":"dentist","name":"Kista Gård Dental","wheelchair":"limited"}},"geometry":{"type":"Point","coordinates":[17.9449232,59.4074807]}},{"type":"Feature","properties":{"id":12006069137,"osm_type":"node","name":"Akalla Tandläkare","category":"dentistry","tags":{"amenity":"dentist","healthcare":"dentist","name":"Akalla Tandläkare"}},"geometry":{"type":"Point","coordinates":[17.9157792,59.4145559]}},{"type":"Feature","properties":{"id":12009019001,"osm_type":"node","name":"Hagsätra Tandläkarna","category":"dentistry","tags":{"amenity":"dentist","healthcare":"dentist","name":"Hagsätra Tandläkarna","opening_hours":"Mo-Fr 08:30-13:00,13:30-18:00"}},"geometry":{"type":"Point","coordinates":[18.0152605,59.2618499]}},{"type":"Feature","properties":{"id":12009025384,"osm_type":"node","name":"Dental Röntgen","category":"dentistry","tags":{"amenity":"dentist","healthcare":"dentist","name":"Dental Röntgen"}},"geometry":{"type":"Point","coordinates":[18.0135301,59.2623929]}},{"type":"Feature","properties":{"id":12009162418,"osm_type":"node","name":"Fruängens Tandläkare","category":"dentistry","tags":{"amenity":"dentist","healthcare":"dentist","name":"Fruängens Tandläkare"}},"geometry":{"type":"Point","coordinates":[17.9629296,59.2884181]}},{"type":"Feature","properties":{"id":12009162998,"osm_type":"node","name":"Fruängstandläkarna","category":"dentistry","tags":{"amenity":"dentist","healthcare":"dentist","name":"Fruängstandläkarna"}},"geometry":{"type":"Point","coordinates":[17.9630587,59.2882672]}},{"type":"Feature","properties":{"id":12009172684,"osm_type":"node","name":"Fruängens Familjetandvård","category":"dentistry","tags":{"amenity":"dentist","healthcare":"dentist","name":"Fruängens Familjetandvård"}},"geometry":{"type":"Point","coordinates":[17.9635245,59.2867241]}},{"type":"Feature","properties":{"id":12009177504,"osm_type":"node","name":"Tandläkare","category":"dentistry","tags":{"amenity":"dentist","healthcare":"dentist","name":"Tandläkare"}},"geometry":{"type":"Point","coordinates":[18.0278242,59.2570398]}},{"type":"Feature","properties":{"id":12009189105,"osm_type":"node","name":"Fruängen Dental","category":"dentistry","tags":{"amenity":"dentist","healthcare":"dentist","name":"Fruängen Dental"}},"geometry":{"type":"Point","coordinates":[17.9637336,59.285451]}},{"type":"Feature","properties":{"id":12009255276,"osm_type":"node","name":"Folktandvården","category":"dentistry","tags":{"amenity":"dentist","brand":"Folktandvården","brand:wikidata":"Q10497476","healthcare":"dentist","name":"Folktandvården"}},"geometry":{"type":"Point","coordinates":[17.9689012,59.2925671]}},{"type":"Feature","properties":{"id":12011787683,"osm_type":"node","name":"","category":"dentistry","tags":{"amenity":"dentist","healthcare":"dentist"}},"geometry":{"type":"Point","coordinates":[17.9132452,59.3803153]}},{"type":"Feature","properties":{"id":12014471017,"osm_type":"node","name":"Aqua Dental","category":"dentistry","tags":{"amenity":"dentist","healthcare":"dentist","name":"Aqua Dental"}},"geometry":{"type":"Point","coordinates":[18.0911931,59.2422633]}},{"type":"Feature","properties":{"id":12016474789,"osm_type":"node","name":"Samtal Dental","category":"dentistry","tags":{"addr:city":"Älvsjö","addr:country":"SE","addr:housenumber":"2","addr:street":"Jordkabelgatan","amenity":"dentist","healthcare":"dentist","name":"Samtal Dental","website":"https://www.samtaldental.se/"}},"geometry":{"type":"Point","coordinates":[18.0020749,59.2822406]}},{"type":"Feature","properties":{"id":12016559599,"osm_type":"node","name":"Älvsjö Tandvård","category":"dentistry","tags":{"amenity":"dentist","healthcare":"dentist","name":"Älvsjö Tandvård"}},"geometry":{"type":"Point","coordinates":[18.0112353,59.280285]}},{"type":"Feature","properties":{"id":12016586300,"osm_type":"node","name":"Folktandvården","category":"dentistry","tags":{"amenity":"dentist","brand":"Folktandvården","brand:wikidata":"Q10497476","healthcare":"dentist","name":"Folktandvården"}},"geometry":{"type":"Point","coordinates":[18.0407999,59.2633148]}},{"type":"Feature","properties":{"id":12025171390,"osm_type":"node","name":"Axelsbergs Tandläkarna","category":"dentistry","tags":{"amenity":"dentist","healthcare":"dentist","name":"Axelsbergs Tandläkarna"}},"geometry":{"type":"Point","coordinates":[17.9740205,59.3046899]}},{"type":"Feature","properties":{"id":12025224843,"osm_type":"node","name":"Tandläkare","category":"dentistry","tags":{"amenity":"dentist","healthcare":"dentist","name":"Tandläkare"}},"geometry":{"type":"Point","coordinates":[17.9580862,59.3009479]}},{"type":"Feature","properties":{"id":12028160395,"osm_type":"node","name":"","category":"dentistry","tags":{"amenity":"dentist","healthcare":"dentist"}},"geometry":{"type":"Point","coordinates":[17.9688271,59.3351158]}},{"type":"Feature","properties":{"id":12028534177,"osm_type":"node","name":"Thurson & Engquist","category":"dentistry","tags":{"amenity":"dentist","healthcare":"dentist","name":"Thurson & Engquist"}},"geometry":{"type":"Point","coordinates":[17.9982697,59.3060239]}},{"type":"Feature","properties":{"id":12032805097,"osm_type":"node","name":"Tandvård","category":"dentistry","tags":{"amenity":"dentist","healthcare":"dentist","name":"Tandvård"}},"geometry":{"type":"Point","coordinates":[18.0337115,59.2802409]}},{"type":"Feature","properties":{"id":12035175545,"osm_type":"node","name":"Tandläkare","category":"dentistry","tags":{"amenity":"dentist","healthcare":"dentist","name":"Tandläkare"}},"geometry":{"type":"Point","coordinates":[17.9785204,59.3333043]}},{"type":"Feature","properties":{"id":12035211106,"osm_type":"node","name":"Munlyckan","category":"dentistry","tags":{"amenity":"dentist","healthcare":"dentist","name":"Munlyckan"}},"geometry":{"type":"Point","coordinates":[17.9783979,59.3327994]}},{"type":"Feature","properties":{"id":12154022915,"osm_type":"node","name":"Dentalisterna","category":"dentistry","tags":{"amenity":"dentist","healthcare":"dentist","name":"Dentalisterna","website":"https://www.dentalisterna.se/"}},"geometry":{"type":"Point","coordinates":[18.024004,59.3118095]}},{"type":"Feature","properties":{"id":12451448047,"osm_type":"node","name":"Fabian’s Smile","category":"dentistry","tags":{"amenity":"dentist","check_date":"2024-12","healthcare":"dentist","name":"Fabian’s Smile"}},"geometry":{"type":"Point","coordinates":[18.0743864,59.3188749]}},{"type":"Feature","properties":{"id":12554216401,"osm_type":"node","name":"Distriktstandvården Ålsten","category":"dentistry","tags":{"addr:city":"Bromma","addr:country":"SE","addr:housenumber":"14","addr:postcode":"16765","addr:street":"Ålstensgatan","amenity":"dentist","branch":"Ålsten","brand":"Distriktstandvården","brand:wikidata":"Q10474535","check_date":"2026-01-28","email":"alsten@distriktstandvarden.se","healthcare":"dentist","healthcare:speciality":"dentist;dental;dentistry;emergency_dental_care;pediatric_dentist;dental_bridges;tooth_bonding;dental_extraction;dental_surgery;dental_crowns;dental_fillings;root_canals;tooth_whitening;dental_splints;tartar_removal;dental_examination","name":"Distriktstandvården Ålsten","opening_hours":"Mo 07:00-19:00; Tu 07:00-18:30; We 07:00-18:00; Th 07:00-17:00; Fr 07:00-15:30","operator":"Distriktstandvården","phone":"+468262102","website":"https://distriktstandvarden.se/ålsten/","wheelchair":"yes"}},"geometry":{"type":"Point","coordinates":[17.9565442,59.3239757]}},{"type":"Feature","properties":{"id":12556683724,"osm_type":"node","name":"Brommatandläkarna","category":"dentistry","tags":{"amenity":"dentist","healthcare":"dentist","name":"Brommatandläkarna","opening_hours":"Mo-Th 07:30-17:30; Fr 07:30-15:00; Sa,Su off"}},"geometry":{"type":"Point","coordinates":[17.9242,59.3334499]}},{"type":"Feature","properties":{"id":12739254444,"osm_type":"node","name":"Happident","category":"dentistry","tags":{"amenity":"dentist","healthcare":"dentist","name":"Happident"}},"geometry":{"type":"Point","coordinates":[18.2284049,59.2438334]}},{"type":"Feature","properties":{"id":13006284697,"osm_type":"node","name":"Bergshamra Tandläkarna","category":"dentistry","tags":{"amenity":"dentist","name":"Bergshamra Tandläkarna"}},"geometry":{"type":"Point","coordinates":[18.0339817,59.3813497]}},{"type":"Feature","properties":{"id":13282699982,"osm_type":"node","name":"Folktandvården","category":"dentistry","tags":{"addr:city":"Sollentuna","addr:country":"SE","addr:housenumber":"17","addr:postcode":"19121","addr:street":"Tingsvägen","amenity":"dentist","brand":"Folktandvården","check_date":"2025-11-17","contact:phone":"+46812315900","contact:website":"https://www.folktandvardenstockholm.se/vara-kliniker/allmantandvard/sollentuna/","healthcare":"dentist","name":"Folktandvården","opening_hours":"Mo-Th 07:00-19:00; Fr 07:00-17:00; PH closed"}},"geometry":{"type":"Point","coordinates":[17.947044,59.4287879]}},{"type":"Feature","properties":{"id":13284715316,"osm_type":"node","name":"Gloss & Floss Dental Care","category":"dentistry","tags":{"amenity":"dentist","check_date":"2025-12-11","contact:facebook":"facebook=https://www.facebook.com/GlossochFloss","contact:phone":"+4686439011","contact:website":"https://www.gloss-floss.se/","email":"info@gloss-floss.se","healthcare":"dentist","healthcare:speciality":"orthodontics;implantology;endodontics;dental_hygiene;oral_surgery","image":"https://commons.wikimedia.org/wiki/File:Corridor_Gloss_%26_Floss_2025-3.jpg","level":"2","name":"Gloss & Floss Dental Care","opening_hours":"Mo-Fr 08:00-17:00","operator":"Gloss & Floss Dental Care AB","wheelchair":"yes","wikimedia_commons":"[[File:Entrance Gloss & Floss from street, Ölandsgatan 42, 116 63 Stockholm (2).jpg|thumb|Entrance Gloss & Floss from street, Ölandsgatan 42, 116 63 Stockholm(2)]]"}},"geometry":{"type":"Point","coordinates":[18.0767044,59.3085524]}},{"type":"Feature","properties":{"id":13294629923,"osm_type":"node","name":"Sollentunatandläkarna","category":"dentistry","tags":{"addr:city":"Sollentuna","addr:country":"SE","addr:housenumber":"7","addr:postcode":"19147","addr:street":"Turebergsvägen","amenity":"dentist","contact:phone":"+468962190","contact:website":"https://tandlakaresollentuna.se","healthcare":"dentist","name":"Sollentunatandläkarna"}},"geometry":{"type":"Point","coordinates":[17.945509,59.432264]}},{"type":"Feature","properties":{"id":13296784939,"osm_type":"node","name":"Hälsodent","category":"dentistry","tags":{"amenity":"dentist","check_date":"2025-11-11","healthcare":"dentist","name":"Hälsodent"}},"geometry":{"type":"Point","coordinates":[18.0940716,59.3593946]}},{"type":"Feature","properties":{"id":13311644508,"osm_type":"node","name":"Tandhälsa Sollentuna","category":"dentistry","tags":{"amenity":"dentist","check_date":"2025-11-17","contact:website":"https://tandhalsasollentuna.se","healthcare":"dentist","level":"4","name":"Tandhälsa Sollentuna"}},"geometry":{"type":"Point","coordinates":[17.946677,59.4291822]}},{"type":"Feature","properties":{"id":13348282961,"osm_type":"node","name":"Stockholms Specialisttandvård","category":"dentistry","tags":{"amenity":"dentist","check_date":"2025-12-02","check_date:opening_hours":"2025-12-02","contact:email":"info@specialisttandvard.com","contact:phone":"+4686500041","contact:website":"https://stockholmsspecialisttandvard.com","healthcare":"dentist","name":"Stockholms Specialisttandvård","opening_hours":"Mo-Th 08:00-16:30; Fr 08:00-14:00"}},"geometry":{"type":"Point","coordinates":[18.0471054,59.3290522]}},{"type":"Feature","properties":{"id":13391218115,"osm_type":"node","name":"Folktandvården","category":"dentistry","tags":{"amenity":"dentist","brand":"Folktandvården","contact:phone":"+46812315950","contact:website":"https://www.folktandvardenstockholm.se/vara-kliniker/allmantandvard/danderyd/","healthcare":"dentist","level":"4","name":"Folktandvården","opening_hours":"Mo-Tu 07:20-19:00; We-Fr 07:20-17:00"}},"geometry":{"type":"Point","coordinates":[18.0361442,59.3982233]}},{"type":"Feature","properties":{"id":13418574876,"osm_type":"node","name":"Magident Tandklinik","category":"dentistry","tags":{"addr:city":"Huddinge","addr:country":"SE","addr:housenumber":"13","addr:postcode":"141 47","addr:street":"Sjödalstorget","amenity":"dentist","healthcare":"dentist","name":"Magident Tandklinik","opening_hours":"Mo-Th 09:00-17:00; Fr 09:00-15:00","phone":"+46 8-711 38 00","website":"https://magident.org/"}},"geometry":{"type":"Point","coordinates":[17.9823843,59.2352978]}},{"type":"Feature","properties":{"id":13614131441,"osm_type":"node","name":"Folktandvården","category":"dentistry","tags":{"amenity":"dentist","brand":"Folktandvården","brand:wikidata":"Q10497476","healthcare":"dentist","name":"Folktandvården"}},"geometry":{"type":"Point","coordinates":[18.2293928,59.2459956]}},{"type":"Feature","properties":{"id":13645170085,"osm_type":"node","name":"Peter Helbro","category":"dentistry","tags":{"amenity":"dentist","healthcare":"dentist","name":"Peter Helbro"}},"geometry":{"type":"Point","coordinates":[18.0513479,59.3423545]}},{"type":"Feature","properties":{"id":13645180448,"osm_type":"node","name":"Tand doktorn","category":"dentistry","tags":{"amenity":"dentist","healthcare":"dentist","name":"Tand doktorn"}},"geometry":{"type":"Point","coordinates":[18.0511916,59.3425148]}},{"type":"Feature","properties":{"id":13645187828,"osm_type":"node","name":"Tandläkare - Carin Österholm Silber","category":"dentistry","tags":{"amenity":"dentist","healthcare":"dentist","name":"Tandläkare - Carin Österholm Silber"}},"geometry":{"type":"Point","coordinates":[18.0511913,59.3425144]}},{"type":"Feature","properties":{"id":13725274399,"osm_type":"node","name":"Samdent","category":"dentistry","tags":{"amenity":"dentist","healthcare":"dentist","name":"Samdent","opening_hours":"Mo-Fr 08:00-17:00; Sa 10:00-15:00"}},"geometry":{"type":"Point","coordinates":[18.0007728,59.3702363]}},{"type":"Feature","properties":{"id":57977203,"osm_type":"way","name":"Specialistkliniken för Dentala Implantat KB","category":"dentistry","tags":{"addr:city":"Nacka","addr:country":"SE","addr:housenumber":"121","addr:postcode":"131 37","addr:street":"Värmdövägen","amenity":"dentist","building":"yes","building:colour":"yellow","building:material":"brick","healthcare":"dentist","name":"Specialistkliniken för Dentala Implantat KB","phone":"+46 8-718 30 50","roof:colour":"black","roof:material":"metal","roof:shape":"hipped","website":"https://nacka.specialisttandlakarna.se/"}},"geometry":{"type":"Point","coordinates":[18.1498634,59.3074005]}}]}