{"type":"FeatureCollection","features":[{"type":"Feature","properties":{"id":253356283,"osm_type":"node","name":"Brandstation","category":"fire_station","tags":{"amenity":"fire_station","created_by":"Potlatch 0.10d","name":"Brandstation"}},"geometry":{"type":"Point","coordinates":[18.1570201,59.3606273]}},{"type":"Feature","properties":{"id":446086155,"osm_type":"node","name":"Johannes brandstation","category":"fire_station","tags":{"amenity":"fire_station","name":"Johannes brandstation","wikidata":"Q10540491","wikimedia_commons":"Category:Johannes brandstation","wikipedia":"sv:Johannes brandstation"}},"geometry":{"type":"Point","coordinates":[18.0649088,59.3376953]}},{"type":"Feature","properties":{"id":27805586,"osm_type":"way","name":"Huddinge brandstation","category":"fire_station","tags":{"addr:city":"Fullersta","addr:country":"SE","addr:housenumber":"1","addr:postcode":"141 41","addr:street":"Snättringeleden","amenity":"fire_station","building":"yes","name":"Huddinge brandstation"}},"geometry":{"type":"Point","coordinates":[17.965416,59.2517321]}},{"type":"Feature","properties":{"id":32949252,"osm_type":"way","name":"Östermalms Brandstation","category":"fire_station","tags":{"addr:city":"Stockholm","addr:housenumber":"69","addr:postcode":"11459","addr:street":"Artillerigatan","amenity":"fire_station","building":"fire_station","building:levels":"4","name":"Östermalms Brandstation","operator":"Stockholms Brandförsvar"}},"geometry":{"type":"Point","coordinates":[18.0853984,59.3405055]}},{"type":"Feature","properties":{"id":51732650,"osm_type":"way","name":"Kista Brandstation","category":"fire_station","tags":{"amenity":"fire_station","building":"yes","name":"Kista Brandstation"}},"geometry":{"type":"Point","coordinates":[17.9396711,59.4058438]}},{"type":"Feature","properties":{"id":89427777,"osm_type":"way","name":"Nacka brandstation","category":"fire_station","tags":{"addr:city":"Nacka","addr:housenumber":"2","addr:postcode":"131 40","addr:street":"Järla Skolväg","amenity":"fire_station","building":"yes","building:material":"brick","name":"Nacka brandstation","roof:colour":"gray","source":"bing"}},"geometry":{"type":"Point","coordinates":[18.1547552,59.3080941]}},{"type":"Feature","properties":{"id":154562897,"osm_type":"way","name":"Södertörns Brandförsvarsförbund","category":"fire_station","tags":{"amenity":"fire_station","building":"yes","building:material":"brick","name":"Södertörns Brandförsvarsförbund","roof:colour":"black","roof:shape":"flat"}},"geometry":{"type":"Point","coordinates":[18.2161324,59.243466]}},{"type":"Feature","properties":{"id":158999177,"osm_type":"way","name":"","category":"fire_station","tags":{"amenity":"fire_station","building":"yes"}},"geometry":{"type":"Point","coordinates":[18.1640979,59.1780419]}},{"type":"Feature","properties":{"id":168973572,"osm_type":"way","name":"Kungsholmens brandstation","category":"fire_station","tags":{"amenity":"fire_station","name":"Kungsholmens brandstation","wikidata":"Q10550313","wikimedia_commons":"Category:Kungsholmens brandstation","wikipedia":"sv:Kungsholmens brandstation"}},"geometry":{"type":"Point","coordinates":[18.033205,59.3310357]}},{"type":"Feature","properties":{"id":659394236,"osm_type":"way","name":"Sollentuna brandstation","category":"fire_station","tags":{"addr:city":"Sollentuna","addr:country":"SE","addr:housenumber":"20","addr:postcode":"19149","addr:street":"Hammarbacken","amenity":"fire_station","email":"mail@brandkaren-attunda.se","name":"Sollentuna brandstation","operator":"Brandkåren Attunda","phone":"+46859469600"}},"geometry":{"type":"Point","coordinates":[17.9259942,59.4398014]}},{"type":"Feature","properties":{"id":670179150,"osm_type":"way","name":"Solna brandstation","category":"fire_station","tags":{"amenity":"fire_station","name":"Solna brandstation","wikidata":"Q26253248","wikipedia":"sv:Solna brandstation"}},"geometry":{"type":"Point","coordinates":[17.9884787,59.3615807]}},{"type":"Feature","properties":{"id":729341706,"osm_type":"way","name":"Täby brandstation","category":"fire_station","tags":{"amenity":"fire_station","check_date":"2024-09-09","name":"Täby brandstation"}},"geometry":{"type":"Point","coordinates":[18.076077,59.4340466]}},{"type":"Feature","properties":{"id":885970152,"osm_type":"way","name":"Östermalms brandstation","category":"fire_station","tags":{"amenity":"fire_station","name":"Östermalms brandstation"}},"geometry":{"type":"Point","coordinates":[18.0854219,59.3405388]}},{"type":"Feature","properties":{"id":1176599970,"osm_type":"way","name":"Brännkyrka brandstation","category":"fire_station","tags":{"amenity":"fire_station","name":"Brännkyrka brandstation","start_date":"1980","wikidata":"Q18816597","wikipedia":"sv:Brännkyrka brandstation"}},"geometry":{"type":"Point","coordinates":[17.9822039,59.2875851]}},{"type":"Feature","properties":{"id":1179778557,"osm_type":"way","name":"Farsta brandstation","category":"fire_station","tags":{"amenity":"fire_station","name":"Farsta brandstation","wikidata":"Q10494161","wikipedia":"sv:Farsta brandstation"}},"geometry":{"type":"Point","coordinates":[18.0839899,59.2578441]}},{"type":"Feature","properties":{"id":1179779759,"osm_type":"way","name":"Katarina brandstation","category":"fire_station","tags":{"amenity":"fire_station","name":"Katarina brandstation","wikidata":"Q10544303","wikipedia":"sv:Katarina brandstation"}},"geometry":{"type":"Point","coordinates":[18.0777967,59.3155601]}}]}