{"type":"FeatureCollection","features":[{"type":"Feature","properties":{"id":256003766,"osm_type":"node","name":"Sköndals husläkarmottagning","category":"healthcare_center","tags":{"amenity":"clinic","healthcare":"clinic","name":"Sköndals husläkarmottagning"}},"geometry":{"type":"Point","coordinates":[18.1151565,59.2553544]}},{"type":"Feature","properties":{"id":256488005,"osm_type":"node","name":"Farsta närsjukvård","category":"healthcare_center","tags":{"addr:country":"SE","addr:housenumber":"32","addr:street":"Farstagången","amenity":"doctors","healthcare":"doctor","name":"Farsta närsjukvård"}},"geometry":{"type":"Point","coordinates":[18.0900836,59.2414216]}},{"type":"Feature","properties":{"id":299707777,"osm_type":"node","name":"Torsviks Vårdcentral","category":"healthcare_center","tags":{"healthcare":"doctor","name":"Torsviks Vårdcentral"}},"geometry":{"type":"Point","coordinates":[18.122416,59.3622037]}},{"type":"Feature","properties":{"id":372700778,"osm_type":"node","name":"SLM Kliniken","category":"healthcare_center","tags":{"amenity":"doctors","healthcare":"doctor","name":"SLM Kliniken","website":"https://www.slmkliniken.se/"}},"geometry":{"type":"Point","coordinates":[18.0716319,59.346684]}},{"type":"Feature","properties":{"id":373451167,"osm_type":"node","name":"Gärdet TandClinic","category":"healthcare_center","tags":{"amenity":"doctors","healthcare":"doctor","healthcare:speciality":"dentist","name":"Gärdet TandClinic"}},"geometry":{"type":"Point","coordinates":[18.0915047,59.3416313]}},{"type":"Feature","properties":{"id":434473555,"osm_type":"node","name":"Vaccin direkt","category":"healthcare_center","tags":{"amenity":"doctors","check_date":"2024-08-30","healthcare":"doctor","name":"Vaccin direkt","opening_hours":"Mo 10:00-19:00; Tu-Th 10:00-18:00; Fr 10:00-17:00; Sa 10:00-15:00; Su 11:00-15:00","wheelchair":"yes"}},"geometry":{"type":"Point","coordinates":[18.0953998,59.303635]}},{"type":"Feature","properties":{"id":446048559,"osm_type":"node","name":"","category":"healthcare_center","tags":{"amenity":"doctors","healthcare":"doctor"}},"geometry":{"type":"Point","coordinates":[17.9461914,59.4027109]}},{"type":"Feature","properties":{"id":470527020,"osm_type":"node","name":"Mödravårdscentral","category":"healthcare_center","tags":{"amenity":"doctors","healthcare":"doctor","name":"Mödravårdscentral","opening_hours":"Mo-Fr 08:00-12:00,12:30-17:00"}},"geometry":{"type":"Point","coordinates":[18.1045511,59.3024155]}},{"type":"Feature","properties":{"id":473583452,"osm_type":"node","name":"Storängskliniken","category":"healthcare_center","tags":{"amenity":"doctors","healthcare":"doctor","name":"Storängskliniken"}},"geometry":{"type":"Point","coordinates":[18.0581484,59.3364212]}},{"type":"Feature","properties":{"id":598700784,"osm_type":"node","name":"Rotebro vårdcentral","category":"healthcare_center","tags":{"amenity":"doctors","healthcare":"doctor","level":"1","name":"Rotebro vårdcentral"}},"geometry":{"type":"Point","coordinates":[17.9136036,59.4752416]}},{"type":"Feature","properties":{"id":675127144,"osm_type":"node","name":"Åsö vårdcentral","category":"healthcare_center","tags":{"amenity":"clinic","check_date":"2023-07-05","healthcare":"clinic","name":"Åsö vårdcentral"}},"geometry":{"type":"Point","coordinates":[18.0835031,59.3140561]}},{"type":"Feature","properties":{"id":736822352,"osm_type":"node","name":"Björkhagens husläkarmottagning","category":"healthcare_center","tags":{"addr:city":"Johanneshov","addr:country":"SE","addr:housenumber":"41","addr:postcode":"12153","addr:street":"Halmstadsvägen","amenity":"doctors","healthcare":"doctor","name":"Björkhagens husläkarmottagning","opening_hours":"Mo-Fr 08:00-17:00","phone":"+46840915802","website":"https://www.bjorkhagenshlm.se/","wheelchair":"yes"}},"geometry":{"type":"Point","coordinates":[18.1175452,59.2902598]}},{"type":"Feature","properties":{"id":872588239,"osm_type":"node","name":"Fruängens Läkarhus","category":"healthcare_center","tags":{"addr:country":"SE","addr:housenumber":"2","addr:street":"Fruängsgången","amenity":"doctors","healthcare":"doctor","name":"Fruängens Läkarhus"}},"geometry":{"type":"Point","coordinates":[17.9667241,59.2855867]}},{"type":"Feature","properties":{"id":880694099,"osm_type":"node","name":"Capio Maria","category":"healthcare_center","tags":{"amenity":"clinic","emergency":"no","healthcare":"clinic","name":"Capio Maria","operator":"Capio","operator:type":"private","operator:wikidata":"Q498606"}},"geometry":{"type":"Point","coordinates":[18.0577377,59.3160507]}},{"type":"Feature","properties":{"id":884883287,"osm_type":"node","name":"Bredäng Sätra Vårdcentral","category":"healthcare_center","tags":{"addr:city":"Skärholmen","addr:country":"SE","addr:housenumber":"1","addr:street":"Bredängstorg","amenity":"clinic","brand:wikipedia":"sv:Hemköp","healthcare":"clinic","name":"Bredäng Sätra Vårdcentral","operator":"Region Stockholm","phone":"08-977141","website":"https://www.hemkop.se/butik/4629"}},"geometry":{"type":"Point","coordinates":[17.9350138,59.2954454]}},{"type":"Feature","properties":{"id":1027273891,"osm_type":"node","name":"Akademikliniken","category":"healthcare_center","tags":{"healthcare":"clinic","healthcare:speciality":"plastic_surgery","name":"Akademikliniken"}},"geometry":{"type":"Point","coordinates":[18.0933435,59.3496412]}},{"type":"Feature","properties":{"id":1184585803,"osm_type":"node","name":"Öron näsa hals","category":"healthcare_center","tags":{"amenity":"clinic","healthcare":"clinic","healthcare:speciality":"otolaryngology","name":"Öron näsa hals"}},"geometry":{"type":"Point","coordinates":[17.9362527,59.220193]}},{"type":"Feature","properties":{"id":1213731700,"osm_type":"node","name":"Ulf Andersson","category":"healthcare_center","tags":{"amenity":"doctors","healthcare":"doctor","name":"Ulf Andersson"}},"geometry":{"type":"Point","coordinates":[18.0952513,59.2400485]}},{"type":"Feature","properties":{"id":1281441053,"osm_type":"node","name":"Liljeholmens Vårdcentral","category":"healthcare_center","tags":{"amenity":"clinic","healthcare":"clinic","name":"Liljeholmens Vårdcentral"}},"geometry":{"type":"Point","coordinates":[18.0218068,59.3099287]}},{"type":"Feature","properties":{"id":1301042409,"osm_type":"node","name":"Södra Laserkliniken","category":"healthcare_center","tags":{"addr:country":"SE","addr:housenumber":"38","addr:street":"Tallkrogsvägen","amenity":"doctors","healthcare":"doctor","name":"Södra Laserkliniken"}},"geometry":{"type":"Point","coordinates":[18.0908558,59.2748894]}},{"type":"Feature","properties":{"id":1408221861,"osm_type":"node","name":"Kransens Gynekologmottagning","category":"healthcare_center","tags":{"amenity":"clinic","description":"Kransens Gynekologmottagning, barn- och ungdomsmedicinsk mottagning","healthcare":"yes","name":"Kransens Gynekologmottagning"}},"geometry":{"type":"Point","coordinates":[18.0138232,59.3017869]}},{"type":"Feature","properties":{"id":1457549585,"osm_type":"node","name":"Gröndals Vårdcentral","category":"healthcare_center","tags":{"amenity":"clinic","emergency":"yes","name":"Gröndals Vårdcentral","website":"http://grondalsvardcentral.se/","wheelchair":"yes"}},"geometry":{"type":"Point","coordinates":[18.017239,59.3138849]}},{"type":"Feature","properties":{"id":1518391999,"osm_type":"node","name":"Hagalund Frösunda vårdcentral","category":"healthcare_center","tags":{"addr:city":"Solna","addr:country":"SE","addr:housenumber":"47","addr:postcode":"169 66","addr:street":"Hagalundsgatan","amenity":"doctors","healthcare":"doctor","name":"Hagalund Frösunda vårdcentral","opening_hours":"Mo-Fr 08:00-17:00","phone":"+46812337550","website":"https://www.vardcentraler.regionstockholm.se/hitta-vardcentral/hagalund-frosunda"}},"geometry":{"type":"Point","coordinates":[18.0152637,59.3618195]}},{"type":"Feature","properties":{"id":1717479738,"osm_type":"node","name":"","category":"healthcare_center","tags":{"amenity":"doctors","healthcare":"doctor"}},"geometry":{"type":"Point","coordinates":[18.0532475,59.3287579]}},{"type":"Feature","properties":{"id":1728442922,"osm_type":"node","name":"Capio Citykliniken","category":"healthcare_center","tags":{"amenity":"clinic","healthcare":"clinic","name":"Capio Citykliniken","operator":"Capio","operator:type":"private","operator:wikidata":"Q498606"}},"geometry":{"type":"Point","coordinates":[18.0378577,59.2641744]}},{"type":"Feature","properties":{"id":1844660044,"osm_type":"node","name":"Älvsjö Vårdcentral","category":"healthcare_center","tags":{"addr:city":"Älvsjö","addr:country":"SE","addr:housenumber":"1","addr:street":"Solberga Hagväg","amenity":"clinic","emergency":"no","healthcare":"clinic","level":"1","name":"Älvsjö Vårdcentral"}},"geometry":{"type":"Point","coordinates":[18.0094493,59.2797914]}},{"type":"Feature","properties":{"id":2194659709,"osm_type":"node","name":"Sätra vårdcentral","category":"healthcare_center","tags":{"amenity":"clinic","name":"Sätra vårdcentral"}},"geometry":{"type":"Point","coordinates":[17.9200946,59.2853385]}},{"type":"Feature","properties":{"id":2269897929,"osm_type":"node","name":"Ultraljudsbarnmorskorna","category":"healthcare_center","tags":{"amenity":"clinic","healthcare":"clinic","name":"Ultraljudsbarnmorskorna"}},"geometry":{"type":"Point","coordinates":[18.0968875,59.341394]}},{"type":"Feature","properties":{"id":2360857251,"osm_type":"node","name":"Stegkliniken","category":"healthcare_center","tags":{"amenity":"clinic","healthcare":"clinic","name":"Stegkliniken","opening_hours":"Mo-Th 08:00-17:00; Fr 08:00-16:00; Sa,Su off","source":"survey"}},"geometry":{"type":"Point","coordinates":[18.0038447,59.3057819]}},{"type":"Feature","properties":{"id":2378413882,"osm_type":"node","name":"Täby Centrum Doktorn","category":"healthcare_center","tags":{"amenity":"doctors","healthcare":"doctor","name":"Täby Centrum Doktorn","phone":"+46-8-6389800","website":"https://www.tabycentrumdoktorn.se/","wheelchair":"limited"}},"geometry":{"type":"Point","coordinates":[18.0678725,59.4444125]}},{"type":"Feature","properties":{"id":2378416226,"osm_type":"node","name":"Husläkaremottagningen i Täby Centrum","category":"healthcare_center","tags":{"amenity":"doctors","check_date:opening_hours":"2022-03-02","healthcare":"doctor","name":"Husläkaremottagningen i Täby Centrum","opening_hours":"Mo-Fr 08:00-17:00","phone":"+46-8-54473750","website":"https://www.aleris.se/Sjukvard/Aleris-vardenheter/Aleris-Vardcentral/Taby-Centrum/"}},"geometry":{"type":"Point","coordinates":[18.0698862,59.4453389]}},{"type":"Feature","properties":{"id":2379628086,"osm_type":"node","name":"Täby Vårdcentral","category":"healthcare_center","tags":{"amenity":"doctors","healthcare":"doctor","level":"4","name":"Täby Vårdcentral"}},"geometry":{"type":"Point","coordinates":[18.0671931,59.4444382]}},{"type":"Feature","properties":{"id":2441957807,"osm_type":"node","name":"Idrottskliniken","category":"healthcare_center","tags":{"amenity":"clinic","healthcare":"clinic","name":"Idrottskliniken"}},"geometry":{"type":"Point","coordinates":[17.9990177,59.3701982]}},{"type":"Feature","properties":{"id":2571793072,"osm_type":"node","name":"Alviks Barnklinik","category":"healthcare_center","tags":{"amenity":"clinic","check_date":"2023-08-02","healthcare":"clinic","name":"Alviks Barnklinik"}},"geometry":{"type":"Point","coordinates":[17.9813254,59.3329777]}},{"type":"Feature","properties":{"id":2605162646,"osm_type":"node","name":"Sofia vårdcentral","category":"healthcare_center","tags":{"amenity":"clinic","check_date":"2025-12-13","contact:phone":"+46851060940","contact:website":"https://www.sofiavardcentral.se","emergency":"no","healthcare":"clinic","name":"Sofia vårdcentral"}},"geometry":{"type":"Point","coordinates":[18.0960271,59.310654]}},{"type":"Feature","properties":{"id":2649591642,"osm_type":"node","name":"Älvsjö Öron-näsa-hals","category":"healthcare_center","tags":{"addr:city":"Älvsjö","addr:country":"SE","addr:housenumber":"198","addr:street":"Johan Skyttes Väg","amenity":"doctors","healthcare":"doctor","name":"Älvsjö Öron-näsa-hals","opening_hours":"Mo-Fr 08:00-16:00"}},"geometry":{"type":"Point","coordinates":[18.0069728,59.278468]}},{"type":"Feature","properties":{"id":2698671582,"osm_type":"node","name":"La Vida Laser Clinic","category":"healthcare_center","tags":{"amenity":"doctors","healthcare":"doctor","name":"La Vida Laser Clinic"}},"geometry":{"type":"Point","coordinates":[18.0884626,59.3365131]}},{"type":"Feature","properties":{"id":2712133090,"osm_type":"node","name":"Sibyllekliniken","category":"healthcare_center","tags":{"amenity":"clinic","check_date":"2024-10-30","healthcare":"clinic","name":"Sibyllekliniken","opening_hours":"Mo-Fr 08:00-17:00","operator":"Meliva"}},"geometry":{"type":"Point","coordinates":[18.0821697,59.3390309]}},{"type":"Feature","properties":{"id":2724832050,"osm_type":"node","name":"Banérgatans husläkarmottagning","category":"healthcare_center","tags":{"amenity":"doctors","healthcare":"doctor","name":"Banérgatans husläkarmottagning","source":"Survey"}},"geometry":{"type":"Point","coordinates":[18.0958836,59.3400283]}},{"type":"Feature","properties":{"id":2749153056,"osm_type":"node","name":"Narva Kirurgcenter","category":"healthcare_center","tags":{"amenity":"doctors","check_date":"2025-12-08","contact:email":"info@narvakirurg.se","contact:phone":"+4686662030","contact:website":"https://narvakirurg.se/","healthcare":"doctor","name":"Narva Kirurgcenter","opening_hours":"Mo-Fr 08:00-17:00; Tu 08:00-20:00"}},"geometry":{"type":"Point","coordinates":[18.0912906,59.3364032]}},{"type":"Feature","properties":{"id":2809319895,"osm_type":"node","name":"Vaccinationsgruppen","category":"healthcare_center","tags":{"check_date":"2025-07-31","health_service:prevention:vaccination":"yes","healthcare":"centre","name":"Vaccinationsgruppen","opening_hours":"Sa 10:00-15:00; Mo-Fr 09:00-18:45","phone":"+46 8-500 033 00","website":"https://www.vaccinationsgruppen.se/"}},"geometry":{"type":"Point","coordinates":[18.0302091,59.3333685]}},{"type":"Feature","properties":{"id":2825789885,"osm_type":"node","name":"Grev Ture","category":"healthcare_center","tags":{"amenity":"doctors","healthcare":"doctor","name":"Grev Ture"}},"geometry":{"type":"Point","coordinates":[18.0796552,59.3402728]}},{"type":"Feature","properties":{"id":2825789888,"osm_type":"node","name":"Helsa Företagsvård","category":"healthcare_center","tags":{"amenity":"doctors","branch":"Östermalm","healthcare":"doctor","name":"Helsa Företagsvård"}},"geometry":{"type":"Point","coordinates":[18.0798056,59.3410218]}},{"type":"Feature","properties":{"id":2913235447,"osm_type":"node","name":"vaccin.nu","category":"healthcare_center","tags":{"check_date":"2024-05-22","healthcare":"vaccination_centre","name":"vaccin.nu","operator":"Vaccinationsgruppen AB","phone":"+46850003300","website":"https://vaccin.nu"}},"geometry":{"type":"Point","coordinates":[18.0544436,59.3447591]}},{"type":"Feature","properties":{"id":2956940418,"osm_type":"node","name":"Hammarby sjöstads Husläkare","category":"healthcare_center","tags":{"alt_name":"Vårdcentral","amenity":"doctors","healthcare":"doctor","name":"Hammarby sjöstads Husläkare","phone":"+46 8 462 25 00","wheelchair":"yes"}},"geometry":{"type":"Point","coordinates":[18.0936436,59.3042759]}},{"type":"Feature","properties":{"id":3163302083,"osm_type":"node","name":"Svea vaccin","category":"healthcare_center","tags":{"amenity":"doctors","contact:email":"taby@sveavaccin.se","contact:phone":"+46102840408","contact:website":"https://sveavaccin.se/vara-mottagningar/stockholm/taby/","healthcare":"doctor","name":"Svea vaccin","opening_hours":"Mo-Fr 10:00-18:00; Sa 10:00-15:00","source":"survey"}},"geometry":{"type":"Point","coordinates":[18.067351,59.4432509]}},{"type":"Feature","properties":{"id":3188022808,"osm_type":"node","name":"Stockholm Vaccin-Lättakut","category":"healthcare_center","tags":{"amenity":"doctors","health_facility:type":"health_centre","health_service":"prevention","health_specialty":"travel_medicine","healthcare":"doctor","medical_system:western":"yes","name":"Stockholm Vaccin-Lättakut","opening_hours":"Mo-Fr 08:00-18:00;Sa 10:00-14:00;Su off","phone":"+468314848","type":"health","website":"https://www.stockholmvaccin.se/","wheelchair":"yes"}},"geometry":{"type":"Point","coordinates":[18.0376346,59.3397793]}},{"type":"Feature","properties":{"id":3856619680,"osm_type":"node","name":"SöderDoktorn","category":"healthcare_center","tags":{"amenity":"doctors","healthcare":"doctor","name":"SöderDoktorn","phone":"+46-8-6166130","website":"http://www.soderdoktorn.se"}},"geometry":{"type":"Point","coordinates":[18.0578242,59.3160576]}},{"type":"Feature","properties":{"id":3890892147,"osm_type":"node","name":"Ultraljudsbarnmorskorna","category":"healthcare_center","tags":{"amenity":"clinic","healthcare":"clinic","name":"Ultraljudsbarnmorskorna"}},"geometry":{"type":"Point","coordinates":[18.023192,59.3122594]}},{"type":"Feature","properties":{"id":3891672959,"osm_type":"node","name":"Alviks vårdcentral","category":"healthcare_center","tags":{"amenity":"clinic","healthcare":"clinic","name":"Alviks vårdcentral","old_name":"Tranebergs vårdcentral"}},"geometry":{"type":"Point","coordinates":[17.9779228,59.3349003]}},{"type":"Feature","properties":{"id":4020607813,"osm_type":"node","name":"Läkarhuset Farsta","category":"healthcare_center","tags":{"addr:city":"Farsta","addr:country":"SE","addr:housenumber":"6","addr:street":"Karlandaplan","amenity":"clinic","healthcare":"clinic","name":"Läkarhuset Farsta"}},"geometry":{"type":"Point","coordinates":[18.0899716,59.241668]}},{"type":"Feature","properties":{"id":4834239323,"osm_type":"node","name":"Bröstcentrum","category":"healthcare_center","tags":{"addr:city":"Stockholm","addr:country":"SE","addr:housenumber":"2","addr:street":"Mariebergsporten","amenity":"clinic","healthcare":"clinic","name":"Bröstcentrum"}},"geometry":{"type":"Point","coordinates":[18.0235091,59.3331534]}},{"type":"Feature","properties":{"id":4893397175,"osm_type":"node","name":"Nacka Psykiatri","category":"healthcare_center","tags":{"amenity":"clinic","healthcare":"clinic","healthcare:speciality":"psychiatry","name":"Nacka Psykiatri","operator":"Capio","operator:wikidata":"Q498606"}},"geometry":{"type":"Point","coordinates":[18.2025593,59.3111368]}},{"type":"Feature","properties":{"id":4944563021,"osm_type":"node","name":"Hökarängens Vårdcentral","category":"healthcare_center","tags":{"amenity":"doctors","check_date":"2024-02-14","healthcare":"doctor","healthcare:speciality":"general;psychiatry;vaccination","name":"Hökarängens Vårdcentral","url":"http://vardcentralenhokarangen.se/"}},"geometry":{"type":"Point","coordinates":[18.0815706,59.2559375]}},{"type":"Feature","properties":{"id":5046457227,"osm_type":"node","name":"Dr. Fagerberg","category":"healthcare_center","tags":{"addr:country":"SE","addr:housenumber":"9b","addr:postcode":"168 66","addr:street":"Cronströmsvägen","amenity":"doctors","email":"erik.fagerberg@spray.se","healthcare":"doctor","internet_access":"wlan","name":"Dr. Fagerberg","name:sv":"Dr. Fagerberg","phone":"+46703076556"}},"geometry":{"type":"Point","coordinates":[17.9544319,59.3586181]}},{"type":"Feature","properties":{"id":5764202565,"osm_type":"node","name":"SkinDoc","category":"healthcare_center","tags":{"amenity":"doctors","healthcare":"doctor","name":"SkinDoc","website":"https://www.skindoc.se/","wheelchair":"yes"}},"geometry":{"type":"Point","coordinates":[18.0346215,59.4003109]}},{"type":"Feature","properties":{"id":6450818468,"osm_type":"node","name":"Kry BVC Sundbyberg","category":"healthcare_center","tags":{"addr:housenumber":"1","addr:street":"Prästgårdsgatan","amenity":"clinic","healthcare":"clinic","healthcare:speciality":"paediatrics","name":"Kry BVC Sundbyberg","opening_hours":"Mo-Th 08:00-17:00; Fr 07:30-15:00","operator":"Kry","website":"https://www.kry.se/barnavardscentraler/stockholm/sundbyberg/"}},"geometry":{"type":"Point","coordinates":[17.9759783,59.3614903]}},{"type":"Feature","properties":{"id":6450818470,"osm_type":"node","name":"Sundbybergs Ungdomsmottagning","category":"healthcare_center","tags":{"addr:housenumber":"134","addr:street":"Ekensbergsvägen","amenity":"clinic","healthcare":"clinic","name":"Sundbybergs Ungdomsmottagning","website":"https://www.ungdomsmottagningarna.se/har-finns-vi/sundbyberg/"}},"geometry":{"type":"Point","coordinates":[17.9756864,59.3612826]}},{"type":"Feature","properties":{"id":6467502287,"osm_type":"node","name":"Stressmottagningen","category":"healthcare_center","tags":{"amenity":"doctors","healthcare":"doctor","healthcare:speciality":"psychiatry;physiotherapy","name":"Stressmottagningen","phone":"+46 8 524 867 85","website":"https://stressmottagningen.se/"}},"geometry":{"type":"Point","coordinates":[18.0282911,59.3339374]}},{"type":"Feature","properties":{"id":6467502288,"osm_type":"node","name":"Fridhems Barn- och Ungdomsmottagning","category":"healthcare_center","tags":{"amenity":"doctors","check_date":"2019-12-20","healthcare":"doctor","name":"Fridhems Barn- och Ungdomsmottagning","phone":"+46 8 653 59 02","website":"https://www.fridhemsbarnlakare.se/"}},"geometry":{"type":"Point","coordinates":[18.028523,59.3345396]}},{"type":"Feature","properties":{"id":6578920958,"osm_type":"node","name":"Solna husläkare","category":"healthcare_center","tags":{"amenity":"doctors","healthcare":"doctor","name":"Solna husläkare","opening_hours":"Mo-Fr 08:00-19:00; Sa 10:00-18:00; Su 14:00-18:00","phone":"+46 8-128 614 00","website":"https://www.solnahlm.se/"}},"geometry":{"type":"Point","coordinates":[18.0167011,59.3731435]}},{"type":"Feature","properties":{"id":6594663374,"osm_type":"node","name":"City Clinic","category":"healthcare_center","tags":{"amenity":"clinic","check_date":"2020-03-12","contact:email":"info@cityclinic.se","contact:phone":"+468300144","contact:website":"https://cityclinic.se","healthcare":"clinic","healthcare:speciality":"plastic_surgery","name":"City Clinic","opening_hours":"Mo-Fr 10:00-18:00; Sa 11:00-16:00"}},"geometry":{"type":"Point","coordinates":[18.0399638,59.3408412]}},{"type":"Feature","properties":{"id":6898498917,"osm_type":"node","name":"Iduns hälsa","category":"healthcare_center","tags":{"amenity":"clinic","name":"Iduns hälsa","phone":"0739134558","type":"foot"}},"geometry":{"type":"Point","coordinates":[18.004325,59.3649456]}},{"type":"Feature","properties":{"id":6949732363,"osm_type":"node","name":"Evolution Laser Clinic","category":"healthcare_center","tags":{"check_date":"2022-08-23","healthcare":"clinic","healthcare:speciality":"dermatology","level":"0","name":"Evolution Laser Clinic","wheelchair":"yes"}},"geometry":{"type":"Point","coordinates":[18.0034667,59.3704595]}},{"type":"Feature","properties":{"id":6970014321,"osm_type":"node","name":"RFSU-kliniken","category":"healthcare_center","tags":{"air_conditioning":"yes","amenity":"clinic","description":"Kliniken har mottagningar både på dagtid och kvällstid. Här finns: Mottagningen för sexuell hälsa, RFSU:s familjerådgivning, Kliniska kurser och handledning, Telefonrådgivning","healthcare":"clinic","healthcare:speciality":"sexual_health","level":"7","name":"RFSU-kliniken","opening_hours":"Mo 16:30-19:30; Tu 08:30-11:30; Th 12:30-15:30","operator":"RFSU","operator:type":"ngo","phone":"+46 8 692 07 84","source":"https://www.rfsu.se/om-rfsu/kontakt/rfsu-kliniken/","website":"https://www.rfsu.se/om-rfsu/kontakt/rfsu-kliniken/","wheelchair":"yes"}},"geometry":{"type":"Point","coordinates":[18.0713242,59.3141111]}},{"type":"Feature","properties":{"id":7008791020,"osm_type":"node","name":"Capio Vårdcentral","category":"healthcare_center","tags":{"healthcare":"centre","name":"Capio Vårdcentral"}},"geometry":{"type":"Point","coordinates":[17.9486391,59.4023654]}},{"type":"Feature","properties":{"id":7032747571,"osm_type":"node","name":"Anders Björklund Osteopat","category":"healthcare_center","tags":{"check_date":"2019-12-04","contact:email":"info@andersbjorklund.se","contact:phone":"+46708203610","contact:website":"https://www.andersbjorklund.se","healthcare":"clinic","healthcare:speciality":"osteopathy","name":"Anders Björklund Osteopat"}},"geometry":{"type":"Point","coordinates":[18.0469809,59.3444416]}},{"type":"Feature","properties":{"id":7032790169,"osm_type":"node","name":"Your Clinic","category":"healthcare_center","tags":{"check_date":"2019-12-04","healthcare":"clinic","healthcare:speciality":"plastic_surgery","name":"Your Clinic"}},"geometry":{"type":"Point","coordinates":[18.0452409,59.3438977]}},{"type":"Feature","properties":{"id":7032886434,"osm_type":"node","name":"Rethink","category":"healthcare_center","tags":{"check_date":"2020-01-13","description":"Tatueringsborttagning","healthcare":"clinic","healthcare:speciality":"plastic_surgery;dermatology","name":"Rethink"}},"geometry":{"type":"Point","coordinates":[18.0461016,59.3434968]}},{"type":"Feature","properties":{"id":7037110384,"osm_type":"node","name":"Arenastadens Vårdcentral","category":"healthcare_center","tags":{"amenity":"doctors","contact:phone":"+46851947790","contact:website":"https://arenavardcentral.se","healthcare":"doctor","healthcare:speciality":"general","level":"2","name":"Arenastadens Vårdcentral","opening_hours":"Mo-Fr 08:00-18:00"}},"geometry":{"type":"Point","coordinates":[18.0049445,59.3700004]}},{"type":"Feature","properties":{"id":7043385994,"osm_type":"node","name":"Kvartersakuten Matteus","category":"healthcare_center","tags":{"check_date":"2019-12-09","emergency":"emergency_ward_entrance","emergency_ward_entrance":"walk-in","healthcare":"doctor","name":"Kvartersakuten Matteus","note":"Small private emergency healthcare"}},"geometry":{"type":"Point","coordinates":[18.0504971,59.3437074]}},{"type":"Feature","properties":{"id":7043549805,"osm_type":"node","name":"Surbrunns Vårdcentral","category":"healthcare_center","tags":{"check_date":"2019-12-09","healthcare":"doctor","name":"Surbrunns Vårdcentral"}},"geometry":{"type":"Point","coordinates":[18.050529,59.3437128]}},{"type":"Feature","properties":{"id":7043549806,"osm_type":"node","name":"Surbrunns Barnavårdscentral","category":"healthcare_center","tags":{"check_date":"2019-12-09","healthcare":"doctor","name":"Surbrunns Barnavårdscentral"}},"geometry":{"type":"Point","coordinates":[18.0505128,59.3437109]}},{"type":"Feature","properties":{"id":7049329592,"osm_type":"node","name":"Audika Hörselklinik","category":"healthcare_center","tags":{"check_date":"2025-11-15","contact:email":"kundservice@audika.se","contact:phone":"+46200111450","contact:website":"https://www.audika.se/hitta-horselklinik/stockholm/audika-vasastan-sveavagen","healthcare":"clinic","name":"Audika Hörselklinik"}},"geometry":{"type":"Point","coordinates":[18.0540963,59.3451376]}},{"type":"Feature","properties":{"id":7055175681,"osm_type":"node","name":"Min Doktor Kliniken","category":"healthcare_center","tags":{"alt_name":"Minutkliniken","amenity":"clinic","check_date":"2019-12-17","contact:website":"https://www.mindoktor.se/kliniken/mall-of-scandinavia/","healthcare":"clinic","level":"0","name":"Min Doktor Kliniken","opening_hours":"Mo-Fr 10:00-18:00; Sa 10:00-16:00","operator":"Apotek Hjärtat"}},"geometry":{"type":"Point","coordinates":[18.0045939,59.3704095]}},{"type":"Feature","properties":{"id":7063037615,"osm_type":"node","name":"Alva Barnklinik Sabbatsberg","category":"healthcare_center","tags":{"amenity":"doctors","check_date":"2020-01-09","health_service:child_care":"yes","health_specialty:paediatrics":"yes","healthcare":"doctor","level":"3","name":"Alva Barnklinik Sabbatsberg","phone":"+46 8 592 006 50","website":"http://alvabarnklinik.se/sabbatsberg/index.html"}},"geometry":{"type":"Point","coordinates":[18.0476336,59.3378905]}},{"type":"Feature","properties":{"id":7077432028,"osm_type":"node","name":"Capio","category":"healthcare_center","tags":{"amenity":"clinic","check_date:opening_hours":"2025-06-10","healthcare":"clinic","name":"Capio","opening_hours":"Mo-Th 07:40-16:00; Fr 07:40-14:00","operator":"Capio","operator:wikidata":"Q498606","wheelchair":"yes"}},"geometry":{"type":"Point","coordinates":[17.998839,59.3606836]}},{"type":"Feature","properties":{"id":7089552066,"osm_type":"node","name":"DocSvea","category":"healthcare_center","tags":{"healthcare":"clinic","level":"0","name":"DocSvea"}},"geometry":{"type":"Point","coordinates":[17.9434531,59.4039577]}},{"type":"Feature","properties":{"id":7116412607,"osm_type":"node","name":"Beauty Kliniken","category":"healthcare_center","tags":{"check_date":"2020-01-08","healthcare":"clinic","name":"Beauty Kliniken","website":"https://www.beautykliniken.se/"}},"geometry":{"type":"Point","coordinates":[18.0471207,59.3479848]}},{"type":"Feature","properties":{"id":7165702473,"osm_type":"node","name":"Vaccin Direkt","category":"healthcare_center","tags":{"check_date":"2023-12-26","healthcare":"clinic","healthcare:speciality":"vaccination","name":"Vaccin Direkt","opening_hours":"Mo 10:00-19:00; Tu-Th 10:00-18:00; Fr 11:00-17:00; Sa 10:00-15:00"}},"geometry":{"type":"Point","coordinates":[18.0443982,59.3414409]}},{"type":"Feature","properties":{"id":7168685198,"osm_type":"node","name":"Fotcompaniet","category":"healthcare_center","tags":{"amenity":"clinic","check_date":"2024-10-26","healthcare":"clinic","healthcare:speciality":"podiatry","name":"Fotcompaniet"}},"geometry":{"type":"Point","coordinates":[18.0556644,59.34648]}},{"type":"Feature","properties":{"id":7168757414,"osm_type":"node","name":"Husläkarmottagningen Johannes","category":"healthcare_center","tags":{"amenity":"clinic","check_date":"2020-01-29","healthcare":"clinic","healthcare:speciality":"general","name":"Husläkarmottagningen Johannes","operator":"Stockholms läns landsting"}},"geometry":{"type":"Point","coordinates":[18.0568401,59.3459421]}},{"type":"Feature","properties":{"id":7203310690,"osm_type":"node","name":"Apollo Hårcenter","category":"healthcare_center","tags":{"check_date":"2020-02-11","description":"Håravfall","healthcare":"clinic","name":"Apollo Hårcenter"}},"geometry":{"type":"Point","coordinates":[18.0473849,59.3493649]}},{"type":"Feature","properties":{"id":7211034213,"osm_type":"node","name":"Stockholm Hernia Center","category":"healthcare_center","tags":{"check_date":"2020-02-14","healthcare":"doctor","name":"Stockholm Hernia Center"}},"geometry":{"type":"Point","coordinates":[18.0532427,59.3408284]}},{"type":"Feature","properties":{"id":7211034214,"osm_type":"node","name":"Capio CFTK","category":"healthcare_center","tags":{"brand":"Capio","check_date":"2020-02-14","description":"Centrum För TitthålsKirurgi","healthcare":"doctor","name":"Capio CFTK","operator":"Capio"}},"geometry":{"type":"Point","coordinates":[18.0533225,59.3408253]}},{"type":"Feature","properties":{"id":7211034215,"osm_type":"node","name":"Capio Öron Näsa Hals","category":"healthcare_center","tags":{"brand":"Capio","check_date":"2020-02-14","healthcare":"doctor","healthcare:speciality":"otolaryngology","name":"Capio Öron Näsa Hals","operator":"Capio"}},"geometry":{"type":"Point","coordinates":[18.0532516,59.3408471]}},{"type":"Feature","properties":{"id":7211034216,"osm_type":"node","name":"Handcenter","category":"healthcare_center","tags":{"check_date":"2020-02-14","healthcare":"clinic","name":"Handcenter"}},"geometry":{"type":"Point","coordinates":[18.0532832,59.3408292]}},{"type":"Feature","properties":{"id":7211038658,"osm_type":"node","name":"Åderbrocksklinikerna","category":"healthcare_center","tags":{"check_date":"2020-02-14","healthcare":"doctor","name":"Åderbrocksklinikerna"}},"geometry":{"type":"Point","coordinates":[18.0531041,59.3408808]}},{"type":"Feature","properties":{"id":7211198193,"osm_type":"node","name":"Stockholms skolors ungdomsmottagning","category":"healthcare_center","tags":{"amenity":"clinic","check_date":"2020-02-14","healthcare":"clinic","name":"Stockholms skolors ungdomsmottagning","social_facility:for":"juvenile"}},"geometry":{"type":"Point","coordinates":[18.0482382,59.3400314]}},{"type":"Feature","properties":{"id":7215078004,"osm_type":"node","name":"","category":"healthcare_center","tags":{"healthcare":"birthing_centre"}},"geometry":{"type":"Point","coordinates":[18.0352027,59.35232]}},{"type":"Feature","properties":{"id":7226694156,"osm_type":"node","name":"Sports Medicine Club & Health Clinic","category":"healthcare_center","tags":{"check_date":"2020-02-19","contact:phone":"+468144004","contact:website":"https://www.sportsmedicineclub.com","healthcare":"doctor","name":"Sports Medicine Club & Health Clinic"}},"geometry":{"type":"Point","coordinates":[18.0479398,59.341187]}},{"type":"Feature","properties":{"id":7287782250,"osm_type":"node","name":"Doktor Wanda Jakobsson","category":"healthcare_center","tags":{"amenity":"doctors","check_date":"2020-03-12","healthcare":"doctor","name":"Doktor Wanda Jakobsson"}},"geometry":{"type":"Point","coordinates":[18.0393218,59.3420217]}},{"type":"Feature","properties":{"id":7579491906,"osm_type":"node","name":"RyggAkuten","category":"healthcare_center","tags":{"check_date":"2024-05-28","healthcare":"clinic","name":"RyggAkuten","phone":"+46 8 612 557 5"}},"geometry":{"type":"Point","coordinates":[18.0579031,59.348738]}},{"type":"Feature","properties":{"id":7734352158,"osm_type":"node","name":"S:t Eriks Vårdcentral","category":"healthcare_center","tags":{"amenity":"clinic","check_date":"2025-11-27","check_date:opening_hours":"2025-11-27","contact:phone":"+46851986000","contact:website":"https://www.steriksvardcentral.se","healthcare":"clinic","name":"S:t Eriks Vårdcentral","opening_hours":"Mo-Fr 08:00-17:00"}},"geometry":{"type":"Point","coordinates":[18.0410936,59.3334867]}},{"type":"Feature","properties":{"id":7803470467,"osm_type":"node","name":"Sabbatsbergs ryggcentrum","category":"healthcare_center","tags":{"amenity":"clinic","check_date":"2020-08-11","healthcare":"clinic","healthcare:speciality":"orthopaedics","name":"Sabbatsbergs ryggcentrum"}},"geometry":{"type":"Point","coordinates":[18.0478971,59.3388751]}},{"type":"Feature","properties":{"id":7803733330,"osm_type":"node","name":"Laserklinikcenter","category":"healthcare_center","tags":{"amenity":"clinic","check_date":"2020-08-11","healthcare":"clinic","healthcare:speciality":"dermatology","name":"Laserklinikcenter"}},"geometry":{"type":"Point","coordinates":[18.0525953,59.3383659]}},{"type":"Feature","properties":{"id":7803790952,"osm_type":"node","name":"Barnortopediskt Centrum","category":"healthcare_center","tags":{"alt_name":"BOC","amenity":"clinic","check_date":"2020-08-11","healthcare":"clinic","healthcare:speciality":"orthopaedics;paediatrics","name":"Barnortopediskt Centrum"}},"geometry":{"type":"Point","coordinates":[18.0505903,59.3369147]}},{"type":"Feature","properties":{"id":7803859689,"osm_type":"node","name":"Full funktion naprapatklinik","category":"healthcare_center","tags":{"amenity":"clinic","check_date":"2020-08-11","check_date:opening_hours":"2022-10-12","healthcare":"clinic","healthcare:speciality":"chiropractic","name":"Full funktion naprapatklinik","opening_hours:signed":"no"}},"geometry":{"type":"Point","coordinates":[18.0525458,59.3374961]}},{"type":"Feature","properties":{"id":7812322762,"osm_type":"node","name":"Rygg- och idrottsskadekliniken","category":"healthcare_center","tags":{"amenity":"clinic","check_date":"2020-08-14","healthcare":"physiotherapist","name":"Rygg- och idrottsskadekliniken","phone":"+468333040","website":"http://www.roik.nu"}},"geometry":{"type":"Point","coordinates":[18.0577187,59.3404683]}},{"type":"Feature","properties":{"id":7820374150,"osm_type":"node","name":"Aleris","category":"healthcare_center","tags":{"alt_name":"Aleris Närakut Hötorget","amenity":"clinic","check_date":"2023-11-30","healthcare":"clinic","healthcare:speciality":"cardiology","name":"Aleris","opening_hours":"Mo-Su 08:00-22:00"}},"geometry":{"type":"Point","coordinates":[18.061375,59.3356157]}},{"type":"Feature","properties":{"id":7927666023,"osm_type":"node","name":"Torsviks Vårdcentral","category":"healthcare_center","tags":{"addr:city":"Lidingö","addr:country":"SE","addr:housenumber":"5","addr:street":"Heresundsvägen","amenity":"clinic","healthcare":"clinic","name":"Torsviks Vårdcentral"}},"geometry":{"type":"Point","coordinates":[18.1225648,59.3621986]}},{"type":"Feature","properties":{"id":7927672501,"osm_type":"node","name":"Öron-Näsa-Hals","category":"healthcare_center","tags":{"addr:city":"Lidingö","addr:country":"SE","addr:housenumber":"5","addr:street":"Heresundsvägen","amenity":"doctors","healthcare":"doctor","name":"Öron-Näsa-Hals"}},"geometry":{"type":"Point","coordinates":[18.122502,59.3622278]}},{"type":"Feature","properties":{"id":9048033384,"osm_type":"node","name":"Kry Vårdcentral","category":"healthcare_center","tags":{"amenity":"clinic","check_date":"2024-05-19","healthcare":"clinic","name":"Kry Vårdcentral"}},"geometry":{"type":"Point","coordinates":[18.0821397,59.3384907]}},{"type":"Feature","properties":{"id":9135126491,"osm_type":"node","name":"Barnavårdscentral","category":"healthcare_center","tags":{"addr:city":"Bagarmossen","addr:country":"SE","addr:housenumber":"50","addr:postcode":"12845","addr:street":"Lillåvägen","amenity":"clinic","healthcare":"clinic","name":"Barnavårdscentral","operator":"Capio","operator:type":"private"}},"geometry":{"type":"Point","coordinates":[18.1344871,59.2765741]}},{"type":"Feature","properties":{"id":9743966188,"osm_type":"node","name":"","category":"healthcare_center","tags":{"healthcare":"centre","healthcare:speciality":"vaccination","vaccination":"covid19"}},"geometry":{"type":"Point","coordinates":[18.0632594,59.333822]}},{"type":"Feature","properties":{"id":9769234084,"osm_type":"node","name":"Neurology Clinic","category":"healthcare_center","tags":{"amenity":"clinic","healthcare":"clinic","healthcare:speciality":"neurology","name":"Neurology Clinic","website":"https://neuroclinic.se"}},"geometry":{"type":"Point","coordinates":[18.0800319,59.3479759]}},{"type":"Feature","properties":{"id":9805938017,"osm_type":"node","name":"Älvsjö hudmottagning","category":"healthcare_center","tags":{"addr:housenumber":"15 B","addr:street":"Älvsjö tor","amenity":"clinic","healthcare":"clinic","name":"Älvsjö hudmottagning","opening_hours":"Mo-We,Fr 08:00-17:00; Th 08:00-20:00"}},"geometry":{"type":"Point","coordinates":[18.0092187,59.2785074]}},{"type":"Feature","properties":{"id":9931314897,"osm_type":"node","name":"Hagsätra vårdcentral","category":"healthcare_center","tags":{"addr:country":"SE","addr:housenumber":"7","addr:street":"Hagsätra torg","health_facility:type":"office","healthcare":"centre","name":"Hagsätra vårdcentral","opening_hours":"Mo-Fr 08:00-17:00","operator":"Capio","website":"https://capio.se/hitta-mottagning/primarvard/vardcentraler/hagsatra/#oppettider"}},"geometry":{"type":"Point","coordinates":[18.0143991,59.2626361]}},{"type":"Feature","properties":{"id":9958840333,"osm_type":"node","name":"Järva Specialistvård Martina","category":"healthcare_center","tags":{"addr:city":"Spånga","addr:country":"SE","addr:housenumber":"70A","addr:postcode":"16374","addr:street":"Rinkebysvängen","amenity":"clinic","healthcare":"clinic","healthcare:speciality":"orthopaedics;pediatric;neuropsychiatry;otolaryngology","name":"Järva Specialistvård Martina","opening_hours":"Mo-Fr 08:00-16:00"}},"geometry":{"type":"Point","coordinates":[17.9376463,59.38613]}},{"type":"Feature","properties":{"id":10273243810,"osm_type":"node","name":"Älvsjö Centrum Vårdcentral","category":"healthcare_center","tags":{"amenity":"doctors","healthcare":"doctor","name":"Älvsjö Centrum Vårdcentral"}},"geometry":{"type":"Point","coordinates":[18.0085476,59.2780408]}},{"type":"Feature","properties":{"id":10277938479,"osm_type":"node","name":"Capio Barnavårdscentral","category":"healthcare_center","tags":{"amenity":"clinic","healthcare":"clinic","name":"Capio Barnavårdscentral"}},"geometry":{"type":"Point","coordinates":[18.0996206,59.2953429]}},{"type":"Feature","properties":{"id":10576709737,"osm_type":"node","name":"Vaccin Direkt","category":"healthcare_center","tags":{"check_date:opening_hours":"2025-09-29","healthcare":"vaccination_centre","name":"Vaccin Direkt","opening_hours":"Mo 10:00-19:00; Tu-Th 10:00-18:00; Fr 10:00-17:00; Sa 10:00-15:00","website":"https://vaccindirekt.se/mottagningar/slussen/"}},"geometry":{"type":"Point","coordinates":[18.0734113,59.3220569]}},{"type":"Feature","properties":{"id":10584963279,"osm_type":"node","name":"Irradiakliniken","category":"healthcare_center","tags":{"addr:city":"Stockholm","addr:country":"SE","addr:housenumber":"19-21","addr:postcode":"11543","addr:street":"Porjusvägen","amenity":"doctors","healthcare":"doctor","healthcare:speciality":"plastic_surgery","name":"Irradiakliniken","opening_hours":"Mo-Fr 10:00-18:00","phone":"+46 8 664 1752","website":"https://irradiakliniken.se"}},"geometry":{"type":"Point","coordinates":[18.0965557,59.3538937]}},{"type":"Feature","properties":{"id":10683412359,"osm_type":"node","name":"Vårdcentral","category":"healthcare_center","tags":{"amenity":"clinic","check_date":"2025-05-10","healthcare":"clinic","name":"Vårdcentral","website":"https://www.vardcentraler.regionstockholm.se/hitta-vardcentral/hallonbergen/"}},"geometry":{"type":"Point","coordinates":[17.9682128,59.3754366]}},{"type":"Feature","properties":{"id":10735997949,"osm_type":"node","name":"Aleris Specialistklinik Hötorget","category":"healthcare_center","tags":{"amenity":"clinic","check_date:opening_hours":"2024-08-08","contact:email":"forsakringsmottagningen@aleris.se","contact:phone":"+46 8-58 00 65 10","healthcare":"clinic","healthcare:speciality":"endocrinology;gynaecology;urology;plastic_surgery;general","name":"Aleris Specialistklinik Hötorget","old_name":"Aleris Privat-/ Försäkringsmottagning Sabbatsberg","opening_hours":"Mo-Fr 07:30-16:00","operator":"Aleris","operator:type":"private","website":"https://www.aleris.se/mottagningar/stockholm/hotorget/specialistklinik/"}},"geometry":{"type":"Point","coordinates":[18.060326,59.3357429]}},{"type":"Feature","properties":{"id":10815992104,"osm_type":"node","name":"Aleris Psykiatri Danderyd","category":"healthcare_center","tags":{"addr:city":"Danderyd","addr:country":"SE","addr:housenumber":"8","addr:place":"Mörby Centrum","addr:postcode":"18231","addr:street":"Golfvägen","amenity":"doctors","contact:phone":"+46812889500","healthcare":"doctor","healthcare:speciality":"psychiatry","level":"5","name":"Aleris Psykiatri Danderyd","opening_hours":"Mo-Fr 08:00-17:00","website":"https://www.aleris.se/mottagningar/stockholm/danderyd/psykiatri/","wheelchair":"limited"}},"geometry":{"type":"Point","coordinates":[18.0366914,59.3986824]}},{"type":"Feature","properties":{"id":11042756191,"osm_type":"node","name":"Susannas fotvård","category":"healthcare_center","tags":{"amenity":"doctors","healthcare":"doctor","healthcare:speciality":"podiatry","name":"Susannas fotvård"}},"geometry":{"type":"Point","coordinates":[17.9799043,59.3684243]}},{"type":"Feature","properties":{"id":11076427394,"osm_type":"node","name":"Aba Ögonklinik","category":"healthcare_center","tags":{"amenity":"clinic","healthcare":"clinic","name":"Aba Ögonklinik"}},"geometry":{"type":"Point","coordinates":[17.9782154,59.3351136]}},{"type":"Feature","properties":{"id":11129833335,"osm_type":"node","name":"Snabbkliniken","category":"healthcare_center","tags":{"addr:city":"Sollentuna","addr:country":"SE","addr:housenumber":"7","addr:postcode":"19248","addr:street":"Hovslagarevägen","amenity":"clinic","contact:website":"https://www.snabbkliniken.se","healthcare":"clinic","name":"Snabbkliniken","opening_hours":"Mo-We 10:00-17:00"}},"geometry":{"type":"Point","coordinates":[17.9519997,59.4469682]}},{"type":"Feature","properties":{"id":11162551521,"osm_type":"node","name":"Kry Vårdcentral Sundbyberg","category":"healthcare_center","tags":{"addr:housenumber":"2","addr:street":"Sturegatan","amenity":"clinic","healthcare":"clinic","name":"Kry Vårdcentral Sundbyberg","opening_hours":"Mo-Fr 08:00-17:00","operator":"Kry","website":"https://www.kry.se/vardcentraler/stockholm/sundbyberg/"}},"geometry":{"type":"Point","coordinates":[17.9751667,59.3611293]}},{"type":"Feature","properties":{"id":11290967669,"osm_type":"node","name":"Engelbrektskliniken","category":"healthcare_center","tags":{"addr:housenumber":"47","addr:postcode":"11426","addr:street":"Östermalmsgatan","amenity":"clinic","check_date":"2025-12-07","contact:phone":"+468101500","contact:website":"https://engelbrekts-kliniken.se","healthcare":"clinic","name":"Engelbrektskliniken"}},"geometry":{"type":"Point","coordinates":[18.0761127,59.3423046]}},{"type":"Feature","properties":{"id":11370906193,"osm_type":"node","name":"BUP Akuten","category":"healthcare_center","tags":{"amenity":"doctors","check_date":"2025-12-13","contact:phone":"+46812352000","contact:website":"https://www.bup.se/kontakta-oss/bup-akuten/","healthcare":"doctor","healthcare:speciality":"child_psychiatry","name":"BUP Akuten","opening_hours":"24/7"}},"geometry":{"type":"Point","coordinates":[18.0582485,59.3080585]}},{"type":"Feature","properties":{"id":11629660761,"osm_type":"node","name":"Kry Vårdcentral Järvastaden","category":"healthcare_center","tags":{"addr:city":"Solna","addr:housenumber":"29","addr:postcode":"170 68","addr:street":"Järva Skjutbaneväg","amenity":"clinic","check_date:opening_hours":"2025-07-27","healthcare":"clinic","name":"Kry Vårdcentral Järvastaden","opening_hours":"Mo-Fr 08:00-17:00","operator":"Kry","phone":"+46 08 121 585 00","wheelchair":"yes"}},"geometry":{"type":"Point","coordinates":[17.9865343,59.3820759]}},{"type":"Feature","properties":{"id":11688520539,"osm_type":"node","name":"Stuvsta Vårdcentral","category":"healthcare_center","tags":{"addr:city":"Huddinge","addr:housenumber":"10","addr:postcode":"14140","addr:street":"Stuvsta Torg","amenity":"doctors","healthcare":"doctor","healthcare:speciality":"general","name":"Stuvsta Vårdcentral","operator":"PTJ Praktikertjänst","website":"https://www.ptj.se/stuvsta-vardcentral/"}},"geometry":{"type":"Point","coordinates":[17.99733,59.253187]}},{"type":"Feature","properties":{"id":11752617398,"osm_type":"node","name":"Gärdets vårdcentral","category":"healthcare_center","tags":{"amenity":"clinic","healthcare":"clinic","name":"Gärdets vårdcentral","phone":"+46 8 123 391 50","website":"https://www.vardcentraler.regionstockholm.se/hitta-vardcentral/gardet/"}},"geometry":{"type":"Point","coordinates":[18.1038045,59.3472105]}},{"type":"Feature","properties":{"id":11873513255,"osm_type":"node","name":"Södermalms Ortopedi","category":"healthcare_center","tags":{"amenity":"doctors","check_date":"2024-07-18","email":"info@sodermalmsortopedi.se","healthcare":"doctor","healthcare:speciality":"orthopaedics","name":"Södermalms Ortopedi","opening_hours":"Mo-Fr 08:00-16:00","phone":"+46 8 551 104 22","website":"https://specialist.se/","wheelchair":"yes"}},"geometry":{"type":"Point","coordinates":[18.0669758,59.3141263]}},{"type":"Feature","properties":{"id":11932967820,"osm_type":"node","name":"Akademikliniken","category":"healthcare_center","tags":{"amenity":"doctors","check_date":"2025-06-07","healthcare":"doctor","healthcare:speciality":"plastic_surgery","name":"Akademikliniken"}},"geometry":{"type":"Point","coordinates":[18.0713546,59.337062]}},{"type":"Feature","properties":{"id":11971331218,"osm_type":"node","name":"Meliva","category":"healthcare_center","tags":{"amenity":"clinic","check_date:opening_hours":"2025-01-09","healthcare":"clinic","name":"Meliva","opening_hours":"Mo-Fr 08:00-17:00"}},"geometry":{"type":"Point","coordinates":[18.0057384,59.339188]}},{"type":"Feature","properties":{"id":11981267074,"osm_type":"node","name":"Söderakuten","category":"healthcare_center","tags":{"amenity":"doctors","check_date":"2025-12-12","contact:email":"info@soderakuten.se","contact:website":"https://www.soderakuten.se/","healthcare":"doctor","name":"Söderakuten","wheelchair":"no"}},"geometry":{"type":"Point","coordinates":[18.0741832,59.3168734]}},{"type":"Feature","properties":{"id":11989575744,"osm_type":"node","name":"Rinkeby Bumm","category":"healthcare_center","tags":{"amenity":"clinic","healthcare":"clinic","name":"Rinkeby Bumm"}},"geometry":{"type":"Point","coordinates":[17.9297304,59.3888875]}},{"type":"Feature","properties":{"id":12002228352,"osm_type":"node","name":"Svea vaccin","category":"healthcare_center","tags":{"check_date":"2024-06-23","healthcare":"vaccination_centre","level":"0","name":"Svea vaccin","opening_hours":"Mo-Fr 10:00-13:30,14:00-18:00; Sa 10:00-15:00; Su off"}},"geometry":{"type":"Point","coordinates":[18.0745134,59.3077685]}},{"type":"Feature","properties":{"id":12009056804,"osm_type":"node","name":"Atifa Medicinsk Fotterapi","category":"healthcare_center","tags":{"amenity":"doctors","healthcare":"doctor","healthcare:speciality":"podiatry","name":"Atifa Medicinsk Fotterapi"}},"geometry":{"type":"Point","coordinates":[18.0146972,59.261984]}},{"type":"Feature","properties":{"id":12009069775,"osm_type":"node","name":"Annicas Hud & Fotvård","category":"healthcare_center","tags":{"amenity":"doctors","healthcare":"doctor","healthcare:speciality":"dermatology","name":"Annicas Hud & Fotvård","opening_hours":"Mo,We,Th 09:00-15:00; Tu 09:00-21:00"}},"geometry":{"type":"Point","coordinates":[18.0155544,59.2616714]}},{"type":"Feature","properties":{"id":12009072603,"osm_type":"node","name":"Skin Team","category":"healthcare_center","tags":{"amenity":"doctors","healthcare":"doctor","healthcare:speciality":"dermatology","name":"Skin Team"}},"geometry":{"type":"Point","coordinates":[17.9604355,59.2846062]}},{"type":"Feature","properties":{"id":12014349871,"osm_type":"node","name":"Atrium vårdcentral","category":"healthcare_center","tags":{"amenity":"clinic","healthcare":"clinic","name":"Atrium vårdcentral","opening_hours":"Mo-Th 08:00-19:30; Fr 08:00-17:00","website":"https://www.atrium.se/"}},"geometry":{"type":"Point","coordinates":[18.0128781,59.3377574]}},{"type":"Feature","properties":{"id":12014464208,"osm_type":"node","name":"Farsta Husläkarmottagning","category":"healthcare_center","tags":{"amenity":"clinic","healthcare":"clinic","name":"Farsta Husläkarmottagning"}},"geometry":{"type":"Point","coordinates":[18.089691,59.2427079]}},{"type":"Feature","properties":{"id":12014472505,"osm_type":"node","name":"Vaccin Direkt","category":"healthcare_center","tags":{"amenity":"clinic","healthcare":"clinic","name":"Vaccin Direkt"}},"geometry":{"type":"Point","coordinates":[18.0907464,59.2421861]}},{"type":"Feature","properties":{"id":12014536537,"osm_type":"node","name":"DBI","category":"healthcare_center","tags":{"amenity":"doctors","healthcare":"doctor","healthcare:speciality":"orthopaedics","name":"DBI"}},"geometry":{"type":"Point","coordinates":[18.0900788,59.2419623]}},{"type":"Feature","properties":{"id":12015100425,"osm_type":"node","name":"Vaccin Direkt","category":"healthcare_center","tags":{"check_date":"2024-06-27","healthcare":"vaccination_centre","healthcare:speciality":"vaccination","name":"Vaccin Direkt","opening_hours":"Mo 10:00-19:00; Tu-Th 10:00-18:00; Fr 10:00-17:00; Sa 10:00-15:00; Su off"}},"geometry":{"type":"Point","coordinates":[18.067485,59.3392332]}},{"type":"Feature","properties":{"id":12016544665,"osm_type":"node","name":"Maritza Fixar","category":"healthcare_center","tags":{"amenity":"doctors","healthcare":"doctor","healthcare:speciality":"podiatry","name":"Maritza Fixar"}},"geometry":{"type":"Point","coordinates":[18.0130392,59.2802531]}},{"type":"Feature","properties":{"id":12016594448,"osm_type":"node","name":"Klinik Sthlm","category":"healthcare_center","tags":{"amenity":"doctors","healthcare":"doctor","healthcare:speciality":"podiatry","name":"Klinik Sthlm"}},"geometry":{"type":"Point","coordinates":[18.0412875,59.2650875]}},{"type":"Feature","properties":{"id":12016598625,"osm_type":"node","name":"Medicinsk Fotvård","category":"healthcare_center","tags":{"amenity":"doctors","healthcare":"doctor","healthcare:speciality":"podiatry","name":"Medicinsk Fotvård"}},"geometry":{"type":"Point","coordinates":[18.0233912,59.2745014]}},{"type":"Feature","properties":{"id":12025408730,"osm_type":"node","name":"Nataljas Medicinska Fotvård","category":"healthcare_center","tags":{"amenity":"doctors","healthcare":"doctor","healthcare:speciality":"podiatry","name":"Nataljas Medicinska Fotvård"}},"geometry":{"type":"Point","coordinates":[18.0046911,59.2995544]}},{"type":"Feature","properties":{"id":12027944103,"osm_type":"node","name":"Akilles Fotvård","category":"healthcare_center","tags":{"amenity":"clinic","healthcare":"clinic","name":"Akilles Fotvård"}},"geometry":{"type":"Point","coordinates":[18.0092738,59.3014453]}},{"type":"Feature","properties":{"id":12027991705,"osm_type":"node","name":"","category":"healthcare_center","tags":{"amenity":"clinic","healthcare":"clinic"}},"geometry":{"type":"Point","coordinates":[17.9403575,59.3387558]}},{"type":"Feature","properties":{"id":12035143961,"osm_type":"node","name":"Fotia Kliniken","category":"healthcare_center","tags":{"amenity":"doctors","healthcare":"doctor","healthcare:speciality":"podiatry","name":"Fotia Kliniken"}},"geometry":{"type":"Point","coordinates":[17.9834316,59.3318908]}},{"type":"Feature","properties":{"id":12047720377,"osm_type":"node","name":"Med Fotvård","category":"healthcare_center","tags":{"amenity":"doctors","healthcare":"doctor","healthcare:speciality":"podiatry","name":"Med Fotvård"}},"geometry":{"type":"Point","coordinates":[18.0904228,59.2904668]}},{"type":"Feature","properties":{"id":12112021213,"osm_type":"node","name":"Nude Tattoo Removal","category":"healthcare_center","tags":{"amenity":"clinic","healthcare":"clinic","name":"Nude Tattoo Removal","opening_hours":"\"Enligt överenskommelse\""}},"geometry":{"type":"Point","coordinates":[18.0084228,59.3319931]}},{"type":"Feature","properties":{"id":12119608983,"osm_type":"node","name":"Capio Vårdcentral Slussen","category":"healthcare_center","tags":{"amenity":"clinic","check_date":"2025-12-11","check_date:opening_hours":"2025-12-11","contact:phone":"+46841078200","contact:website":"https://capio.se/hitta-mottagning/primarvard/vardcentraler/slussen/","healthcare":"clinic","name":"Capio Vårdcentral Slussen","opening_hours":"Mo 07:30-17:00; Tu 07:30-19:30; We-Fr 07:30-17:00","operator":"Capio","operator:type":"private","operator:wikidata":"Q498606"}},"geometry":{"type":"Point","coordinates":[18.0704645,59.3195856]}},{"type":"Feature","properties":{"id":12125953279,"osm_type":"node","name":"Renates Beauty & Body Care","category":"healthcare_center","tags":{"amenity":"doctors","check_date:opening_hours":"2024-09-30","healthcare":"doctor","healthcare:speciality":"podiatry","name":"Renates Beauty & Body Care","opening_hours:signed":"no"}},"geometry":{"type":"Point","coordinates":[18.0042355,59.3387023]}},{"type":"Feature","properties":{"id":12126288540,"osm_type":"node","name":"Ortopedia","category":"healthcare_center","tags":{"amenity":"doctors","healthcare":"doctor","healthcare:speciality":"orthopaedics","name":"Ortopedia"}},"geometry":{"type":"Point","coordinates":[18.0243113,59.3326511]}},{"type":"Feature","properties":{"id":12126291642,"osm_type":"node","name":"Fridhemsplans vårdcentral","category":"healthcare_center","tags":{"amenity":"clinic","healthcare":"clinic","name":"Fridhemsplans vårdcentral","operator":"Doktor.se"}},"geometry":{"type":"Point","coordinates":[18.0322568,59.3319366]}},{"type":"Feature","properties":{"id":12126300903,"osm_type":"node","name":"Kungsholmens husläkarmottagning","category":"healthcare_center","tags":{"amenity":"doctors","healthcare":"doctor","healthcare:speciality":"general","name":"Kungsholmens husläkarmottagning"}},"geometry":{"type":"Point","coordinates":[18.0241748,59.3321559]}},{"type":"Feature","properties":{"id":12196777809,"osm_type":"node","name":"Karlsmyrskliniken","category":"healthcare_center","tags":{"amenity":"doctors","healthcare":"doctor","healthcare:speciality":"podiatry","name":"Karlsmyrskliniken"}},"geometry":{"type":"Point","coordinates":[18.1007525,59.2408975]}},{"type":"Feature","properties":{"id":12512295201,"osm_type":"node","name":"Precision Heath","category":"healthcare_center","tags":{"addr:housenumber":"68","addr:street":"Järnvägsgatan","amenity":"clinic","contact:instagram":"precisionshealthklinik","name":"Precision Heath"}},"geometry":{"type":"Point","coordinates":[17.959152,59.3650366]}},{"type":"Feature","properties":{"id":12529882361,"osm_type":"node","name":"Danderyds sjukhus Dialysen","category":"healthcare_center","tags":{"addr:city":"Danderyd","addr:street":"Bäckenvägen","amenity":"clinic","emergency":"no","healthcare":"dialysis","healthcare:speciality":"nephrology","name":"Danderyds sjukhus Dialysen"}},"geometry":{"type":"Point","coordinates":[18.0379337,59.392982]}},{"type":"Feature","properties":{"id":12571256616,"osm_type":"node","name":"Svea Vaccin Centralstationen","category":"healthcare_center","tags":{"check_date":"2025-02-09","email":"tc@sveavaccin.se","healthcare":"vaccination_centre","healthcare:speciality":"vaccination","level":"2","name":"Svea Vaccin Centralstationen","note":"Temporarily closed due to renovation, based on information on the linked website.","operator":"Svea Vaccin","phone":"+46-8-241 600","website":"https://sveavaccin.se/vara-mottagningar/stockholm/centralstationen/"}},"geometry":{"type":"Point","coordinates":[18.0569259,59.3303682]}},{"type":"Feature","properties":{"id":12578273351,"osm_type":"node","name":"Afrodite hudvård","category":"healthcare_center","tags":{"amenity":"doctors","healthcare":"doctor","healthcare:speciality":"dermatology","name":"Afrodite hudvård"}},"geometry":{"type":"Point","coordinates":[18.0606809,59.3408281]}},{"type":"Feature","properties":{"id":12585353660,"osm_type":"node","name":"Aleris Endoskopi","category":"healthcare_center","tags":{"addr:city":"Sollentuna","addr:country":"SE","addr:housenumber":"2A-B","addr:postcode":"19161","addr:street":"Malmvägen","amenity":"doctors","contact:website":"https://www.aleris.se/mottagningar/stockholm/endoskopi-sollentuna/","healthcare":"doctor","healthcare:speciality":"gastroenterology","name":"Aleris Endoskopi","opening_hours":"Mo-Fr 08:00-16:00","operator":"Aleris"}},"geometry":{"type":"Point","coordinates":[17.9480483,59.4249949]}},{"type":"Feature","properties":{"id":12899321654,"osm_type":"node","name":"Turebergs familjecentral","category":"healthcare_center","tags":{"addr:city":"Sollentuna","addr:country":"SE","addr:housenumber":"7A-B","addr:postcode":"19134","addr:street":"Mässvägen","amenity":"clinic","contact:email":"kontaktcenter@sollentuna.se","contact:phone":"+46857921000","contact:website":"https://www.sollentuna.se/omsorg--stod/familj-barn-och-ungdom/Familjecentraler/Turebergs-familjecentral/","description":"Barnavårdscentral, kurator och öppna förskolan.","name":"Turebergs familjecentral"}},"geometry":{"type":"Point","coordinates":[17.9491323,59.4254419]}},{"type":"Feature","properties":{"id":12903179252,"osm_type":"node","name":"Svenska Fot & Hudkliniken","category":"healthcare_center","tags":{"addr:city":"Sollentuna","addr:country":"SE","addr:housenumber":"158","addr:postcode":"19135","addr:street":"Sollentunavägen","amenity":"clinic","contact:phone":"+468969466","contact:website":"https://www.svenskakliniken.se","name":"Svenska Fot & Hudkliniken"}},"geometry":{"type":"Point","coordinates":[17.9520451,59.4292889]}},{"type":"Feature","properties":{"id":12921258551,"osm_type":"node","name":"Hudläkartjänst","category":"healthcare_center","tags":{"amenity":"clinic","healthcare":"clinic","name":"Hudläkartjänst","website":"https://www.hudlakartjanst.se"}},"geometry":{"type":"Point","coordinates":[18.0532217,59.330827]}},{"type":"Feature","properties":{"id":13067667087,"osm_type":"node","name":"Huddinge vårdcentral","category":"healthcare_center","tags":{"addr:city":"Huddinge","addr:country":"SE","addr:housenumber":"8","addr:postcode":"141 35","addr:street":"Patron Pehrs väg","amenity":"clinic","healthcare":"clinic","name":"Huddinge vårdcentral","opening_hours":"Mo,Tu,Th 07:00-19:00; We,Fr 07:00-17:00","operator":"Region Stockholm","operator:type":"public","operator:wikidata":"Q3233188","website":"https://www.vardcentraler.regionstockholm.se/hitta-vardcentral/huddinge/"}},"geometry":{"type":"Point","coordinates":[17.9779459,59.2369516]}},{"type":"Feature","properties":{"id":13072942312,"osm_type":"node","name":"VaccinDirekt","category":"healthcare_center","tags":{"addr:city":"Sollentuna","addr:country":"SE","addr:housenumber":"163C","addr:postcode":"19147","addr:street":"Sollentunavägen","check_date":"2025-11-18","check_date:opening_hours":"2025-11-18","contact:website":"https://vaccindirekt.se","healthcare":"vaccination_centre","level":"0","name":"VaccinDirekt","opening_hours":"Mo 10:00-19:00; Tu-Fr 10:00-18:00; Sa 10:00-15:00; Su closed"}},"geometry":{"type":"Point","coordinates":[17.9509124,59.4279278]}},{"type":"Feature","properties":{"id":13107699687,"osm_type":"node","name":"Gå & löpkliniken","category":"healthcare_center","tags":{"amenity":"clinic","check_date":"2025-12-09","check_date:opening_hours":"2025-12-09","contact:email":"stockholm@gaochlopkliniken.se","contact:phone":"+4686692212","contact:website":"https://gaochlopkliniken.se/stockholm-storgatan/","healthcare":"clinic","name":"Gå & löpkliniken","opening_hours":"Mo-Th 10:00-18:00; Fr 09:00-17:00; Sa 10:00-14:00"}},"geometry":{"type":"Point","coordinates":[18.0839228,59.3348649]}},{"type":"Feature","properties":{"id":13189053393,"osm_type":"node","name":"Norrbacka Fotvård","category":"healthcare_center","tags":{"amenity":"doctors","healthcare":"doctor","healthcare:speciality":"podiatry","name":"Norrbacka Fotvård"}},"geometry":{"type":"Point","coordinates":[18.031639,59.342811]}},{"type":"Feature","properties":{"id":13296784940,"osm_type":"node","name":"She Klinik","category":"healthcare_center","tags":{"amenity":"doctors","check_date":"2025-11-11","healthcare":"doctor","name":"She Klinik"}},"geometry":{"type":"Point","coordinates":[18.0938287,59.3593468]}},{"type":"Feature","properties":{"id":13311644504,"osm_type":"node","name":"Sollentuna ungdomsmottagning","category":"healthcare_center","tags":{"check_date":"2025-11-17","contact:website":"https://www.ungdomsmottagningarna.se/mottagning/sollentuna/","healthcare":"clinic","level":"4","name":"Sollentuna ungdomsmottagning"}},"geometry":{"type":"Point","coordinates":[17.9467374,59.4291327]}},{"type":"Feature","properties":{"id":13311644505,"osm_type":"node","name":"Sollentunahälsan","category":"healthcare_center","tags":{"amenity":"clinic","check_date":"2025-11-17","check_date:opening_hours":"2025-11-17","contact:email":"info@sollentunahalsan.se","contact:phone":"+468928580","contact:website":"https://sollentunahalsan.se","healthcare":"clinic","level":"3","name":"Sollentunahälsan","opening_hours":"Mo-Th 08:00-16:00; Fr 08:00-15:00; Sa-Su closed"}},"geometry":{"type":"Point","coordinates":[17.9468726,59.4289843]}},{"type":"Feature","properties":{"id":13311644507,"osm_type":"node","name":"BUP Sollentuna","category":"healthcare_center","tags":{"amenity":"clinic","check_date":"2025-11-17","contact:email":"bupstockholm.slso@regionstockholm.se","contact:phone":"+46812352250","contact:website":"https://www.bup.se/hitta-mottagning/bup-sollentuna/","healthcare":"clinic","healthcare:speciality":"child_psychiatry","level":"5","name":"BUP Sollentuna"}},"geometry":{"type":"Point","coordinates":[17.9467782,59.429089]}},{"type":"Feature","properties":{"id":13348282962,"osm_type":"node","name":"Läkarhuset Kungsholmen","category":"healthcare_center","tags":{"amenity":"clinic","contact:email":"info@lakarhusetkungsholmen.se","contact:phone":"+46812438844","contact:website":"https://www.läkarhusetkungsholmen.se","healthcare":"clinic","name":"Läkarhuset Kungsholmen"}},"geometry":{"type":"Point","coordinates":[18.0414259,59.3296139]}},{"type":"Feature","properties":{"id":13363266903,"osm_type":"node","name":"Aktiv Hörsel Stockholm","category":"healthcare_center","tags":{"amenity":"doctors","check_date":"2025-12-08","contact:email":"info@aktivhorsel.se","contact:phone":"+4686631100","contact:website":"https://www.aktivhorsel.se","healthcare":"doctor","healthcare:speciality":"otolaryngology","name":"Aktiv Hörsel Stockholm"}},"geometry":{"type":"Point","coordinates":[18.0801248,59.3395001]}},{"type":"Feature","properties":{"id":13363266920,"osm_type":"node","name":"Stureplanskliniken","category":"healthcare_center","tags":{"amenity":"doctors","check_date":"2025-12-08","check_date:opening_hours":"2025-12-08","contact:email":"stockholm@stureplanskliniken.se","contact:phone":"+468103140","contact:website":"https://www.stureplanskliniken.se","healthcare":"doctor","healthcare:speciality":"plastic_surgery","name":"Stureplanskliniken","opening_hours":"Mo-Fr 09:00-17:00"}},"geometry":{"type":"Point","coordinates":[18.0758727,59.3395741]}},{"type":"Feature","properties":{"id":13363758525,"osm_type":"node","name":"Linné Hudklinik","category":"healthcare_center","tags":{"amenity":"doctors","check_date":"2025-12-09","contact:email":"info@linnehudklinik.se","contact:phone":"+468885068","contact:website":"https://www.linnehudklinik.se","healthcare":"doctor","healthcare:speciality":"dermatology","name":"Linné Hudklinik"}},"geometry":{"type":"Point","coordinates":[18.0824388,59.3368886]}},{"type":"Feature","properties":{"id":13381467729,"osm_type":"node","name":"Vasastans Vårdcentral","category":"healthcare_center","tags":{"amenity":"clinic","contact:phone":"+46812855600","contact:website":"https://www.ptj.se/vasastans-vardcentral/","healthcare":"clinic","name":"Vasastans Vårdcentral","opening_hours":"Mo-Fr 08:00-17:00"}},"geometry":{"type":"Point","coordinates":[18.0512798,59.3396703]}},{"type":"Feature","properties":{"id":13381806710,"osm_type":"node","name":"Hygieia Mottagning","category":"healthcare_center","tags":{"addr:city":"Solna","addr:housenumber":"1","addr:postcode":"169 54","addr:street":"Råstavägen","healthcare":"doctor","name":"Hygieia Mottagning"}},"geometry":{"type":"Point","coordinates":[17.9926647,59.3662852]}},{"type":"Feature","properties":{"id":13391207799,"osm_type":"node","name":"Mama Mia","category":"healthcare_center","tags":{"contact:phone":"+46812857880","contact:website":"https://mamamia.se/mama-mia-danderyd","healthcare":"birthing_centre","level":"5","name":"Mama Mia","opening_hours":"Mo-Th 07:45-17:00; Fr 07:45-16:00"}},"geometry":{"type":"Point","coordinates":[18.0368003,59.3987445]}},{"type":"Feature","properties":{"id":13391218103,"osm_type":"node","name":"Danderyds vårdcentral","category":"healthcare_center","tags":{"amenity":"clinic","contact:phone":"+46812336500","contact:website":"https://www.vardcentraler.regionstockholm.se/hitta-vardcentral/danderyd/","healthcare":"clinic","level":"4","name":"Danderyds vårdcentral","opening_hours":"Mo-Fr 07:30-17:00"}},"geometry":{"type":"Point","coordinates":[18.0359845,59.3986644]}},{"type":"Feature","properties":{"id":13391218105,"osm_type":"node","name":"Hudläkargruppen Mörby","category":"healthcare_center","tags":{"amenity":"doctors","contact:phone":"+4687557489","contact:website":"https://www.hudmorby.com","healthcare":"doctor","healthcare:speciality":"dermatology","level":"5","name":"Hudläkargruppen Mörby"}},"geometry":{"type":"Point","coordinates":[18.0368008,59.3986377]}},{"type":"Feature","properties":{"id":13391218110,"osm_type":"node","name":"Danderyds ÖNH","category":"healthcare_center","tags":{"amenity":"doctors","contact:email":"info@oronnasahals.se","contact:phone":"+468202215","contact:website":"https://danderydsonh.se","healthcare":"doctor","healthcare:speciality":"otolaryngology","level":"5","name":"Danderyds ÖNH","opening_hours":"Mo-Fr 08:00-16:00"}},"geometry":{"type":"Point","coordinates":[18.0360827,59.3985491]}},{"type":"Feature","properties":{"id":13391218122,"osm_type":"node","name":"Danderyd BVC","category":"healthcare_center","tags":{"amenity":"doctors","healthcare":"doctor","healthcare:speciality":"paediatrics","name":"Danderyd BVC"}},"geometry":{"type":"Point","coordinates":[18.0360877,59.3985075]}},{"type":"Feature","properties":{"id":13515453107,"osm_type":"node","name":"Anova","category":"healthcare_center","tags":{"amenity":"clinic","healthcare":"clinic","level":"4","name":"Anova","opening_hours":"Mo-Fr 08:00-16:00","website":"https://www.karolinska.se/anova"}},"geometry":{"type":"Point","coordinates":[18.0369344,59.3471478]}},{"type":"Feature","properties":{"id":13515459802,"osm_type":"node","name":"Provtagningscentral Solna vuxen/barn","category":"healthcare_center","tags":{"addr:housenumber":"3","addr:postcode":"17164","addr:street":"Eugeniavägen","amenity":"clinic","healthcare":"clinic","level":"0","name":"Provtagningscentral Solna vuxen/barn","opening_hours":"Mo-Fr 07:00-16:00","website":"https://www.karolinska.se/vard/funktion/funktion-medicinsk-diagnostik-karolinska/klinisk-kemi/provtagningsenheter/provtagningscentral-solna-vuxen-barn/"}},"geometry":{"type":"Point","coordinates":[18.0294973,59.3486483]}},{"type":"Feature","properties":{"id":13525926301,"osm_type":"node","name":"Älvsjö sexuell hälsa","category":"healthcare_center","tags":{"addr:housenumber":"1","addr:postcode":"12544","addr:street":"Solberga Hagväg","amenity":"clinic","healthcare":"clinic","name":"Älvsjö sexuell hälsa","website":"https://www.alvsjosexuellhalsa.se/"}},"geometry":{"type":"Point","coordinates":[18.009499,59.2798019]}},{"type":"Feature","properties":{"id":13614102249,"osm_type":"node","name":"Bollmora Vårdcentral","category":"healthcare_center","tags":{"amenity":"clinic","healthcare":"clinic","name":"Bollmora Vårdcentral","operator":"Region Stockholm"}},"geometry":{"type":"Point","coordinates":[18.2289598,59.2460643]}},{"type":"Feature","properties":{"id":13615213636,"osm_type":"node","name":"Siri's","category":"healthcare_center","tags":{"amenity":"doctors","check_date":"2026-03-03","healthcare":"doctor","healthcare:speciality":"podiatry","name":"Siri's"}},"geometry":{"type":"Point","coordinates":[17.9666318,59.3642676]}},{"type":"Feature","properties":{"id":13646952101,"osm_type":"node","name":"Teint vårdcentral","category":"healthcare_center","tags":{"addr:housenumber":"55","addr:postcode":"16491","addr:street":"Hanstavägen","amenity":"clinic","check_date":"2026-03-11","check_date:opening_hours":"2026-03-11","healthcare":"clinic","level":"3","name":"Teint vårdcentral","opening_hours":"Mo-Fr 07:30-17:30"}},"geometry":{"type":"Point","coordinates":[17.9456867,59.4026791]}},{"type":"Feature","properties":{"id":13684729095,"osm_type":"node","name":"Liljeholmskajens vårdcentral","category":"healthcare_center","tags":{"amenity":"clinic","check_date":"2026-03-27","healthcare":"clinic","healthcare:speciality":"general","internet_access":"no","level":"1","name":"Liljeholmskajens vårdcentral","opening_hours":"Mo,Th-Fr 08:00-17:00; Tu-We 08:00-19:30; Sa-Su off","operator:type":"private","payment:cash":"yes","payment:credit_cards":"yes","payment:debit_cards":"yes","phone":"+46 8 709 099 0","website":"https://www.liljeholmskajensvc.se/","wheelchair":"yes"}},"geometry":{"type":"Point","coordinates":[18.0284163,59.3095148]}},{"type":"Feature","properties":{"id":13750144369,"osm_type":"node","name":"Nordic Klinik","category":"healthcare_center","tags":{"amenity":"doctors","contact:instagram":"https://www.instagram.com/nordicklinik/","healthcare":"doctor","healthcare:speciality":"general;community;internal","mobile":"0739264974","name":"Nordic Klinik","phone":"0739190725","website":"https://nordicklinik.se"}},"geometry":{"type":"Point","coordinates":[18.0297174,59.3349849]}},{"type":"Feature","properties":{"id":23239642,"osm_type":"way","name":"Norrvikens vårdcentral","category":"healthcare_center","tags":{"amenity":"clinic","contact:phone":"+46812342110","contact:website":"https://www.vardcentraler.regionstockholm.se/hitta-vardcentral/norrviken/","name":"Norrvikens vårdcentral","opening_hours":"Mo-Fr 08:00-17:00"}},"geometry":{"type":"Point","coordinates":[17.9214629,59.4601632]}},{"type":"Feature","properties":{"id":30484363,"osm_type":"way","name":"Edsbergs vårdcentral","category":"healthcare_center","tags":{"addr:city":"Sollentuna","addr:country":"SE","addr:housenumber":"1","addr:postcode":"19252","addr:street":"Edsbergs torg","amenity":"clinic","building":"yes","emergency":"no","healthcare":"clinic","name":"Edsbergs vårdcentral","opening_hours":"Mo-Fr 08:00-17:00","phone":"+46854522390","website":"https://www.ptj.se/edsbergs-vardcentral/"}},"geometry":{"type":"Point","coordinates":[17.9665935,59.444445]}},{"type":"Feature","properties":{"id":42328787,"osm_type":"way","name":"Lisebergs vårdcentral","category":"healthcare_center","tags":{"addr:country":"SE","addr:housenumber":"4-6","addr:street":"Annebodavägen","amenity":"doctors","building":"public","healthcare":"doctor","name":"Lisebergs vårdcentral"}},"geometry":{"type":"Point","coordinates":[18.0303853,59.2848365]}},{"type":"Feature","properties":{"id":42330512,"osm_type":"way","name":"Stureby Vårdcentral","category":"healthcare_center","tags":{"addr:country":"SE","addr:housenumber":"181","addr:street":"Tussmötevägen","amenity":"doctors","building":"yes","healthcare":"doctor","name":"Stureby Vårdcentral"}},"geometry":{"type":"Point","coordinates":[18.0662061,59.2780968]}},{"type":"Feature","properties":{"id":58071060,"osm_type":"way","name":"Vendelsö vårdcentral","category":"healthcare_center","tags":{"amenity":"clinic","building":"yes","name":"Vendelsö vårdcentral"}},"geometry":{"type":"Point","coordinates":[18.1961997,59.1930594]}},{"type":"Feature","properties":{"id":187514685,"osm_type":"way","name":"Bagarmossens vårdcentral","category":"healthcare_center","tags":{"amenity":"clinic","building":"yes","building:levels":"2","name":"Bagarmossens vårdcentral","roof:orientation":"along","roof:shape":"gabled","url":"http://www.dvcb.se/"}},"geometry":{"type":"Point","coordinates":[18.1354236,59.2763637]}},{"type":"Feature","properties":{"id":234985178,"osm_type":"way","name":"Vallatorpsdoktorn","category":"healthcare_center","tags":{"addr:city":"Täby","addr:country":"SE","addr:housenumber":"10","addr:postcode":"187 52","addr:street":"Vallatorpsvägen","amenity":"clinic","building":"hospital","building:levels":"1","name":"Vallatorpsdoktorn","opening_hours":"Mo-Fr 08:00-17:00","website":"https://www.vallatorpsdoktorn.se/"}},"geometry":{"type":"Point","coordinates":[18.0431022,59.4657679]}},{"type":"Feature","properties":{"id":446541166,"osm_type":"way","name":"Axelsbergs vårdcentral","category":"healthcare_center","tags":{"addr:city":"Hägersten","addr:country":"SE","addr:housenumber":"2","addr:postcode":"129 38","addr:street":"Axelsbergs Torg","amenity":"clinic","emergency":"no","healthcare":"clinic","name":"Axelsbergs vårdcentral"}},"geometry":{"type":"Point","coordinates":[17.9744629,59.3037123]}}]}