{"type":"FeatureCollection","features":[{"type":"Feature","properties":{"id":29775128,"osm_type":"node","name":"Gamla stan","category":"historic_landmark","tags":{"description:en":"The old town of Stockholm dating from C13th. Medieval alleyways, cobbled streets, old buildings, the Royal Place. (Source: Wikipedia:en)","name":"Gamla stan","name:de":"Altstadt","name:fi":"Vanhakaupunki","name:ru":"Площадь Стурторьет","name:uk":"Старе місто","place":"suburb","tourism":"attraction","wheelchair":"yes","wikidata":"Q579854","wikipedia":"sv:Gamla stan"}},"geometry":{"type":"Point","coordinates":[18.0706429,59.3249529]}},{"type":"Feature","properties":{"id":94066107,"osm_type":"node","name":"Edsbergs slott","category":"historic_landmark","tags":{"addr:city":"Sollentuna","addr:country":"SE","addr:housenumber":"10","addr:postcode":"19186","addr:street":"Landsnoravägen","historic":"palace","name":"Edsbergs slott","name:en":"Edsberg's Palace","opening_hours":"Su, We 12:00-16:00","tourism":"attraction"}},"geometry":{"type":"Point","coordinates":[17.9556476,59.4410624]}},{"type":"Feature","properties":{"id":248087933,"osm_type":"node","name":"Rönninge By","category":"historic_landmark","tags":{"description":"Agricultural and cultural village with pony rides, petting zoo, museum and 2 cafés.","name":"Rönninge By","place":"hamlet","start_date":"2000","tourism":"attraction","website":"http://www.ronningeby.com","wikidata":"Q18332368","wikipedia":"sv:Rönninge by"}},"geometry":{"type":"Point","coordinates":[18.1137024,59.455973]}},{"type":"Feature","properties":{"id":263724835,"osm_type":"node","name":"Medicinhistoriska museet","category":"historic_landmark","tags":{"description":"This museum closed in 2005 to cut costs. See website","historic":"building","name":"Medicinhistoriska museet","name:en":"Medical History Museum (CLOSED)","website":"https://www.medicinhistoriskastockholm.se/"}},"geometry":{"type":"Point","coordinates":[18.0382164,59.3506627]}},{"type":"Feature","properties":{"id":264900088,"osm_type":"node","name":"Åkeshovs slott","category":"historic_landmark","tags":{"alt_name":"Åkeshof slott","description:en":"Stately home originally built around, but with the current buildings built in the 1720s. A conference center and hotel since 1988. (Source website/Wikiedia:sv)","historic":"house","name":"Åkeshovs slott","tourism":"attraction","website":"https://www.akeshofsslott.se/","wikidata":"Q1544347","wikipedia":"sv:Åkeshovs slott"}},"geometry":{"type":"Point","coordinates":[17.9249468,59.3409957]}},{"type":"Feature","properties":{"id":444843007,"osm_type":"node","name":"Stockholms Centrals gamla klocka","category":"historic_landmark","tags":{"amenity":"clock","check_date":"2024-08-12","display":"analog","faces":"4","name":"Stockholms Centrals gamla klocka","support":"pole","tourism":"attraction","visibility":"house","wikidata":"Q18332897","wikipedia":"sv:Stockholms Centrals gamla klocka"}},"geometry":{"type":"Point","coordinates":[18.0588355,59.3305494]}},{"type":"Feature","properties":{"id":1311725443,"osm_type":"node","name":"Lustiga Huset","category":"historic_landmark","tags":{"attraction":"amusement_ride","fee":"2 tickets","name":"Lustiga Huset","source":"local_knowledge;Bing","tourism":"attraction"}},"geometry":{"type":"Point","coordinates":[18.0953193,59.3233765]}},{"type":"Feature","properties":{"id":1311725449,"osm_type":"node","name":"Kärlekstunneln","category":"historic_landmark","tags":{"attraction":"amusement_ride","name":"Kärlekstunneln","source":"local_knowledge;Bing","tourism":"attraction"}},"geometry":{"type":"Point","coordinates":[18.0956519,59.3235695]}},{"type":"Feature","properties":{"id":1311725487,"osm_type":"node","name":"Insane","category":"historic_landmark","tags":{"attraction":"amusement_ride","name":"Insane","source":"local_knowledge","tourism":"attraction"}},"geometry":{"type":"Point","coordinates":[18.0954317,59.3236755]}},{"type":"Feature","properties":{"id":1547912787,"osm_type":"node","name":"Bergbana","category":"historic_landmark","tags":{"attraction":"train","description:en":"Funicular railway that takes you up the hill at Skansen.","name":"Bergbana","tourism":"attraction"}},"geometry":{"type":"Point","coordinates":[18.0995308,59.3275726]}},{"type":"Feature","properties":{"id":1547913076,"osm_type":"node","name":"Bergbana","category":"historic_landmark","tags":{"name":"Bergbana","shop":"ticket","tourism":"attraction"}},"geometry":{"type":"Point","coordinates":[18.1028257,59.3274916]}},{"type":"Feature","properties":{"id":1547924149,"osm_type":"node","name":"Delsbogården","category":"historic_landmark","tags":{"name":"Delsbogården","tourism":"attraction","website":"http://www.skansen.se/sv/delsbog%C3%A5rden-1","website:en":"http://www.skansen.se/en/delsbog%C3%A5rden-1","wikidata":"Q18202406","wikimedia_commons":"Category:Delsbogården","wikipedia":"sv:Delsbogården"}},"geometry":{"type":"Point","coordinates":[18.1038554,59.3278597]}},{"type":"Feature","properties":{"id":1547924215,"osm_type":"node","name":"Moragården","category":"historic_landmark","tags":{"description:en":"the Mora farmstead shows how farmers lived in Dalarna","name":"Moragården","name:en":"Mora Farmstead","tourism":"attraction","website":"http://www.skansen.se/sv/morag%C3%A5rden","wikidata":"Q16912319","wikimedia_commons":"Category:Moragården","wikipedia":"sv:Moragården"}},"geometry":{"type":"Point","coordinates":[18.1049739,59.3274191]}},{"type":"Feature","properties":{"id":1547974379,"osm_type":"node","name":"Engelska Parken","category":"historic_landmark","tags":{"name":"Engelska Parken","name:de":"Englischer Garten","name:en":"English garden","tourism":"attraction","wikidata":"Q60487807"}},"geometry":{"type":"Point","coordinates":[18.1049039,59.3260287]}},{"type":"Feature","properties":{"id":1547983180,"osm_type":"node","name":"Hazelius grav","category":"historic_landmark","tags":{"buried:wikidata":"Q549109","buried:wikipedia":"sv:Artur Hazelius","cemetery":"grave","name":"Hazelius grav","tourism":"attraction","wikidata":"Q59651202","wikimedia_commons":"Category:Artur Hazelius grav Skansen"}},"geometry":{"type":"Point","coordinates":[18.1071454,59.3246932]}},{"type":"Feature","properties":{"id":1548045556,"osm_type":"node","name":"Fäbodvallen","category":"historic_landmark","tags":{"check_date":"2019-12-23","name":"Fäbodvallen","name:en":"Summer Pasture Farm","tourism":"attraction","wikidata":"Q60228128","wikimedia_commons":"Category:Fäboden, Skansen"}},"geometry":{"type":"Point","coordinates":[18.1055589,59.3279665]}},{"type":"Feature","properties":{"id":1548045560,"osm_type":"node","name":"Bollnästorget","category":"historic_landmark","tags":{"name":"Bollnästorget","name:en":"Bollnäs square","tourism":"attraction","website":"http://www.skansen.se/sv/bolln%C3%A4storget","wheelchair":"yes","wikidata":"Q60581796","wikimedia_commons":"Category:Bollnästorget, Skansen"}},"geometry":{"type":"Point","coordinates":[18.1036859,59.326516]}},{"type":"Feature","properties":{"id":1548045577,"osm_type":"node","name":"Motjärnsgruvan","category":"historic_landmark","tags":{"name":"Motjärnsgruvan","tourism":"attraction","website":"http://www.skansen.se/sv/motj%C3%A4rnsgruvan","wikidata":"Q26253134","wikimedia_commons":"Category:Motjärnsgruvan, Skansen"}},"geometry":{"type":"Point","coordinates":[18.1081818,59.3260727]}},{"type":"Feature","properties":{"id":1548045603,"osm_type":"node","name":"Finngården","category":"historic_landmark","tags":{"name":"Finngården","name:en":"Finn settlement","tourism":"attraction","wikidata":"Q60195569","wikimedia_commons":"Category:Finngården, Skansen","wikipedia":"sv:Finngården, Skansen"}},"geometry":{"type":"Point","coordinates":[18.1093566,59.3264778]}},{"type":"Feature","properties":{"id":1548045722,"osm_type":"node","name":"Motjärn","category":"historic_landmark","tags":{"name":"Motjärn","tourism":"attraction","wikidata":"Q60492868"}},"geometry":{"type":"Point","coordinates":[18.1074603,59.3260249]}},{"type":"Feature","properties":{"id":1548045731,"osm_type":"node","name":"Oktorpsgården","category":"historic_landmark","tags":{"name":"Oktorpsgården","tourism":"attraction","wikidata":"Q26253129","wikimedia_commons":"Category:Oktorpsgården","wikipedia":"sv:Oktorpsgården"}},"geometry":{"type":"Point","coordinates":[18.1078385,59.3255829]}},{"type":"Feature","properties":{"id":1548045769,"osm_type":"node","name":"Bergsmansgården","category":"historic_landmark","tags":{"name":"Bergsmansgården","tourism":"attraction","wikidata":"Q59708459","wikimedia_commons":"Category:Bergsmansgården, Skansen"}},"geometry":{"type":"Point","coordinates":[18.1074871,59.3265338]}},{"type":"Feature","properties":{"id":1588253628,"osm_type":"node","name":"Älvrosgården","category":"historic_landmark","tags":{"description":"Älvros är kyrkbyn i Älvros socken och en småort i Härjedalens kommun. (Source: Wikipedia)","description:en":"Älvros is a village in Jämtlands län (county).","name":"Älvrosgården","tourism":"attraction","website":"http://www.skansen.se/sv/%C3%A4lvrosg%C3%A5rden-1","wikidata":"Q56573825","wikimedia_commons":"Category:Älvrosgården","wikipedia":"sv:Älvrosgården"}},"geometry":{"type":"Point","coordinates":[18.1026982,59.3268891]}},{"type":"Feature","properties":{"id":2441872774,"osm_type":"node","name":"Junibacken","category":"historic_landmark","tags":{"contact:instagram":"https://www.instagram.com/junibacken_stockholm","description:en":"Indoor theme park for young children based on children's books.","name":"Junibacken","name:fi":"Kesäkumpu","name:ru":"Юнибакен","name:sv":"Junibacken","payment:cash":"no","tourism":"attraction","website":"https://www.junibacken.se/","wikidata":"Q1713506","wikimedia_commons":"Category:Junibacken","wikipedia":"sv:Junibacken"}},"geometry":{"type":"Point","coordinates":[18.0890937,59.3294704]}},{"type":"Feature","properties":{"id":2459240333,"osm_type":"node","name":"Skogbergafortet","category":"historic_landmark","tags":{"description":"Fully roofed World War I fort","historic":"fort","military":"bunker","name":"Skogbergafortet","tourism":"attraction"}},"geometry":{"type":"Point","coordinates":[18.0779666,59.4791671]}},{"type":"Feature","properties":{"id":2988582414,"osm_type":"node","name":"Twister","category":"historic_landmark","tags":{"attraction":"roller_coaster","name":"Twister","source":"local_knowledge","tourism":"attraction","wikidata":"Q2462361","wikimedia_commons":"Category:Twister (Gröna Lund)","wikipedia":"sv:Twister (berg- och dalbana)"}},"geometry":{"type":"Point","coordinates":[18.0952282,59.3226015]}},{"type":"Feature","properties":{"id":2988582415,"osm_type":"node","name":"Kvasten","category":"historic_landmark","tags":{"attraction":"roller_coaster","name":"Kvasten","source":"local_knowledge","tourism":"attraction","wikidata":"Q3200777","wikipedia":"sv:Kvasten"}},"geometry":{"type":"Point","coordinates":[18.0964781,59.3226916]}},{"type":"Feature","properties":{"id":2988661746,"osm_type":"node","name":"Blå Tåget","category":"historic_landmark","tags":{"attraction":"dark_ride","name":"Blå Tåget","source":"local_knowledge","tourism":"attraction","wikidata":"Q10431659"}},"geometry":{"type":"Point","coordinates":[18.095855,59.3226268]}},{"type":"Feature","properties":{"id":2988661755,"osm_type":"node","name":"Vilda musen","category":"historic_landmark","tags":{"attraction":"roller_coaster","name":"Vilda musen","source":"local_knowledge","tourism":"attraction","wikidata":"Q690302","wikimedia_commons":"Category:Vilda Musen","wikipedia":"sv:Vilda Musen"}},"geometry":{"type":"Point","coordinates":[18.0966288,59.3233209]}},{"type":"Feature","properties":{"id":3200805766,"osm_type":"node","name":"Avrättningsplats","category":"historic_landmark","tags":{"historic":"yes","name":"Avrättningsplats","wikidata":"Q10502174","wikipedia":"sv:Galgbacken, Hammarbyhöjden"}},"geometry":{"type":"Point","coordinates":[18.091572,59.2977247]}},{"type":"Feature","properties":{"id":3477074670,"osm_type":"node","name":"Näsby brunn","category":"historic_landmark","tags":{"historic":"yes","man_made":"water_well","name":"Näsby brunn","wikimedia_commons":"File:Näsby brunn.jpg"}},"geometry":{"type":"Point","coordinates":[18.0858881,59.4239201]}},{"type":"Feature","properties":{"id":3574028930,"osm_type":"node","name":"Kollektivhuset","category":"historic_landmark","tags":{"historic":"building","name":"Kollektivhuset","wikidata":"Q18243372","wikipedia":"sv:Kollektivhuset, John Ericssonsgatan"}},"geometry":{"type":"Point","coordinates":[18.037189,59.3280684]}},{"type":"Feature","properties":{"id":4721961829,"osm_type":"node","name":"fd Lillhagens torp","category":"historic_landmark","tags":{"historic":"yes","name":"fd Lillhagens torp"}},"geometry":{"type":"Point","coordinates":[18.012965,59.2707048]}},{"type":"Feature","properties":{"id":4786195249,"osm_type":"node","name":"fd Snösätra torp","category":"historic_landmark","tags":{"historic":"yes","name":"fd Snösätra torp","wikidata":"Q19521203","wikipedia":"sv:Snösätra torp"}},"geometry":{"type":"Point","coordinates":[18.0385825,59.2539608]}},{"type":"Feature","properties":{"id":4868758725,"osm_type":"node","name":"Björkhagendammen","category":"historic_landmark","tags":{"name":"Björkhagendammen","name:sv":"Björkhagendammen","tourism":"attraction"}},"geometry":{"type":"Point","coordinates":[18.1234172,59.2931973]}},{"type":"Feature","properties":{"id":4988792225,"osm_type":"node","name":"","category":"historic_landmark","tags":{"historic":"yes","military":"bunker","ruins":"yes"}},"geometry":{"type":"Point","coordinates":[18.2013805,59.265187]}},{"type":"Feature","properties":{"id":4988792226,"osm_type":"node","name":"","category":"historic_landmark","tags":{"historic":"yes","military":"bunker","ruins":"yes"}},"geometry":{"type":"Point","coordinates":[18.2015274,59.2655561]}},{"type":"Feature","properties":{"id":4988792227,"osm_type":"node","name":"","category":"historic_landmark","tags":{"historic":"yes","military":"bunker","ruins":"yes"}},"geometry":{"type":"Point","coordinates":[18.1996733,59.2657936]}},{"type":"Feature","properties":{"id":4988792228,"osm_type":"node","name":"","category":"historic_landmark","tags":{"historic":"yes","military":"bunker","ruins":"yes"}},"geometry":{"type":"Point","coordinates":[18.202153,59.2640636]}},{"type":"Feature","properties":{"id":4988792229,"osm_type":"node","name":"","category":"historic_landmark","tags":{"historic":"yes","military":"bunker","ruins":"yes"}},"geometry":{"type":"Point","coordinates":[18.2021664,59.2650301]}},{"type":"Feature","properties":{"id":5956623985,"osm_type":"node","name":"Vistabergskällan","category":"historic_landmark","tags":{"drinking_water":"no","historic":"yes","man_made":"water_well","name":"Vistabergskällan","pump":"no"}},"geometry":{"type":"Point","coordinates":[17.953781,59.2439249]}},{"type":"Feature","properties":{"id":6147685254,"osm_type":"node","name":"Pop-Expressen","category":"historic_landmark","tags":{"attraction":"amusement_ride","name":"Pop-Expressen","tourism":"attraction"}},"geometry":{"type":"Point","coordinates":[18.0961991,59.3235129]}},{"type":"Feature","properties":{"id":6191623912,"osm_type":"node","name":"Arbetarbostaden","category":"historic_landmark","tags":{"addr:floor":"2","building:use":"exhibition","description:en":"shows how a factory-worker’s family lived at the end of the 19th century at Skansen","name":"Arbetarbostaden","name:en":"Workman’s Home","operator":"Skansen","tourism":"attraction","website":"https://www.skansen.se/sv/arbetarbostaden-ua","wikidata":"Q60232515","wikimedia_commons":"Category:Arbetarbostaden, Skansen"}},"geometry":{"type":"Point","coordinates":[18.1002996,59.3259805]}},{"type":"Feature","properties":{"id":6227170674,"osm_type":"node","name":"","category":"historic_landmark","tags":{"tourism":"attraction","website":"https://www.skansen.se/sv/samisksita","wikidata":"Q60228336","wikimedia_commons":"Category:Samisk sita, Skansen"}},"geometry":{"type":"Point","coordinates":[18.1045906,59.3283398]}},{"type":"Feature","properties":{"id":6237921405,"osm_type":"node","name":"Helmilstope från 1766","category":"historic_landmark","tags":{"building:colour":"grey","height":"1","highway":"milestone","historic":"yes","moved":"yes","name":"Helmilstope från 1766","wikidata":"Q61049122"}},"geometry":{"type":"Point","coordinates":[18.1070417,59.3252969]}},{"type":"Feature","properties":{"id":6531957786,"osm_type":"node","name":"Broby bro","category":"historic_landmark","tags":{"name":"Broby bro","tourism":"attraction"}},"geometry":{"type":"Point","coordinates":[18.0449931,59.4808279]}},{"type":"Feature","properties":{"id":6533667829,"osm_type":"node","name":"Normalhöjdpunkten","category":"historic_landmark","tags":{"ele":"11.8","fixme":"approximative position to be precised on-site","man_made":"survey_point","name":"Normalhöjdpunkten","name:fr":"Point zéro des routes de Suède","note":"the rod is behind a locked iron flap","tourism":"attraction","wheelchair":"yes"}},"geometry":{"type":"Point","coordinates":[18.062752,59.3258275]}},{"type":"Feature","properties":{"id":6539832749,"osm_type":"node","name":"Lasse-Majastenen","category":"historic_landmark","tags":{"historic":"yes","name":"Lasse-Majastenen","natural":"rock","source":"https://app.raa.se/open/fornsok/lamning/cd3a1196-a589-4452-96d1-a71bcc27693f"}},"geometry":{"type":"Point","coordinates":[17.939441,59.3325858]}},{"type":"Feature","properties":{"id":6543163097,"osm_type":"node","name":"Uppsalablocken","category":"historic_landmark","tags":{"historic":"yes","name":"Uppsalablocken","natural":"stone","source:url":"https://app.raa.se/open/fornsok/lamning/d55de51a-d7f9-44c4-bc99-30efedc91a05"}},"geometry":{"type":"Point","coordinates":[17.9190602,59.3442857]}},{"type":"Feature","properties":{"id":6549237032,"osm_type":"node","name":"Skyview entré och biljettkassa","category":"historic_landmark","tags":{"name":"Skyview entré och biljettkassa","operator":"Stockholm Live","tourism":"attraction","website":"https://www.stockholmlive.com/skyview/om-skyview"}},"geometry":{"type":"Point","coordinates":[18.0821251,59.2934739]}},{"type":"Feature","properties":{"id":6550212765,"osm_type":"node","name":"Uppsalablocken","category":"historic_landmark","tags":{"historic":"yes","name":"Uppsalablocken","natural":"stone","source:url":"https://app.raa.se/open/fornsok/lamning/d55de51a-d7f9-44c4-bc99-30efedc91a05"}},"geometry":{"type":"Point","coordinates":[17.9189273,59.344216]}},{"type":"Feature","properties":{"id":6550561672,"osm_type":"node","name":"","category":"historic_landmark","tags":{"historic":"yes","source:url":"https://app.raa.se/open/fornsok/lamning/f85ed370-478a-436c-8e62-dda2cfdb494f"}},"geometry":{"type":"Point","coordinates":[17.9120574,59.3447327]}},{"type":"Feature","properties":{"id":7643528360,"osm_type":"node","name":"","category":"historic_landmark","tags":{"attraction":"animal","description":"Get","tourism":"attraction"}},"geometry":{"type":"Point","coordinates":[17.9119025,59.4405327]}},{"type":"Feature","properties":{"id":7643528361,"osm_type":"node","name":"Hästhage","category":"historic_landmark","tags":{"attraction":"animal","description":"Häst","name":"Hästhage","tourism":"attraction"}},"geometry":{"type":"Point","coordinates":[17.9116179,59.4405921]}},{"type":"Feature","properties":{"id":7643528362,"osm_type":"node","name":"Hästar","category":"historic_landmark","tags":{"attraction":"animal","description":"Häst","name":"Hästar","tourism":"attraction"}},"geometry":{"type":"Point","coordinates":[17.9122166,59.4406447]}},{"type":"Feature","properties":{"id":7643528363,"osm_type":"node","name":"","category":"historic_landmark","tags":{"attraction":"animal","description":"Höns","tourism":"attraction"}},"geometry":{"type":"Point","coordinates":[17.9116165,59.440474]}},{"type":"Feature","properties":{"id":7643528364,"osm_type":"node","name":"","category":"historic_landmark","tags":{"attraction":"animal","description":"Kalv","tourism":"attraction"}},"geometry":{"type":"Point","coordinates":[17.9116044,59.4402768]}},{"type":"Feature","properties":{"id":7643528365,"osm_type":"node","name":"","category":"historic_landmark","tags":{"attraction":"animal","description":"Gris","tourism":"attraction"}},"geometry":{"type":"Point","coordinates":[17.9113829,59.4404304]}},{"type":"Feature","properties":{"id":7714135357,"osm_type":"node","name":"","category":"historic_landmark","tags":{"attraction":"slide","check_date":"2020-07-14","tourism":"attraction"}},"geometry":{"type":"Point","coordinates":[18.1065144,59.3271916]}},{"type":"Feature","properties":{"id":7847431993,"osm_type":"node","name":"","category":"historic_landmark","tags":{"building":"bunker","historic":"yes","military":"bunker","ruins":"yes"}},"geometry":{"type":"Point","coordinates":[18.2223701,59.2145974]}},{"type":"Feature","properties":{"id":7883592938,"osm_type":"node","name":"Stortallen","category":"historic_landmark","tags":{"age":"350 years","circumference":"380 cm","denotation":"natural_monument","diameter":"121 cm","diameter_crown":"121 cm","height":"30 m","leaf_cycle":"semi_evergreen","leaf_type":"needleleaved","name":"Stortallen","natural":"tree","tourism":"attraction","wheelchair":"no"}},"geometry":{"type":"Point","coordinates":[18.1931691,59.3987986]}},{"type":"Feature","properties":{"id":7884812229,"osm_type":"node","name":"","category":"historic_landmark","tags":{"historic":"yes","military":"bunker","ruins":"yes"}},"geometry":{"type":"Point","coordinates":[18.2018597,59.2106157]}},{"type":"Feature","properties":{"id":8327544624,"osm_type":"node","name":"","category":"historic_landmark","tags":{"historic":"yes"}},"geometry":{"type":"Point","coordinates":[18.1445137,59.16559]}},{"type":"Feature","properties":{"id":9129359649,"osm_type":"node","name":"Astrid Lindgren fd hem","category":"historic_landmark","tags":{"historic":"memorial","memorial":"plaque","name":"Astrid Lindgren fd hem","tourism":"attraction"}},"geometry":{"type":"Point","coordinates":[18.0463522,59.3412176]}},{"type":"Feature","properties":{"id":9987882265,"osm_type":"node","name":"","category":"historic_landmark","tags":{"tourism":"attraction","wikidata":"Q60626570","wikimedia_commons":"Category:Orsakullen, Skansen"}},"geometry":{"type":"Point","coordinates":[18.1051836,59.3271674]}},{"type":"Feature","properties":{"id":10273243812,"osm_type":"node","name":"Skålgropsstenen","category":"historic_landmark","tags":{"historic":"yes","name":"Skålgropsstenen"}},"geometry":{"type":"Point","coordinates":[18.0036782,59.2800392]}},{"type":"Feature","properties":{"id":10297011209,"osm_type":"node","name":"","category":"historic_landmark","tags":{"historic":"yes"}},"geometry":{"type":"Point","coordinates":[18.1712104,59.4371649]}},{"type":"Feature","properties":{"id":10297011211,"osm_type":"node","name":"","category":"historic_landmark","tags":{"historic":"yes"}},"geometry":{"type":"Point","coordinates":[18.1708328,59.437179]}},{"type":"Feature","properties":{"id":11005807867,"osm_type":"node","name":"S/S Sankt Erik","category":"historic_landmark","tags":{"description":"Retired icebreaker open to the public.","historic":"ship","name":"S/S Sankt Erik","ship:type":"icebreaker","start_date":"1915","tourism":"attraction","wikidata":"Q3496868","wikimedia_commons":"Category:IMO 5311442","wikipedia":"sv:S/S Sankt Erik (1914)"}},"geometry":{"type":"Point","coordinates":[18.090876,59.3271235]}},{"type":"Feature","properties":{"id":11005807868,"osm_type":"node","name":"Finngrundet","category":"historic_landmark","tags":{"alt_name:es":"Barco_Faro","description:en":"Lighthouse ship now on permanent museum display.","historic":"ship","name":"Finngrundet","ship:type":"lightship","start_date":"1903","tourism":"attraction","wikidata":"Q6546563","wikimedia_commons":"Category:Finngrundet (ship, 1903)","wikipedia":"sv:Finngrundet"}},"geometry":{"type":"Point","coordinates":[18.0903033,59.327364]}},{"type":"Feature","properties":{"id":11005807869,"osm_type":"node","name":"HMS Spica","category":"historic_landmark","tags":{"description:en":"Former Swedish Navy torpedo-armed fast attack craft. (Source: en.Wikipedia)","historic":"ship","name":"HMS Spica","ref":"T121","ship:type":"fast_attack_craft","start_date":"1966","tourism":"attraction","wikidata":"Q4442824","wikimedia_commons":"Category:HMS Spica (T121)","wikipedia":"sv:HMS Spica (T121)"}},"geometry":{"type":"Point","coordinates":[18.0903784,59.3269918]}},{"type":"Feature","properties":{"id":11005807870,"osm_type":"node","name":"Bernhard Ingelsson","category":"historic_landmark","tags":{"description:en":"Life boat","historic":"ship","name":"Bernhard Ingelsson","ship:type":"lifeboat","start_date":"1944","tourism":"attraction","wikidata":"Q10428709","wikipedia":"sv:Bernhard Ingelsson (sjöräddningskryssare)"}},"geometry":{"type":"Point","coordinates":[18.0909638,59.3273503]}},{"type":"Feature","properties":{"id":11006065320,"osm_type":"node","name":"Rikstelefon","category":"historic_landmark","tags":{"name":"Rikstelefon","tourism":"attraction"}},"geometry":{"type":"Point","coordinates":[18.0701008,59.3254983]}},{"type":"Feature","properties":{"id":11112112226,"osm_type":"node","name":"","category":"historic_landmark","tags":{"bunker_type":"foxhole","historic":"yes","military":"bunker","ruins":"yes"}},"geometry":{"type":"Point","coordinates":[18.1760844,59.2865292]}},{"type":"Feature","properties":{"id":11152178105,"osm_type":"node","name":"Spökvandring Gamla Stan","category":"historic_landmark","tags":{"name":"Spökvandring Gamla Stan","name:en":"Ghost walk Gamla Stan","tourism":"attraction"}},"geometry":{"type":"Point","coordinates":[18.0734649,59.3227701]}},{"type":"Feature","properties":{"id":11965954759,"osm_type":"node","name":"","category":"historic_landmark","tags":{"access":"private","denotation":"garden","natural":"tree","tourism":"attraction"}},"geometry":{"type":"Point","coordinates":[17.9766676,59.2620481]}},{"type":"Feature","properties":{"id":12152253456,"osm_type":"node","name":"Monster","category":"historic_landmark","tags":{"attraction":"roller_coaster","name":"Monster","tourism":"attraction"}},"geometry":{"type":"Point","coordinates":[18.0960951,59.3238081]}},{"type":"Feature","properties":{"id":8049504,"osm_type":"way","name":"Storkyrkan","category":"historic_landmark","tags":{"alt_name":"Sankt Nicolai kyrka","amenity":"place_of_worship","building":"church","building:architecture":"gothic, baroque","building:colour":"#F9DEC9","charge":"120 SEK","charge:conditional":"90 SEK @ senior; 0 SEK @ <19 years","denomination":"lutheran","description:en":"Stockholm's main cathedral. Royal weddings occur here.","diocese":"Stockholms stift","fee":"yes","heritage":"4","heritage:operator":"raa","heritage:website":"https://bebyggelseregistret.raa.se/bbr2/byggnad/visaHistorik.raa?byggnadId=21400000323922&page=historik","name":"Storkyrkan","name:de":"Große Kirche","name:en":"Great Church","name:fi":"Suurkirkko","name:ko":"스톡홀름 대성당","name:pl":"Kościół św. Mikołaja w Sztokholmie","name:pt":"Catedral de Estocolmo","name:ru":"Церковь Святого Николая","name:zh":"斯德哥尔摩大教堂","payment:cash":"no","payment:mastercard":"yes","payment:visa":"yes","ref:SE:raa":"21400000323922","religion":"christian","roof:material":"copper","roof:shape":"gabled","start_date":"1200","tourism":"attraction","website":"https://www.svenskakyrkan.se/stockholmsdomkyrkoforsamling/visitors","wikidata":"Q1133075","wikimedia_commons":"Category:Storkyrkan, Stockholm","wikipedia":"sv:Storkyrkan"}},"geometry":{"type":"Point","coordinates":[18.0703866,59.3257708]}},{"type":"Feature","properties":{"id":8049509,"osm_type":"way","name":"Tyska kyrkan","category":"historic_landmark","tags":{"addr:city":"Stockholm","alt_name":"Sankta Gertruds kyrka","amenity":"place_of_worship","basilica":"minor","building":"church","building:material":"brick","check_date":"2024-08-15","denomination":"lutheran","description:en":"Church historically serving the large German merchant population in Gamla Stan. Parts date from the 1580s. (Source: Wikipedia:en)","diocese":"Stockholms stift","heritage":"2","heritage:operator":"raa","heritage:website":"https://bebyggelseregistret.raa.se/bbr2/anlaggning/visaHistorik.raa?page=historik&visaHistorik=true&anlaggningId=21300000011481","name":"Tyska kyrkan","name:de":"Deutsche Kirche","name:en":"German Church","name:es":"Iglesia Alemana","name:fi":"Saksalainen kirkko","name:fr":"Église allemande","name:pl":"Kościół niemiecki w Sztokholmie","name:ru":"Немецкая церковь","name:sv":"Tyska kyrkan","opening_hours":"10:30-16:30","ref:SE:raa":"21300000011481","religion":"christian","service_language":"de","service_times":"Su 11:00","start_date":"1642","tourism":"attraction","wikidata":"Q2164087","wikipedia":"sv:Tyska kyrkan, Stockholm","year_of_construction":"1637 - 1643"}},"geometry":{"type":"Point","coordinates":[18.0717171,59.324139]}},{"type":"Feature","properties":{"id":8049544,"osm_type":"way","name":"Riddarhuset","category":"historic_landmark","tags":{"architect":"Simon de la Vallée, Heinrich Wilhelm, Justus Vingboons,","architect:wikidata":"Q321478;Q30106546;","building":"public","building:architecture":"baroque","building:colour":"brown","building:levels":"2","building:material":"brick","castle_type":"stately","historic":"castle","name":"Riddarhuset","name:de":"Ritterhaus","name:en":"House of Nobility","name:es":"Palacio de la Nobleza","name:fi":"Ritarihuone","name:fr":"Palais de la Noblesse","name:ru":"Дворянское собрание","roof:colour":"MediumAquamarine","roof:material":"copper","start_date":"1674","tourism":"attraction","website":"https://www.riddarhuset.se/","wikidata":"Q1547268","wikimedia_commons":"Category:Riddarhuspalatset","wikipedia":"sv:Riddarhuspalatset"}},"geometry":{"type":"Point","coordinates":[18.0657197,59.3259312]}},{"type":"Feature","properties":{"id":10575675,"osm_type":"way","name":"Logen","category":"historic_landmark","tags":{"building":"barn","building:use":"civic","historic":"building","name":"Logen"}},"geometry":{"type":"Point","coordinates":[17.958722,59.4405866]}},{"type":"Feature","properties":{"id":10575683,"osm_type":"way","name":"Ladugården","category":"historic_landmark","tags":{"building":"barn","building:use":"civic","historic":"building","name":"Ladugården","roof:shape":"gabled"}},"geometry":{"type":"Point","coordinates":[17.957785,59.4402971]}},{"type":"Feature","properties":{"id":10575692,"osm_type":"way","name":"Oxstallet","category":"historic_landmark","tags":{"building":"stable","building:use":"civic","historic":"building","name":"Oxstallet","roof:shape":"gabled"}},"geometry":{"type":"Point","coordinates":[17.958167,59.4400586]}},{"type":"Feature","properties":{"id":23512291,"osm_type":"way","name":"Koppartälten","category":"historic_landmark","tags":{"building":"yes","historic":"building","name":"Koppartälten","name:fi":"Kupariteltat","name:sv":"Koppartälten","source":"yahoo_imagery","url":"https://www.koppartalten.se/"}},"geometry":{"type":"Point","coordinates":[18.0304953,59.3646215]}},{"type":"Feature","properties":{"id":23620148,"osm_type":"way","name":"Sollidenscenen","category":"historic_landmark","tags":{"amenity":"theatre","name":"Sollidenscenen","name:en":"Solliden Stage","tourism":"attraction"}},"geometry":{"type":"Point","coordinates":[18.1017945,59.3254947]}},{"type":"Feature","properties":{"id":23841420,"osm_type":"way","name":"Riddarholmskyrkan","category":"historic_landmark","tags":{"alt_name:es":"Iglesia_Riddarholmskyrkan","amenity":"place_of_worship","building":"church","building:colour":"#B4857F","building:material":"brick","denomination":"lutheran","heritage":"2","heritage:operator":"raa","heritage:website":"https://bebyggelseregistret.raa.se/bbr2/byggnad/visaHistorik.raa?page=historik&visaHistorik=true&byggnadId=21400000297500","historic":"church","name":"Riddarholmskyrkan","name:da":"Riddarholmskirken","name:en":"Riddarholm Church","name:fi":"Riddarholmenin kirkko","name:pl":"Kościół Riddarholmen w Sztokholmie","name:ru":"Церковь Риддархольмена - королевская усыпальница","phone":"+4684026130","ref:SE:raa":"21400000297500","religion":"christian","roof:colour":"MediumAquamarine","roof:material":"copper","start_date":"1300","tourism":"attraction","website":"https://www.kungahuset.se/","wheelchair":"yes","wikidata":"Q657118","wikipedia":"sv:Riddarholmskyrkan","year_of_construction":"1275 - 1324"}},"geometry":{"type":"Point","coordinates":[18.0645814,59.3246833]}},{"type":"Feature","properties":{"id":24210274,"osm_type":"way","name":"Åhléns","category":"historic_landmark","tags":{"alt_name":"Åhléns Stockholm City","branch":"Stockholm City","brand":"Åhléns","brand:wikidata":"Q270851","building":"retail","building:architecture":"modernism","building:levels":"5","building:material":"brick","changing_table":"yes","check_date":"2025-05-03","name":"Åhléns","opening_hours":"Mo-Fr 10:00-20:00; Sa 10:00-19:00; Su 11:00-19:00","payment:cash":"yes","phone":"+4686766000","roof:colour":"MediumAquamarine","roof:material":"copper","shop":"department_store","toilets":"yes","toilets:wheelchair":"yes","tourism":"attraction","website":"https://www.ahlens.se/varuhus/stockholm-city","wheelchair":"yes","wikidata":"Q10726246","wikimedia_commons":"Category:Åhléns City","wikipedia":"sv:Åhléns City"}},"geometry":{"type":"Point","coordinates":[18.0614987,59.3323383]}},{"type":"Feature","properties":{"id":24968303,"osm_type":"way","name":"Tullhuset","category":"historic_landmark","tags":{"building":"yes","building:levels":"1","historic":"building","name":"Tullhuset","name:en":"Old Customs House","name:fi":"Tullitalo","name:sv":"Tullhuset","roof:colour":"darkgray","roof:shape":"hipped","source":"yahoo_imagery","start_date":"1876","wikidata":"Q10706138","wikimedia_commons":"Category:Tullhuset, Blasieholmen","wikipedia":"sv:Tullhuset, Blasieholmen"}},"geometry":{"type":"Point","coordinates":[18.0787386,59.3297027]}},{"type":"Feature","properties":{"id":24968447,"osm_type":"way","name":"Tyghuset","category":"historic_landmark","tags":{"building":"museum","building:colour":"yellow","building:levels":"4","description":"Built in 1663 by the Swedish Navy, today houses East-Asian Museum.","historic":"building","name":"Tyghuset","name:en":"The Arsenal","roof:colour":"black","roof:shape":"gabled","source":"yahoo_imagery","wikidata":"Q7859853","wikipedia":"en:Tyghuset"}},"geometry":{"type":"Point","coordinates":[18.0824882,59.3268628]}},{"type":"Feature","properties":{"id":25037620,"osm_type":"way","name":"Medborgarhuset","category":"historic_landmark","tags":{"building":"public","building:levels":"6","check_date":"2024-09-04","historic":"yes","name":"Medborgarhuset","name:fi":"Kansalaistalo","name:sv":"Medborgarhuset","roof:levels":"1","wikidata":"Q4357146","wikipedia":"sv:Medborgarhuset, Stockholm"}},"geometry":{"type":"Point","coordinates":[18.072415,59.3144038]}},{"type":"Feature","properties":{"id":25363730,"osm_type":"way","name":"Kullskolan","category":"historic_landmark","tags":{"building":"yes","building:colour":"#ffe0a0","building:use":"school","historic":"building","name":"Kullskolan","wikidata":"Q60969713","wikipedia":"sv:Barnhusbarnet 1"}},"geometry":{"type":"Point","coordinates":[18.0049346,59.3329014]}},{"type":"Feature","properties":{"id":26771788,"osm_type":"way","name":"Millesgården","category":"historic_landmark","tags":{"addr:city":"Lidingö","addr:country":"SE","addr:housenumber":"32","addr:postcode":"181 34","addr:street":"Herserudsvägen","attraction":"art","description:en":"Outdoor/indoor display of the sculpture of Carl Milles (1875-1955) laid out by the artist himself. (source: survey)","fee":"yes","name":"Millesgården","opening_hours":"Tu-Su 11:00-17:00","source":"Yahoo;survey","tourism":"attraction","website":"https://www.millesgarden.se/","wikidata":"Q667094","wikipedia":"sv:Millesgården"}},"geometry":{"type":"Point","coordinates":[18.1214489,59.3589592]}},{"type":"Feature","properties":{"id":27742012,"osm_type":"way","name":"Af Chapman","category":"historic_landmark","tags":{"building":"ship","description:en":"Fully rigged steel sailing ship built in UK by the Whitehaven Shipbuilding Company. 1923-1947, a Swedish Navy traing ship. Now a youth hostel. (Soure: Wikipedia:en)","historic":"ship","name":"Af Chapman","name:ko":"아프 채프만","operator":"Svenska Turistföreningen","seamark:hulk:category":"accommodation","seamark:type":"hulk","ship:type":"steel_sailing_vessel","start_date":"1888","tourism":"attraction","wikidata":"Q382006","wikimedia_commons":"Category:IMO 8639924","wikipedia":"sv:HMS af Chapman (1888)"}},"geometry":{"type":"Point","coordinates":[18.0802275,59.3252875]}},{"type":"Feature","properties":{"id":33485731,"osm_type":"way","name":"Hällestadsstapeln","category":"historic_landmark","tags":{"building":"yes","building:colour":"#8b4513","description:en":"belfry constructed in 1732–33.","height":"34.5","historic":"yes","man_made":"tower","name":"Hällestadsstapeln","name:en":"Hällestad Belfry","tower:type":"klockstapel","website":"http://www.skansen.se/sv/h%C3%A4llestadsstapeln","wikidata":"Q60199481","wikimedia_commons":"Category:Hällestadsstapeln"}},"geometry":{"type":"Point","coordinates":[18.106325,59.3248625]}},{"type":"Feature","properties":{"id":33487812,"osm_type":"way","name":"Laxbrostugan","category":"historic_landmark","tags":{"building":"yes","building:colour":"maroon","height":"2","historic":"yes","name":"Laxbrostugan","roof:colour":"green","roof:height":"1","roof:material":"grass","roof:shape":"gabled","wikidata":"Q60557041","wikimedia_commons":"Category:Laxbrostugan, Bergsmansgården, Skansen"}},"geometry":{"type":"Point","coordinates":[18.1074136,59.3264205]}},{"type":"Feature","properties":{"id":33489729,"osm_type":"way","name":"Vårt Afrika","category":"historic_landmark","tags":{"attraction":"animal","building":"yes","building:material":"concrete","name":"Vårt Afrika","roof:colour":"black","start_date":"1960","tourism":"attraction"}},"geometry":{"type":"Point","coordinates":[18.1040564,59.3242751]}},{"type":"Feature","properties":{"id":34835408,"osm_type":"way","name":"","category":"historic_landmark","tags":{"building":"stable","building:colour":"yellow","historic":"building","roof:colour":"black","roof:shape":"gabled","wikidata":"Q10656963","wikipedia":"sv:Rosendals stall"}},"geometry":{"type":"Point","coordinates":[18.125127,59.3276316]}},{"type":"Feature","properties":{"id":34840381,"osm_type":"way","name":"Dansbana","category":"historic_landmark","tags":{"building":"yes","name":"Dansbana","tourism":"attraction"}},"geometry":{"type":"Point","coordinates":[18.0980698,59.3236804]}},{"type":"Feature","properties":{"id":37079169,"osm_type":"way","name":"Katarina kyrka","category":"historic_landmark","tags":{"alt_name:es":"Iglesia_caterina","amenity":"place_of_worship","architect":"Jean de la Vallée","architect:wikidata":"Q1736102","building":"church","building:architecture":"baroque","building:colour":"#F4D9A9","building:levels":"1.5","check_date":"2024-06-14","denomination":"lutheran","diocese":"Stockholms stift","heritage":"4","heritage:operator":"raa","heritage:website":"https://bebyggelseregistret.raa.se/bbr2/anlaggning/visaHistorik.raa?page=historik&visaHistorik=true&anlaggningId=21300000004806","name":"Katarina kyrka","name:de":"Katharinenkirche","name:fi":"Katariinan kirkko","parish":"Katarina församling","ref:SE:raa":"21300000004806","religion":"christian","roof:colour":"gray","start_date":"1695","tourism":"attraction","wheelchair":"limited","wikidata":"Q1736102","wikipedia":"sv:Katarina kyrka","year_of_construction":"1656 –1695"}},"geometry":{"type":"Point","coordinates":[18.07813,59.3170609]}},{"type":"Feature","properties":{"id":37265277,"osm_type":"way","name":"Södra stadshuset","category":"historic_landmark","tags":{"alt_name:es":"Museo_de_la_Ciudad","building":"yes","building:colour":"white","building:levels":"3","name":"Södra stadshuset","roof:colour":"black","roof:levels":"1","roof:shape":"many","tourism":"attraction","wikidata":"Q10689069","wikipedia":"sv:Södra stadshuset"}},"geometry":{"type":"Point","coordinates":[18.07106,59.319705]}},{"type":"Feature","properties":{"id":39749718,"osm_type":"way","name":"Klara Trivialskola","category":"historic_landmark","tags":{"building":"yes","building:colour":"yellow","building:levels":"4","building:material":"plaster","historic":"building","inscription":"Klara Trivskola: Gossläroverk från 1649, grunder av mäster Samual Hammarinus. Första skolan utanför Stadsholmen. August Blanche och August Strinberg gick här i skola.","name":"Klara Trivialskola","roof:colour":"firebrick","roof:material":"roof_tiles","roof:shape":"gabled","source:name":"inscription"}},"geometry":{"type":"Point","coordinates":[18.0604341,59.3312421]}},{"type":"Feature","properties":{"id":40859302,"osm_type":"way","name":"Kulturhuset","category":"historic_landmark","tags":{"building":"public","building:architecture":"modernism","building:levels":"5","building:material":"glass","name":"Kulturhuset","name:en":"Culture Centre","name:es":"Casa_de_la_Cultura","name:fi":"Kulttuuritalo","name:ko":"컬처 하우스","name:sv":"Kulturhuset","source":"Bing","start_date":"1974","tourism":"attraction","wikidata":"Q204298","wikimedia_commons":"Category:Kulturhuset, Stockholm","wikipedia":"sv:Kulturhuset, Stockholm"}},"geometry":{"type":"Point","coordinates":[18.0649268,59.332047]}},{"type":"Feature","properties":{"id":41847212,"osm_type":"way","name":"Duvslaget","category":"historic_landmark","tags":{"building":"barn","building:colour":"red","building:use":"civic","historic":"building","name":"Duvslaget","roof:shape":"gabled","source":"Yahoo"}},"geometry":{"type":"Point","coordinates":[17.9572971,59.4406826]}},{"type":"Feature","properties":{"id":48399121,"osm_type":"way","name":"Tingvallen","category":"historic_landmark","tags":{"landuse":"grass","name":"Tingvallen","tourism":"attraction","wikidata":"Q60430494","wikimedia_commons":"Category:Tingvallen, Skansen"}},"geometry":{"type":"Point","coordinates":[18.1035888,59.327154]}},{"type":"Feature","properties":{"id":50857175,"osm_type":"way","name":"Älta IP","category":"historic_landmark","tags":{"leisure":"pitch","lit":"yes","name":"Älta IP","sport":"soccer","surface":"artificial_turf","tourism":"attraction"}},"geometry":{"type":"Point","coordinates":[18.1785588,59.2631188]}},{"type":"Feature","properties":{"id":52030659,"osm_type":"way","name":"Karsviks Östergård","category":"historic_landmark","tags":{"building":"yes","description":"Används av Mälarscouterna för sin verksamhet","historic":"building","name":"Karsviks Östergård","source":"https://sv.wikipedia.org/wiki/Karsvik","wikidata":"Q10544103","wikipedia":"sv:Karsvik"}},"geometry":{"type":"Point","coordinates":[17.9121463,59.3441205]}},{"type":"Feature","properties":{"id":52030671,"osm_type":"way","name":"Karsviks Östergård","category":"historic_landmark","tags":{"building":"yes","historic":"building","name":"Karsviks Östergård","source":"https://sv.wikipedia.org/wiki/Karsvik"}},"geometry":{"type":"Point","coordinates":[17.9124238,59.344026]}},{"type":"Feature","properties":{"id":55015019,"osm_type":"way","name":"Ekotemplet","category":"historic_landmark","tags":{"building":"yes","historic":"building","name":"Ekotemplet","name:en":"The Temple of Echo","name:fi":"Kaikutemppeli","name:sv":"Ekotemplet","start_date":"1790","wikidata":"Q13424377","wikimedia_commons":"Category:Ekotemplet","wikipedia":"sv:Ekotemplet, Hagaparken"}},"geometry":{"type":"Point","coordinates":[18.0412732,59.3627309]}},{"type":"Feature","properties":{"id":58264111,"osm_type":"way","name":"Ekermanska malmgården","category":"historic_landmark","tags":{"building":"yes","building:colour":"red","building:levels":"1","building:material":"wood","historic":"building","name":"Ekermanska malmgården","roof:colour":"firebrick","roof:material":"roof_tiles","roof:shape":"gabled","wikidata":"Q10480589","wikipedia":"sv:Ekermanska malmgården"}},"geometry":{"type":"Point","coordinates":[18.0521983,59.3122095]}},{"type":"Feature","properties":{"id":62078845,"osm_type":"way","name":"Ladan","category":"historic_landmark","tags":{"building":"barn","building:use":"civic","historic":"building","name":"Ladan"}},"geometry":{"type":"Point","coordinates":[17.95915,59.4402383]}},{"type":"Feature","properties":{"id":62078846,"osm_type":"way","name":"Stallet","category":"historic_landmark","tags":{"building":"stable","building:use":"civic","historic":"building","name":"Stallet"}},"geometry":{"type":"Point","coordinates":[17.958664,59.4402345]}},{"type":"Feature","properties":{"id":70772126,"osm_type":"way","name":"Landsnora kvarn och såg","category":"historic_landmark","tags":{"addr:city":"Sollentuna","addr:country":"SE","addr:housenumber":"80","addr:postcode":"19255","addr:street":"Landsnoravägen","building":"yes","contact:email":"info@sollentunahembygd.se","contact:website":"https://sollentunahembygd.se/landsnora-kvarn/","historic":"yes","man_made":"watermill","name":"Landsnora kvarn och såg","tourism":"attraction","wikidata":"Q10553964"}},"geometry":{"type":"Point","coordinates":[17.9703101,59.4358938]}},{"type":"Feature","properties":{"id":93976579,"osm_type":"way","name":"Styckekranen","category":"historic_landmark","tags":{"building":"industrial","building:colour":"saddlebrown","building:material":"metal","height":"7.7","historic":"yes","man_made":"crane","name":"Styckekranen","start_date":"1751","wikidata":"Q1723864","wikimedia_commons":"Category:Styckekranen","wikipedia":"sv:Styckekranen"}},"geometry":{"type":"Point","coordinates":[18.0845721,59.3272799]}},{"type":"Feature","properties":{"id":103570725,"osm_type":"way","name":"Katarinahissen","category":"historic_landmark","tags":{"access":"no","building":"yes","historic":"building","name":"Katarinahissen","name:en":"Katarina Elevator","name:ko":"카타리나히센(카타리나 엘리베이터)","name:ru":"Лифт Катарины - Катаринахиссен","tourism":"viewpoint","wikidata":"Q615365","wikimedia_commons":"Category:Katarinahissen","wikipedia":"sv:Katarinahissen"}},"geometry":{"type":"Point","coordinates":[18.0731707,59.3199188]}},{"type":"Feature","properties":{"id":114464677,"osm_type":"way","name":"Fabrikörvillan","category":"historic_landmark","tags":{"abandoned":"yes","building":"yes","building:colour":"wheat","building:levels":"3","building:material":"plaster","end_date":"2022-12","historic":"building","name":"Fabrikörvillan","note":"Partially destroyed by fire. Scheduled to be demolished and then rebuilt.","roof:colour":"black","roof:levels":"1","roof:material":"roof_tiles","roof:shape":"gambrel","start_date":"1860s"}},"geometry":{"type":"Point","coordinates":[18.1574291,59.3175633]}},{"type":"Feature","properties":{"id":116067382,"osm_type":"way","name":"Kättingflygaren","category":"historic_landmark","tags":{"attraction":"swing_carousel","building":"yes","name":"Kättingflygaren","source":"local_knowledge;Bing","tourism":"attraction"}},"geometry":{"type":"Point","coordinates":[18.0944422,59.3232228]}},{"type":"Feature","properties":{"id":116337358,"osm_type":"way","name":"Stora Scen","category":"historic_landmark","tags":{"building":"yes","name":"Stora Scen","source":"yahoo_imagery","tourism":"attraction"}},"geometry":{"type":"Point","coordinates":[18.0970456,59.3230517]}},{"type":"Feature","properties":{"id":117482670,"osm_type":"way","name":"","category":"historic_landmark","tags":{"building":"yes","building:levels":"2","building:material":"plaster","historic":"yes","roof:colour":"firebrick","roof:levels":"1","roof:material":"roof_tiles","roof:shape":"gabled","start_date":"1748","wikidata":"Q18332592"}},"geometry":{"type":"Point","coordinates":[18.093016,59.3157625]}},{"type":"Feature","properties":{"id":118421373,"osm_type":"way","name":"Greta Garbo","category":"historic_landmark","tags":{"name":"Greta Garbo","tourism":"attraction"}},"geometry":{"type":"Point","coordinates":[18.1046681,59.2730909]}},{"type":"Feature","properties":{"id":120877419,"osm_type":"way","name":"","category":"historic_landmark","tags":{"building":"yes","historic":"yes"}},"geometry":{"type":"Point","coordinates":[18.0295051,59.3646337]}},{"type":"Feature","properties":{"id":121807465,"osm_type":"way","name":"Villa Lyran","category":"historic_landmark","tags":{"addr:city":"Skärholmen","addr:housenumber":"90","addr:postcode":"12732","addr:street":"Ålgrytevägen","alt_name":"Konditori Lyran","building":"yes","building:colour":"yellow","building:levels":"2","building:material":"wood","historic":"yes","name":"Villa Lyran","roof:colour":"black","roof:material":"metal","start_date":"1867","website":"https://konditorilyran.se/","wikidata":"Q10715496","wikipedia":"sv:Villa Lyran"}},"geometry":{"type":"Point","coordinates":[17.9361923,59.3013071]}},{"type":"Feature","properties":{"id":124712493,"osm_type":"way","name":"Flottiljens förskola","category":"historic_landmark","tags":{"building":"school","building:levels":"2","description":"Former naval HQ","historic":"building","name":"Flottiljens förskola","source":"Bing","source:name":"survey"}},"geometry":{"type":"Point","coordinates":[18.1318993,59.4437233]}},{"type":"Feature","properties":{"id":137825911,"osm_type":"way","name":"Smedstugan","category":"historic_landmark","tags":{"building":"yes","historic":"building","name":"Smedstugan","source":"http://www.bebyggelseregistret.raa.se/bbr2/anlaggning/visaBeskrivning.raa?anlaggningId=21000001040227&page=beskrivning&visaBeskrivningar=true"}},"geometry":{"type":"Point","coordinates":[17.9244923,59.3368644]}},{"type":"Feature","properties":{"id":137825915,"osm_type":"way","name":"Kvarnstugan","category":"historic_landmark","tags":{"building":"yes","historic":"building","name":"Kvarnstugan","source":"http://www.bebyggelseregistret.raa.se/bbr2/anlaggning/visaBeskrivning.raa?anlaggningId=21000001040227&page=beskrivning&visaBeskrivningar=true"}},"geometry":{"type":"Point","coordinates":[17.9248334,59.3366311]}},{"type":"Feature","properties":{"id":141431773,"osm_type":"way","name":"","category":"historic_landmark","tags":{"building":"yes","historic":"yes"}},"geometry":{"type":"Point","coordinates":[18.1057626,59.3278426]}},{"type":"Feature","properties":{"id":141433537,"osm_type":"way","name":"Krukmakeriet","category":"historic_landmark","tags":{"attraction":"yes","building":"yes","building:use":"exhibition","name":"Krukmakeriet","tourism":"attraction","website":"https://www.skansen.se/sv/krukmakeriet","wikidata":"Q60198933","wikimedia_commons":"Category:Krukmakerigården, Skansen"}},"geometry":{"type":"Point","coordinates":[18.1002881,59.3256367]}},{"type":"Feature","properties":{"id":141433538,"osm_type":"way","name":"Mekaniska Verkstaden","category":"historic_landmark","tags":{"attraction":"yes","building":"yes","building:material":"brick","building:use":"exhibition","name":"Mekaniska Verkstaden","roof:colour":"gray","roof:material":"metal","tourism":"attraction","website":"https://www.skansen.se/sv/mekaniska-verkstaden-ua","wikidata":"Q10580064","wikimedia_commons":"Category:Mekaniska verkstaden","wikipedia":"sv:Mekaniska verkstaden, Skansen"}},"geometry":{"type":"Point","coordinates":[18.0997821,59.3257071]}},{"type":"Feature","properties":{"id":141433541,"osm_type":"way","name":"Snickeriet","category":"historic_landmark","tags":{"attraction":"yes","building":"yes","building:use":"exhibition","name":"Snickeriet","name:en":"Furniture Factory","tourism":"attraction","website":"https://www.skansen.se/sv/snickerifabriken-ua","wikidata":"Q60514280","wikimedia_commons":"Category:Snickerifabriken, Skansen"}},"geometry":{"type":"Point","coordinates":[18.0998176,59.3254513]}},{"type":"Feature","properties":{"id":141531897,"osm_type":"way","name":"Lo","category":"historic_landmark","tags":{"attraction":"animal","barrier":"fence","check_date":"2019-12-24","name":"Lo","name:en":"Lynx","tourism":"attraction"}},"geometry":{"type":"Point","coordinates":[18.1105717,59.3269184]}},{"type":"Feature","properties":{"id":141531902,"osm_type":"way","name":"Järv","category":"historic_landmark","tags":{"attraction":"animal","barrier":"fence","check_date":"2020-03-09","name":"Järv","name:en":"Wolverine","tourism":"attraction"}},"geometry":{"type":"Point","coordinates":[18.1095203,59.3279382]}},{"type":"Feature","properties":{"id":141531907,"osm_type":"way","name":"Berguv","category":"historic_landmark","tags":{"attraction":"animal","name":"Berguv","name:en":"Eagle Owl","tourism":"attraction"}},"geometry":{"type":"Point","coordinates":[18.1092072,59.3270296]}},{"type":"Feature","properties":{"id":141531912,"osm_type":"way","name":"Dansbana / Radiobilar","category":"historic_landmark","tags":{"attraction":"kiddie_ride","building":"yes","name":"Dansbana / Radiobilar","surface":"wood","tourism":"attraction"}},"geometry":{"type":"Point","coordinates":[18.1041949,59.3265251]}},{"type":"Feature","properties":{"id":141531915,"osm_type":"way","name":"Fjällräv","category":"historic_landmark","tags":{"attraction":"animal","check_date":"2019-12-24","name":"Fjällräv","name:en":"Arctic fox","tourism":"attraction"}},"geometry":{"type":"Point","coordinates":[18.1099745,59.3265674]}},{"type":"Feature","properties":{"id":141531916,"osm_type":"way","name":"Älg","category":"historic_landmark","tags":{"attraction":"animal","check_date":"2020-03-09","name":"Älg","name:de":"Elch","name:en":"Elk","name:ja":"ヘラジカ","name:science":"Alces alces","tourism":"attraction"}},"geometry":{"type":"Point","coordinates":[18.1065349,59.328614]}},{"type":"Feature","properties":{"id":141531918,"osm_type":"way","name":"Älg","category":"historic_landmark","tags":{"attraction":"animal","barrier":"fence","check_date":"2020-03-09","name":"Älg","name:de":"Elch","name:en":"Elk","name:science":"Alces alces","tourism":"attraction"}},"geometry":{"type":"Point","coordinates":[18.1074705,59.3282995]}},{"type":"Feature","properties":{"id":141531930,"osm_type":"way","name":"Lillskansen","category":"historic_landmark","tags":{"attraction":"animal","name":"Lillskansen","name:en":"Little Skansen","opening_hours":"Mo-Su 10:00-16:00","tourism":"attraction","wheelchair":"yes"}},"geometry":{"type":"Point","coordinates":[18.1069045,59.3270982]}},{"type":"Feature","properties":{"id":141531936,"osm_type":"way","name":"Får","category":"historic_landmark","tags":{"addr:postcode":"115 21","attraction":"animal","check_date":"2020-03-09","landuse":"meadow","meadow":"pasture","name":"Får","name:de":"Schaf","name:en":"Sheep","tourism":"attraction"}},"geometry":{"type":"Point","coordinates":[18.1056914,59.3276788]}},{"type":"Feature","properties":{"id":141531939,"osm_type":"way","name":"Björn","category":"historic_landmark","tags":{"attraction":"animal","check_date":"2020-07-14","name":"Björn","name:en":"Bear","tourism":"attraction"}},"geometry":{"type":"Point","coordinates":[18.1080668,59.3284204]}},{"type":"Feature","properties":{"id":141531940,"osm_type":"way","name":"Berguv","category":"historic_landmark","tags":{"animal":"owl","attraction":"animal","check_date":"2020-07-14","name":"Berguv","name:en":"Eurasian eagle-owl","species":"bubo bubo","tourism":"attraction"}},"geometry":{"type":"Point","coordinates":[18.1083764,59.3281625]}},{"type":"Feature","properties":{"id":141531942,"osm_type":"way","name":"Björn","category":"historic_landmark","tags":{"attraction":"animal","barrier":"fence","check_date":"2020-07-14","name":"Björn","name:en":"Bear","tourism":"attraction"}},"geometry":{"type":"Point","coordinates":[18.1088162,59.3284003]}},{"type":"Feature","properties":{"id":141531947,"osm_type":"way","name":"Visent","category":"historic_landmark","tags":{"attraction":"animal","landuse":"animal_keeping","name":"Visent","name:en":"Bison","tourism":"attraction"}},"geometry":{"type":"Point","coordinates":[18.1095257,59.3274818]}},{"type":"Feature","properties":{"id":141531951,"osm_type":"way","name":"Ko och get","category":"historic_landmark","tags":{"attraction":"animal","name":"Ko och get","name:en":"Cow and Goat","tourism":"attraction"}},"geometry":{"type":"Point","coordinates":[18.1061086,59.3277001]}},{"type":"Feature","properties":{"id":141533215,"osm_type":"way","name":"Gråsäl","category":"historic_landmark","tags":{"attraction":"animal","check_date":"2019-12-23","name":"Gråsäl","name:en":"Seal","tourism":"attraction"}},"geometry":{"type":"Point","coordinates":[18.1069404,59.3278307]}},{"type":"Feature","properties":{"id":141533217,"osm_type":"way","name":"Knubbsäl","category":"historic_landmark","tags":{"attraction":"animal","check_date":"2019-12-23","name":"Knubbsäl","name:en":"Seal","tourism":"attraction"}},"geometry":{"type":"Point","coordinates":[18.1071263,59.3280563]}},{"type":"Feature","properties":{"id":141533218,"osm_type":"way","name":"Utter","category":"historic_landmark","tags":{"attraction":"animal","check_date":"2019-12-23","landuse":"forest","name":"Utter","name:de":"Otter","name:en":"Otter","tourism":"attraction"}},"geometry":{"type":"Point","coordinates":[18.1072469,59.3278847]}},{"type":"Feature","properties":{"id":141539922,"osm_type":"way","name":"Ren","category":"historic_landmark","tags":{"attraction":"animal","barrier":"fence","check_date":"2019-12-24","fence_type":"wood","landuse":"meadow","meadow":"pasture","name":"Ren","name:en":"Reindeer","name:ja":"トナカイ","tourism":"attraction"}},"geometry":{"type":"Point","coordinates":[18.1053309,59.3285229]}},{"type":"Feature","properties":{"id":145662484,"osm_type":"way","name":"Rosendals slott","category":"historic_landmark","tags":{"building":"palace","building:colour":"peachpuff","building:levels":"2","building:material":"plaster","historic":"castle","name":"Rosendals slott","name:en":"Rosendal Palace","name:fi":"Rosendalin linna","name:ru":"дворец Розендаль","name:sv":"Rosendals slott","operator":"Sveriges Kungahus","roof:colour":"black","roof:material":"metal","roof:shape":"gabled","start_date":"1826","tourism":"attraction","website":"https://www.kungligaslotten.se/vara-besoksmal/rosendals-slott.html","wikidata":"Q59482","wikimedia_commons":"Category:Rosendals slott","wikipedia":"sv:Rosendals slott"}},"geometry":{"type":"Point","coordinates":[18.117334,59.328909]}},{"type":"Feature","properties":{"id":148212373,"osm_type":"way","name":"Ulriksdals slott","category":"historic_landmark","tags":{"addr:city":"Solna","addr:postcode":"17079","addr:street":"Slottsallén","building":"palace","historic":"castle","name":"Ulriksdals slott","name:en":"Ulriksdals Castle","name:fi":"Ulriksdalin linna","name:sv":"Ulriksdals slott","tourism":"attraction","wikidata":"Q176860","wikipedia":"sv:Ulriksdals slott"}},"geometry":{"type":"Point","coordinates":[18.0165397,59.3904224]}},{"type":"Feature","properties":{"id":151113215,"osm_type":"way","name":"Tingvallsscenen","category":"historic_landmark","tags":{"building":"yes","building:colour":"saddlebrown","building:material":"wood","description":"Minor wooden outdoor stage with seating","height":"0.5","name":"Tingvallsscenen","tourism":"attraction","website":"https://www.skansen.se/sv/tingsvallenscenen","wikidata":"Q60515505"}},"geometry":{"type":"Point","coordinates":[18.1038422,59.3273191]}},{"type":"Feature","properties":{"id":161185703,"osm_type":"way","name":"Svampen","category":"historic_landmark","tags":{"amenity":"shelter","building":"roof","name":"Svampen","note":"unattractive concrete mushroom","shelter_type":"Wetterpilz","tourism":"attraction","wheelchair":"yes","wikidata":"Q10684327","wikimedia_commons":"Category:Svampen (Stureplan)"}},"geometry":{"type":"Point","coordinates":[18.0727208,59.3361275]}},{"type":"Feature","properties":{"id":174991622,"osm_type":"way","name":"Tallborgen","category":"historic_landmark","tags":{"building":"cabin","comment":"fd torpet Ormkärr från Hagsätra","historic":"building","name":"Tallborgen"}},"geometry":{"type":"Point","coordinates":[18.2158247,59.1767825]}},{"type":"Feature","properties":{"id":221730763,"osm_type":"way","name":"Vattentornet","category":"historic_landmark","tags":{"building":"yes","historic":"yes","man_made":"water_tower","name":"Vattentornet","source":"Bing","wikidata":"Q10713450","wikipedia":"sv:Vattentornet, Skeppsholmen"}},"geometry":{"type":"Point","coordinates":[18.0819429,59.3252143]}},{"type":"Feature","properties":{"id":222138753,"osm_type":"way","name":"fd Aula","category":"historic_landmark","tags":{"building":"school","comment":"nedlagd","historic":"building","name":"fd Aula"}},"geometry":{"type":"Point","coordinates":[18.0168263,59.2643872]}},{"type":"Feature","properties":{"id":222641448,"osm_type":"way","name":"","category":"historic_landmark","tags":{"building":"yes","building:levels":"5","historic":"building","source":"survey;Bing"}},"geometry":{"type":"Point","coordinates":[18.1319358,59.4443556]}},{"type":"Feature","properties":{"id":238784202,"osm_type":"way","name":"Eclipse","category":"historic_landmark","tags":{"attraction":"swing_carousel","building":"tower","building:colour":"white","fee":"3 tickets","height":"10","lit":"yes","name":"Eclipse","source":"local_knowledge;Bing","tourism":"attraction"}},"geometry":{"type":"Point","coordinates":[18.0962551,59.32298]}},{"type":"Feature","properties":{"id":244449265,"osm_type":"way","name":"","category":"historic_landmark","tags":{"building":"yes","historic":"yes","source":"survey;Bing"}},"geometry":{"type":"Point","coordinates":[18.0310883,59.3649306]}},{"type":"Feature","properties":{"id":245638760,"osm_type":"way","name":"Mölna Paviljong","category":"historic_landmark","tags":{"building":"pavilion","building:levels":"1","historic":"building","name":"Mölna Paviljong"}},"geometry":{"type":"Point","coordinates":[18.1879967,59.3403055]}},{"type":"Feature","properties":{"id":248072195,"osm_type":"way","name":"Stora Katrinebergs gård","category":"historic_landmark","tags":{"building":"yes","building:colour":"yellow","building:levels":"2","building:material":"plaster","historic":"yes","name":"Stora Katrinebergs gård","roof:colour":"gray","roof:shape":"gabled","start_date":"1770s"}},"geometry":{"type":"Point","coordinates":[18.0273654,59.3132564]}},{"type":"Feature","properties":{"id":271978937,"osm_type":"way","name":"","category":"historic_landmark","tags":{"building":"yes","historic":"yes","source":"Bing"}},"geometry":{"type":"Point","coordinates":[17.9545236,59.371143]}},{"type":"Feature","properties":{"id":295475282,"osm_type":"way","name":"Prästgårdsfortet","category":"historic_landmark","tags":{"building":"bunker","military":"bunker","name":"Prästgårdsfortet","tourism":"attraction"}},"geometry":{"type":"Point","coordinates":[18.0647538,59.4828758]}},{"type":"Feature","properties":{"id":316040047,"osm_type":"way","name":"","category":"historic_landmark","tags":{"building":"yes","historic":"yes","source":"Bing"}},"geometry":{"type":"Point","coordinates":[18.0601003,59.3373723]}},{"type":"Feature","properties":{"id":353934514,"osm_type":"way","name":"Marathonpaviljongen","category":"historic_landmark","tags":{"building":"yes","name":"Marathonpaviljongen","opening_hours":"24/7","tourism":"attraction"}},"geometry":{"type":"Point","coordinates":[17.9189941,59.4680903]}},{"type":"Feature","properties":{"id":393234001,"osm_type":"way","name":"Blå tornet","category":"historic_landmark","tags":{"building:levels":"7","building:part":"yes","check_date":"2020-02-19","historic":"building","name":"Blå tornet"}},"geometry":{"type":"Point","coordinates":[18.0566027,59.3385491]}},{"type":"Feature","properties":{"id":404648589,"osm_type":"way","name":"Dragontorpet","category":"historic_landmark","tags":{"building":"yes","building:colour":"red","building:levels":"1","building:material":"wood","historic":"building","name":"Dragontorpet","roof:colour":"firebrick","roof:material":"roof_tiles","roof:shape":"gabled","start_date":"1700s","website":"https://stockholmskallan.stockholm.se/post/26975","wikidata":"Q18288578","wikipedia":"sv:Dragontorpet Abrahamsberg"}},"geometry":{"type":"Point","coordinates":[17.949995,59.3342077]}},{"type":"Feature","properties":{"id":564096391,"osm_type":"way","name":"","category":"historic_landmark","tags":{"building":"yes","building:levels":"1","historic":"yes"}},"geometry":{"type":"Point","coordinates":[17.9913636,59.3453314]}},{"type":"Feature","properties":{"id":662370988,"osm_type":"way","name":"Vasslandsboden","category":"historic_landmark","tags":{"attraction":"yes","building":"yes","building:use":"exhibition","historic":"building","name":"Vasslandsboden","tourism":"attraction","wikidata":"Q60557815","wikimedia_commons":"Category:Vasslandsboden, Bergsmansgården, Skansen"}},"geometry":{"type":"Point","coordinates":[18.1073353,59.3267586]}},{"type":"Feature","properties":{"id":665281973,"osm_type":"way","name":"","category":"historic_landmark","tags":{"drinking_water":"no","historic":"yes","man_made":"water_well","pump:style":"historic","wikidata":"Q60715753","wikimedia_commons":"Category:Brunnen, Moragården, Skansen"}},"geometry":{"type":"Point","coordinates":[18.1048922,59.327413]}},{"type":"Feature","properties":{"id":675760811,"osm_type":"way","name":"Kägelbana","category":"historic_landmark","tags":{"building":"yes","building:colour":"white","building:levels":"1","building:material":"wood","historic":"building","name":"Kägelbana","roof:colour":"black","start_date":"1878"}},"geometry":{"type":"Point","coordinates":[18.2302281,59.3036851]}},{"type":"Feature","properties":{"id":696259700,"osm_type":"way","name":"Ryssmuren","category":"historic_landmark","tags":{"barrier":"wall","historic":"yes","name":"Ryssmuren","source":"https://app.raa.se/open/fornsok/lamning/27ec5c59-6a4c-4ba1-9fe0-8aefd47b3d1e","wall":"dry_stone"}},"geometry":{"type":"Point","coordinates":[17.9201833,59.346181]}},{"type":"Feature","properties":{"id":696259701,"osm_type":"way","name":"Ryssmuren","category":"historic_landmark","tags":{"barrier":"wall","historic":"yes","name":"Ryssmuren","source":"https://app.raa.se/open/fornsok/lamning/27ec5c59-6a4c-4ba1-9fe0-8aefd47b3d1e","wall":"dry_stone"}},"geometry":{"type":"Point","coordinates":[17.9191678,59.3456376]}},{"type":"Feature","properties":{"id":696259702,"osm_type":"way","name":"Ryssmuren","category":"historic_landmark","tags":{"barrier":"wall","historic":"yes","name":"Ryssmuren","source":"https://app.raa.se/open/fornsok/lamning/27ec5c59-6a4c-4ba1-9fe0-8aefd47b3d1e","wall":"dry_stone"}},"geometry":{"type":"Point","coordinates":[17.9220959,59.3466273]}},{"type":"Feature","properties":{"id":696259703,"osm_type":"way","name":"Ryssmuren","category":"historic_landmark","tags":{"barrier":"wall","historic":"yes","name":"Ryssmuren","source":"https://app.raa.se/open/fornsok/lamning/27ec5c59-6a4c-4ba1-9fe0-8aefd47b3d1e","wall":"dry_stone"}},"geometry":{"type":"Point","coordinates":[17.9233497,59.3466758]}},{"type":"Feature","properties":{"id":696738971,"osm_type":"way","name":"Ryssmuren","category":"historic_landmark","tags":{"barrier":"wall","historic":"yes","name":"Ryssmuren","source":"https://app.raa.se/open/fornsok/lamning/27ec5c59-6a4c-4ba1-9fe0-8aefd47b3d1e","wall":"dry_stone"}},"geometry":{"type":"Point","coordinates":[17.9190932,59.3453005]}},{"type":"Feature","properties":{"id":696738974,"osm_type":"way","name":"Ryssmuren","category":"historic_landmark","tags":{"barrier":"wall","historic":"yes","name":"Ryssmuren","source":"https://app.raa.se/open/fornsok/lamning/27ec5c59-6a4c-4ba1-9fe0-8aefd47b3d1e","wall":"dry_stone"}},"geometry":{"type":"Point","coordinates":[17.9190594,59.3437802]}},{"type":"Feature","properties":{"id":705991789,"osm_type":"way","name":"Orangeriet","category":"historic_landmark","tags":{"building":"yes","historic":"building","name":"Orangeriet"}},"geometry":{"type":"Point","coordinates":[17.9264734,59.3417532]}},{"type":"Feature","properties":{"id":769891731,"osm_type":"way","name":"Guereza","category":"historic_landmark","tags":{"attraction":"animal","check_date":"2020-07-14","name":"Guereza","species":"Colobus Guereza","tourism":"attraction"}},"geometry":{"type":"Point","coordinates":[18.1038912,59.324371]}},{"type":"Feature","properties":{"id":769893309,"osm_type":"way","name":"Lemur","category":"historic_landmark","tags":{"attraction":"animal","check_date":"2020-07-14","name":"Lemur","species":"Lemur catta","tourism":"attraction"}},"geometry":{"type":"Point","coordinates":[18.1040287,59.3246391]}},{"type":"Feature","properties":{"id":769898189,"osm_type":"way","name":"","category":"historic_landmark","tags":{"attraction":"animal","tourism":"attraction"}},"geometry":{"type":"Point","coordinates":[18.1034335,59.3247275]}},{"type":"Feature","properties":{"id":769962541,"osm_type":"way","name":"Älg","category":"historic_landmark","tags":{"attraction":"animal","barrier":"fence","check_date":"2020-03-09","name":"Älg","name:en":"Elk","name:ja":"ヘラジカ","tourism":"attraction"}},"geometry":{"type":"Point","coordinates":[18.107273,59.3286712]}},{"type":"Feature","properties":{"id":771856432,"osm_type":"way","name":"Stockholms gamla observatorium","category":"historic_landmark","tags":{"architect":"Carl Hårleman","building":"observatory","building:colour":"#EAB186","building:levels":"1","description":"Royal Academy of Sciences' observatory","historic":"building","name":"Stockholms gamla observatorium","name:de":"Observatorium Stockholm","name:en":"Observatory of Stockholm","name:es":"Observatorio de Estocolmo","name:fr":"Observatoire de Stockholm","name:ru":"Стокгольмская обсерватория","start_date":"1748","wikidata":"Q681497","wikimedia_commons":"Category:Stockholms gamla observatorium","wikipedia":"sv:Stockholms gamla observatorium"}},"geometry":{"type":"Point","coordinates":[18.0546554,59.3415335]}},{"type":"Feature","properties":{"id":1018583099,"osm_type":"way","name":"","category":"historic_landmark","tags":{"building":"yes","historic":"building"}},"geometry":{"type":"Point","coordinates":[18.0168325,59.2015852]}},{"type":"Feature","properties":{"id":1051121873,"osm_type":"way","name":"Gris","category":"historic_landmark","tags":{"animal":"pig","attraction":"animal","landuse":"meadow","meadow":"pasture","name":"Gris","tourism":"attraction"}},"geometry":{"type":"Point","coordinates":[18.1068329,59.326817]}},{"type":"Feature","properties":{"id":1051128798,"osm_type":"way","name":"Häst","category":"historic_landmark","tags":{"animal":"horse","attraction":"animal","barrier":"fence","landuse":"animal_keeping","name":"Häst","name:en":"Horse","tourism":"attraction"}},"geometry":{"type":"Point","coordinates":[18.108935,59.327894]}},{"type":"Feature","properties":{"id":1122922291,"osm_type":"way","name":"Fritt fall","category":"historic_landmark","tags":{"attraction":"drop_tower","building":"yes","fee":"3 tickets","height":"80","name":"Fritt fall","tourism":"attraction"}},"geometry":{"type":"Point","coordinates":[18.0969758,59.3232656]}},{"type":"Feature","properties":{"id":1122927971,"osm_type":"way","name":"Katapulten","category":"historic_landmark","tags":{"attraction":"drop_tower","building":"yes","charge":"\"3 tickets\"","fee":"yes","height":"55","name":"Katapulten","tourism":"attraction"}},"geometry":{"type":"Point","coordinates":[18.0949994,59.3231181]}},{"type":"Feature","properties":{"id":1122930534,"osm_type":"way","name":"Ikaros","category":"historic_landmark","tags":{"attraction":"drop_tower","building:part":"yes","height":"95","name":"Ikaros","tourism":"attraction"}},"geometry":{"type":"Point","coordinates":[18.0953416,59.3232271]}},{"type":"Feature","properties":{"id":1159663794,"osm_type":"way","name":"Trojeborg","category":"historic_landmark","tags":{"attraction":"maze","name":"Trojeborg","tourism":"attraction"}},"geometry":{"type":"Point","coordinates":[18.0538343,59.3401349]}},{"type":"Feature","properties":{"id":1273385139,"osm_type":"way","name":"Bläckfisken","category":"historic_landmark","tags":{"attraction":"amusement_ride","name":"Bläckfisken","source":"local_knowledge;Bing","tourism":"attraction"}},"geometry":{"type":"Point","coordinates":[18.0965574,59.3221312]}},{"type":"Feature","properties":{"id":1313579768,"osm_type":"way","name":"","category":"historic_landmark","tags":{"building":"yes","description":"Huset fungerade som Hagalunds anhalt/station för järnvägen under perioden 1895–1903 då stambanan gick här. Men där nuvarande hus är kraftigt ombyggt.","historic":"building"}},"geometry":{"type":"Point","coordinates":[18.0174522,59.3618525]}},{"type":"Feature","properties":{"id":34394,"osm_type":"relation","name":"Stockholms slott","category":"historic_landmark","tags":{"addr:city":"Stockholm","addr:country":"SE","addr:housenumber":"1","addr:street":"Slottsbacken","alt_name:fi":"Kuninkaanlinna","architect":"Nicodemus Tessin, Carl Hårleman","architect:wikidata":"Q455143;Q1038985","building":"palace","building:architecture":"baroque","building:colour":"#A99177","building:levels":"4","castle_type":"palace","description:en":"Official residence of the Swedish monarch. Baraque-styel, Main cortyard and several mseums are open to the public.","heritage":"4","heritage:operator":"raa","heritage:website":"https://bebyggelseregistret.raa.se/bbr2/byggnad/visaHistorik.raa?byggnadId=21400000339822&page=historik","historic":"castle","name":"Stockholms slott","name:ca":"Palau Reial","name:da":"Stockholms Slot","name:de":"Stockholmer Schloss","name:en":"Royal Palace","name:es":"Palacio Real de Estocolmo","name:et":"Stockholmi kuningaloss","name:fi":"Tukholman linna","name:fr":"Palais royal de Stockholm","name:it":"Palazzo di Stoccolma","name:ko":"스톡홀름 궁전","name:pl":"Pałac Królewski w Sztokholmie","name:pt":"Palácio Real de Estocolmo","name:ru":"Королевский дворец","official_name":"Kungliga slottet","roof:material":"copper","start_date":"1754","tourism":"attraction","type":"multipolygon","website":"https://www.kungligaslotten.se","wikidata":"Q750444","wikipedia":"sv:Stockholms slott"}},"geometry":{"type":"Point","coordinates":[18.0716881,59.3268923]}},{"type":"Feature","properties":{"id":34395,"osm_type":"relation","name":"Riksdagshuset","category":"historic_landmark","tags":{"addr:city":"Stockholm","alt_name:es":"Parlamento","architect":"Aron Johansson","architect:wikidata":"Q5885392","building":"government","building:colour":"#E5CCB3","building:levels":"4","description:en":"Seat of the parliament","historic":"building","name":"Riksdagshuset","name:de":"Reichstagsgebäude","name:fi":"Valtiopäivätalo","name:pl":"budynek Parlamentu","name:sv":"Riksdagshuset","roof:colour":"gray","roof:shape":"many","start_date":"1905","type":"multipolygon","wikidata":"Q1101073","wikipedia":"sv:Riksdagshuset i Stockholm"}},"geometry":{"type":"Point","coordinates":[18.0680306,59.3276609]}},{"type":"Feature","properties":{"id":9692923,"osm_type":"relation","name":"Karsvikshage","category":"historic_landmark","tags":{"alt_name":"Karsviks hage","historic":"yes","landuse":"grass","leisure":"park","name":"Karsvikshage","type":"multipolygon"}},"geometry":{"type":"Point","coordinates":[17.9106586,59.3447673]}},{"type":"Feature","properties":{"id":14622929,"osm_type":"relation","name":"Lydert Bartels' hus","category":"historic_landmark","tags":{"addr:city":"Stockholm","building":"yes","heritage":"4","heritage:operator":"raa","heritage:website":"https://bebyggelseregistret.raa.se/bbr2/anlaggning/visaHistorik.raa?page=historik&visaHistorik=true&anlaggningId=21300000016025","historic":"yes","name":"Lydert Bartels' hus","ref:SE:raa":"21300000016025","type":"multipolygon","wikidata":"Q10426679","wikipedia":"sv:Bartelska och Törneska husen"}},"geometry":{"type":"Point","coordinates":[18.0727842,59.3249332]}}]}