{"type":"FeatureCollection","features":[{"type":"Feature","properties":{"id":208471418,"osm_type":"node","name":"Sabbatsbergs sjukhus","category":"hospital","tags":{"amenity":"hospital","check_date":"2020-01-09","health_specialty:orthopaedics":"yes","healthcare":"hospital","name":"Sabbatsbergs sjukhus","wikidata":"Q4570702","wikimedia_commons":"Category:Sabbatsbergs sjukhus","wikipedia":"sv:Sabbatsbergs sjukhus"}},"geometry":{"type":"Point","coordinates":[18.047399,59.3382764]}},{"type":"Feature","properties":{"id":370825821,"osm_type":"node","name":"Björnbo sjukhus","category":"hospital","tags":{"amenity":"hospital","name":"Björnbo sjukhus"}},"geometry":{"type":"Point","coordinates":[18.169662,59.3698483]}},{"type":"Feature","properties":{"id":415303043,"osm_type":"node","name":"Maria Ungdom akutmottagning","category":"hospital","tags":{"addr:city":"Stockholm","addr:housenumber":"1","addr:street":"Finsens väg","amenity":"hospital","description":"for treatment and detoxification of adolescents","emergency":"yes","healthcare":"hospital","name":"Maria Ungdom akutmottagning","opening_hours":"24/7","website":"https://www.mariaungdom.se/"}},"geometry":{"type":"Point","coordinates":[18.0236702,59.3328766]}},{"type":"Feature","properties":{"id":1742580757,"osm_type":"node","name":"Psykiatriska akutmottagningen Stockholm","category":"hospital","tags":{"amenity":"hospital","emergency":"yes","healthcare":"hospital","healthcare:speciality":"psychiatry","name":"Psykiatriska akutmottagningen Stockholm"}},"geometry":{"type":"Point","coordinates":[18.018446,59.3353381]}},{"type":"Feature","properties":{"id":2377422541,"osm_type":"node","name":"Capio vårdcentral","category":"hospital","tags":{"amenity":"hospital","healthcare":"hospital","name":"Capio vårdcentral","opening_hours":"Mo-Fr 08:00-17:00","operator":"Capio","operator:wikidata":"Q498606","wheelchair":"yes"}},"geometry":{"type":"Point","coordinates":[18.0804168,59.2982426]}},{"type":"Feature","properties":{"id":4676733065,"osm_type":"node","name":"Beroendeakuten Stockholm","category":"hospital","tags":{"amenity":"hospital","contact:phone":"+46812345900","emergency":"emergency_ward_entrance","healthcare":"hospital","healthcare:speciality":"addiction","name":"Beroendeakuten Stockholm","opening_hours":"24/7","short_name":"BAS","website":"https://www.beroendecentrum.se/"}},"geometry":{"type":"Point","coordinates":[18.0186558,59.3355702]}},{"type":"Feature","properties":{"id":6177469085,"osm_type":"node","name":"Karolinska Universitetssjukhuset Solna Intensivakuten","category":"hospital","tags":{"addr:country":"SE","addr:housenumber":"33","addr:street":"Anna Steckséns gata","amenity":"hospital","healthcare":"hospital","internet_access":"wlan","name":"Karolinska Universitetssjukhuset Solna Intensivakuten","opening_hours":"24/7","phone":"+46851770000","website":"https://www.karolinska.se/"}},"geometry":{"type":"Point","coordinates":[18.0327798,59.3494515]}},{"type":"Feature","properties":{"id":7070742866,"osm_type":"node","name":"Karolinska Universitetssjukhuset Solna Barnakuten","category":"hospital","tags":{"amenity":"hospital","healthcare":"hospital","name":"Karolinska Universitetssjukhuset Solna Barnakuten"}},"geometry":{"type":"Point","coordinates":[18.0326001,59.3496159]}},{"type":"Feature","properties":{"id":7595765285,"osm_type":"node","name":"Närakut Haga","category":"hospital","tags":{"addr:city":"Solna","addr:country":"SE","addr:housenumber":"39","addr:postcode":"171 64","addr:street":"Karolinska vägen","amenity":"hospital","emergency":"yes","healthcare":"hospital","name":"Närakut Haga","opening_hours":"08:00-22:00","operator":"Region Stockholm","wheelchair":"yes"}},"geometry":{"type":"Point","coordinates":[18.0345302,59.3530232]}},{"type":"Feature","properties":{"id":7707929544,"osm_type":"node","name":"CityAkuten Närakuten Barn","category":"hospital","tags":{"amenity":"hospital","emergency":"yes","healthcare:speciality":"paediatrics","name":"CityAkuten Närakuten Barn"}},"geometry":{"type":"Point","coordinates":[18.0365393,59.353209]}},{"type":"Feature","properties":{"id":7950577092,"osm_type":"node","name":"Sankt Eriks ögonsjukhus","category":"hospital","tags":{"amenity":"hospital","healthcare":"hospital","name":"Sankt Eriks ögonsjukhus","name:fi":"Eerik Pyhän silmäsairaala","name:sv":"Sankt Eriks ögonsjukhus","wikidata":"Q10659379","wikipedia":"sv:S:t Eriks ögonsjukhus"}},"geometry":{"type":"Point","coordinates":[18.0332439,59.3485993]}},{"type":"Feature","properties":{"id":8720254932,"osm_type":"node","name":"Kry","category":"hospital","tags":{"addr:city":"Nacka","addr:country":"SE","addr:housenumber":"18","addr:postcode":"131 54","addr:street":"Smedjegatan","amenity":"hospital","entrance":"yes","healthcare":"hospital","name":"Kry"}},"geometry":{"type":"Point","coordinates":[18.1217761,59.3062441]}},{"type":"Feature","properties":{"id":8720261527,"osm_type":"node","name":"Alva Barnklinik","category":"hospital","tags":{"addr:city":"Nacka","addr:country":"SE","addr:housenumber":"18","addr:postcode":"131 54","addr:street":"Smedjegatan","amenity":"hospital","entrance":"yes","healthcare":"hospital","name":"Alva Barnklinik"}},"geometry":{"type":"Point","coordinates":[18.1216691,59.3063423]}},{"type":"Feature","properties":{"id":9249777502,"osm_type":"node","name":"Prima Fysik Sportrehab","category":"hospital","tags":{"addr:city":"Nacka","addr:country":"SE","addr:housenumber":"14","addr:postcode":"131 54","addr:street":"Smedjegatan","amenity":"hospital","email":"info@primafysik.se","entrance":"yes","healthcare":"hospital","name":"Prima Fysik Sportrehab","phone":"+46 72 016 59 59","website":"https://www.primafysik.se/"}},"geometry":{"type":"Point","coordinates":[18.1221016,59.3063279]}},{"type":"Feature","properties":{"id":12014548143,"osm_type":"node","name":"","category":"hospital","tags":{"amenity":"hospital","healthcare":"hospital","operator":"Capio","operator:type":"private","operator:wikidata":"Q498606"}},"geometry":{"type":"Point","coordinates":[18.0900973,59.2418634]}},{"type":"Feature","properties":{"id":12529882338,"osm_type":"node","name":"Sankt Görans sjukhus Akutmottagning","category":"hospital","tags":{"addr:city":"Stockholm","addr:housenumber":"139","addr:street":"Sankt Göransgatan","amenity":"hospital","emergency":"yes","healthcare":"hospital","name":"Sankt Görans sjukhus Akutmottagning","opening_hours":"24/7","operator":"Capio","operator:type":"private","operator:wikidata":"Q498606"}},"geometry":{"type":"Point","coordinates":[18.022047,59.3343502]}},{"type":"Feature","properties":{"id":12529882340,"osm_type":"node","name":"Södersjukhuset Akutmottagning","category":"hospital","tags":{"addr:city":"Stockholm","addr:housenumber":"12","addr:street":"Sjukhusbacken","amenity":"hospital","emergency":"yes","healthcare":"hospital","name":"Södersjukhuset Akutmottagning","opening_hours":"24/7"}},"geometry":{"type":"Point","coordinates":[18.0548329,59.3101034]}},{"type":"Feature","properties":{"id":12529882341,"osm_type":"node","name":"Danderyds sjukhus Akutmottagning","category":"hospital","tags":{"addr:city":"Danderyd","addr:housenumber":"4","addr:street":"Entrévägen","amenity":"hospital","emergency":"yes","healthcare":"hospital","name":"Danderyds sjukhus Akutmottagning","opening_hours":"24/7"}},"geometry":{"type":"Point","coordinates":[18.0404165,59.3915437]}},{"type":"Feature","properties":{"id":12529882362,"osm_type":"node","name":"Närakut Sollentuna","category":"hospital","tags":{"addr:city":"Sollentuna","addr:country":"SE","addr:housenumber":"10B","addr:postcode":"19135","addr:street":"Nytorpsvägen","amenity":"hospital","emergency":"yes","emergency_ward_entrance":"walk-in","entrance":"yes","healthcare":"hospital","name":"Närakut Sollentuna","opening_hours":"Mo-Su 08:00-22:00"}},"geometry":{"type":"Point","coordinates":[17.9539579,59.4308249]}},{"type":"Feature","properties":{"id":12532092342,"osm_type":"node","name":"Närakut Nacka","category":"hospital","tags":{"addr:city":"Nacka","addr:housenumber":"6","addr:postcode":"131 45","addr:street":"Lasarettsvägen","amenity":"hospital","emergency":"yes","healthcare":"hospital","name":"Närakut Nacka","opening_hours":"08:00-22:00","operator":"Capio","operator:type":"private","operator:wikidata":"Q498606"}},"geometry":{"type":"Point","coordinates":[18.1974087,59.3119419]}},{"type":"Feature","properties":{"id":12532092344,"osm_type":"node","name":"Närakut Rosenlund","category":"hospital","tags":{"addr:city":"Stockholm","addr:housenumber":"14","addr:postcode":"118 69","addr:street":"Tideliusgatan","amenity":"hospital","emergency":"yes","healthcare":"hospital","name":"Närakut Rosenlund","opening_hours":"08:00-22:00"}},"geometry":{"type":"Point","coordinates":[18.060897,59.3108967]}},{"type":"Feature","properties":{"id":12532092346,"osm_type":"node","name":"Närakut Järva","category":"hospital","tags":{"addr:city":"Spånga","addr:housenumber":"70","addr:postcode":"16374","addr:street":"Rinkebysvängen","amenity":"hospital","emergency":"yes","healthcare":"hospital","name":"Närakut Järva","opening_hours":"08:00-22:00","operator":"Region Stockholm","operator:type":"government"}},"geometry":{"type":"Point","coordinates":[17.9378369,59.3863217]}},{"type":"Feature","properties":{"id":12532092349,"osm_type":"node","name":"Närakut Danderyd","category":"hospital","tags":{"addr:city":"Danderyd","addr:housenumber":"5","addr:postcode":"182 57","addr:street":"Bäckenvägen","amenity":"hospital","emergency":"yes","healthcare":"hospital","name":"Närakut Danderyd","opening_hours":"08:00-22:00","operator":"Region Stockholm"}},"geometry":{"type":"Point","coordinates":[18.0389553,59.3929817]}},{"type":"Feature","properties":{"id":12585505412,"osm_type":"node","name":"Danderyds sjukhus Gynakut","category":"hospital","tags":{"addr:city":"Danderyd","addr:housenumber":"1","addr:street":"Armbågsvägen","amenity":"hospital","emergency":"yes","healthcare":"hospital","healthcare:speciality":"gynaecology","name":"Danderyds sjukhus Gynakut","opening_hours":"24/7"}},"geometry":{"type":"Point","coordinates":[18.0402762,59.3932042]}},{"type":"Feature","properties":{"id":12585557184,"osm_type":"node","name":"Sankt Görans sjukhus Förlossning","category":"hospital","tags":{"addr:city":"Stockholm","addr:housenumber":"19","addr:street":"Vårdstigen","amenity":"hospital","emergency":"no","healthcare":"hospital","name":"Sankt Görans sjukhus Förlossning","opening_hours":"24/7","operator":"Capio","operator:type":"private","operator:wikidata":"Q498606"}},"geometry":{"type":"Point","coordinates":[18.0209623,59.3345726]}},{"type":"Feature","properties":{"id":13186043880,"osm_type":"node","name":"Sollentuna BUMM Martina","category":"hospital","tags":{"amenity":"hospital","contact:phone":"+46850132700","contact:website":"https://barnsjukhusetmartina.se/bumm/bumm-sollentuna/","healthcare":"hospital","name":"Sollentuna BUMM Martina","opening_hours":"Mo-Fr 08:00-17:00"}},"geometry":{"type":"Point","coordinates":[17.9549775,59.4237834]}},{"type":"Feature","properties":{"id":66342599,"osm_type":"way","name":"Sankt Görans sjukhus","category":"hospital","tags":{"amenity":"hospital","emergency":"yes","health_specialty:emergency_medicine":"yes","health_specialty:family_medicine":"yes","health_specialty:intensive_care_medicine":"yes","health_specialty:orthopaedics":"yes","health_specialty:surgery":"yes","healthcare":"hospital","name":"Sankt Görans sjukhus","name:fi":"Pyhän Yrjön sairaala","opening_hours":"24/7","short_name":"S:t Görans sjukhus","wikidata":"Q7401336","wikimedia_commons":"Category:Sankt Görans sjukhus","wikipedia":"sv:Sankt Görans Sjukhus"}},"geometry":{"type":"Point","coordinates":[18.0206155,59.3342367]}},{"type":"Feature","properties":{"id":126241903,"osm_type":"way","name":"Karolinska universitetssjukhuset","category":"hospital","tags":{"amenity":"hospital","emergency":"yes","emergency:paediatric":"yes","health_specialty:cardiothoracic_surgery":"yes","health_specialty:emergency_medicine":"yes","health_specialty:family_medicine":"yes","health_specialty:intensive_care_medicine":"yes","health_specialty:neurosurgery":"yes","health_specialty:orthopaedics":"yes","health_specialty:paediatric_intensive_care_medicine":"yes","health_specialty:paediatrics":"yes","health_specialty:surgery":"yes","health_specialty:vascular_surgery":"yes","healthcare":"hospital","name":"Karolinska universitetssjukhuset","name:en":"Karolinska University Hospital","name:fi":"Karoliininen yliopistosairaala","name:sv":"Karolinska universitetssjukhuset","opening_hours":"24/7","operator":"Region Stockholm","operator:type":"government","website":"https://www.karolinska.se/","wikidata":"Q1734280","wikimedia_commons":"Category:Karolinska universitetssjukhuset","wikipedia":"sv:Karolinska universitetssjukhuset"}},"geometry":{"type":"Point","coordinates":[18.0335762,59.3509102]}},{"type":"Feature","properties":{"id":150090688,"osm_type":"way","name":"Helix","category":"hospital","tags":{"amenity":"hospital","description:sv":"Rättspsykiatrisk klinik","healthcare":"hospital","name":"Helix"}},"geometry":{"type":"Point","coordinates":[17.9329846,59.2145245]}},{"type":"Feature","properties":{"id":153260921,"osm_type":"way","name":"Södersjukhuset","category":"hospital","tags":{"amenity":"hospital","emergency":"yes","emergency:paediatric":"yes","health_specialty:emergency_medicine":"yes","health_specialty:family_medicine":"yes","health_specialty:intensive_care_medicine":"yes","health_specialty:orthopaedics":"yes","health_specialty:paediatrics":"yes","health_specialty:surgery":"yes","health_specialty:vascular_surgery":"yes","healthcare":"hospital","name":"Södersjukhuset","name:fi":"Eteläsairaala","opening_hours":"24/7","wikidata":"Q1509325","wikipedia":"sv:Södersjukhuset"}},"geometry":{"type":"Point","coordinates":[18.0561223,59.3093022]}},{"type":"Feature","properties":{"id":163286847,"osm_type":"way","name":"Stortorpskliniken","category":"hospital","tags":{"addr:country":"SE","addr:housenumber":"41A","addr:street":"Stortorpsvägen","amenity":"hospital","emergency":"no","name":"Stortorpskliniken"}},"geometry":{"type":"Point","coordinates":[18.1292366,59.2407085]}},{"type":"Feature","properties":{"id":318079499,"osm_type":"way","name":"Sophiahemmet","category":"hospital","tags":{"amenity":"hospital","emergency":"no","healthcare":"hospital","healthcare:speciality":"orthopaedics","name":"Sophiahemmet","website":"https://www.sophiahemmet.se/","wikidata":"Q10673801","wikimedia_commons":"Category:Sophiahemmet","wikipedia":"sv:Sophiahemmet"}},"geometry":{"type":"Point","coordinates":[18.0757318,59.3459479]}},{"type":"Feature","properties":{"id":323566225,"osm_type":"way","name":"Nacka sjukhus","category":"hospital","tags":{"amenity":"hospital","emergency":"yes","health_specialty:orthopaedics":"yes","healthcare":"hospital","name":"Nacka sjukhus","operator":"Aleris","start_date":"1962"}},"geometry":{"type":"Point","coordinates":[18.196309,59.3118793]}},{"type":"Feature","properties":{"id":336708178,"osm_type":"way","name":"Ersta sjukhus","category":"hospital","tags":{"amenity":"hospital","health_specialty:intensive_care_medicine":"yes","healthcare":"hospital","name":"Ersta sjukhus","name:fi":"Erstan sairaala","wheelchair":"yes","wikidata":"Q10488447","wikimedia_commons":"Category:Ersta sjukhus","wikipedia":"sv:Ersta sjukhus"}},"geometry":{"type":"Point","coordinates":[18.091162,59.3164934]}},{"type":"Feature","properties":{"id":361946020,"osm_type":"way","name":"Rosenlunds sjukhus","category":"hospital","tags":{"amenity":"hospital","check_date":"2024-08-15","healthcare":"hospital","name":"Rosenlunds sjukhus","name:fi":"Rosenlundin sairaala","wikidata":"Q10657005","wikipedia":"sv:Rosenlunds sjukhus"}},"geometry":{"type":"Point","coordinates":[18.0618591,59.3106807]}},{"type":"Feature","properties":{"id":392785310,"osm_type":"way","name":"Karolinska universitetssjukhuset Huddinge","category":"hospital","tags":{"amenity":"hospital","check_date":"2025-11-30","emergency":"yes","emergency:paediatric":"yes","health_specialty:emergency_medicine":"yes","health_specialty:family_medicine":"yes","health_specialty:intensive_care_medicine":"yes","health_specialty:orthopaedics":"yes","health_specialty:surgery":"yes","health_specialty:vascular_surgery":"yes","healthcare":"hospital","name":"Karolinska universitetssjukhuset Huddinge","name:fi":"Huddingen karoliininen yliopistosairaala","name:sv":"Karolinska universitetssjukhuset Huddinge","opening_hours":"24/7","operator":"Region Stockholm","operator:type":"public","website":"https://www.karolinska.se/"}},"geometry":{"type":"Point","coordinates":[17.9345567,59.221299]}},{"type":"Feature","properties":{"id":499678529,"osm_type":"way","name":"Stockholms sjukhem","category":"hospital","tags":{"amenity":"hospital","healthcare":"hospital","name":"Stockholms sjukhem","website":"https://www.stockholmssjukhem.se/","wikidata":"Q10680638","wikimedia_commons":"Category:Stockholms sjukhem","wikipedia":"sv:Stockholms sjukhem"}},"geometry":{"type":"Point","coordinates":[18.0255712,59.3327302]}},{"type":"Feature","properties":{"id":503363776,"osm_type":"way","name":"Sophiahemmet","category":"hospital","tags":{"amenity":"hospital","healthcare":"hospital","name":"Sophiahemmet"}},"geometry":{"type":"Point","coordinates":[18.0796173,59.3480943]}},{"type":"Feature","properties":{"id":745152371,"osm_type":"way","name":"Danderyds sjukhus","category":"hospital","tags":{"amenity":"hospital","emergency":"yes","emergency:paediatric":"yes","health_specialty:emergency_medicine":"yes","health_specialty:family_medicine":"yes","health_specialty:intensive_care_medicine":"yes","health_specialty:orthopaedics":"yes","health_specialty:surgery":"yes","healthcare":"hospital","name":"Danderyds sjukhus","opening_hours":"24/7","wheelchair":"yes","wikidata":"Q1439312"}},"geometry":{"type":"Point","coordinates":[18.0374299,59.3915274]}},{"type":"Feature","properties":{"id":759041593,"osm_type":"way","name":"Sollentuna sjukhus","category":"hospital","tags":{"amenity":"hospital","healthcare":"hospital","name":"Sollentuna sjukhus","name:en":"Sollentuna hospital","name:fi":"Sollentunan sairaala","name:sv":"Sollentuna sjukhus"}},"geometry":{"type":"Point","coordinates":[17.9544919,59.4310574]}},{"type":"Feature","properties":{"id":862157372,"osm_type":"way","name":"Lidingö sjukhus","category":"hospital","tags":{"amenity":"hospital","healthcare":"hospital","name":"Lidingö sjukhus","name:en":"Lidingö Hospital","name:fi":"Lidingön sairaala","name:sv":"Lidingö sjukhus"}},"geometry":{"type":"Point","coordinates":[18.1506054,59.3506243]}},{"type":"Feature","properties":{"id":1123858793,"osm_type":"way","name":"Dalens sjukhus","category":"hospital","tags":{"addr:city":"Stockholm","addr:housenumber":"6","addr:postcode":"12131","addr:street":"Åstorpsringen","amenity":"hospital","email":" info.locum@regionstockholm.se","healthcare":"hospital","name":"Dalens sjukhus","phone":" +46 8 12317000","website":"https://www.locum.se/husen/dalens-sjukhus/","wikidata":"Q10466175","wikipedia":"sv:Dalens sjukhus"}},"geometry":{"type":"Point","coordinates":[18.0979506,59.2886347]}},{"type":"Feature","properties":{"id":1354220430,"osm_type":"way","name":"Järva Närsjukhus","category":"hospital","tags":{"addr:city":"Spånga","addr:housenumber":"70A-E","addr:postcode":"16374","addr:street":"Rinkebysvängen","amenity":"hospital","emergency":"yes","healthcare":"hospital","name":"Järva Närsjukhus"}},"geometry":{"type":"Point","coordinates":[17.9377307,59.3864248]}},{"type":"Feature","properties":{"id":2630363,"osm_type":"relation","name":"Handens Närsjukhus","category":"hospital","tags":{"addr:city":"Handen","addr:country":"SE","addr:housenumber":"6","addr:postcode":"136 45","addr:street":"Dalarövägen","amenity":"hospital","building":"yes","healthcare":"hospital","name":"Handens Närsjukhus","operator":"Stockholms Läns Landsting","type":"multipolygon"}},"geometry":{"type":"Point","coordinates":[18.1413107,59.1733824]}},{"type":"Feature","properties":{"id":5754750,"osm_type":"relation","name":"Dalens närsjukhus","category":"hospital","tags":{"alt_name":"Dalens sjukhus","amenity":"hospital","building":"hospital","building:colour":"#9C8479","name":"Dalens närsjukhus","roof:colour":"darkgrey","type":"building"}},"geometry":{"type":"Point","coordinates":[18.0977813,59.2886054]}}]}