{"type":"FeatureCollection","features":[{"type":"Feature","properties":{"id":30049151,"osm_type":"node","name":"Lidingö Stadsbibliotek","category":"library","tags":{"amenity":"library","name":"Lidingö Stadsbibliotek","name:en":"Lidingö Public Library","postal_code":"181 24","website":"https://www.lidingo.se/","wheelchair":"yes"}},"geometry":{"type":"Point","coordinates":[18.1351398,59.3655788]}},{"type":"Feature","properties":{"id":254410497,"osm_type":"node","name":"Luma bibliotek","category":"library","tags":{"amenity":"library","check_date:opening_hours":"2025-07-15","name":"Luma bibliotek","name:fi":"Luman kirjasto","name:sv":"Luma bibliotek","opening_hours":"Tu 12:00-17:00; We 10:00-18:00; Th 10:00-17:00; Su 12:00-16:00; Mo 10:00-17:00","wikidata":"Q61751924"}},"geometry":{"type":"Point","coordinates":[18.0968991,59.3059099]}},{"type":"Feature","properties":{"id":322586878,"osm_type":"node","name":"Kungsholmens bibliotek","category":"library","tags":{"amenity":"library","check_date":"2025-11-08","name":"Kungsholmens bibliotek","website":"https://biblioteket.stockholm.se/bibliotek/kungsholmens-bibliotek-internationella-biblioteket","wikidata":"Q61751911"}},"geometry":{"type":"Point","coordinates":[18.0312912,59.3328759]}},{"type":"Feature","properties":{"id":330276726,"osm_type":"node","name":"Biblioteket i Handen","category":"library","tags":{"amenity":"library","name":"Biblioteket i Handen","url":"http://bibliotek.haninge.se/web/arena/biblioteket-i-handen"}},"geometry":{"type":"Point","coordinates":[18.1401486,59.1673557]}},{"type":"Feature","properties":{"id":365063681,"osm_type":"node","name":"Gribbylunds bibliotek","category":"library","tags":{"amenity":"library","name":"Gribbylunds bibliotek","opening_hours":"Mo 10:00-17:00; We 10:00-17:00; Tu 10:00-19:00; Th 10:00-19:00; Fr 10:00-15:00; Sa 11:00-15:00; PH off","website":"https://bibliotek.taby.se/sv/library-page/gribbylund"}},"geometry":{"type":"Point","coordinates":[18.0916583,59.4628401]}},{"type":"Feature","properties":{"id":370939234,"osm_type":"node","name":"Judiska Biblioteket","category":"library","tags":{"amenity":"library","name":"Judiska Biblioteket","name:en":"The Jewish Library","name:fi":"Juutalainen kirjasto"}},"geometry":{"type":"Point","coordinates":[18.0739876,59.3317121]}},{"type":"Feature","properties":{"id":442052006,"osm_type":"node","name":"Årsta bibliotek","category":"library","tags":{"amenity":"library","check_date":"2026-02-01","internet_access":"wlan","internet_access:fee":"no","name":"Årsta bibliotek","opening_hours":"Temporarly closed.","phone":"+46 8 508 306 91","website":"https://biblioteket.stockholm.se/bibliotek/årsta-bibliotek","wikidata":"Q61751923"}},"geometry":{"type":"Point","coordinates":[18.0515734,59.2973454]}},{"type":"Feature","properties":{"id":446019451,"osm_type":"node","name":"Kista bibliotek","category":"library","tags":{"amenity":"library","check_date":"2025-02-16","contact:facebook":"kistabib","contact:instagram":"kistabibliotek","email":"kista.ssb@stockholm.se","level":"1","name":"Kista bibliotek","opening_hours":"Mo-Su 10:00-20:00","website":"https://biblioteket.stockholm.se/bibliotek/kista-bibliotek","wikidata":"Q61751964"}},"geometry":{"type":"Point","coordinates":[17.9455226,59.4021715]}},{"type":"Feature","properties":{"id":489325022,"osm_type":"node","name":"Gamla Enskede bibliotek","category":"library","tags":{"addr:city":"Enskededalen","addr:country":"SE","addr:housenumber":"10","addr:postcode":"121 31","addr:street":"Dalens allé","amenity":"library","check_date":"2026-06-10","name":"Gamla Enskede bibliotek"}},"geometry":{"type":"Point","coordinates":[18.0943248,59.2853905]}},{"type":"Feature","properties":{"id":496742877,"osm_type":"node","name":"Huddinge huvudbibliotek","category":"library","tags":{"addr:city":"Huddinge","addr:country":"SE","addr:housenumber":"28A","addr:postcode":"141 61","addr:street":"Kommunalvägen","amenity":"library","internet_access":"wlan","internet_access:fee":"no","name":"Huddinge huvudbibliotek","opening_hours":"Mo-We 11:00-19:00; Th, Fr 11:00-18:00; Sa, Su 11:00-15:00","phone":"+46853530500","website":"https://bibliotek.huddinge.se/-/huvudbiblioteket","wheelchair":"limited","wikidata":"Q61751553"}},"geometry":{"type":"Point","coordinates":[17.9886017,59.2390141]}},{"type":"Feature","properties":{"id":497287978,"osm_type":"node","name":"Segeltorps Bibliotek","category":"library","tags":{"amenity":"library","name":"Segeltorps Bibliotek","wikidata":"Q61751902"}},"geometry":{"type":"Point","coordinates":[17.9446481,59.2780788]}},{"type":"Feature","properties":{"id":535184886,"osm_type":"node","name":"Hornstulls bibliotek","category":"library","tags":{"amenity":"library","check_date":"2025-07-30","name":"Hornstulls bibliotek","opening_hours":"Mo-Fr 10:00-18:00; PH,Sa,Su off","wheelchair":"yes","wikidata":"Q61751917"}},"geometry":{"type":"Point","coordinates":[18.0350657,59.3159789]}},{"type":"Feature","properties":{"id":661137996,"osm_type":"node","name":"Farsta Bibliotek","category":"library","tags":{"addr:country":"SE","addr:housenumber":"8","addr:street":"Farstagången","amenity":"library","name":"Farsta Bibliotek","wikidata":"Q61751929"}},"geometry":{"type":"Point","coordinates":[18.0900096,59.2425438]}},{"type":"Feature","properties":{"id":672748864,"osm_type":"node","name":"Gröndals bibliotek","category":"library","tags":{"amenity":"library","check_date":"2026-06-05","name":"Gröndals bibliotek","wheelchair":"yes","wikidata":"Q61751919"}},"geometry":{"type":"Point","coordinates":[18.0121677,59.3161337]}},{"type":"Feature","properties":{"id":773898360,"osm_type":"node","name":"Sollentuna bibliotek","category":"library","tags":{"addr:city":"Sollentuna","addr:country":"SE","addr:housenumber":"1","addr:postcode":"19147","addr:street":"Turebergs torg","amenity":"library","contact:email":"biblioteket@sollentuna.se","contact:phone":"+46857921900","contact:website":"https://www.bibliotekenisollentuna.se","internet_access":"wlan","name":"Sollentuna bibliotek","opening_hours":"Mo-Fr 09:00-19:00; Sa 11:00-16:00; Su 12:00-16:00","operator":"Sollentuna kommun","wheelchair":"yes","wikidata":"Q61751706"}},"geometry":{"type":"Point","coordinates":[17.9499827,59.4295348]}},{"type":"Feature","properties":{"id":846262924,"osm_type":"node","name":"Östberga Bibliotek","category":"library","tags":{"addr:city":"Älvsjö","addr:country":"SE","addr:housenumber":"14","addr:postcode":"125 73","addr:street":"Östbergatorget","amenity":"library","check_date:opening_hours":"2023-09-08","name":"Östberga Bibliotek","opening_hours":"Tu 12:00-17:00; We,Fr 10:00-17:00; Th 12:00-19:00; Su 11:00-15:00","website":"https://biblioteket.stockholm.se/bibliotek/%C3%B6stberga-bibliotek"}},"geometry":{"type":"Point","coordinates":[18.0333779,59.2889595]}},{"type":"Feature","properties":{"id":872588476,"osm_type":"node","name":"Fruängens bibliotek","category":"library","tags":{"amenity":"library","check_date":"2022-07-04","name":"Fruängens bibliotek","wikidata":"Q61751943"}},"geometry":{"type":"Point","coordinates":[17.9654212,59.2856698]}},{"type":"Feature","properties":{"id":916443028,"osm_type":"node","name":"Stocksunds bibliotek","category":"library","tags":{"addr:city":"Stocksund","addr:country":"SE","addr:housenumber":"45","addr:street":"Stockholmsvägen","amenity":"library","name":"Stocksunds bibliotek","operator":"Danderyds kommun","source":"survey","website":"https://www.danderyd.se/","wheelchair":"yes","wikidata":"Q61751851"}},"geometry":{"type":"Point","coordinates":[18.0585575,59.3850505]}},{"type":"Feature","properties":{"id":918589011,"osm_type":"node","name":"Danderyds bibliotek","category":"library","tags":{"addr:city":"Danderyd","addr:housenumber":"4","addr:postcode":"18231","addr:street":"Mörbygårdsvägen","amenity":"library","check_date:opening_hours":"2025-07-16","contact:email":"bibliotek@danderyd.se","contact:phone":"+46856891190","contact:website":"https://bibliotek.danderyd.se/sv/-/danderyds-bibliotek#/?location=Danderyds%20bibliotek","internet_access":"yes","level":"3","name":"Danderyds bibliotek","opening_hours":"Mo,Tu 11:00-19:00; We-Fr 11:00-17:00; Sa,Su off","source":"survey","wheelchair":"yes","wikidata":"Q61751497"}},"geometry":{"type":"Point","coordinates":[18.0365827,59.3972218]}},{"type":"Feature","properties":{"id":965150935,"osm_type":"node","name":"Stockholms universitetsbibliotek","category":"library","tags":{"amenity":"library","contact:phone":"+468162000","contact:website":"https://www.su.se/enheter/stockholms-universitetsbibliotek","name":"Stockholms universitetsbibliotek"}},"geometry":{"type":"Point","coordinates":[18.0608245,59.3637434]}},{"type":"Feature","properties":{"id":1168311354,"osm_type":"node","name":"Täby Bibliotek","category":"library","tags":{"amenity":"library","check_date:opening_hours":"2023-10-04","internet_access":"yes","name":"Täby Bibliotek","opening_hours":"Mo-Th 09:00-20:00; Sa,Su 11:00-16:00; Fr 09:00-18:00","operator":"Täby kommun","source":"survey","toilets:wheelchair":"yes","website":"https://bibliotek.taby.se/","wheelchair":"yes"}},"geometry":{"type":"Point","coordinates":[18.0680836,59.4443388]}},{"type":"Feature","properties":{"id":1225986502,"osm_type":"node","name":"Gubbängens bibliotek","category":"library","tags":{"addr:city":"Enskede","addr:country":"SE","addr:housenumber":"117","addr:place":"Gubbängstorget","amenity":"library","internet_access":"yes","internet_access:fee":"no","name":"Gubbängens bibliotek","opening_hours":"Mo 10:00-17:00; We 10:00-19:00; Th 10:00-17:00; Su 11:00-15:00","payment:cash":"no","wikidata":"Q61751928"}},"geometry":{"type":"Point","coordinates":[18.0841563,59.2623159]}},{"type":"Feature","properties":{"id":1251645075,"osm_type":"node","name":"Edsbergs bibliotek","category":"library","tags":{"addr:city":"Sollentuna","addr:country":"SE","addr:housenumber":"3","addr:postcode":"19252","addr:street":"Edsbergs torg","amenity":"library","contact:email":"arenaedsberg@sollentuna.se","contact:phone":"+46857921900","name":"Edsbergs bibliotek","opening_hours":"Mo-Fr 10:00-18:00"}},"geometry":{"type":"Point","coordinates":[17.9654755,59.4451655]}},{"type":"Feature","properties":{"id":1341701679,"osm_type":"node","name":"Örby bibliotek","category":"library","tags":{"addr:country":"SE","addr:housenumber":"425","addr:street":"Gamla Huddingevägen","amenity":"library","name":"Örby bibliotek","wikidata":"Q61751932"}},"geometry":{"type":"Point","coordinates":[18.0276203,59.2751927]}},{"type":"Feature","properties":{"id":1359457944,"osm_type":"node","name":"Bredängs bibliotek","category":"library","tags":{"addr:city":"SKÄRHOLMEN","addr:country":"SE","addr:housenumber":"20","addr:postcode":"127 32","addr:street":"Bredängstorget","amenity":"library","building":"yes","email":"bredang.ssb@stockholm.se","name":"Bredängs bibliotek","wikidata":"Q61751938"}},"geometry":{"type":"Point","coordinates":[17.9340005,59.2946414]}},{"type":"Feature","properties":{"id":1424158555,"osm_type":"node","name":"University Library","category":"library","tags":{"amenity":"library","name":"University Library","source":"local knowledge","wheelchair":"yes"}},"geometry":{"type":"Point","coordinates":[18.0239918,59.3463837]}},{"type":"Feature","properties":{"id":1439606372,"osm_type":"node","name":"Älvsjö bibliotek","category":"library","tags":{"amenity":"library","internet_access":"yes","name":"Älvsjö bibliotek","wikidata":"Q61751934"}},"geometry":{"type":"Point","coordinates":[18.0078331,59.2781677]}},{"type":"Feature","properties":{"id":1511475796,"osm_type":"node","name":"Brommaplans Bibliotek","category":"library","tags":{"amenity":"library","check_date":"2025-12-06","check_date:opening_hours":"2025-12-06","email":"brommaplan.ssb@stockholm.se","internet_access":"wlan","level":"1","name":"Brommaplans Bibliotek","opening_hours":"Mo,We,Th 10:00-18:00; Tu 12:00-18:00; Fr 10:00-17:00; Sa 11:00-15:00; Su off","operator":"Stockholms stadsbibliotek","phone":"+46 8 508 306 51","website":"https://biblioteket.stockholm.se/bibliotek/brommaplans-bibliotek","wikidata":"Q61751957"}},"geometry":{"type":"Point","coordinates":[17.9401533,59.3387884]}},{"type":"Feature","properties":{"id":1534816078,"osm_type":"node","name":"Telefonplans bibliotek","category":"library","tags":{"amenity":"library","name":"Telefonplans bibliotek","wikidata":"Q61751935"}},"geometry":{"type":"Point","coordinates":[17.9966603,59.2989246]}},{"type":"Feature","properties":{"id":1609413517,"osm_type":"node","name":"Björkhagens bibliotek","category":"library","tags":{"amenity":"library","name":"Björkhagens bibliotek","wikidata":"Q61751925"}},"geometry":{"type":"Point","coordinates":[18.1167275,59.2907438]}},{"type":"Feature","properties":{"id":1713396522,"osm_type":"node","name":"Östermalms bibliotek","category":"library","tags":{"amenity":"library","check_date":"2025-11-17","contact:website":"https://biblioteket.stockholm.se/bibliotek/ostermalms-bibliotek/","layer":"1","name":"Östermalms bibliotek","source":"survey","wikidata":"Q61751905"}},"geometry":{"type":"Point","coordinates":[18.09168,59.3401133]}},{"type":"Feature","properties":{"id":1771133445,"osm_type":"node","name":"Riksdagsbiblioteket","category":"library","tags":{"amenity":"library","check_date":"2026-05-05","contact:website":"https://www.riksdagen.se/sv/kontakt-och-besok/riksdagsbiblioteket/","internet_access":"wlan","name":"Riksdagsbiblioteket","opening_hours":"Mo-Th 10:00-18:00; Fr 10:00-15:00; PH closed","wikidata":"Q10655174","wikipedia":"sv:Riksdagsbiblioteket, Stockholm"}},"geometry":{"type":"Point","coordinates":[18.068368,59.3256642]}},{"type":"Feature","properties":{"id":1879690759,"osm_type":"node","name":"Aspuddens bibliotek","category":"library","tags":{"amenity":"library","check_date":"2023-08-05","name":"Aspuddens bibliotek","opening_hours":"Mo 12:00-19:00; Tu 12:00-17:00; We 12:00-19:00; Th 10:00-17:00; Fr 10:00-17:00; Sa 11:00-15:00","opening_hours:url":"https://m.biblioteket.stockholm.se/b/node/5/oppettider","wikidata":"Q61751936"}},"geometry":{"type":"Point","coordinates":[18.0015478,59.3054669]}},{"type":"Feature","properties":{"id":1958044241,"osm_type":"node","name":"Hallonbergens bibliotek","category":"library","tags":{"addr:city":"Sundbyberg","addr:country":"SE","addr:housenumber":"7","addr:postcode":"174 52","addr:street":"Hallonbergsplan","amenity":"library","check_date":"2025-02-15","contact:email":"hallonbergens.bibliotek@sundbyberg.se","contact:phone":"+4687068470","name":"Hallonbergens bibliotek","opening_hours":"Mo 11:00-19:00, Tu 11:00-17:00, We 11:00-19:00, Th 11:00-16:00, Fr 11:00-17:00, Sa 11:00-15:00","website":"https://bibliotek.sundbyberg.se/hallonbergen?refid=100065","wikidata":"Q61751971"}},"geometry":{"type":"Point","coordinates":[17.9683662,59.3754396]}},{"type":"Feature","properties":{"id":1969448638,"osm_type":"node","name":"Skarpnäcks gårds bibliotek","category":"library","tags":{"amenity":"library","name":"Skarpnäcks gårds bibliotek","opening_hours":"Mo 11:00-19:00; Tu 12:00-17:00; We 10:00-19:00; Th 10:00-17:00; Sa 10:00-15:00","wheelchair":"yes"}},"geometry":{"type":"Point","coordinates":[18.1287348,59.2677831]}},{"type":"Feature","properties":{"id":2102545119,"osm_type":"node","name":"Högdalens bibliotek","category":"library","tags":{"addr:city":"Bandhagen","addr:country":"SE","addr:housenumber":"10","addr:postcode":"124 54","addr:street":"Högdalsgången","amenity":"library","email":"hogdalen.ssb@stockholm.se","name":"Högdalens bibliotek","opening_hours":"Sa,Su 11:00-15:00; Mo,We,Th 10:00-19:00; Tu 12:00-19:00; Fr 10:00-18:00","phone":"+46850830760","toilets:wheelchair":"yes","website":"https://biblioteket.stockholm.se/bibliotek/h%C3%B6gdalens-bibliotek","wheelchair":"yes","wikidata":"Q61751931"}},"geometry":{"type":"Point","coordinates":[18.0425697,59.2634611]}},{"type":"Feature","properties":{"id":2145200035,"osm_type":"node","name":"Geobiblioteket","category":"library","tags":{"amenity":"library","name":"Geobiblioteket","opening_hours":"Mo-Th 09:00-17:00; Fr 09:00-16:00","operator":"Stockholms universitetsbibliotek"}},"geometry":{"type":"Point","coordinates":[18.0571998,59.3653591]}},{"type":"Feature","properties":{"id":2201923101,"osm_type":"node","name":"Hägernäs bibliotek","category":"library","tags":{"amenity":"library","name":"Hägernäs bibliotek","website":"https://bibliotek.taby.se/hagernas","wikidata":"Q61751976"}},"geometry":{"type":"Point","coordinates":[18.1238435,59.448236]}},{"type":"Feature","properties":{"id":2367678720,"osm_type":"node","name":"Asienbiblioteket","category":"library","tags":{"amenity":"library","name":"Asienbiblioteket","opening_hours":"Mo-Fr 12:00-16:00; PH closed"}},"geometry":{"type":"Point","coordinates":[18.0520909,59.3569159]}},{"type":"Feature","properties":{"id":2470817631,"osm_type":"node","name":"Nacka Forum bibliotek","category":"library","tags":{"addr:city":"Nacka","addr:country":"SE","addr:housenumber":"189","addr:postcode":"131 53","addr:street":"Värmdövägen","amenity":"library","level":"0","name":"Nacka Forum bibliotek","toilets":"yes","wikidata":"Q61751661"}},"geometry":{"type":"Point","coordinates":[18.1648188,59.3088242]}},{"type":"Feature","properties":{"id":2475509364,"osm_type":"node","name":"Sundbybergs bibliotek","category":"library","tags":{"addr:city":"Sundbyberg","addr:country":"SE","addr:housenumber":"10","addr:postcode":"172 67","addr:street":"Esplanaden","amenity":"library","check_date":"2026-01-10","name":"Sundbybergs bibliotek","phone":"+4687068480","website":"https://bibliotek.sundbyberg.se/-/signalfabriken"}},"geometry":{"type":"Point","coordinates":[17.965526,59.362532]}},{"type":"Feature","properties":{"id":2543090055,"osm_type":"node","name":"Solna stadsbibliotek","category":"library","tags":{"addr:city":"Solna","addr:country":"SE","addr:housenumber":"12","addr:postcode":"17145","addr:street":"Bibliotekstorget","alt_name":"Solna bibliotek","amenity":"library","check_date":"2023-04-15","email":"stadsbiblioteket@solna.se","level":"0","name":"Solna stadsbibliotek","name:fi":"Solnan kaupunginkirjasto","name:sv":"Solna stadsbibliotek","opening_hours":"Mo-Th 10:00-19:00; Fr 10:00-18:00; Sa 11:00-16:00; Su,PH off","phone":"+46 8 746 19 00","website":"https://bibliotek.solna.se/","wheelchair":"yes","wikidata":"Q61751708"}},"geometry":{"type":"Point","coordinates":[18.0014895,59.3597727]}},{"type":"Feature","properties":{"id":2571793078,"osm_type":"node","name":"Alviks Bibliotek","category":"library","tags":{"amenity":"library","name":"Alviks Bibliotek","wikidata":"Q61751967"}},"geometry":{"type":"Point","coordinates":[17.9823693,59.3327618]}},{"type":"Feature","properties":{"id":3105317837,"osm_type":"node","name":"Arena Rotebro","category":"library","tags":{"amenity":"library","name":"Arena Rotebro","operator":"Sollentuna Kommun","wikidata":"Q61751985"}},"geometry":{"type":"Point","coordinates":[17.9113642,59.4766536]}},{"type":"Feature","properties":{"id":3114543110,"osm_type":"node","name":"Sköndals Bibliotek","category":"library","tags":{"amenity":"library","name":"Sköndals Bibliotek","opening_hours":"Mo 12:00-19:00; Tu,Fr,Su off; We,Th 10:00-17:00; Sa 11:00-15:00","url":"https://biblioteket.stockholm.se/bibliotek/sk%C3%B6ndals-bibliotek","wikidata":"Q61751940"}},"geometry":{"type":"Point","coordinates":[18.1146795,59.2556629]}},{"type":"Feature","properties":{"id":3783610703,"osm_type":"node","name":"Tranströmers bibliotek","category":"library","tags":{"addr:housenumber":"54","addr:street":"Götgatan","amenity":"library","check_date":"2025-07-29","check_date:opening_hours":"2025-07-29","contact:website":"https://biblioteket.stockholm.se/bibliotek/transtromerbiblioteket","name":"Tranströmers bibliotek","opening_hours":"Fr-Su 10:00-17:00; Mo-Th 10:00-20:00","operator":"Stockholms stad","operator:type":"public","wheelchair":"yes"}},"geometry":{"type":"Point","coordinates":[18.0729301,59.3145793]}},{"type":"Feature","properties":{"id":3789877324,"osm_type":"node","name":"Skogås bibliotek","category":"library","tags":{"amenity":"library","name":"Skogås bibliotek","opening_hours":"Mo-We 10:00-19:00; Th 11:00-19:00; Fr 11:00-17:00; Sa 11:00-15:00","wikidata":"Q61751867"}},"geometry":{"type":"Point","coordinates":[18.15259,59.2177555]}},{"type":"Feature","properties":{"id":3876645347,"osm_type":"node","name":"Brandbergens bibliotek","category":"library","tags":{"amenity":"library","name":"Brandbergens bibliotek"}},"geometry":{"type":"Point","coordinates":[18.1709173,59.1721477]}},{"type":"Feature","properties":{"id":4092284328,"osm_type":"node","name":"Hagsätra bibliotek","category":"library","tags":{"addr:city":"Bandhagen","addr:country":"SE","addr:housenumber":"32","addr:postcode":"124 73","addr:street":"Hagsätra torg","amenity":"library","internet_access":"yes","internet_access:fee":"no","name":"Hagsätra bibliotek","opening_hours":"We 12:00-19:00; Th, Fr 10:00-17:00; Su 11:00-15:00","operator":"Stockholms stad","operator:type":"public","payment:cards":"yes","payment:cash":"yes","website":"https://biblioteket.stockholm.se/bibliotek/hags%C3%A4tra-bibliotek","wikidata":"Q61752014"}},"geometry":{"type":"Point","coordinates":[18.0145428,59.2619071]}},{"type":"Feature","properties":{"id":4140924945,"osm_type":"node","name":"","category":"library","tags":{"amenity":"library"}},"geometry":{"type":"Point","coordinates":[18.1325977,59.2277483]}},{"type":"Feature","properties":{"id":4197738495,"osm_type":"node","name":"Rinkeby bibliotek","category":"library","tags":{"addr:city":"Spånga","addr:country":"SE","addr:housenumber":"1","addr:postcode":"163 72","addr:street":"Skårbygränd","amenity":"library","name":"Rinkeby bibliotek","operator":"Stockholms stad","wikidata":"Q61751960"}},"geometry":{"type":"Point","coordinates":[17.9270669,59.3887486]}},{"type":"Feature","properties":{"id":5506544151,"osm_type":"node","name":"Flemingsbergs Bibliotek","category":"library","tags":{"addr:city":"Huddinge","addr:country":"SE","addr:housenumber":"17","addr:street":"Röntgenvägen","amenity":"library","name":"Flemingsbergs Bibliotek","operator":"Huddinge kommun","wikidata":"Q61751880"}},"geometry":{"type":"Point","coordinates":[17.9396134,59.2232873]}},{"type":"Feature","properties":{"id":5536645382,"osm_type":"node","name":"Goethe Institut","category":"library","tags":{"addr:city":"Stockholm","addr:country":"SE","addr:housenumber":"12a","addr:postcode":"111 21","addr:street":"Bryggargatan","amenity":"library","check_date":"2024-04-27","name":"Goethe Institut","website":"https://www.goethe.de/ins/se/de/index.html","wikidata":"Q85727082"}},"geometry":{"type":"Point","coordinates":[18.0587865,59.3329273]}},{"type":"Feature","properties":{"id":6071011007,"osm_type":"node","name":"ArkDes bibliotek","category":"library","tags":{"amenity":"library","check_date":"2025-12-13","name":"ArkDes bibliotek","website":"https://arkdes.se/bibliotek-samlingar/"}},"geometry":{"type":"Point","coordinates":[18.0855167,59.3256971]}},{"type":"Feature","properties":{"id":7124705731,"osm_type":"node","name":"Dieselverkstadens bibliotek","category":"library","tags":{"addr:city":"Nacka","addr:country":"SE","addr:housenumber":"17","addr:postcode":"131 54","addr:street":"Marcusplatsen","amenity":"library","internet_access":"yes","internet_access:fee":"no","internet_access:ssid":"Dvbib_Internet","name":"Dieselverkstadens bibliotek","opening_hours":"Mo-Fr 10:00-19:00; Sa 10:00-17:00; Su 11:00-16:00","website":"https://dvbib.se/"}},"geometry":{"type":"Point","coordinates":[18.1206719,59.3052366]}},{"type":"Feature","properties":{"id":8281518671,"osm_type":"node","name":"Norra Djurgårdsstadens bibliotek","category":"library","tags":{"amenity":"library","check_date":"2025-11-11","name":"Norra Djurgårdsstadens bibliotek","opening_hours":"MÅNDAG 12:00 - 19:00  TISDAG Stängt  ONSDAG 10:00 - 17:00  TORSDAG 10:00 - 17:00  FREDAG 10:00 - 17:00  LÖRDAG Stängt  SÖNDAG 11:00 - 15:00","website":"https://biblioteket.stockholm.se/bibliotek/norra-djurg%C3%A5rdsstadens-bibliotek"}},"geometry":{"type":"Point","coordinates":[18.095076,59.3595636]}},{"type":"Feature","properties":{"id":9382055722,"osm_type":"node","name":"Kulturbiblioteket","category":"library","tags":{"amenity":"library","check_date":"2024-08-23","name":"Kulturbiblioteket","opening_hours":"Mo-Fr 11:00-19:30; Sa-Su 11:00-17:00","website":"https://biblioteket.stockholm.se/bibliotek/kulturbiblioteket"}},"geometry":{"type":"Point","coordinates":[18.0646296,59.3319025]}},{"type":"Feature","properties":{"id":10027773352,"osm_type":"node","name":"Ulriksdalsskolans bibliotek","category":"library","tags":{"amenity":"library","email":"ulriksdalsskolan.biblioteket@solna.se","name":"Ulriksdalsskolans bibliotek","opening_hours":"Mo, Th 14:00-17:00","phone":"+46 8 746 15 00","website":"https://bibliotek.solna.se/-/ulriksdalsskolans-bibliotek","wheelchair":"yes","wikidata":"Q61753168"}},"geometry":{"type":"Point","coordinates":[18.00318,59.3808707]}},{"type":"Feature","properties":{"id":10814435438,"osm_type":"node","name":"Stadsbiblioteket Spelbomskan","category":"library","tags":{"amenity":"library","name":"Stadsbiblioteket Spelbomskan","opening_hours":"Mo,We-Fr 10:00-18:00; Tu 12:00-18:00; Sa,Su 11:00-15:00"}},"geometry":{"type":"Point","coordinates":[18.0534864,59.3432718]}},{"type":"Feature","properties":{"id":11149721144,"osm_type":"node","name":"Biblioteket i Vega","category":"library","tags":{"amenity":"library","name":"Biblioteket i Vega","opening_hours":"Mo 09:00-17:00; Tu 09:00-20:00; We,Th 09:00-17:00; Fr 09:00-20:00; Sa 11:00-15:00; Su off","operator":"Haninge kommun","operator:type":"public","website":"https://bibliotek.haninge.se/web/arena/biblioteket-i-vega"}},"geometry":{"type":"Point","coordinates":[18.1338259,59.185119]}},{"type":"Feature","properties":{"id":11583945917,"osm_type":"node","name":"Konstfack bibliotek","category":"library","tags":{"amenity":"library","name":"Konstfack bibliotek"}},"geometry":{"type":"Point","coordinates":[17.9941863,59.2998873]}},{"type":"Feature","properties":{"id":11907726880,"osm_type":"node","name":"Bagarmossens bibliotek","category":"library","tags":{"amenity":"library","name":"Bagarmossens bibliotek","opening_hours":"Mo,We,Th 10:00-18:00; Tu 12:00-18:00; Fr 10:00-17:00; Sa 11:00-15:00; Su off","wikidata":"Q61751942"}},"geometry":{"type":"Point","coordinates":[18.1328626,59.277127]}},{"type":"Feature","properties":{"id":11915842923,"osm_type":"node","name":"Vitterhetsakademiens bibliotek","category":"library","tags":{"amenity":"library","check_date":"2024-05-18","name":"Vitterhetsakademiens bibliotek"}},"geometry":{"type":"Point","coordinates":[18.0909121,59.3336671]}},{"type":"Feature","properties":{"id":12006134980,"osm_type":"node","name":"Stockholm Stad","category":"library","tags":{"amenity":"library","name":"Stockholm Stad"}},"geometry":{"type":"Point","coordinates":[17.9258706,59.4090332]}},{"type":"Feature","properties":{"id":12151260008,"osm_type":"node","name":"Anna Lindh-biblioteket","category":"library","tags":{"amenity":"library","name":"Anna Lindh-biblioteket","name:en":"Anna Lindh Library","name:sv":"Anna Lindh-biblioteket","opening_hours":"Tu 11:30-17:00; We,Th 09:00-17:00; Fr 09:00-15:00","operator":"Försvarshögskolan","operator:type":"government","wikidata":"Q10412355"}},"geometry":{"type":"Point","coordinates":[18.0690428,59.3490171]}},{"type":"Feature","properties":{"id":12723562849,"osm_type":"node","name":"Flemingsbergs bibliotek","category":"library","tags":{"amenity":"library","internet_access":"wlan","internet_access:fee":"no","name":"Flemingsbergs bibliotek","opening_hours":"Mo,We 11:00-19:00; Tu,Th,Fr 11:00-17:00","toilets":"yes","toilets:access":"yes","toilets:wheelchair":"designated"}},"geometry":{"type":"Point","coordinates":[17.9495178,59.2189281]}},{"type":"Feature","properties":{"id":12856433113,"osm_type":"node","name":"Biblioteket i Tyresö centrum","category":"library","tags":{"addr:city":"Tyresö","addr:housenumber":"7","addr:postcode":"135 21","addr:street":"Östangränd","amenity":"library","email":"biblioteket@tyreso.se","internet_access":"yes","internet_access:fee":"no","level":"1","name":"Biblioteket i Tyresö centrum","opening_hours":"Mo-Th 09:00-19:00; Fr 09:00-18:00; Sa,Su 11:00-15:00; PH off","operator":"Tyresö bibliotek","operator:type":"public","phone":"+46 8 578 294 00","wikidata":"Q61751741"}},"geometry":{"type":"Point","coordinates":[18.2288111,59.2451069]}},{"type":"Feature","properties":{"id":13006329107,"osm_type":"node","name":"","category":"library","tags":{"amenity":"library","check_date":"2025-07-17","opening_hours":"Mo-Fr 09:00-14:00; Sa-Su off","website":"https://www.karolinska.se/vard/patient-och-besokare/kontakta-oss/service-pa-sjukhuset/biblioteken-for-patienter-och-anhoriga/"}},"geometry":{"type":"Point","coordinates":[18.029569,59.3485914]}},{"type":"Feature","properties":{"id":15803083,"osm_type":"way","name":"Kungliga biblioteket","category":"library","tags":{"amenity":"library","architect":"Frans Gustaf Abraham Dahl","architect:wikidata":"Q5479115","building":"civic","building:architecture":"neo-renaissance","building:colour":"#DBD4A7","building:levels":"3","description":"Copy of all Swedish books since 1661. Evening events.","email":"kungl.biblioteket@kb.se","heritage":"2","heritage:operator":"raa","heritage:website":"https://bebyggelseregistret.raa.se/bbr2/byggnad/visaHistorik.raa?byggnadId=21400000308227&page=historik","name":"Kungliga biblioteket","name:de":"Königliche Bibliothek","name:en":"National Library of Sweden","name:fi":"Kansalliskirjasto","name:sv":"Kungliga biblioteket","opening_hours":"Mo-Th 09:00-19:00; Fr 09:00-18:00; Sa 11:00-15:00","phone":"+46 10 709 30 00","roof:colour":"#506078","short_name":"KB","website":"https://www.kb.se/","wikidata":"Q953058","wikipedia":"sv:Kungliga biblioteket","year_of_construction":"1865 - 1878"}},"geometry":{"type":"Point","coordinates":[18.0721604,59.3382749]}},{"type":"Feature","properties":{"id":20683064,"osm_type":"way","name":"KTH: Biblioteket","category":"library","tags":{"amenity":"library","building":"public","building:levels":"3","email":"ask-kthb@kth.se","internet_access":"wlan","internet_access:fee":"no","internet_access:ssid":"KTHOPEN","name":"KTH: Biblioteket","name:en":"KTH: Library","name:fi":"KTH: Kirjasto","name:short":"KTHB","name:sv":"KTH: Biblioteket","opening_hours":"Mo-Th 09:00-21:00; Fr 09:00-19:00; Sa 10:00-16:00","phone":"+46 8 790 70 88","ref":"43:6","source":"Bing","website":"https://www.kth.se/kthb","wheelchair":"yes","wikidata":"Q10550226","wikimedia_commons":"Category:Kungliga Tekniska högskolans bibliotek","wikipedia":"sv:Kungliga Tekniska högskolans bibliotek"}},"geometry":{"type":"Point","coordinates":[18.0721953,59.3478866]}},{"type":"Feature","properties":{"id":26606374,"osm_type":"way","name":"Haninge kulturhus","category":"library","tags":{"amenity":"library","building":"yes","name":"Haninge kulturhus","wikidata":"Q10517248","wikipedia":"sv:Haninge kulturhus"}},"geometry":{"type":"Point","coordinates":[18.139934,59.1672728]}},{"type":"Feature","properties":{"id":31990167,"osm_type":"way","name":"Stockholms stadsbibliotek","category":"library","tags":{"amenity":"library","building":"public","building:levels":"3","building:material":"brick","building:parts":"horizontal","check_date":"2025-08-08","check_date:opening_hours":"2024-09-17","email":"kundtjanst.ssb@stockholm.se","name":"Stockholms stadsbibliotek","name:en":"Stockholm Public Library","name:fi":"Tukholman kaupunginkirjasto","name:sv":"Stockholms stadsbibliotek","opening_hours":"closed || \"closed until 2027 due to renovations\"","roof:colour":"#6c646c","roof:levels":"1","roof:shape":"flat","website":"https://biblioteket.stockholm.se/","wheelchair":"yes","wikidata":"Q1246991","wikimedia_commons":"Category:Stockholm Public Library","wikipedia":"sv:Stockholms stadsbibliotek"}},"geometry":{"type":"Point","coordinates":[18.0547555,59.3433499]}},{"type":"Feature","properties":{"id":33038274,"osm_type":"way","name":"Bergshamra bibliotek","category":"library","tags":{"amenity":"library","building":"yes","building:levels":"1","check_date":"2024-10-26","email":"bergshamra.biblioteket@solna.se","name":"Bergshamra bibliotek","source":"Yahoo","website":"https://bibliotek.solna.se/sv/library-page/bergshamra"}},"geometry":{"type":"Point","coordinates":[18.0349751,59.3810922]}},{"type":"Feature","properties":{"id":78195013,"osm_type":"way","name":"Djursholms Bibliotek","category":"library","tags":{"addr:city":"Djursholm","addr:housenumber":"7","addr:street":"Vendevägen","amenity":"library","building":"yes","name":"Djursholms Bibliotek","operator":"Danderyds kommun","phone":"+46856891192","source":"Yahoo;survey","wikidata":"Q61751849"}},"geometry":{"type":"Point","coordinates":[18.0893266,59.3970712]}},{"type":"Feature","properties":{"id":80159491,"osm_type":"way","name":"Frescatibiblioteket","category":"library","tags":{"alt_name":"SUB","amenity":"library","building":"university","name":"Frescatibiblioteket","opening_hours":"Mo-Th 08:00-21:30; Fr 08:00-18:00; Sa-Su 08:00-17:00","operator":"Stockholms universitetsbibliotek","roof:colour":"lightgray","start_date":"1983","wikidata":"Q10680674","wikipedia":"sv:Stockholms universitetsbibliotek"}},"geometry":{"type":"Point","coordinates":[18.0611049,59.3636368]}},{"type":"Feature","properties":{"id":102577801,"osm_type":"way","name":"Södertörns bibliotek","category":"library","tags":{"amenity":"library","building":"yes","building:levels":"4","check_date":"2025-09-09","check_date:opening_hours":"2025-09-09","name":"Södertörns bibliotek","name:fi":"Södertörnin kirjasto","name:sv":"Södertörns bibliotek","opening_hours":"Mo-Fr 08:30-16:30","wheelchair":"yes"}},"geometry":{"type":"Point","coordinates":[17.941315,59.2189716]}},{"type":"Feature","properties":{"id":121204569,"osm_type":"way","name":"Trollbäckens Bibliotek","category":"library","tags":{"amenity":"library","building":"yes","name":"Trollbäckens Bibliotek"}},"geometry":{"type":"Point","coordinates":[18.2043241,59.2219728]}}]}