{"type":"FeatureCollection","features":[{"type":"Feature","properties":{"id":332572922,"osm_type":"node","name":"Västermalmsgallerian","category":"mall","tags":{"contact:website":"https://www.vastermalmsgallerian.se","name":"Västermalmsgallerian","shop":"mall","wikidata":"Q10717989","wikimedia_commons":"Category:Västermalmsgallerian","wikipedia":"sv:Västermalmsgallerian"}},"geometry":{"type":"Point","coordinates":[18.032221,59.3347412]}},{"type":"Feature","properties":{"id":490185958,"osm_type":"node","name":"Skrapan","category":"mall","tags":{"map":"http://skrapan.se/wp-content/uploads/Infokarta_medbutiker_stor.jpg","name":"Skrapan","opening_hours":"Mo-Fr 10:00-19:00; Sa 11:00-18:00; Su 12:00-17:00","shop":"mall","toilets":"yes","website":"https://skrapan.se/","wheelchair":"yes"}},"geometry":{"type":"Point","coordinates":[18.0736783,59.3121123]}},{"type":"Feature","properties":{"id":3221643022,"osm_type":"node","name":"Hötorgshallen","category":"mall","tags":{"check_date":"2024-02-10","description:en":"Two floors of food shops, cafés & fast food.","name":"Hötorgshallen","name:fi":"Heinätorin kauppahalli","name:ru":"Хёторгсхаллен продуктовый рынок","name:sv":"Hötorgshallen","opening_hours":"Mo-Th 10:00-18:00; Fr 10:00-19:00; Sa 10:00-17:00; Su off","shop":"mall","source":"survey","toilets":"yes","website":"https://hotorgshallen.se","wikidata":"Q1112984","wikimedia_commons":"Category:Hötorgshallen","wikipedia":"sv:Hötorgshallen"}},"geometry":{"type":"Point","coordinates":[18.0625353,59.3342773]}},{"type":"Feature","properties":{"id":9274908596,"osm_type":"node","name":"Ringen Centrum","category":"mall","tags":{"name":"Ringen Centrum","operator":"AMF Fastigheter","shop":"mall","website":"https://www.ringencentrum.se/"}},"geometry":{"type":"Point","coordinates":[18.0750691,59.3083885]}},{"type":"Feature","properties":{"id":9516235774,"osm_type":"node","name":"Kvarnholmens centrum","category":"mall","tags":{"name":"Kvarnholmens centrum","shop":"mall"}},"geometry":{"type":"Point","coordinates":[18.1396902,59.3163535]}},{"type":"Feature","properties":{"id":4693665,"osm_type":"way","name":"PUB","category":"mall","tags":{"building":"retail","building:colour":"#EAB59E","building:levels":"5","name":"PUB","roof:colour":"MediumAquamarine","roof:levels":"1","roof:shape":"gabled","shop":"mall","start_date":"1916","wikidata":"Q751963","wikimedia_commons":"Category:PUB","wikipedia":"sv:Pub (varuhus)"}},"geometry":{"type":"Point","coordinates":[18.0612394,59.3346109]}},{"type":"Feature","properties":{"id":6616471,"osm_type":"way","name":"Stinsen","category":"mall","tags":{"addr:city":"Sollentuna","addr:country":"SE","addr:housenumber":"10 -14","addr:postcode":"19162","addr:street":"Glimmervägen","alt_name":"Stinsen Köpcenter","building":"retail","building:levels":"2","name":"Stinsen","shop":"mall","wikidata":"Q10680212","wikipedia":"sv:Stinsen"}},"geometry":{"type":"Point","coordinates":[17.9383675,59.4367244]}},{"type":"Feature","properties":{"id":8117116,"osm_type":"way","name":"Port 73","category":"mall","tags":{"building":"retail","name":"Port 73","opening_hours":"Mo-Fr 10:00-20:00; Sa,Su 10:00-18:00","shop":"mall","toilets":"yes"}},"geometry":{"type":"Point","coordinates":[18.149825,59.1793232]}},{"type":"Feature","properties":{"id":10507357,"osm_type":"way","name":"Mörby centrum","category":"mall","tags":{"building":"retail","building:levels":"5","changing_table":"yes","check_date:opening_hours":"2025-08-05","name":"Mörby centrum","opening_hours":"Mo-Fr 10:00-19:00; Sa 10:00-17:00; Su 11:00-17:00","shop":"mall","toilets":"yes","website":"https://morbycentrum.se/","wheelchair":"yes"}},"geometry":{"type":"Point","coordinates":[18.036491,59.3978647]}},{"type":"Feature","properties":{"id":11634348,"osm_type":"way","name":"Hallonbergen centrum","category":"mall","tags":{"building":"retail","name":"Hallonbergen centrum","shop":"mall"}},"geometry":{"type":"Point","coordinates":[17.9691144,59.3753291]}},{"type":"Feature","properties":{"id":17957934,"osm_type":"way","name":"","category":"mall","tags":{"addr:country":"SE","addr:housenumber":"4","addr:street":"Diagonalvägen","building":"yes","shop":"mall"}},"geometry":{"type":"Point","coordinates":[17.9237962,59.2662721]}},{"type":"Feature","properties":{"id":17964442,"osm_type":"way","name":"Livli Kungens Kurva","category":"mall","tags":{"building":"retail","name":"Livli Kungens Kurva","opening_hours":"Mo-Fr 10:00-20:00; Sa-Su 10:00-18:00","shop":"mall","website":"https://www.livli.eu/kungenskurva/sv"}},"geometry":{"type":"Point","coordinates":[17.9173884,59.269427]}},{"type":"Feature","properties":{"id":17984976,"osm_type":"way","name":"Heron City","category":"mall","tags":{"building":"retail","building:levels":"7","name":"Heron City","roof:colour":"gray","shop":"mall","wheelchair":"yes","wikidata":"Q16354557","wikipedia":"sv:Heron City"}},"geometry":{"type":"Point","coordinates":[17.9100837,59.2671603]}},{"type":"Feature","properties":{"id":19093790,"osm_type":"way","name":"Fältöversten","category":"mall","tags":{"building":"retail","building:levels":"1","level":"0","name":"Fältöversten","shop":"mall","start_date":"1973","toilets":"yes","wheelchair":"yes","wikidata":"Q10500756","wikimedia_commons":"Category:Fältöversten","wikipedia":"sv:Fältöversten"}},"geometry":{"type":"Point","coordinates":[18.0918163,59.3397066]}},{"type":"Feature","properties":{"id":24679635,"osm_type":"way","name":"Sollentuna Centrum","category":"mall","tags":{"addr:city":"Sollentuna","addr:country":"SE","addr:housenumber":"163C","addr:postcode":"19147","addr:street":"Sollentunavägen","building":"retail","building:levels":"4","layer":"4","name":"Sollentuna Centrum","opening_hours":"Mo-Fr 10:00-20:00; Sa-Su 10:00-18:00","phone":"+4686233370","shop":"mall","toilets":"yes","toilets:access":"yes","website":"https://sollentunacentrum.se","wheelchair":"yes","wikidata":"Q10673267","wikipedia":"sv:Sollentuna centrum"}},"geometry":{"type":"Point","coordinates":[17.9514256,59.4282068]}},{"type":"Feature","properties":{"id":26439736,"osm_type":"way","name":"Flemingsberg centrum","category":"mall","tags":{"building":"retail","name":"Flemingsberg centrum","roof:colour":"black","shop":"mall"}},"geometry":{"type":"Point","coordinates":[17.9396219,59.2229359]}},{"type":"Feature","properties":{"id":27062838,"osm_type":"way","name":"","category":"mall","tags":{"building":"yes","shop":"mall","source":"yahoo_imagery"}},"geometry":{"type":"Point","coordinates":[18.128293,59.1980244]}},{"type":"Feature","properties":{"id":30002060,"osm_type":"way","name":"Haninge centrum","category":"mall","tags":{"building":"yes","name":"Haninge centrum","opening_hours":"Mo-Fr 10:00-19:00; Sa 10:00-18:00; Su 11:00-17:00","shop":"mall","toilets":"yes","wheelchair":"yes","wikidata":"Q10517239","wikipedia":"sv:Haninge Centrum"}},"geometry":{"type":"Point","coordinates":[18.1404489,59.1693582]}},{"type":"Feature","properties":{"id":30225379,"osm_type":"way","name":"Bromma Blocks","category":"mall","tags":{"building":"retail","name":"Bromma Blocks","shop":"mall"}},"geometry":{"type":"Point","coordinates":[17.9559708,59.3555184]}},{"type":"Feature","properties":{"id":35312094,"osm_type":"way","name":"Fruängens Centrum","category":"mall","tags":{"building":"yes","name":"Fruängens Centrum","shop":"mall","wikidata":"Q95475980","wikipedia":"sv:Fruängen"}},"geometry":{"type":"Point","coordinates":[17.9641378,59.2857198]}},{"type":"Feature","properties":{"id":35444074,"osm_type":"way","name":"Skogås Centrum","category":"mall","tags":{"addr:city":"Skogås","addr:country":"SE","addr:housenumber":"9","addr:postcode":"14230","addr:street":"Skogåsplan","building":"yes","name":"Skogås Centrum","shop":"mall","source":"yahoo_imagery"}},"geometry":{"type":"Point","coordinates":[18.1532882,59.2177906]}},{"type":"Feature","properties":{"id":37299682,"osm_type":"way","name":"Söderhallarna","category":"mall","tags":{"building":"office","building:levels":"4","name":"Söderhallarna","shop":"mall","toilets":"yes","website":"https://www.soderhallarna.se/","wheelchair":"yes","wikidata":"Q2379694","wikipedia":"sv:Södermalms saluhall"}},"geometry":{"type":"Point","coordinates":[18.070841,59.3144182]}},{"type":"Feature","properties":{"id":70687403,"osm_type":"way","name":"bo:x","category":"mall","tags":{"building":"retail","building:colour":"black","name":"bo:x","shop":"mall"}},"geometry":{"type":"Point","coordinates":[17.9191421,59.2747391]}},{"type":"Feature","properties":{"id":72887452,"osm_type":"way","name":"K7-huset","category":"mall","tags":{"building":"yes","name":"K7-huset","shop":"mall"}},"geometry":{"type":"Point","coordinates":[17.9214727,59.2704063]}},{"type":"Feature","properties":{"id":98479997,"osm_type":"way","name":"Sätra centrum","category":"mall","tags":{"building":"retail","level":"0","name":"Sätra centrum","shop":"mall"}},"geometry":{"type":"Point","coordinates":[17.9212686,59.28503]}},{"type":"Feature","properties":{"id":120864772,"osm_type":"way","name":"Täby Centrum","category":"mall","tags":{"building":"retail","building:levels":"4","changing_table":"yes","name":"Täby Centrum","official_name":"Westfield Täby Centrum","opening_hours":"Mo-Fr 10:00-20:00; Sa,Su 10:00-18:00","operator":"Rodamco","shop":"mall","toilets":"yes","toilets:wheelchair":"yes","website":"https://se.westfield.com/tabycentrum","wheelchair":"yes","wikidata":"Q10707905","wikipedia":"sv:Täby centrum"}},"geometry":{"type":"Point","coordinates":[18.0721986,59.4448045]}},{"type":"Feature","properties":{"id":138774257,"osm_type":"way","name":"Kista Galleria","category":"mall","tags":{"addr:country":"SE","addr:housenumber":"55F","addr:postcode":"16453","addr:street":"Hanstavägen","building":"commercial","check_date":"2025-02-16","height":"11","layer":"1","max_level":"3","min_level":"-2","name":"Kista Galleria","name:en":"Kista Galleria","opening_hours":"10:00-20:00","shop":"mall","toilets":"yes","website":"https://www.kistagalleria.se","wheelchair":"yes","wikidata":"Q10545881","wikipedia":"sv:Kista Galleria"}},"geometry":{"type":"Point","coordinates":[17.9445165,59.4031748]}},{"type":"Feature","properties":{"id":174699276,"osm_type":"way","name":"Brandbergens centrum","category":"mall","tags":{"building":"yes","name":"Brandbergens centrum","shop":"mall","wheelchair":"yes"}},"geometry":{"type":"Point","coordinates":[18.170045,59.1721636]}},{"type":"Feature","properties":{"id":188056194,"osm_type":"way","name":"Liljeholmstorget Galleria","category":"mall","tags":{"building":"retail","building:levels":"1","name":"Liljeholmstorget Galleria","name:en":"Liljeholmstorget Galleria","opening_hours":"Mo-Fr 10:00-20:00; Sa-Su 10:00-18:00","shop":"mall","toilets":"yes","website":"https://www.liljeholmstorget.se/","wheelchair":"yes","wikipedia":"sv:Liljeholmen#Liljeholmstorget"}},"geometry":{"type":"Point","coordinates":[18.0223653,59.3095874]}},{"type":"Feature","properties":{"id":239278845,"osm_type":"way","name":"Nacka Forum","category":"mall","tags":{"addr:city":"Nacka","addr:country":"SE","addr:housenumber":"14","addr:postcode":"13153","addr:street":"Forumvägen","building":"retail","building:colour":"gray","building:levels":"4","email":"info@nackaforum.se","internet_access":"wlan","name":"Nacka Forum","opening_hours":"Mo-Fr 10:00-20:00; Sa 10:00-18:00; Su 11:00-18:00","phone":"+46 8 400 003 00","roof:colour":"gray","shop":"mall","start_date":"1989","toilets":"yes","website":"https://www.nackaforum.se","wheelchair":"yes","wikidata":"Q10593918"}},"geometry":{"type":"Point","coordinates":[18.1642025,59.3097846]}},{"type":"Feature","properties":{"id":240340732,"osm_type":"way","name":"","category":"mall","tags":{"building":"retail","building:levels":"1","shop":"mall"}},"geometry":{"type":"Point","coordinates":[18.1223722,59.3049799]}},{"type":"Feature","properties":{"id":244944086,"osm_type":"way","name":"Westfield Mall of Scandinavia","category":"mall","tags":{"addr:country":"SE","addr:housenumber":"2","addr:street":"Stjärntorget","brand":"Westfield","brand:wikidata":"Q106623253","building":"retail","building:levels":"7","name":"Westfield Mall of Scandinavia","name:en":"Westfield Mall of Scandinavia","old_name":"Mall of Scandinavia","opening_hours":"Mo-Su 10:00-21:00","operator":"Unibail-Rodamco-Westfield","operator:wikidata":"Q608518","shop":"mall","short_name":"MOS","source":"Unibail-Rodamco","toilets":"yes","wheelchair":"yes","wikidata":"Q10575950","wikimedia_commons":"Category:Mall of Scandinavia","wikipedia":"sv:Mall of Scandinavia"}},"geometry":{"type":"Point","coordinates":[18.0034866,59.3704288]}},{"type":"Feature","properties":{"id":244955010,"osm_type":"way","name":"Globen Shopping","category":"mall","tags":{"building":"commercial","building:levels":"8","name":"Globen Shopping","opening_hours":"Mo-Fr 10:00-19:00; Sa 10:00-17:00; Su 11:00-17:00","shop":"mall","start_date":"1989","website":"https://globenshopping.se/","wikidata":"Q10505563","wikipedia":"sv:Globen Shopping"}},"geometry":{"type":"Point","coordinates":[18.081277,59.2931411]}},{"type":"Feature","properties":{"id":253257695,"osm_type":"way","name":"Simbahuset","category":"mall","tags":{"building":"retail","building:levels":"2","name":"Simbahuset","shop":"mall"}},"geometry":{"type":"Point","coordinates":[18.1268094,59.3054016]}},{"type":"Feature","properties":{"id":254993835,"osm_type":"way","name":"Magasinet","category":"mall","tags":{"building":"retail","building:levels":"5","name":"Magasinet","shop":"mall"}},"geometry":{"type":"Point","coordinates":[18.130433,59.3047076]}},{"type":"Feature","properties":{"id":322710553,"osm_type":"way","name":"Enebyängen","category":"mall","tags":{"landuse":"retail","name":"Enebyängen","operator":"Cordea Savills","shop":"mall","source":"survey;Bing","start_date":"2008","website":"http://www.enebyangen.se","wikidata":"Q10484065","wikipedia":"sv:Enebyängen"}},"geometry":{"type":"Point","coordinates":[18.0469624,59.4217917]}},{"type":"Feature","properties":{"id":325324446,"osm_type":"way","name":"","category":"mall","tags":{"building":"yes","shop":"mall","source":"yahoo_imagery"}},"geometry":{"type":"Point","coordinates":[18.1265523,59.1987092]}},{"type":"Feature","properties":{"id":715073073,"osm_type":"way","name":"Ringen centrum","category":"mall","tags":{"building":"yes","building:levels":"6","name":"Ringen centrum","roof:levels":"0","shop":"mall","website":"https://www.ringencentrum.se/"}},"geometry":{"type":"Point","coordinates":[18.0748325,59.3084263]}},{"type":"Feature","properties":{"id":1103013221,"osm_type":"way","name":"Tyresö Centrum","category":"mall","tags":{"building":"yes","name":"Tyresö Centrum","shop":"mall","wikidata":"Q6304504"}},"geometry":{"type":"Point","coordinates":[18.2301607,59.2437261]}},{"type":"Feature","properties":{"id":1347756607,"osm_type":"way","name":"PK-huset","category":"mall","tags":{"building":"retail","name":"PK-huset","shop":"mall","wikidata":"Q10614543","wikimedia_commons":"Category:PK-huset","wikipedia":"sv:PK-huset"}},"geometry":{"type":"Point","coordinates":[18.0705396,59.3331656]}},{"type":"Feature","properties":{"id":1347756608,"osm_type":"way","name":"NK","category":"mall","tags":{"building":"retail","building:levels":"7","name":"NK","roof:levels":"1","shop":"mall"}},"geometry":{"type":"Point","coordinates":[18.0690239,59.3331343]}},{"type":"Feature","properties":{"id":1414421078,"osm_type":"way","name":"Sickla galleria","category":"mall","tags":{"building":"retail","name":"Sickla galleria","shop":"mall"}},"geometry":{"type":"Point","coordinates":[18.1252487,59.3059797]}},{"type":"Feature","properties":{"id":900923,"osm_type":"relation","name":"Farsta centrum","category":"mall","tags":{"building":"retail","building:levels":"2","check_date":"2026-04-02","layer":"1","name":"Farsta centrum","opening_hours":"Mo-Fr 10:00-20:00; Sa 10:00-18:00; Su 11:00-17:00","roof:material":"copper","shop":"mall","type":"multipolygon","wheelchair":"yes","wikidata":"Q10494157"}},"geometry":{"type":"Point","coordinates":[18.0924767,59.2424781]}},{"type":"Feature","properties":{"id":1465347,"osm_type":"relation","name":"Farsta Centrum","category":"mall","tags":{"building":"retail","building:colour":"firebrick","building:levels":"2","building:material":"brick","layer":"1","name":"Farsta Centrum","roof:material":"copper","shop":"mall","type":"multipolygon"}},"geometry":{"type":"Point","coordinates":[18.0897363,59.2424296]}},{"type":"Feature","properties":{"id":2663266,"osm_type":"relation","name":"Tyresö Centrum","category":"mall","tags":{"building":"retail","building:levels":"2","name":"Tyresö Centrum","shop":"mall","type":"multipolygon","website":"https://www.tyresocentrum.se/","wheelchair":"yes","wikidata":"Q6304504"}},"geometry":{"type":"Point","coordinates":[18.2289404,59.2444383]}},{"type":"Feature","properties":{"id":19000622,"osm_type":"relation","name":"Gallerian","category":"mall","tags":{"name":"Gallerian","opening_hours":"Mo-Fr 10:00-20:00; Sa 10:00-18:00; Su 11:00-18:00","shop":"mall","toilets":"yes","type":"site","website":"https://www.gallerian.se/","wikidata":"Q10502253","wikimedia_commons":"Category:Gallerian"}},"geometry":{"type":"Point","coordinates":[18.0672187,59.3312978]}}]}