{"type":"FeatureCollection","features":[{"type":"Feature","properties":{"id":7473501462,"osm_type":"node","name":"Sundby gård","category":"manor","tags":{"alt_name":"Sundby","historic":"manor","name":"Sundby gård","wikidata":"Q10683747","wikipedia":"sv:Sundby gård"}},"geometry":{"type":"Point","coordinates":[18.0199561,59.2010217]}},{"type":"Feature","properties":{"id":25363926,"osm_type":"way","name":"Kristinebergs slott","category":"manor","tags":{"building":"school","building:colour":"pink","building:levels":"2","building:material":"plaster","historic":"manor","name":"Kristinebergs slott","roof:colour":"black","roof:levels":"1","roof:material":"metal","roof:shape":"mansard","start_date":"1750","wikidata":"Q3742593","wikimedia_commons":"Category:Kristinebergs slott","wikipedia":"sv:Kristinebergs slott"}},"geometry":{"type":"Point","coordinates":[18.0056614,59.3336477]}},{"type":"Feature","properties":{"id":56088256,"osm_type":"way","name":"Älvsjö Gård","category":"manor","tags":{"building":"yes","building:colour":"yellow","building:levels":"2","building:material":"wood","historic":"manor","name":"Älvsjö Gård","roof:colour":"firebrick","roof:material":"roof_tiles","roof:shape":"hipped","wikidata":"Q10725779","wikipedia":"sv:Älvsjö gård"}},"geometry":{"type":"Point","coordinates":[18.0112882,59.2773497]}},{"type":"Feature","properties":{"id":79630248,"osm_type":"way","name":"","category":"manor","tags":{"access":"private","addr:country":"SE","addr:housenumber":"1A","addr:street":"Gustav III:s boulevard","building":"yes","building:levels":"2","historic":"manor","roof:shape":"gambrel"}},"geometry":{"type":"Point","coordinates":[18.0127272,59.3683086]}},{"type":"Feature","properties":{"id":79802531,"osm_type":"way","name":"","category":"manor","tags":{"building":"yes","historic":"manor","start_date":"1783"}},"geometry":{"type":"Point","coordinates":[18.0175751,59.3664048]}},{"type":"Feature","properties":{"id":793974966,"osm_type":"way","name":"Villa Kassman","category":"manor","tags":{"architect":"Albin Stark","building":"yes","historic":"manor","name":"Villa Kassman","wikidata":"Q117323610","wikipedia":"sv:Villa Kassman"}},"geometry":{"type":"Point","coordinates":[18.137344,59.3974253]}}]}