{"type":"FeatureCollection","features":[{"type":"Feature","properties":{"id":29898032,"osm_type":"node","name":"Moderna museet","category":"museum","tags":{"check_date":"2025-05-01","description:en":"Modern and contemporary art - Pablo Picasso, Salvador Dalí, Henri Matisse, Meret Oppenheim, Robert Rauschenberg, Marcel Duchamp, Carolee Schneemann, Louise Bourgeois, Vera Nilsson, Siri Derkert, Georges Braque (Source: museum website)","fee":"no","museum":"art","name":"Moderna museet","name:en":"Modern Art Museum","name:es":"Moderna Museet","name:fi":"Nykytaiteen museo","name:fr":"Musée d'art moderne","name:ru":"Музей современного искусства","name:uk":"Музей сучасного мистецтва","opening_hours":"Mo off; Tu,Fr 10:00-20:00; We-Th,Sa-Su 10:00-18:00","operator":"Statlig förvaltningsmyndighet","start_date":"1958-05-09","toilets:wheelchair":"yes","tourism":"museum","website":"https://www.modernamuseet.se/","wheelchair":"yes","wikidata":"Q1274511","wikipedia":"sv:Moderna Museet"}},"geometry":{"type":"Point","coordinates":[18.0840004,59.3263494]}},{"type":"Feature","properties":{"id":47704184,"osm_type":"node","name":"Naturhistoriska riksmuseet","category":"museum","tags":{"check_date":"2024-07-16","description":"The universe, animals and nature; and Cosmonova, Sweden's only IMAX cimema","fee":"yes","name":"Naturhistoriska riksmuseet","name:en":"Swedish Museum of Natural History","name:es":"Museo Sueco de Historia Natural","name:fi":"Valtion luonnonhistoriallinen museo","name:fr":"Muséum suédois d'histoire naturelle","name:ru":"Шведский музей естественной истории","name:sv":"Naturhistoriska riksmuseet","opening_hours":"Tu-Su 10:00-18:00","tourism":"museum","website":"https://www.nrm.se/","wikidata":"Q1420103","wikimedia_commons":"Category:Swedish Museum of Natural History","wikipedia":"sv:Naturhistoriska riksmuseet"}},"geometry":{"type":"Point","coordinates":[18.0540033,59.3690466]}},{"type":"Feature","properties":{"id":61277266,"osm_type":"node","name":"Orangerimuseet","category":"museum","tags":{"description:en":"National Museum's collection of Swedish sculpture from the early 1700s to the 1900s. Housed in Ulriksdal Palace orangery.","name":"Orangerimuseet","name:fi":"Kasvihuonemuseo","name:sv":"Orangerimuseet","operator":"Nationalmuseum","tourism":"museum","website":"https://www.nationalmuseum.se/sv/Om-samlingarna1/NM-runt-om-i-Sverige/Ulriksdals-slott-med-Orangerimuseet/","wikidata":"Q10611052","wikipedia":"sv:Orangerimuseet"}},"geometry":{"type":"Point","coordinates":[18.0136132,59.3906446]}},{"type":"Feature","properties":{"id":248913932,"osm_type":"node","name":"Carl Eldhs Ateljémuseum","category":"museum","tags":{"contact:email":"info@eldhsatelje.se","description":"The collected works of sculptor Carl Eldh (1873-1954)","fee":"yes","name":"Carl Eldhs Ateljémuseum","name:en":"Carl Eldh Studio Museum","name:fi":"Carl Eldhin ateljeemuseo","name:sv":"Carl Eldhs Ateljémuseum","opening_hours":"Apr,Oct Sa,Su 12:00-16:00; May,Sep Th-Su 12:00-16:00; Jun-Aug Tu-Su 12:00-16:00","phone":"+4686126560","tourism":"museum","website":"https://www.eldhsatelje.se","wikidata":"Q10443031","wikimedia_commons":"Category:Carl Eldhs Ateljémuseum","wikipedia":"sv:Carl Eldhs Ateljémuseum"}},"geometry":{"type":"Point","coordinates":[18.0516224,59.3528674]}},{"type":"Feature","properties":{"id":254673412,"osm_type":"node","name":"Fjärilshuset Haga Ocean","category":"museum","tags":{"addr:city":"Solna","addr:postcode":"169 70","addr:street":"Fjärilshuset i Hagaparken","charge:conditional":"249 SEK @ (age < 65 AND age > 15); 198 SEK @ (age >= 65); 149 SEK @ (age >= 3 AND age <= 15)","check_date":"2023-07-14","description":"Naturhistoriskt museum med fritt flygande tropiska fjärilar och ett av Skandinaviens största hajakvarier","description:en":"Natural history museum with free-flying tropical butterflies Natural history museum with free-flying tropical butterflies and one of Scandinavia's largest shark aquariums","description:sv":"Naturhistoriskt museum med fritt flygande tropiska fjärilar och ett av Skandinaviens största hajakvarier","dog":"no","email":"info@fjarilshuset.se","fee":"yes","fee:conditional":"no @ (age < 3)","museum":"nature","name":"Fjärilshuset Haga Ocean","name:en":"Butterfly House Haga Ocean","name:sv":"Fjärilshuset Haga Ocean","opening_hours":"Mo-Su 10:00-17:00","payment:american_express":"no","payment:diners_club":"no","payment:swish":"yes","phone":"+46 8 730 39 81","stroller":"no","temperature":"warm","toilets":"yes","toilets:wheelchair":"yes","tourism":"museum","website":"https://www.fjarilshuset.se/","wheelchair":"yes","wikidata":"Q6112406","wikimedia_commons":"Category:Butterfly House at Hagaparken","wikipedia":"sv:Fjärilshuset"}},"geometry":{"type":"Point","coordinates":[18.0306067,59.366082]}},{"type":"Feature","properties":{"id":279804327,"osm_type":"node","name":"Bellmanmuséet","category":"museum","tags":{"description":"Det lilla museet över Carl Michael Bellman, hans liv, sånger och gestalter, Gustaf den III:s Sverige och 1700-talets Stockholm är sammanbyggt med kafé och trädgård.","description:en":"Small museum about Swedish cultural icon, musician Carl Michael Bellman, his life, songs and characters.","name":"Bellmanmuséet","name:en":"Bellman Exhibition","tourism":"museum","website":"https://www.storahenriksvik.se/bellmanmuseet"}},"geometry":{"type":"Point","coordinates":[18.0257709,59.3219796]}},{"type":"Feature","properties":{"id":289851448,"osm_type":"node","name":"Armémuseum","category":"museum","tags":{"changing_table":"yes","changing_table:location":"wheelchair_toilet","check_date":"2023-03-21","description":"Sweden's military museum","fee":"yes","name":"Armémuseum","name:en":"Swedish Army Museum","name:fi":"Armeijamuseo","name:fr":"Musée de l'Armée","name:ru":"Музей шведской армии","opening_hours":"We-Su 11:00-17:00; Tu 11:00-19:00","tourism":"museum","website":"https://www.armemuseum.se/","wheelchair":"yes","wikidata":"Q690002","wikimedia_commons":"Category:Swedish Army Museum","wikipedia":"sv:Armémuseum"}},"geometry":{"type":"Point","coordinates":[18.0802581,59.3347609]}},{"type":"Feature","properties":{"id":304572565,"osm_type":"node","name":"Haga Parkmuseum","category":"museum","tags":{"access":"no","check_date":"2026-04-25","description":"Exhibition about Haga Park and its buildings","name":"Haga Parkmuseum","operator":"National Property Board","tourism":"museum","website":"https://www.sfv.se/hagaparkmuseum","wikidata":"Q10515883","wikimedia_commons":"Category:Hagaparkens museum","wikipedia":"sv:Haga parkmuseum"}},"geometry":{"type":"Point","coordinates":[18.0304628,59.3644729]}},{"type":"Feature","properties":{"id":304574173,"osm_type":"node","name":"Olle Olsson Hagalund-museet","category":"museum","tags":{"addr:city":"Solna","addr:country":"SE","addr:housenumber":"2","addr:street":"Spetsgatan","address":"Furugatan 3","contact:website":"https://www.solna.se/olleolssonmuseet","description":"Artist's home full of painting for the theatre from 1930s - 1970.","name":"Olle Olsson Hagalund-museet","opening_hours":"Jan-May We,Su 12:00-16:00; Jun-Aug Su 12:00-16:00; Sep-Dec We,Su 12:00-16:00","tourism":"museum","wikidata":"Q18244852","wikimedia_commons":"Category:Olle Olsson-huset","wikipedia":"sv:Olle Olsson Hagalund-museet"}},"geometry":{"type":"Point","coordinates":[18.0160446,59.3610244]}},{"type":"Feature","properties":{"id":304577359,"osm_type":"node","name":"Judiska muséet","category":"museum","tags":{"changing_table":"yes","check_date":"2026-05-29","contact:phone":"+468301500","contact:website":"https://judiskamuseet.se/","description":"Jewish life, heritage and traditions in Sweden","fee":"yes","museum":"history","name":"Judiska muséet","name:de":"Jüdisches Museum","name:en":"Jewish Museum","name:fi":"Juutalainen museo","name:he":"המוזיאון היהודי בסטוקהולם","name:sv":"Judiska muséet","opening_hours":"Mo off; Tu-We 11:00-17:00; Th 11:00-20:00; Fr 11:00-16:00; Sa-Su 11:00-17:00","toilets:wheelchair":"yes","tourism":"museum","wheelchair":"yes","wikidata":"Q684827","wikimedia_commons":"Category:Jewish Museum of Sweden","wikipedia":"sv:Judiska museet"}},"geometry":{"type":"Point","coordinates":[18.0730173,59.3238321]}},{"type":"Feature","properties":{"id":304578099,"osm_type":"node","name":"Strindbergsmuseet","category":"museum","tags":{"check_date":"2026-04-18","description":"Last home of writer August Strindberg (1849 - 1912)","fee":"yes","museum":"person","name":"Strindbergsmuseet","name:en":"Strindberg Museum","name:fi":"Strindbergin museo","name:sv":"Strindbergsmuseet","opening_hours":"Mo off; Tu-Su 12:00-16:00","phone":"+46 8 411 53 54","tourism":"museum","website":"https://www.strindbergsmuseet.se/","wheelchair":"no","wikidata":"Q1890584","wikimedia_commons":"Category:Strindbergsmuseet","wikipedia":"sv:Strindbergsmuseet"}},"geometry":{"type":"Point","coordinates":[18.0566136,59.3385327]}},{"type":"Feature","properties":{"id":304586910,"osm_type":"node","name":"Färgfabriken","category":"museum","tags":{"description":"Experimental art, architecture and design.","name":"Färgfabriken","name:en":"Colour Factory","name:sv":"Färgfabriken","tourism":"museum","website":"https://fargfabriken.se/","wheelchair":"yes","wikidata":"Q10500816","wikipedia":"sv:Färgfabriken"}},"geometry":{"type":"Point","coordinates":[18.0193235,59.3152528]}},{"type":"Feature","properties":{"id":304600134,"osm_type":"node","name":"Almgrens Sidenväveri & Museum","category":"museum","tags":{"charge":"100 SEK","check_date":"2024-07-08","check_date:opening_hours":"2023-09-05","contact:facebook":"https://www.facebook.com/almgrens","contact:instagram":"https://www.instagram.com/almgren.sidenvaveri","description":"Silk weaving mill with 160-year old working looms","email":"info@kasiden.se","fee":"yes","fee:conditional":"no @ (age < 19)","name":"Almgrens Sidenväveri & Museum","name:en":"Almgren Silk-Weaving Mill & Museum","opening_hours":"Mo-Sa 12:00-16:00; Su off","payment:cards":"yes","payment:credit_cards":"yes","phone":"+46 8 642 561 6","tourism":"museum","website":"https://www.kasiden.se/","wheelchair":"yes","wikidata":"Q10542299"}},"geometry":{"type":"Point","coordinates":[18.0706768,59.3172955]}},{"type":"Feature","properties":{"id":304602016,"osm_type":"node","name":"Stadsmuseet i Stockholm","category":"museum","tags":{"building:levels":"3","check_date":"2025-12-11","contact:email":"stadsmuseet@stockholm.se","contact:phone":"+46850831620","contact:website":"https://stadsmuseet.stockholm","description":"The development of Stockholm from middle ages fortified port to the city of today.","fee":"no","museum":"local","name":"Stadsmuseet i Stockholm","name:en":"Stockholm City Museum","name:fi":"Tukholman kaupunginmuseo","name:ru":"Городской музей","name:sv":"Stadsmuseet i Stockholm","opening_hours":"Mo-Tu, Th-Su 11:00-17:00; We 11:00-20:00","operator:type":"public","toilets":"yes","toilets:wheelchair":"yes","tourism":"museum","wheelchair":"yes","wikidata":"Q1933896","wikimedia_commons":"Category:Stockholms stadsmuseum","wikipedia":"sv:Stadsmuseet i Stockholm"}},"geometry":{"type":"Point","coordinates":[18.0712613,59.3195947]}},{"type":"Feature","properties":{"id":304603696,"osm_type":"node","name":"Postmuseum","category":"museum","tags":{"check_date":"2025-11-14","contact:email":"postmuseum@postnord.com","contact:phone":"+46104364439","contact:website":"https://www.postmuseum.se/","description":"History of the Swedish postal service, postcards and stamps","fee":"yes","name":"Postmuseum","name:en":"Post Museum","name:fi":"Postimuseo","name:ru":"Почтовый музей","name:sv":"Postmuseum","name:zh":"郵政博物館","opening_hours":"Mo off; Tu-Fr 11:00-17:00; Sa-Su 10:00-16:00","toilets":"yes","tourism":"museum","wikidata":"Q712309","wikimedia_commons":"Category:Postmuseum","wikipedia":"sv:Postmuseum"}},"geometry":{"type":"Point","coordinates":[18.0680012,59.3240854]}},{"type":"Feature","properties":{"id":304603697,"osm_type":"node","name":"Forum för levande historia","category":"museum","tags":{"check_date":"2025-07-09","contact:email":"info@levandehistoria.se","contact:phone":"+4687238750","contact:website":"https://www.levandehistoria.se/","description":"\"An exhibition about the bystander.\"","fee":"no","name":"Forum för levande historia","name:en":"Living history forum","name:ru":"Форум \"Живая история\"","opening_hours":"Mo-Fr 12:00-17:00; Sa 12:00-16:00; Su off","tourism":"museum","wheelchair":"limited"}},"geometry":{"type":"Point","coordinates":[18.0678712,59.32496]}},{"type":"Feature","properties":{"id":304603727,"osm_type":"node","name":"Nobelprismuseet","category":"museum","tags":{"alt_name":"Nobel Prize Museum","contact:email":"info.nobelprizemuseum@nobelprize.org","contact:phone":"+46853481800","contact:website":"https://www.nobelprizemuseum.se","description":"About the Nobel Prize, Alfred Nobel and the prize winners.","fee":"yes","museum":"specialty","name":"Nobelprismuseet","name:de":"Nobelmuseum","name:en":"Nobel Museum","name:es":"Museo Nobel","name:fi":"Nobel-museo","name:fr":"Musée Nobel","name:ko":"노벨 박물관","name:pt":"Museu Nobel","name:ru":"Музей Нобеля","name:sv":"Nobelmuseet","old_name":"Nobelmuseet","opening_hours":"Sep-Mar Tu-Th 11:00-17:00; Fr 11:00-21:00; Sa-Su 11:00-17:00; Mo off; Apr-May Tu-Th 11:00-17:00; Fr 11:00-21:00; Sa-Su 10:00-18:00; Mo off; Jun-Aug Mo-Th,Sa-Su 10:00-19:00; Fr 10:00-21:00; PH off","operator":"Nobelmuseet AB","tourism":"museum","wikidata":"Q1968711","wikimedia_commons":"Category:Nobel Prize Museum","wikipedia":"sv:Nobelprismuseet"}},"geometry":{"type":"Point","coordinates":[18.0708309,59.3252155]}},{"type":"Feature","properties":{"id":304606190,"osm_type":"node","name":"Livrustkammaren","category":"museum","tags":{"contact:phone":"+4684023000","contact:website":"https://livrustkammaren.se/","description:en":"Royal history: state carriages, costumes, armour and weapons plus a stuffed horse called Streiff.","fee":"yes","museum":"history","name":"Livrustkammaren","name:de":"Waffenkammer","name:en":"Royal Armoury","name:fi":"Varuskammari","name:ru":"Королевская сокровищница Ливрусткаммарен","opening_hours":"Jan-Apr Tu-Su 11:00-17:00, Th 11:00-20:00; May-Jun Tu-Su 11:00-17:00; Jul-Aug Tu-Su 10:00-18:00; Sep-Dec Tu-Su 11:00-17:00, Th 11:00-20:00","operator":"Statens Historiska Museer","tourism":"museum","wheelchair":"yes","wikidata":"Q1636176","wikimedia_commons":"Category:Livrustkammaren","wikipedia":"sv:Livrustkammaren"}},"geometry":{"type":"Point","coordinates":[18.0730777,59.3266147]}},{"type":"Feature","properties":{"id":304607835,"osm_type":"node","name":"Tre Kronor","category":"museum","tags":{"description":"Explains the 13th century fortifications that underly the Royal Palace","fee":"yes","museum":"history","name":"Tre Kronor","name:en":"Tre Kronor Museum","name:fi":"Kolmen kruunun museo","name:ru":"Музей Три Короны","name:sv":"Tre Kronor","opening_hours":"Mo-Su 10:00-17:00","operator":"H.M. Konungens Hovmarskalksämbete","phone":"+4684026130","tourism":"museum","website":"http://www.kungahuset.se/kungligaslotten/kungligaslottet/museumtrekronor","wikidata":"Q10590595","wikimedia_commons":"Category:Museum Tre kronor","wikipedia":"sv:Museum Tre Kronor"}},"geometry":{"type":"Point","coordinates":[18.0710534,59.3274107]}},{"type":"Feature","properties":{"id":304608689,"osm_type":"node","name":"Konstakademien","category":"museum","tags":{"addr:city":"Stockholm","addr:country":"SE","addr:housenumber":"27","addr:postcode":"111 52","addr:street":"Jakobsgatan","addr:unit":"C","cafe":"yes","check_date":"2026-05-01","description":"The Royal Academy of Fine Arts was founded in 1735","fee":"no","name":"Konstakademien","name:de":"Kunstakademien","name:en":"Royal Academy of Fine Arts","name:fi":"Taideakatemia","name:sv":"Konstakademien","opening_hours":"Mo,Su off; Tu-Sa 11:00-16:00","toilets":"yes","tourism":"museum","website":"https://konstakademien.se/"}},"geometry":{"type":"Point","coordinates":[18.0643695,59.3287664]}},{"type":"Feature","properties":{"id":304609719,"osm_type":"node","name":"Medelhavsmuseet","category":"museum","tags":{"check_date":"2024-06-25","description":"Archaeological museum with focus on ancient cultures around the Mediterranean","fee":"yes","name":"Medelhavsmuseet","name:en":"Museum of Mediterranean & Near East Antiquities","name:fi":"Välimerimuseo","name:sv":"Medelhavsmuseet","opening_hours":"Mo off; Tu-Su 11:00-17:00","toilets:wheelchair":"yes","tourism":"museum","website":"https://www.medelhavsmuseet.se/","wheelchair":"yes","wikidata":"Q1331646","wikimedia_commons":"Category:Medelhavsmuseet","wikipedia":"sv:Medelhavsmuseet"}},"geometry":{"type":"Point","coordinates":[18.0672982,59.3294531]}},{"type":"Feature","properties":{"id":304610243,"osm_type":"node","name":"Dansmuseet","category":"museum","tags":{"check_date":"2025-12-02","contact:website":"https://dansmuseet.se/","description":"Dance, theatre, art and photo.","fee":"yes","name":"Dansmuseet","name:en":"Dance Museum","name:fi":"Tanssimuseo","name:sv":"Dansmuseet","note":"The museum is closed and will be moved to Hagalund. Re-opening is planned in 2028/2029.","source":"survey","tourism":"museum","wikidata":"Q1749479","wikimedia_commons":"Category:Dansmuseet","wikipedia":"sv:Dansmuseet"}},"geometry":{"type":"Point","coordinates":[18.0653366,59.3297418]}},{"type":"Feature","properties":{"id":304624735,"osm_type":"node","name":"Scenkonstmuseet","category":"museum","tags":{"addr:city":"Stockholm","addr:housenumber":"2","addr:postcode":"114 51","addr:street":"Sibyllegatan","description":"An experience centre devoted to the arts of dance, music and theatre, as well as being one of Europe's leading museums for performance","email":"info@scenkonstmuseet.se","fee":"yes","name":"Scenkonstmuseet","name:en":"Swedish Museum of Performing Arts","name:ru":"Музей музыки и театра","opening_hours":"Tu-Su 11:00-17:00","payment:cash":"no","phone":"+46 8 519 567 00","tourism":"museum","website":"https://scenkonstmuseet.se/","wheelchair":"yes","wikidata":"Q18448716","wikimedia_commons":"Category:Scenkonstmuseet","wikipedia":"sv:Scenkonstmuseet"}},"geometry":{"type":"Point","coordinates":[18.0783005,59.3337201]}},{"type":"Feature","properties":{"id":373780532,"osm_type":"node","name":"Museifartygen","category":"museum","tags":{"description:en":"Visit a light-ship and an ice-breaker.","fee":"no","name":"Museifartygen","name:de":"Museumsschiffe","name:en":"Maritime Museum, Stockholm","name:fr":"Musée de la Marine","opening_hours":"Tu-Su 11:00-18:00","tourism":"museum","website":"https://www.sjohistoriska.se/sv/Besok/Besok-oss/Galarvarvet/Oppettider-pa-Galarvarvet/"}},"geometry":{"type":"Point","coordinates":[18.0907683,59.3272883]}},{"type":"Feature","properties":{"id":508470809,"osm_type":"node","name":"Handens muséum & Smedja","category":"museum","tags":{"fee":"yes","name":"Handens muséum & Smedja","tourism":"museum","website":"https://www.handensmuseumochsmedja.se/"}},"geometry":{"type":"Point","coordinates":[18.1388623,59.1768407]}},{"type":"Feature","properties":{"id":624674449,"osm_type":"node","name":"Sundbybergs museum","category":"museum","tags":{"contact:instagram":"museetisundbyberg","email":"info@museet.se","name":"Sundbybergs museum","phone":"+4687068178","tourism":"museum","website":"https://museet.se/","wikidata":"Q15695262","wikimedia_commons":"Category:Sundbybergs museum","wikipedia":"sv:Sundbybergs museum"}},"geometry":{"type":"Point","coordinates":[17.9628285,59.364734]}},{"type":"Feature","properties":{"id":810035234,"osm_type":"node","name":"Polismuseet","category":"museum","tags":{"check_date:opening_hours":"2024-09-22","fee":"yes","name":"Polismuseet","name:en":"The Police Museum","name:fi":"Poliisimuseo","name:ru":"Музей полиции","name:sv":"Polismuseet","opening_hours":"Tu-Fr 12:00-17:00; Sa-Su 11:00-17:00","phone":"+46 10 563 80 00","tourism":"museum","website":"https://www.polismuseet.se/","wikidata":"Q10636139","wikimedia_commons":"Category:Polismuseet","wikipedia":"sv:Polismuseet"}},"geometry":{"type":"Point","coordinates":[18.1184726,59.3331156]}},{"type":"Feature","properties":{"id":810035242,"osm_type":"node","name":"Riksidrottsmuseum","category":"museum","tags":{"name":"Riksidrottsmuseum","name:en":"National Sports Museum of Sweden","name:fi":"Kansallisurheilumuseo","name:ru":"Национальный музей спорта","name:sv":"Riksidrottsmuseum","opening_hours":"Tu-Fr 11:00-16:00; Sa,Su 11:00-16:00","tourism":"museum","website":"https://www.riksidrottsmuseum.se/","wikidata":"Q10655237","wikimedia_commons":"Category:Riksidrottsmuseet","wikipedia":"sv:Riksidrottsmuseum"}},"geometry":{"type":"Point","coordinates":[18.117001,59.3332127]}},{"type":"Feature","properties":{"id":868261113,"osm_type":"node","name":"Fotografiska","category":"museum","tags":{"addr:city":"Stockholm","addr:housenumber":"22","addr:postcode":"11645","addr:street":"Stadsgårdshamnen","check_date:opening_hours":"2024-11-17","description:en":"An international meeting place where everything revolves around photography. Has an exhibition space of 2,500 square meters, and features 4 major exhibitions per year and 15-20 minor exhibitions. Source: Website.","email":"info@fotografiska.se","fee":"yes","name":"Fotografiska","name:fi":"Valokuvataiteen museo Fotografiska","name:sv":"Fotografiska","opening_hours":"Mo-Su 10:00-23:00","phone":"+46 8 509 005 00","takeaway":"no","toilets:wheelchair":"yes","tourism":"museum","website":"https://www.fotografiska.com/sto/","wheelchair":"yes","wikidata":"Q1439649","wikipedia":"sv:Fotografiska"}},"geometry":{"type":"Point","coordinates":[18.0847007,59.3180039]}},{"type":"Feature","properties":{"id":1092471973,"osm_type":"node","name":"Arkitektur- och designcentrum","category":"museum","tags":{"description:en":"The Swedish national museum of architecture urban planning and design. (Source: Wikipedia:en)","fee":"no","museum":"architecture","name":"Arkitektur- och designcentrum","name:en":"Swedish Centre for Architecture and Design","name:fi":"Arkkitehtuuri- ja designmuseo","name:ru":"Шведский центр архитектуры и дизайна","name:sv":"Arkitektur- och designcentrum","official_name":"Statens centrum för arkitektur och design","old_name":"Arkitekturmuseet","opening_hours":"Tu 10:00-22:00; We-Su 10:00-18:00","operator":"Kulturdepartementet, statlig förvaltningsmyndighet","short_name":"ArkiDes","start_date":"1962","toilets:wheelchair":"yes","tourism":"museum","website":"https://arkdes.se/","wheelchair":"yes","wikidata":"Q4356728","wikimedia_commons":"Category:Arkitektur- och designcentrum","wikipedia":"sv:Statens centrum för arkitektur och design"}},"geometry":{"type":"Point","coordinates":[18.0846543,59.3258137]}},{"type":"Feature","properties":{"id":1241136436,"osm_type":"node","name":"Tekniska museet","category":"museum","tags":{"check_date":"2024-04-27","email":"info@tekniskamuseet.se","fee":"yes","name":"Tekniska museet","name:en":"Swedish National Museum of Science and Technology","name:fi":"Tekniikan museo","name:fr":"Musée national pour les sciences et la technologie","name:ru":"Музей техники","name:sv":"Tekniska museet","opening_hours":"Mo-Su 09:00-21:00","operator":"Stiftelsen Tekniska museet","operator:type":"private_non_profit","payment:cash":"no","phone":"+46 8 450 56 00","tourism":"museum","website":"https://www.tekniskamuseet.se/","wheelchair":"yes","wikidata":"Q177550","wikimedia_commons":"Category:Tekniska museet","wikipedia":"sv:Tekniska museet"}},"geometry":{"type":"Point","coordinates":[18.11884,59.3325149]}},{"type":"Feature","properties":{"id":1329931702,"osm_type":"node","name":"Hembygdsmuséet","category":"museum","tags":{"description":"Local history museum in a relocated 1700s farm house.","name":"Hembygdsmuséet","source":"survey","tourism":"museum","website":"https://www.hembygd.se/"}},"geometry":{"type":"Point","coordinates":[18.1136906,59.4557841]}},{"type":"Feature","properties":{"id":1476007025,"osm_type":"node","name":"Östasiatiska museet","category":"museum","tags":{"addr:housenumber":"4","addr:street":"Tyghusplan","check_date":"2025-12-06","contact:email":"info@ostasiatiska.se","contact:phone":"+46104561200","contact:website":"https://www.ostasiatiskamuseet.se","description:en":"Collections and exhibits of Asian archeology, classical arts, and culture, and a large Asia research library open to the public. (Source: Wikipedia:en)","fee":"yes","name":"Östasiatiska museet","name:en":"Museum of Far Eastern Antiquities","name:es":"Museo de Arte Asiático","name:fi":"Itä-Aasian museo","name:ko":"동아시아 박물관","name:ru":"Музей Восточной Азии","name:sv":"Östasiatiska museet","name:zh-Hans":"东方博物馆","name:zh-Hant":"東方博物館","opening_hours":"closed \"Closed due to renovation; reopening is scheduled for autumn 2026.\"","start_date":"1926","tourism":"museum","wheelchair":"yes","wikidata":"Q298289","wikimedia_commons":"Category:Östasiatiska museet","wikipedia":"sv:Östasiatiska museet"}},"geometry":{"type":"Point","coordinates":[18.0816743,59.3273849]}},{"type":"Feature","properties":{"id":1571439065,"osm_type":"node","name":"Lidingö museum","category":"museum","tags":{"addr:city":"Lidingö","addr:country":"SE","addr:housename":"Villa Fornboda","addr:housenumber":"26A","addr:postcode":"181 32","addr:street":"Lejonvägen","description":"Lidingö island's local museum.","name":"Lidingö museum","operator":"Lidingö Hembygdsförening","source":"survey","tourism":"museum","url":"http://www.lidingo.se/turism/sevardheter/lidingomuseum.4.6b369e361188441f8518000931.html","website":"http://www.lidingohembygd.se/museet.html","wikidata":"Q10561361"}},"geometry":{"type":"Point","coordinates":[18.136017,59.3667052]}},{"type":"Feature","properties":{"id":1576009829,"osm_type":"node","name":"Bergrummet","category":"museum","tags":{"addr:housenumber":"5","addr:street":"Svensksundsvägen","description":"Tunnel system built 1939-40 for military defence. Now houses rotating historical exhibitions.","fee":"SEK 150. Children under 19 free.","name":"Bergrummet","name:en":"Skeppsholmen Caverns","opening_hours":"Mo-Su 10:00-17:00","operator":"Världskulturmuseerna","operator:en":"The Museums of World Culture","outdoor_seating":"no","source":"http://www.smvk.se","tourism":"museum","website":"https://toymuseum.se/"}},"geometry":{"type":"Point","coordinates":[18.0813253,59.3265006]}},{"type":"Feature","properties":{"id":1815123227,"osm_type":"node","name":"Gustav III:s antikmuseum","category":"museum","tags":{"description:en":"Only booking in 2024. King Gustav III's personal collection of over 200 sculptures.","fee":"yes","museum":"sculpture","name":"Gustav III:s antikmuseum","name:en":"Gustav III's Museum of Antiquities","name:fi":"Kustaa III:n antiikkimuseo","name:ru":"Музей античных скульптур","name:sv":"Gustav III:s antikmuseum","opening_hours":"\"By reservation\"","operator":"H.M. Konungens Hovmarskalksämbete","phone":"+4684026130","reservation":"required","start_date":"1794","tourism":"museum","website":"http://www.kungahuset.se/besokkungligaslotten/kungligaslottet/gustaviiisantikmuseum","wikidata":"Q9282793","wikimedia_commons":"Category:Gustav III:s antikmuseum","wikipedia":"sv:Gustav III:s antikmuseum"}},"geometry":{"type":"Point","coordinates":[18.0720537,59.3275418]}},{"type":"Feature","properties":{"id":1926976309,"osm_type":"node","name":"Lillhersby Hembygdsgård","category":"museum","tags":{"addr:city":"Sollentuna","addr:country":"SE","addr:housenumber":"1","addr:postcode":"19145","addr:street":"Lillhersbyvägen","email":"info@sollentunahembygd.se","fee":"no","name":"Lillhersby Hembygdsgård","note":"Open on special events like Swedish Midsummer and Christmas markets.","phone":"+468967865","tourism":"museum","website":"https://sollentunahembygd.se/hersby-hembygdsgard/hersby-hembygdsgard/","wheelchair":"limited"}},"geometry":{"type":"Point","coordinates":[17.957225,59.422371]}},{"type":"Feature","properties":{"id":1939971506,"osm_type":"node","name":"Musik- och teaterbiblioteket","category":"museum","tags":{"addr:city":"Stockholm","addr:country":"SE","addr:housenumber":"100","addr:postcode":"115 28","addr:street":"Tegeluddsvägen","email":"info@musikochteaterbiblioteket.se","museum":"art","name":"Musik- och teaterbiblioteket","operator":"Statens Musikverk","operator:type":"government","tourism":"museum","website":"https://musikochteaterbiblioteket.se/"}},"geometry":{"type":"Point","coordinates":[18.1140302,59.3400834]}},{"type":"Feature","properties":{"id":2106971722,"osm_type":"node","name":"Skattkammaren","category":"museum","tags":{"description:en":"Swedish monarchy's regalia on permenent display. Gustav Vasa´s sword of state, Erik XIV´s crown, sceptre and orb and Lovisa Ulrika´s crown. (Source: operator website)","fee":"yes","museum":"history","name":"Skattkammaren","name:en":"The Treasury","operator":"H.M. Konungens Hovmarskalksämbete","phone":"+4684026130","tourism":"museum","website":"http://www.kungahuset.se/kungligaslotten/kungligaslottet/skattkammaren/","wikidata":"Q9337727","wikimedia_commons":"Category:Skattkammaren","wikipedia":"sv:Skattkammaren"}},"geometry":{"type":"Point","coordinates":[18.0720615,59.3263371]}},{"type":"Feature","properties":{"id":2305426859,"osm_type":"node","name":"Museet för drottning Kristinas kröningsekipage","category":"museum","tags":{"description:en":"Small museum in Ulriksdal Palace's stables. Focused on the reconstructed coronation carriage from Queen Kristina's coronation 1650.","name":"Museet för drottning Kristinas kröningsekipage","name:en":"Museum of Queen Kristina's coronation carriage","source":"survey","tourism":"museum","wikidata":"Q10590579","wikipedia":"sv:Museet för drottning Kristinas kröningsekipage"}},"geometry":{"type":"Point","coordinates":[18.0151378,59.388524]}},{"type":"Feature","properties":{"id":2328267047,"osm_type":"node","name":"Spritmuseum","category":"museum","tags":{"description":"Museum about alcohol \"With a focus on the Swedish people’s bittersweet relationship to alcohol\", with tasting rooms, a bar, restaurant, café and shop.","fee":"yes","name":"Spritmuseum","name:de":"Spritmuseum","name:en":"Museum of Spirits","name:fr":"Musée de l'alcool","opening_hours":"Mo 10:00-17:00; Tu 10:00-20:00; We-Su 10:00-17:00","phone":"+46 8 121 313 00","tourism":"museum","website":"https://spritmuseum.se/","wikidata":"Q10676610","wikimedia_commons":"Category:Spritmuseum","wikipedia":"sv:Spritmuseum"}},"geometry":{"type":"Point","coordinates":[18.0937996,59.3270286]}},{"type":"Feature","properties":{"id":2988601073,"osm_type":"node","name":"Tobak- och Tändsticksmuseum","category":"museum","tags":{"name":"Tobak- och Tändsticksmuseum","name:en":"Snus and Match Museum","opening_hours":"Tu-Su 11:00-16:00","tourism":"museum","website":"http://www.tobaksochtandsticksmuseum.se","wikidata":"Q61456869","wikimedia_commons":"Category:Snus- och Tändsticksmuseum"}},"geometry":{"type":"Point","coordinates":[18.1007959,59.3248529]}},{"type":"Feature","properties":{"id":2988628219,"osm_type":"node","name":"Båthall 2","category":"museum","tags":{"addr:country":"SE","addr:housenumber":"17","addr:postcode":"115 21","addr:street":"Djurgårdsstrand","description:en":"One of Europe’s biggest and most comprehensive collections of small boats and engines.","name":"Båthall 2","name:en":"Vrak Museum of Wrecks","opening_hours":"Th-Tu 10:00-17:00; We 10:00-20:00","tourism":"museum","website":"https://www.vrak.se/"}},"geometry":{"type":"Point","coordinates":[18.0950202,59.3263259]}},{"type":"Feature","properties":{"id":2988628220,"osm_type":"node","name":"Vikingaliv","category":"museum","tags":{"addr:housenumber":"17","addr:postcode":"115 21","addr:street":"Djurgårdsvägen","check_date":"2025-09-04","contact:facebook":"thevikingmuseum","contact:instagram":"thevikingmuseum","email":"info@thevikingmuseum.com","fee":"yes","internet_access":"wlan","name":"Vikingaliv","name:ca":"Museu dels Vikings","name:de":"Wikingermuseum","name:en":"The Viking Museum","name:fi":"Viikinkimuseo","name:fr":"Musée des Vikings","name:ru":"Музей викингов","opening_hours":"Mo-Su 10:00-19:00","payment:mastercard":"yes","payment:visa":"yes","phone":"+46 8 400 229 90","tourism":"museum","website":"https://www.vikingaliv.se","wheelchair":"yes","wikidata":"Q31871457","wikimedia_commons":"Category:Vikingaliv"}},"geometry":{"type":"Point","coordinates":[18.0949292,59.3265806]}},{"type":"Feature","properties":{"id":3413053658,"osm_type":"node","name":"Stigbergets borgarrum","category":"museum","tags":{"description:en":"\"The Bourgeoisie Rooms\" depicting a merchant class home from the mid-19th century, furnished by Anna Lindhagen, she herself lived prior to her death in 1941. She was a Swedish politician (Social Democrat), social reformer , women's rights activist.","fee":"yes","name":"Stigbergets borgarrum","opening_hours":"Su 13:00-15:00","operator":"Föreningen Stigberget","source:description:en":"Museum website, Wikipedia:sv","tourism":"museum","website":"https://stigbergetsborgarrum.se/","wheelchair":"limited","wikidata":"Q60678330","wikipedia":"sv:Anna Lindhagen"}},"geometry":{"type":"Point","coordinates":[18.0871094,59.3172175]}},{"type":"Feature","properties":{"id":4581111990,"osm_type":"node","name":"Prins Eugens Waldemarsudde","category":"museum","tags":{"check_date":"2025-07-23","description:sv":"Konstmuseum","email":"info@waldemarsudde.se","name":"Prins Eugens Waldemarsudde","name:sv":"Prins Eugens Waldemarsudde","opening_hours":"Mo off; Tu-We,Fr-Su 11:00-17:00; Th 11:00-20:00","phone":"+46 8 545 837 00","tourism":"museum","website":"https://www.waldemarsudde.se/","wikidata":"Q537"}},"geometry":{"type":"Point","coordinates":[18.1145539,59.3202222]}},{"type":"Feature","properties":{"id":5227209453,"osm_type":"node","name":"Thielska galleriet","category":"museum","tags":{"email":"info@thielskagalleriet.se","name":"Thielska galleriet","opening_hours":"Tu-Su 12:00-17:00","phone":"+46 8 662 58 84","tourism":"museum","website":"https://www.thielskagalleriet.se/","wikidata":"Q252259","wikipedia":"sv:Thielska galleriet"}},"geometry":{"type":"Point","coordinates":[18.1486291,59.3222975]}},{"type":"Feature","properties":{"id":5484382064,"osm_type":"node","name":"Restauration Gubbhyllan","category":"museum","tags":{"name":"Restauration Gubbhyllan","name:en":"Restauration Gubbhyllan","opening_hours":"Tu-Su 11:00-16:00","tourism":"museum"}},"geometry":{"type":"Point","coordinates":[18.1005657,59.3248926]}},{"type":"Feature","properties":{"id":6586768241,"osm_type":"node","name":"Solna hembygdsmuseum","category":"museum","tags":{"name":"Solna hembygdsmuseum","tourism":"museum","website":"https://www.hembygd.se/solna/hembygdsmuseum"}},"geometry":{"type":"Point","coordinates":[17.9989146,59.3633487]}},{"type":"Feature","properties":{"id":6945152200,"osm_type":"node","name":"Statarmuseet","category":"museum","tags":{"fee":"no","name":"Statarmuseet","opening_hours":"Sa,Su 11:00-16:00","tourism":"museum","website":"https://www.solna.se/overjarva-gard/uppleva-och-gora/statarmuseet","wikidata":"Q19946466"}},"geometry":{"type":"Point","coordinates":[17.9928765,59.3878458]}},{"type":"Feature","properties":{"id":7833270648,"osm_type":"node","name":"Sveriges VVS-museum","category":"museum","tags":{"check_date":"2026-05-01","fee":"yes","name":"Sveriges VVS-museum","opening_hours":"\"By appointment\"","tourism":"museum","website":"http://www.sverigesvvsmuseum.se/","wikidata":"Q28934532","wikipedia":"sv:Sveriges VVS-museum"}},"geometry":{"type":"Point","coordinates":[17.9577821,59.3571236]}},{"type":"Feature","properties":{"id":8898318634,"osm_type":"node","name":"Allmogebåtarna","category":"museum","tags":{"name":"Allmogebåtarna","tourism":"museum"}},"geometry":{"type":"Point","coordinates":[18.1765232,59.3287553]}},{"type":"Feature","properties":{"id":10751283010,"osm_type":"node","name":"Museum of Wrecks","category":"museum","tags":{"check_date":"2023-03-21","name":"Museum of Wrecks","name:de":"Wrackmuseum","opening_hours":"Mo-Tu,Th-Su 10:00-17:00; We 10:00-20:00","tourism":"museum","website":"https://www.vrak.se/"}},"geometry":{"type":"Point","coordinates":[18.0952227,59.326318]}},{"type":"Feature","properties":{"id":11254952737,"osm_type":"node","name":"Paradox Museum Stockholm","category":"museum","tags":{"fee":"yes","name":"Paradox Museum Stockholm","opening_hours":"Mo-Su 10:00-21:00","tourism":"museum","website":"https://www.paradoxmuseumstockholm.com"}},"geometry":{"type":"Point","coordinates":[18.0638182,59.3344251]}},{"type":"Feature","properties":{"id":12030837060,"osm_type":"node","name":"Upplevelse Museet","category":"museum","tags":{"addr:city":"Johanneshov","addr:housenumber":"3","addr:postcode":"12177","addr:street":"Arenaslingan","fee":"yes","name":"Upplevelse Museet","operator":"Svenska Upplevelsemuseer AB","operator:type":"private","phone":"+46724449106","tourism":"museum","website":"https://upplevelsemuseet.se/"}},"geometry":{"type":"Point","coordinates":[18.0826068,59.2921606]}},{"type":"Feature","properties":{"id":12131299541,"osm_type":"node","name":"Avicii Experience","category":"museum","tags":{"check_date":"2025-12-04","check_date:opening_hours":"2025-12-04","contact:email":"info@aviciiexperience.com","contact:website":"https://aviciiexperience.com","fee":"yes","name":"Avicii Experience","opening_hours":"Mo-Su 10:00-18:00","tourism":"museum","wheelchair":"yes"}},"geometry":{"type":"Point","coordinates":[18.064233,59.3330723]}},{"type":"Feature","properties":{"id":12150307995,"osm_type":"node","name":"Stockholm Toy Museum","category":"museum","tags":{"check_date":"2025-12-01","contact:email":"info@toymuseum.se","contact:phone":"+46859908430","contact:website":"https://toymuseum.se","museum":"children","name":"Stockholm Toy Museum","tourism":"museum"}},"geometry":{"type":"Point","coordinates":[18.0813887,59.3265429]}},{"type":"Feature","properties":{"id":12525852017,"osm_type":"node","name":"Andetag","category":"museum","tags":{"fee":"yes","name":"Andetag","tourism":"museum","website":"https://www.andetag.museum/"}},"geometry":{"type":"Point","coordinates":[18.063936,59.335395]}},{"type":"Feature","properties":{"id":13370655767,"osm_type":"node","name":"Bellmanhuset","category":"museum","tags":{"check_date":"2025-12-11","contact:phone":"+46767855800","contact:website":"https://www.bellmanhuset.se","name":"Bellmanhuset","tourism":"museum"}},"geometry":{"type":"Point","coordinates":[18.071719,59.3187238]}},{"type":"Feature","properties":{"id":13703349152,"osm_type":"node","name":"Svergies museum om Förintelsen","category":"museum","tags":{"museum":"history","name":"Svergies museum om Förintelsen","opening_hours":"Mo off;Tu 11:00-17:00;We 11:00-20:00;Th-Su 11:00-17:00","payment:cash":"no","tourism":"museum","website":"https://museumforintelsen.se"}},"geometry":{"type":"Point","coordinates":[18.0424675,59.3370921]}},{"type":"Feature","properties":{"id":10502251,"osm_type":"way","name":"Sjöhistoriska museet","category":"museum","tags":{"building":"museum","building:colour":"white","building:levels":"3","building:material":"plaster","check_date":"2026-03-14","fee":"yes","museum":"maritime","name":"Sjöhistoriska museet","name:en":"Maritime Museum","name:fi":"Merihistoriallinen museo","name:ru":"Морской музей","name:sv":"Sjöhistoriska museet","opening_hours":"Mo off; Tu,Th-Su 10:00-17:00; We 10:00-20:00; Jan 01,May 29,Jun 19-20,Dec 23-25,Dec 31 off","phone":"+46 8 519 549 00","roof:material":"copper","roof:shape":"cross_gabled","start_date":"1938","toilets":"yes","tourism":"museum","website":"https://www.sjohistoriska.se/","wheelchair":"yes","wikidata":"Q1647895","wikimedia_commons":"Category:Sjöhistoriska museet","wikipedia":"sv:Sjöhistoriska museet"}},"geometry":{"type":"Point","coordinates":[18.1158101,59.3325018]}},{"type":"Feature","properties":{"id":10502303,"osm_type":"way","name":"Etnografiska museet","category":"museum","tags":{"addr:postcode":"115 27","building":"museum","building:colour":"red","building:levels":"2","building:material":"wood","check_date":"2025-12-08","check_date:opening_hours":"2025-12-08","contact:email":"info@etnografiskamuseet.se","contact:phone":"+46104561200","contact:website":"https://www.etnografiskamuseet.se","description":"220,000 cultural and life style objects from China, Korea, South- and Southeast Asia, The Pacific, the Americas and Africa.","fee":"no","internet_access":"wlan","name":"Etnografiska museet","name:en":"Museum of Ethnography","name:fi":"Etnografinen museo","name:ru":"Этнографический музей","name:sv":"Etnografiska museet","opening_hours":"Mo closed; Tu 11:00-17:00; We 11:00-20:00; Th-Su 11:00-17:00","roof:colour":"grey","roof:material":"metal","start_date":"1978","tourism":"museum","wheelchair":"limited","wikidata":"Q1371375","wikimedia_commons":"Category:Etnografiska museet","wikipedia":"sv:Etnografiska museet, Stockholm"}},"geometry":{"type":"Point","coordinates":[18.1207098,59.3325579]}},{"type":"Feature","properties":{"id":23427065,"osm_type":"way","name":"Spårvägsmuseet","category":"museum","tags":{"addr:housenumber":"1","addr:street":"Gasverkstorget","building":"yes","building:levels":"4","building:material":"brick","check_date":"2025-10-19","fee":"yes","full_name":"Stockholms Spårvägsmuseum","museum":"transport","name":"Spårvägsmuseet","name:en":"Stockholm Transport Museum","opening_hours":"Tu-We,Fr-Su 11:00-17:00; Th 11:00-21:00","operator":"SL","ref":"9","roof:levels":"1","tourism":"museum","website":"https://sparvagsmuseet.se","wikidata":"Q3132782","wikimedia_commons":"Category:Stockholms spårvägsmuseum","wikipedia":"sv:Stockholms Spårvägsmuseum"}},"geometry":{"type":"Point","coordinates":[18.0915339,59.3579094]}},{"type":"Feature","properties":{"id":24968329,"osm_type":"way","name":"Nationalmuseum","category":"museum","tags":{"architect":"Friedrich August Stüler","architect:wikidata":"Q61256","building":"museum","building:colour":"#E1D3BF","building:levels":"6","building:wikidata":"Q10594801","building:wikipedia":"sv:Nationalmuseum (byggnad)","check_date":"2026-04-24","description":"Sweden's leading museum for art and design.","email":"info@nationalmuseum.se","fee":"yes","height":"30 m","heritage":"2","heritage:operator":"raa","heritage:website":"https://bebyggelseregistret.raa.se/bbr2/byggnad/visaHistorik.raa?byggnadId=21400000317001&page=historik","name":"Nationalmuseum","name:en":"National Museum of Fine Arts","name:fi":"Kansallismuseo","name:ru":"Национальный музей","opening_hours":"Mo off; Tu-We,Fr-Su 11:00-17:00; Th 11:00-20:00","payment:cash":"no","payment:credit_cards":"yes","payment:debit_cards":"yes","phone":"+46 8 519 543 00","ref:SE:raa":"21400000317001","roof:colour":"MediumAquamarine","roof:shape":"gabled","tourism":"museum","website":"https://www.nationalmuseum.se","wheelchair":"yes","wikidata":"Q842858","wikipedia":"sv:Nationalmuseum, Stockholm","year_of_construction":"1850 - 1860"}},"geometry":{"type":"Point","coordinates":[18.0781821,59.3284806]}},{"type":"Feature","properties":{"id":27288534,"osm_type":"way","name":"Vasamuseet","category":"museum","tags":{"building":"museum","building:colour":"red","building:levels":"4","changing_table":"yes","changing_table:location":"wheelchair_toilet","check_date":"2025-11-10","contact:phone":"+46 8 51954800","contact:website":"https://vasamuseet.se","description":"Almost entire 1628 Swedish warship raised and preserved in the '60s.","fee":"yes","historic":"ship","iconic":"yes","internet_access":"wlan","museum":"history","name":"Vasamuseet","name:de":"Vasa-Museum","name:en":"Vasa Museum","name:es":"Museo-Vasa","name:et":"Vasa muuseum","name:fi":"Vasan museo","name:fr":"Musée Vasa","name:he":"מוזיאון ואסה","name:hu":"Vasa múzeum","name:ja":"ヴァーサ号博物館","name:ko":"바사 박물관","name:pt":"Museu Vasa","name:ru":"Музей Васа","name:sv":"Vasamuseet","name:zh-Hans":"瓦萨博物馆","name:zh-Hant":"瓦薩博物館","opening_hours":"Mo-Tu,Th-Su 10:00-17:00; We 10:00-20:00","operator:type":"public","payment:cash":"no","payment:mastercard":"yes","payment:visa":"yes","roof:colour":"black","source":"Yahoo;surve","start_date":"1990","toilets:wheelchair":"yes","tourism":"museum","wheelchair":"yes","wikidata":"Q901371","wikimedia_commons":"Category:Vasa Museum","wikipedia":"sv:Vasamuseet"}},"geometry":{"type":"Point","coordinates":[18.0913889,59.3281047]}},{"type":"Feature","properties":{"id":33114307,"osm_type":"way","name":"Biologiska museet","category":"museum","tags":{"addr:postcode":"115 21","building":"museum","building:colour":"darkbrown","building:levels":"3","building:material":"wood","description":"Diorama of Scandinavian mammals and birds intheir natural, ecological habitat.","name":"Biologiska museet","name:de":"Biologisches Museum","name:en":"Biological Museum","name:fi":"Biologian museo","name:fr":"Musée de la biologie","opening_hours":"off \"closed for renovations\"","outdoor_seating":"no","roof:colour":"darkbrown","roof:material":"wood","start_date":"1893","tourism":"museum","wikidata":"Q864536","wikimedia_commons":"Category:Biologiska museet","wikipedia":"sv:Biologiska museet, Stockholm"}},"geometry":{"type":"Point","coordinates":[18.0977017,59.3271183]}},{"type":"Feature","properties":{"id":33275424,"osm_type":"way","name":"Abbamuseet","category":"museum","tags":{"addr:city":"Stockholm","addr:housenumber":"68","addr:postcode":"115 21","addr:street":"Djurgårdsvägen","building":"yes","building:colour":"sandybrown","building:levels":"3","building:levels:underground":"2","building:material":"wood","check_date":"2024-08-12","description:en":"Museum about the Swedish pop group, ABBA. Openning hours depend on the time of the year.","fee":"yes","internet_access":"wlan","museum":"music","name":"Abbamuseet","name:en":"ABBA The Museum","name:fi":"Abba-museo","name:ru":"Музей АББА","name:zh":"ABBA博物馆","name:zh-Hans":"ABBA博物馆","name:zh-Hant":"ABBA博物館","opening_hours":"10:00-18:00","opening_hours:url":"https://abbathemuseum.com/opening-hours","operator:type":"private","payment:cash":"no","roof:levels":"1","roof:material":"grass","roof:shape":"flat","source":"survey","start_date":"2013","subject":"ABBA","subject:wikidata":"Q18233","toilets:wheelchair":"yes","tourism":"museum","website":"https://abbathemuseum.com","wheelchair":"yes","wikidata":"Q2743819","wikipedia":"sv:Abbamuseet"}},"geometry":{"type":"Point","coordinates":[18.0965661,59.3248966]}},{"type":"Feature","properties":{"id":35205940,"osm_type":"way","name":"Bonniers konsthall","category":"museum","tags":{"building":"yes","building:levels":"5","building:material":"glass","check_date":"2026-06-05","fee":"yes","name":"Bonniers konsthall","name:fi":"Bonnierin taidehalli","opening_hours":"Mo-Tu off; We 12:00-20:00; Th-Su 12:00-18:00","roof:colour":"gray","roof:shape":"flat","start_date":"2006","tourism":"museum","website":"https://www.bonnierskonsthall.se/","wikidata":"Q10432932","wikimedia_commons":"Category:Bonniers konsthall","wikipedia":"sv:Bonniers Konsthall"}},"geometry":{"type":"Point","coordinates":[18.0426248,59.337091]}},{"type":"Feature","properties":{"id":40855710,"osm_type":"way","name":"Nyboda hembygds- och skolmuseum","category":"museum","tags":{"addr:city":"Huddinge","addr:country":"SE","addr:housenumber":"26A","addr:postcode":"141 61","addr:street":"Kommunalvägen","building":"yes","building:use":"museum","name":"Nyboda hembygds- och skolmuseum","tourism":"museum","website":"https://www.hembygdhuddinge.se/museer/nyboda-skolmuseeum/","wikidata":"Q10604354","wikipedia":"sv:Nyboda hembygds- och skolmuseum"}},"geometry":{"type":"Point","coordinates":[17.9853623,59.2387644]}},{"type":"Feature","properties":{"id":46934908,"osm_type":"way","name":"Svindersvik","category":"museum","tags":{"building":"yes","building:colour":"yellow","building:levels":"1","building:material":"plaster","castle_type":"manor","fee":"yes","historic":"castle","name":"Svindersvik","payment:cash":"no","roof:colour":"red","roof:levels":"1","roof:material":"metal","roof:shape":"half-hipped","start_date":"1740s","tourism":"museum","website":"https://www.nordiskamuseet.se/slott-och-gardar/svindersvik","wikidata":"Q630822","wikipedia":"sv:Svindersvik"}},"geometry":{"type":"Point","coordinates":[18.1305018,59.3102156]}},{"type":"Feature","properties":{"id":49521325,"osm_type":"way","name":"Klasro skolmuseum","category":"museum","tags":{"addr:city":"Sollentuna","addr:country":"SE","addr:housenumber":"61","addr:postcode":"19149","addr:street":"Klasrovägen","building":"museum","fee":"no","name":"Klasro skolmuseum","phone":"+46707174251","source":"Yahoo","tourism":"museum","website":"https://www.sollentuna.se/uppleva--gora/konst-kultur-och-sevardheter/kulturhistoria-kulturarv/Klasro-skolmuseum/","wikidata":"Q10546091","wikipedia":"sv:Klasroskolan"}},"geometry":{"type":"Point","coordinates":[17.9273078,59.4485605]}},{"type":"Feature","properties":{"id":124255734,"osm_type":"way","name":"H M Konungens Hovstall","category":"museum","tags":{"building":"stable","building:colour":"firebrick","building:levels":"4","building:material":"brick","description":"Royal stables with horses and carriages.","name":"H M Konungens Hovstall","name:en":"Royal Stables","name:fi":"Kuninkaalliset hevostallit","name:ru":"Королевские конюшни","phone":"+46 8 402 61 05","roof:colour":"black","roof:material":"metal","roof:shape":"hipped","source":"yahoo_imagery","start_date":"1894","tourism":"museum","website":"https://www.kungahuset.se/","wikidata":"Q10298650","wikimedia_commons":"Category:Hovstallet, Väpnargatan","wikipedia":"sv:Hovstallet, Väpnargatan"}},"geometry":{"type":"Point","coordinates":[18.0787824,59.3329611]}},{"type":"Feature","properties":{"id":137165681,"osm_type":"way","name":"Sven-Harrys konstmuseum","category":"museum","tags":{"building":"yes","building:colour":"gold","building:levels":"4","building:material":"metal","check_date":"2025-12-06","check_date:opening_hours":"2025-12-06","contact:email":"info@sven-harrys.se","contact:phone":"+46851160060","contact:website":"https://www.sven-harrys.se/","name":"Sven-Harrys konstmuseum","opening_hours":"Mo off; Tu-We,Fr 10:00-18:00; Th 10:00-20:00; Sa-Su 11:00-17:00","start_date":"2011","tourism":"museum","wikidata":"Q10684670","wikimedia_commons":"Category:Sven-Harrys konstmuseum","wikipedia":"sv:Sven-Harrys konstmuseum"}},"geometry":{"type":"Point","coordinates":[18.0439144,59.3395913]}},{"type":"Feature","properties":{"id":137550858,"osm_type":"way","name":"Blockmakarens hus","category":"museum","tags":{"addr:city":"Stockholm","addr:housenumber":"21","addr:postcode":"116 28","addr:street":"Stigbergsgatan","building":"yes","museum":"history","name":"Blockmakarens hus","opening_hours":"On appointment","operator":"Stadsmuseet i Stockholm","operator:type":"government","tourism":"museum","website":"https://stadsmuseet.stockholm/historiska-rum/blockmakarens-hus-1917/"}},"geometry":{"type":"Point","coordinates":[18.0840745,59.3168902]}},{"type":"Feature","properties":{"id":141463240,"osm_type":"way","name":"Baltic Sea Science Center","category":"museum","tags":{"attraction":"animal","building":"yes","fee":"no","name":"Baltic Sea Science Center","tourism":"museum","wikidata":"Q66459086","wikimedia_commons":"Category:Baltic Sea Science Center","wikipedia":"sv:Baltic Sea Science Center"}},"geometry":{"type":"Point","coordinates":[18.1044657,59.3246058]}},{"type":"Feature","properties":{"id":174695954,"osm_type":"way","name":"Skolmuseet i Svartbäcken","category":"museum","tags":{"building":"yes","name":"Skolmuseet i Svartbäcken","tourism":"museum"}},"geometry":{"type":"Point","coordinates":[18.1913465,59.1705144]}},{"type":"Feature","properties":{"id":348345482,"osm_type":"way","name":"Nordiska museet","category":"museum","tags":{"architect":"Isak Gustaf Clason","architect:wikidata":"Q931295","building":"museum","building:colour":"#C5AA90","building:levels":"3","building:material":"brick","check_date":"2025-07-21","contact:email":"nordiska@nordiskamuseet.se","contact:instagram":"nordiskamuseet","contact:phone":"+46 8 51954600","contact:website":"https://nordiskamuseet.se","description":"Collection of Swedish cultural objects from 1520 to the present day.","fee":"yes","height":"52","heritage":"2","heritage:operator":"raa","heritage:website":"https://bebyggelseregistret.raa.se/bbr2/byggnad/visaHistorik.raa?byggnadId=21400000289102&page=historik","int_name":"Nordic Museum","internet_access":"wlan","museum":"history","name":"Nordiska museet","name:de":"Nordisches Museum","name:en":"Nordic Museum","name:es":"Museo Nórdico","name:fi":"Pohjoismainen museo","name:fr":"Musée nordique","name:ja":"北方博物館","name:ru":"Музей Северных стран","name:sv":"Nordiska Museet","name:zh-Hans":"北欧博物馆","name:zh-Hant":"北歐博物館","opening_hours":"Mo-Su 10:00-17:00","payment:cash":"no","roof:colour":"gray","roof:height":"25","roof:shape":"gabled","start_date":"1907-06-08","tourism":"museum","wheelchair":"yes","wikidata":"Q1142142","wikipedia":"sv:Nordiska museet","year_of_construction":"1890..1907"}},"geometry":{"type":"Point","coordinates":[18.0938662,59.3291499]}},{"type":"Feature","properties":{"id":607927076,"osm_type":"way","name":"","category":"museum","tags":{"building":"yes","museum":"local_history","tourism":"museum"}},"geometry":{"type":"Point","coordinates":[18.0171297,59.2013136]}},{"type":"Feature","properties":{"id":607927077,"osm_type":"way","name":"Litografiska museet","category":"museum","tags":{"addr:city":"Huddinge","addr:country":"SE","addr:housenumber":"6","addr:postcode":"141 91","addr:street":"Sundby gårdsväg","building":"yes","email":"info@litografiskamuseet.se","fee":"no","name":"Litografiska museet","opening_hours":"Mo,Sa off; Tu-Fr,Su 12:00-15:00","phone":"+468746 90 91","tourism":"museum","website":"https://www.litografiskamuseet.se/om-sundby-gard/","wikidata":"Q10567808"}},"geometry":{"type":"Point","coordinates":[18.0195929,59.2005685]}},{"type":"Feature","properties":{"id":816795279,"osm_type":"way","name":"Kanongården","category":"museum","tags":{"fee":"no","museum":"military","name":"Kanongården","name:en":"The Gun Yard","opening_hours":"24/7","operator":"Sjöhistoriska museet","tourism":"museum"}},"geometry":{"type":"Point","coordinates":[18.1158477,59.3328675]}},{"type":"Feature","properties":{"id":93398,"osm_type":"relation","name":"Historiska museet","category":"museum","tags":{"addr:city":"Stockholm","addr:postcode":"114 60","alt_name:es":"Museo_de_Historia","building":"museum","building:colour":"yellow","building:levels":"3","building:material":"plaster","changing_table":"yes","charge":"150 SEK","charge:conditional":"100 SEK @ (age >= 65 AND Sep 1-Nov 30 Tu-Fr 11:00-15:00); 75 SEK @ (We 17:00-20:00)","check_date":"2023-03-22","contact:phone":"+46 8 51955600","description":"Sweden's history from earliest times to the Middle Ages. Get your Viking fix here.","fee":"yes","fee:conditional":"no @ age < 18","name":"Historiska museet","name:en":"Swedish History Museum","name:fi":"Valtion historiallinen museo","name:sv":"Historiska museet","opening_hours":"Tu, Th-Su 11:00-17:00; We 11:00-20:00","outdoor_seating":"no","roof:colour":"black","roof:material":"metal","roof:shape":"gabled","tourism":"museum","type":"multipolygon","website":"https://www.historiska.se","wheelchair":"yes","wikidata":"Q1726607","wikipedia":"sv:Statens historiska museum"}},"geometry":{"type":"Point","coordinates":[18.0901504,59.3348465]}},{"type":"Feature","properties":{"id":2440883,"osm_type":"relation","name":"Hallwylska palatset","category":"museum","tags":{"addr:city":"Stockholm","addr:housenumber":"4","addr:postcode":"111 47","addr:street":"Hamngatan","architect":"Isak Gustaf Clason, Albert Collett","architect:wikidata":"Q931295;Q22001646","building":"palace","building:levels":"4","castle_type":"palace","contact:facebook":"Hallwylskamuseet","contact:instagram":"hallwylskamuseet","description":"Private late 19th century palace with Wilhelmina von Hallwyl's collection of Dutch and Flemish painting, porcelain, silver , weapons textiles and household objects.","email":"bokning@hallwylskamuseet.se","heritage":"2","heritage:operator":"raa","heritage:website":"https://bebyggelseregistret.raa.se/bbr2/byggnad/visaKartlankar.raa?byggnadId=21420000008927&page=kartlankar","historic":"castle","name":"Hallwylska palatset","name:en":"Hallwyl Museum","opening_hours":"Tu, Th-Fr 12:00-16:00; We 12:00-19:00; Sa-Su 11:00-17:00","phone":"+46 8 4023099","ref:SE:raa":"21400000328890","tourism":"museum","type":"multipolygon","website":"https://hallwylskamuseet.se/","wikidata":"Q4346239","wikipedia":"sv:Hallwylska museet","year_of_construction":"1893 - 1898"}},"geometry":{"type":"Point","coordinates":[18.0745279,59.3332771]}}]}