{"type":"FeatureCollection","features":[{"type":"Feature","properties":{"id":360759275,"osm_type":"node","name":"Rose","category":"nightclub","tags":{"amenity":"nightclub","check_date":"2025-12-04","check_date:opening_hours":"2025-12-04","contact:email":"info@roseclub.se","contact:phone":"+4684405630","contact:website":"https://www.roseclub.se/","name":"Rose","opening_hours":"Mo-Tu closed; We 22:00-03:00; Th closed; Sa-Su 23:00-05:00"}},"geometry":{"type":"Point","coordinates":[18.0749378,59.3330999]}},{"type":"Feature","properties":{"id":369976808,"osm_type":"node","name":"Berns","category":"nightclub","tags":{"amenity":"nightclub","name":"Berns","operator":"Stureplansgrupper","payment:cash":"no","website":"https://www.berns.se/","wheelchair":"yes","wikidata":"Q826740","wikimedia_commons":"Category:Berns salonger","wikipedia":"sv:Berns"}},"geometry":{"type":"Point","coordinates":[18.0738967,59.3321771]}},{"type":"Feature","properties":{"id":410545369,"osm_type":"node","name":"Spy Bar","category":"nightclub","tags":{"amenity":"nightclub","contact:email":"info@stureplansgruppen.se","contact:website":"https://www.stureplansgruppen.se/the-spy-bar-1.aspx","name":"Spy Bar","opening_hours":"We-Sa 22:00-05:00","operator":"Stureplansgruppen","wikidata":"Q10676675","wikipedia":"sv:Spy Bar"}},"geometry":{"type":"Point","coordinates":[18.0721376,59.3365547]}},{"type":"Feature","properties":{"id":415981774,"osm_type":"node","name":"Fasching","category":"nightclub","tags":{"amenity":"nightclub","name":"Fasching","website":"https://www.fasching.se/","wheelchair":"no","wikidata":"Q10494245","wikipedia":"sv:Fasching"}},"geometry":{"type":"Point","coordinates":[18.0557611,59.3333991]}},{"type":"Feature","properties":{"id":449884326,"osm_type":"node","name":"Golden Hits","category":"nightclub","tags":{"amenity":"nightclub","check_date":"2024-07-11","name":"Golden Hits","opening_hours":"We 17:30-01:00, Th 17:30-02:00, Fr,Sa 17:30-03:00; Su-Tu off","website":"https://goldenhits.se/","wheelchair":"yes"}},"geometry":{"type":"Point","coordinates":[18.0668629,59.3357978]}},{"type":"Feature","properties":{"id":454221014,"osm_type":"node","name":"Nivå 22","category":"nightclub","tags":{"amenity":"nightclub","check_date":"2025-11-28","check_date:opening_hours":"2025-11-28","contact:email":"info@niva22.se","contact:phone":"+4686532790","contact:website":"https://www.niva22.se/","name":"Nivå 22","opening_hours":"Mo-Fr 15:00-01:00; Sa 14:00-01:00; Su 15:00-01:00"}},"geometry":{"type":"Point","coordinates":[18.0285348,59.3324168]}},{"type":"Feature","properties":{"id":462630509,"osm_type":"node","name":"Södra Bar","category":"nightclub","tags":{"amenity":"nightclub","name":"Södra Bar"}},"geometry":{"type":"Point","coordinates":[18.0742598,59.3183691]}},{"type":"Feature","properties":{"id":640305033,"osm_type":"node","name":"Guldapan","category":"nightclub","tags":{"amenity":"nightclub","name":"Guldapan","opening_hours":"We,Fr-Sa 22:00-03:00","opening_hours:signed":"no","phone":"+46-8-6445418","website":"http://guldapan.nu"}},"geometry":{"type":"Point","coordinates":[18.0633685,59.3188061]}},{"type":"Feature","properties":{"id":684792595,"osm_type":"node","name":"Klubb Blå","category":"nightclub","tags":{"amenity":"nightclub","check_date":"2025-11-16","contact:email":"info@klubbbla.se","contact:phone":"+46707912662","contact:website":"https://klubbbla.se","name":"Klubb Blå"}},"geometry":{"type":"Point","coordinates":[18.0332663,59.3350278]}},{"type":"Feature","properties":{"id":1186968935,"osm_type":"node","name":"Patricia","category":"nightclub","tags":{"addr:city":"Stockholm","addr:postcode":"11825","addr:street":"Söder Mälarstrand","addr:unit":"Kajplats 19","amenity":"nightclub","email":"info@patricia.st","fax":"+46 8-641 19 76","name":"Patricia","opening_hours":"Mo-Tu off; We-Th 17:00-00:00; Fr-Su 18:00-05:00","phone":"+46 8-7430570","smoking":"separated","website":"http://www.patricia.st/","wheelchair":"no"}},"geometry":{"type":"Point","coordinates":[18.0527645,59.3213969]}},{"type":"Feature","properties":{"id":1352870825,"osm_type":"node","name":"Slakthuset","category":"nightclub","tags":{"addr:country":"SE","addr:housenumber":"6","addr:street":"Slakthusgatan","amenity":"nightclub","name":"Slakthuset"}},"geometry":{"type":"Point","coordinates":[18.0795017,59.2916408]}},{"type":"Feature","properties":{"id":1393925985,"osm_type":"node","name":"Sturecompagniet","category":"nightclub","tags":{"amenity":"nightclub","name":"Sturecompagniet","opening_hours":"Th-Sa 22:00-03:00","operator":"Stureplansgruppen","website":"https://www.sturecompagniet.se/","wikidata":"Q10682450","wikimedia_commons":"Category:Sturecompagniet","wikipedia":"sv:Sturecompagniet"}},"geometry":{"type":"Point","coordinates":[18.0734568,59.3364918]}},{"type":"Feature","properties":{"id":1422123882,"osm_type":"node","name":"Baras ställe","category":"nightclub","tags":{"amenity":"nightclub","check_date":"2024-08-16","name":"Baras ställe","opening_hours":"Fr,Sa 20:00-03:00","smoking":"outside","wheelchair":"yes"}},"geometry":{"type":"Point","coordinates":[18.0705651,59.3133231]}},{"type":"Feature","properties":{"id":1541177382,"osm_type":"node","name":"Staybar","category":"nightclub","tags":{"amenity":"nightclub","name":"Staybar"}},"geometry":{"type":"Point","coordinates":[18.0770682,59.3073459]}},{"type":"Feature","properties":{"id":1778361749,"osm_type":"node","name":"Kolingen","category":"nightclub","tags":{"amenity":"nightclub","check_date":"2025-06-26","name":"Kolingen","opening_hours":"Mo-Th off; Fr-Sa 22:00-03:00; Su 03:00-24:00 off"}},"geometry":{"type":"Point","coordinates":[18.0721631,59.3225079]}},{"type":"Feature","properties":{"id":1844498178,"osm_type":"node","name":"Trädgården","category":"nightclub","tags":{"amenity":"nightclub","name":"Trädgården","smoking":"yes","website":"https://www.tradgarden.com/"}},"geometry":{"type":"Point","coordinates":[18.0787038,59.3044996]}},{"type":"Feature","properties":{"id":1937145796,"osm_type":"node","name":"Fou","category":"nightclub","tags":{"amenity":"nightclub","name":"Fou","phone":"+46-8-4405630","website":"https://fouclub.com/"}},"geometry":{"type":"Point","coordinates":[18.0751904,59.3331022]}},{"type":"Feature","properties":{"id":2336793891,"osm_type":"node","name":"Café Opera","category":"nightclub","tags":{"amenity":"nightclub","name":"Café Opera","opening_hours":"Mo-Tu off; We-Su 22:00-03:00","payment:cash":"no","website":"https://www.cafeopera.se/","wikidata":"Q1025651","wikimedia_commons":"Category:Café Opera","wikipedia":"sv:Café Opera"}},"geometry":{"type":"Point","coordinates":[18.0710838,59.3300067]}},{"type":"Feature","properties":{"id":2407774345,"osm_type":"node","name":"SLM Stockholm","category":"nightclub","tags":{"amenity":"nightclub","email":"info@slmstockholm.se","fetish":"bears","fetish:bdsm":"yes","fetish:bears":"yes","fetish:leather":"yes","fetish:rubber":"yes","fetish:uniform":"yes","floor":"-1","lgbtq:men":"only","membership":"required","min_age":"18","name":"SLM Stockholm","opening_hours:signed":"no","smoking":"isolated","smoking:outside":"no","source:lgbtq":"website","website":"https://slmstockholm.se"}},"geometry":{"type":"Point","coordinates":[18.0614786,59.3167371]}},{"type":"Feature","properties":{"id":2516118059,"osm_type":"node","name":"Solidaritet Arema","category":"nightclub","tags":{"addr:country":"SE","addr:housenumber":"69","addr:postcode":"121 77","addr:street":"Arenavägen","amenity":"nightclub","name":"Solidaritet Arema"}},"geometry":{"type":"Point","coordinates":[18.0848609,59.2907368]}},{"type":"Feature","properties":{"id":6488829904,"osm_type":"node","name":"Backdoor","category":"nightclub","tags":{"amenity":"nightclub","name":"Backdoor","name:en":"Backdoor"}},"geometry":{"type":"Point","coordinates":[18.0839438,59.2908192]}},{"type":"Feature","properties":{"id":6863422794,"osm_type":"node","name":"Debaser","category":"nightclub","tags":{"amenity":"nightclub","contact:email":"info@debaser.se","contact:phone":"+4684629860","contact:website":"https://www.debaser.se","name":"Debaser"}},"geometry":{"type":"Point","coordinates":[18.0324384,59.3144592]}},{"type":"Feature","properties":{"id":9380291439,"osm_type":"node","name":"Slaktkyrkan","category":"nightclub","tags":{"amenity":"nightclub","name":"Slaktkyrkan"}},"geometry":{"type":"Point","coordinates":[18.080131,59.292423]}},{"type":"Feature","properties":{"id":12496741844,"osm_type":"node","name":"Hus 7","category":"nightclub","tags":{"addr:city":"Johanneshov","addr:housenumber":"10","addr:postcode":"12162","addr:street":"Styckmästargatan","amenity":"nightclub","name":"Hus 7","operator":"Slakthusen"}},"geometry":{"type":"Point","coordinates":[18.0799038,59.2925699]}}]}