{"type":"FeatureCollection","features":[{"type":"Feature","properties":{"id":30049148,"osm_type":"node","name":"Apoteket","category":"pharmacy","tags":{"amenity":"pharmacy","app:apk":"se.apoteket.recept","app:apple":"https://itunes.apple.com/se/app/mitt-apotek/id1053398061","brand":"Apoteket","brand:wikidata":"Q1785637","fixme":"branch - vad heter detta apotek mera än apoteket?","healthcare":"pharmacy","name":"Apoteket","operator":"Apoteket AB (556138-6532)","owner":"Svenska Staten","ownership":"national","phone":"+46771450450","website:stock":"https://www.fass.se/"}},"geometry":{"type":"Point","coordinates":[18.1351658,59.3657245]}},{"type":"Feature","properties":{"id":297945362,"osm_type":"node","name":"Kronans Apotek","category":"pharmacy","tags":{"addr:housenumber":"8","addr:street":"Rinkebytorget","amenity":"pharmacy","brand":"Kronans Apotek","brand:wikidata":"Q10549422","healthcare":"pharmacy","name":"Kronans Apotek","website:stock":"https://www.fass.se/","wheelchair":"yes"}},"geometry":{"type":"Point","coordinates":[17.9292042,59.3878313]}},{"type":"Feature","properties":{"id":299718492,"osm_type":"node","name":"Apoteket","category":"pharmacy","tags":{"amenity":"pharmacy","app:apk":"se.apoteket.recept","app:apple":"https://itunes.apple.com/se/app/mitt-apotek/id1053398061","brand":"Apoteket","brand:wikidata":"Q1785637","fixme":"branch - vad heter detta apotek mera än apoteket?","healthcare":"pharmacy","name":"Apoteket","operator":"Apoteket AB (556138-6532)","owner":"Svenska Staten","ownership":"national","phone":"+46771450450","website:stock":"https://www.fass.se/"}},"geometry":{"type":"Point","coordinates":[18.1235146,59.3632053]}},{"type":"Feature","properties":{"id":304568336,"osm_type":"node","name":"Apoteksgruppen","category":"pharmacy","tags":{"amenity":"pharmacy","brand":"Apoteksgruppen","brand:wikidata":"Q10416129","brand:wikipedia":"sv:Apoteksgruppen","check_date":"2024-02-17","dispensing":"yes","healthcare":"pharmacy","level":"0","name":"Apoteksgruppen","opening_hours":"Mo 08:00-18:30; Tu-Fr 08:00-18:00; Sa 11:00-15:00; Su off","operator":"Apoteksgruppen","phone":"+46 8 612 50 45","website":"https://www.apoteksgruppen.se/apotek/stockholm/apoteksgruppen-stockholm-drottning-kristinas-vag/","website:stock":"https://www.fass.se/","wheelchair":"yes"}},"geometry":{"type":"Point","coordinates":[18.0714555,59.3460473]}},{"type":"Feature","properties":{"id":312629853,"osm_type":"node","name":"Kronans Apotek","category":"pharmacy","tags":{"amenity":"pharmacy","app:apple":"https://itunes.apple.com/se/app/kronans-apotek/id1129771604?l=en","app:google":"https://play.google.com/store/apps/details?id=se.kronansapotek.kronan","brand":"Kronans Apotek","brand:wikidata":"Q10549422","brand:wikipedia":"sv:Kronans Apotek","check_date":"2025-11-27","check_date:opening_hours":"2025-11-27","contact:email":"kundservice@kronansapotek.se","dispensing":"yes","healthcare":"pharmacy","name":"Kronans Apotek","opening_hours":"Mo-Fr 08:00-19:00; Sa 10:00-16:00; Su off","operator":"Kronans Droghandel Apotek AB","payment:cash":"yes","phone":"+46771612612","website":"https://www.kronansapotek.se/","website:stock":"https://www.fass.se/"}},"geometry":{"type":"Point","coordinates":[18.0430379,59.3291266]}},{"type":"Feature","properties":{"id":412884406,"osm_type":"node","name":"Apotek Hjärtat","category":"pharmacy","tags":{"amenity":"pharmacy","app:apple":"https://itunes.apple.com/se/app/apotek-hj%C3%A4rtat-n%C3%A4ra-dig/id1150817089","app:google":"https://play.google.com/store/apps/details?id=com.presencekit.apotek.se&hl=en_US","brand":"Apotek Hjärtat","brand:wikidata":"Q10416114","brand:wikipedia":"sv:Apotek Hjärtat","check_date":"2025-12-09","check_date:opening_hours":"2025-12-09","contact:phone":"+46771405405","contact:website":"https://www.apotekhjartat.se/","dispensing":"yes","healthcare":"pharmacy","name":"Apotek Hjärtat","opening_hours":"Mo-Fr 08:30-19:00; Sa 10:00-16:00; Su 11:00-16:00","operator":"Apotek Hjärtat Retail AB","owner":"ICA Gruppen AB","ownership":"private","payment:cash":"yes","website:stock":"https://www.fass.se/","wheelchair":"yes"}},"geometry":{"type":"Point","coordinates":[18.0344536,59.3155416]}},{"type":"Feature","properties":{"id":413908672,"osm_type":"node","name":"Apoteket","category":"pharmacy","tags":{"addr:city":"Hägersten","addr:country":"SE","addr:housenumber":"6","addr:postcode":"129 52","addr:street":"Fruängstorget","amenity":"pharmacy","app:apk":"se.apoteket.recept","app:apple":"https://itunes.apple.com/se/app/mitt-apotek/id1053398061","brand":"Apoteket","brand:wikidata":"Q1785637","brand:wikipedia":"sv:Apoteket","healthcare":"pharmacy","name":"Apoteket","opening_hours":"Mo-Fr 08:00-19:00; Sa 10:00-16:00","operator":"Apoteket AB (556138-6532)","owner":"Svenska Staten","ownership":"national","phone":"+46771450450","website":"https://www.apoteket.se","website:stock":"https://www.fass.se/"}},"geometry":{"type":"Point","coordinates":[17.9646066,59.2857782]}},{"type":"Feature","properties":{"id":418239097,"osm_type":"node","name":"Apoteket","category":"pharmacy","tags":{"amenity":"pharmacy","app:apple":"https://itunes.apple.com/se/app/mitt-apotek/id1053398061","app:google":"https://play.google.com/store/apps/details?id=se.apoteket.recept&hl=sv","branch":"Korpen","brand":"Apoteket","brand:wikidata":"Q1785637","dispensing":"yes","healthcare":"pharmacy","name":"Apoteket","opening_hours":"Mo-Fr 09:00-19:00; Sa 10:00-16:00; Su 11:00-16:00","operator":"Apoteket AB (556138-6532)","owner":"Svenska Staten","phone":"+46771450450","website":"https://www.apoteket.se/apotek/apoteket-korpen-stockholm/","website:stock":"https://www.fass.se/","wheelchair":"yes"}},"geometry":{"type":"Point","coordinates":[18.0687354,59.3256579]}},{"type":"Feature","properties":{"id":434473559,"osm_type":"node","name":"Kronans Apotek","category":"pharmacy","tags":{"addr:city":"Stockholm","addr:country":"SE","addr:housenumber":"93","addr:postcode":"120 63","addr:street":"Hammarby Allé","amenity":"pharmacy","brand":"Kronans Apotek","brand:wikidata":"Q10549422","dispensing":"yes","healthcare":"pharmacy","name":"Kronans Apotek","opening_hours":"Mo-Fr 08:30-18:00; Sa off; Su 11:00-16:00","website":"https://www.kronansapotek.se/hitta-apotek/kronans-apotek-hammarby-sjostad-5075/","website:stock":"https://www.fass.se/"}},"geometry":{"type":"Point","coordinates":[18.0932408,59.304174]}},{"type":"Feature","properties":{"id":442073256,"osm_type":"node","name":"Kronans Apotek","category":"pharmacy","tags":{"addr:city":"Årsta","addr:country":"SE","addr:housenumber":"26","addr:postcode":"120 53","addr:street":"Hjälmarsvägen","amenity":"pharmacy","brand":"Kronans Apotek","brand:wikidata":"Q10549422","check_date":"2026-02-01","dispensing":"yes","healthcare":"pharmacy","name":"Kronans Apotek","opening_hours":"Mo-Fr 09:00-18:00; Sa 10:00-14:00; Su off","phone":"+46-8-918102","website":"https://www.kronansapotek.se/hitta-apotek/kronans-apotek-arsta-0373/","website:stock":"https://www.fass.se/"}},"geometry":{"type":"Point","coordinates":[18.0529765,59.2975019]}},{"type":"Feature","properties":{"id":442077604,"osm_type":"node","name":"Kronans Apotek","category":"pharmacy","tags":{"addr:city":"Johanneshov","addr:housenumber":"1","addr:postcode":"121 40","addr:street":"Gullmarsplan","amenity":"pharmacy","brand":"Kronans Apotek","brand:wikidata":"Q10549422","check_date:opening_hours":"2023-08-15","dispensing":"yes","healthcare":"pharmacy","name":"Kronans Apotek","opening_hours":"Mo-Fr 09:00-19:00; Sa 10:00-15:00; Su odd","phone":"+46-8-6028651","website":"https://www.kronansapotek.se/hitta-apotek/kronans-apotek-gullmarsplan-0370/","website:stock":"https://www.fass.se/","wheelchair":"yes"}},"geometry":{"type":"Point","coordinates":[18.0802799,59.2986821]}},{"type":"Feature","properties":{"id":449884385,"osm_type":"node","name":"Apoteket","category":"pharmacy","tags":{"amenity":"pharmacy","app:apk":"se.apoteket.recept","app:apple":"https://itunes.apple.com/se/app/mitt-apotek/id1053398061","brand":"Apoteket","brand:wikidata":"Q1785637","check_date":"2023-10-01","dispensing":"no","healthcare":"pharmacy","name":"Apoteket","opening_hours":"Mo-Fr 09:00-19:00; Sa 10:00-17:00; Su 11:00-16:00","operator":"Apoteket AB (556138-6532)","owner":"Svenska Staten","ownership":"national","phone":"+46771450450","website":"https://www.apoteket.se/apotek/apoteket-shop-stockholm","website:stock":"https://www.fass.se/","wheelchair":"yes"}},"geometry":{"type":"Point","coordinates":[18.0595308,59.3344266]}},{"type":"Feature","properties":{"id":457505152,"osm_type":"node","name":"Kronans Apotek","category":"pharmacy","tags":{"amenity":"pharmacy","app:apple":"https://itunes.apple.com/se/app/kronans-apotek/id1129771604?l=en","app:google":"https://play.google.com/store/apps/details?id=se.kronansapotek.kronan","brand":"Kronans Apotek","brand:wikidata":"Q10549422","brand:wikipedia":"sv:Kronans Apotek","check_date":"2025-01-14","check_date:opening_hours":"2025-01-14","dispensing":"yes","healthcare":"pharmacy","name":"Kronans Apotek","opening_hours":"Mo-Fr 09:00-19:00; Sa 10:00-15:00; Su off","operator":"Kronans Droghandel Apotek AB","phone":"+46771612612","website":"https://www.kronansapotek.se","website:stock":"https://www.fass.se/"}},"geometry":{"type":"Point","coordinates":[18.0599861,59.3389327]}},{"type":"Feature","properties":{"id":470495633,"osm_type":"node","name":"Apoteket","category":"pharmacy","tags":{"amenity":"pharmacy","app:apple":"https://itunes.apple.com/se/app/mitt-apotek/id1053398061","app:google":"https://play.google.com/store/apps/details?id=se.apoteket.recept&hl=sv","branch":"C W Scheele","brand":"Apoteket","brand:wikidata":"Q1785637","check_date":"2025-12-04","check_date:opening_hours":"2025-12-04","contact:phone":"+46771450450","contact:website":"https://www.apoteket.se/apotek/apoteket-c-w-scheele-stockholm/","dispensing":"yes","healthcare":"pharmacy","name":"Apoteket","opening_hours":"24/7","operator":"Apoteket AB (556138-6532)","owner":"Svenska Staten","website:stock":"https://www.fass.se/","wheelchair":"yes","wikidata":"Q26253489","wikimedia_commons":"Category:Apoteket C.W. Scheele","wikipedia":"sv:Apoteket C.W. Scheele"}},"geometry":{"type":"Point","coordinates":[18.0592734,59.3316243]}},{"type":"Feature","properties":{"id":471576202,"osm_type":"node","name":"Kronans Apotek","category":"pharmacy","tags":{"amenity":"pharmacy","app:apple":"https://itunes.apple.com/se/app/kronans-apotek/id1129771604?l=en","app:google":"https://play.google.com/store/apps/details?id=se.kronansapotek.kronan","brand":"Kronans Apotek","brand:wikidata":"Q10549422","brand:wikipedia":"sv:Kronans Apotek","check_date:opening_hours":"2025-06-17","dispensing":"yes","healthcare":"pharmacy","name":"Kronans Apotek","old_name":"Linden","opening_hours":"Mo-Fr 08:00-18:00; Sa 10:00-15:00; Su off","operator":"Kronans Droghandel Apotek AB","phone":"+46771612612","website":"https://www.kronansapotek.se","website:stock":"https://www.fass.se/"}},"geometry":{"type":"Point","coordinates":[18.0098559,59.3370363]}},{"type":"Feature","properties":{"id":473467480,"osm_type":"node","name":"Apoteket draken","category":"pharmacy","tags":{"amenity":"pharmacy","brand":"Apoteksgruppen","brand:wikidata":"Q10416129","brand:wikipedia":"sv:Apoteksgruppen","check_date":"2020-04-30","dispensing":"yes","healthcare":"pharmacy","name":"Apoteket draken","opening_hours":"Mo-Fr 09:00-19:00;Sa 10:00-15:00;Su off","operator":"Apoteksgruppen","phone":"+46-8-300586","website":"https://www.apoteksgruppen.se/apotek/stockholm/apoteksgruppen-stockholm-karlbergsvagen/","website:stock":"https://www.fass.se/","wheelchair":"limited"}},"geometry":{"type":"Point","coordinates":[18.0372466,59.3423058]}},{"type":"Feature","properties":{"id":490131300,"osm_type":"node","name":"Apoteket Hjärtat","category":"pharmacy","tags":{"amenity":"pharmacy","brand":"Apoteket Hjärtat","brand:wikidata":"Q1785637","dispensing":"yes","drive_through":"no","healthcare":"pharmacy","name":"Apoteket Hjärtat","operator":"Apoteket Hjärtat","phone":"+46771450450","website":"https://www.apotekhjartat.se/hitta-apotek-hjartat/stockholm/apotek_hjartat_alta_centrum_alta/","website:stock":"https://www.fass.se/"}},"geometry":{"type":"Point","coordinates":[18.1778772,59.2556506]}},{"type":"Feature","properties":{"id":496103995,"osm_type":"node","name":"Apotek Hjärtat","category":"pharmacy","tags":{"addr:city":"Huddinge","addr:country":"SE","addr:housenumber":"5","addr:postcode":"141 47","addr:street":"Sjödalstorget","amenity":"pharmacy","app:apple":"https://itunes.apple.com/se/app/apotek-hj%C3%A4rtat-n%C3%A4ra-dig/id1150817089","app:google":"https://play.google.com/store/apps/details?id=com.presencekit.apotek.se&hl=en_US","brand":"Apotek Hjärtat","brand:wikidata":"Q10416114","dispensing":"yes","healthcare":"pharmacy","name":"Apotek Hjärtat","opening_hours":"Mo-Fr 08:00-19:00; Sa 09:00-16:00; Su 11:00-16:00","operator":"Apotek Hjärtat Retail AB","owner":"ICA Gruppen AB","ownership":"private","phone":"+46771405405","website":"https://www.apotekhjartat.se/hitta-apotek-hjartat/apotek-hjartat-huddinge-centrum","website:stock":"https://www.fass.se/","wheelchair":"yes"}},"geometry":{"type":"Point","coordinates":[17.9820387,59.2360698]}},{"type":"Feature","properties":{"id":538907036,"osm_type":"node","name":"Kronans Apotek","category":"pharmacy","tags":{"amenity":"pharmacy","app:apple":"https://itunes.apple.com/se/app/kronans-apotek/id1129771604?l=en","app:google":"https://play.google.com/store/apps/details?id=se.kronansapotek.kronan","brand":"Kronans Apotek","brand:wikidata":"Q10549422","brand:wikipedia":"sv:Kronans Apotek","check_date":"2025-11-15","check_date:opening_hours":"2025-11-15","dispensing":"yes","healthcare":"pharmacy","name":"Kronans Apotek","opening_hours":"Mo-Fr 09:00-19:00; Sa 10:00-15:00; Su 11:00-15:00","operator":"Kronans Droghandel Apotek AB","phone":"+46771612612","website":"https://www.kronansapotek.se","website:stock":"https://www.fass.se/"}},"geometry":{"type":"Point","coordinates":[18.0602287,59.3453439]}},{"type":"Feature","properties":{"id":540400010,"osm_type":"node","name":"Kronans Apotek","category":"pharmacy","tags":{"amenity":"pharmacy","brand":"Kronans Apotek","brand:wikidata":"Q10549422","healthcare":"pharmacy","name":"Kronans Apotek","website:stock":"https://www.fass.se/","wheelchair":"yes"}},"geometry":{"type":"Point","coordinates":[17.925675,59.4096855]}},{"type":"Feature","properties":{"id":566435739,"osm_type":"node","name":"Apotek Hjärtat","category":"pharmacy","tags":{"addr:city":"Bromma","addr:country":"SE","addr:housenumber":"2-4","addr:postcode":"167 74","addr:street":"Nockeby Torg","amenity":"pharmacy","app:apple":"https://itunes.apple.com/se/app/apotek-hj%C3%A4rtat-n%C3%A4ra-dig/id1150817089","app:google":"https://play.google.com/store/apps/details?id=com.presencekit.apotek.se&hl=en_US","brand":"Apotek Hjärtat","name":"Apotek Hjärtat","opening_hours":"Mo-Fr 09:30-18:00; Sa 10:00-14:00; Su,PH off","operator":"Apotek Hjärtat Retail AB","owner":"ICA Gruppen AB","ownership":"private","phone":"+46771405405","website":"https://www.apotekhjartat.se/hitta-apotek-hjartat/stockholm/apotek_hjartat_nockebytorg_2_4_bromma/","website:stock":"https://www.fass.se/","wheelchair":"yes"}},"geometry":{"type":"Point","coordinates":[17.9287271,59.3290947]}},{"type":"Feature","properties":{"id":585183332,"osm_type":"node","name":"Apotek Hjärtat","category":"pharmacy","tags":{"addr:city":"Nacka","addr:country":"SE","addr:housenumber":"12","addr:postcode":"131 53","addr:street":"Forumvägen","amenity":"pharmacy","app:apple":"https://itunes.apple.com/se/app/apotek-hj%C3%A4rtat-n%C3%A4ra-dig/id1150817089","app:google":"https://play.google.com/store/apps/details?id=com.presencekit.apotek.se&hl=en_US","brand":"Apotek Hjärtat","brand:wikidata":"Q10416114","brand:wikipedia":"sv:Apotek Hjärtat","healthcare":"pharmacy","level":"1","name":"Apotek Hjärtat","operator":"Apotek Hjärtat Retail AB","owner":"ICA Gruppen AB","ownership":"private","phone":"+46771405405","website:stock":"https://www.fass.se/"}},"geometry":{"type":"Point","coordinates":[18.1644427,59.3092517]}},{"type":"Feature","properties":{"id":661142086,"osm_type":"node","name":"","category":"pharmacy","tags":{"amenity":"pharmacy","healthcare":"pharmacy","website:stock":"https://www.fass.se/"}},"geometry":{"type":"Point","coordinates":[17.9399584,59.376232]}},{"type":"Feature","properties":{"id":675127153,"osm_type":"node","name":"Kronans Apotek","category":"pharmacy","tags":{"amenity":"pharmacy","app:apple":"https://itunes.apple.com/se/app/kronans-apotek/id1129771604?l=en","app:google":"https://play.google.com/store/apps/details?id=se.kronansapotek.kronan","brand":"Kronans Apotek","brand:wikidata":"Q10549422","brand:wikipedia":"sv:Kronans Apotek","check_date":"2025-12-13","check_date:opening_hours":"2025-12-13","contact:phone":"+46771612612","contact:website":"https://www.kronansapotek.se/hitta-apotek/kronans-apotek-stockholm-renstiernas-gata-0334/","dispensing":"yes","healthcare":"pharmacy","name":"Kronans Apotek","opening_hours":"Mo-Fr 08:30-19:00;Sa 10:00-16:00;Su off","operator":"Kronans Droghandel Apotek AB","website:stock":"https://www.fass.se/"}},"geometry":{"type":"Point","coordinates":[18.0842398,59.3141512]}},{"type":"Feature","properties":{"id":770356142,"osm_type":"node","name":"Kronans","category":"pharmacy","tags":{"amenity":"pharmacy","healthcare":"pharmacy","name":"Kronans","opening_hours":"Mo-Fr 08:30-17:00","website":"http://www.kronansdroghandel.se/Valj-Apotek/Stockholms-lan/Doppingen/"}},"geometry":{"type":"Point","coordinates":[18.1511073,59.350929]}},{"type":"Feature","properties":{"id":773238531,"osm_type":"node","name":"Apotek Hjärtat","category":"pharmacy","tags":{"addr:city":"Sollentuna","addr:country":"SE","addr:housenumber":"163C","addr:postcode":"19147","addr:street":"Sollentunavägen","amenity":"pharmacy","app:apple":"https://itunes.apple.com/se/app/apotek-hj%C3%A4rtat-n%C3%A4ra-dig/id1150817089","app:google":"https://play.google.com/store/apps/details?id=com.presencekit.apotek.se&hl=en_US","brand":"Apotek Hjärtat","brand:wikidata":"Q10416114","brand:wikipedia":"sv:Apotek Hjärtat","check_date":"2025-11-18","check_date:opening_hours":"2025-11-18","contact:phone":"+46771405405","contact:website":"https://www.apotekhjartat.se/hitta-apotek-hjartat/apotek-hjartat-sollentuna-centrum","healthcare":"pharmacy","level":"0","name":"Apotek Hjärtat","opening_hours":"Mo-Fr 09:00-20:00; Sa, Su 10:00-18:00","operator":"Apotek Hjärtat Retail AB","owner":"ICA Gruppen AB","ownership":"private","website:stock":"https://www.fass.se/"}},"geometry":{"type":"Point","coordinates":[17.9511845,59.4278045]}},{"type":"Feature","properties":{"id":773643506,"osm_type":"node","name":"Apoteket","category":"pharmacy","tags":{"amenity":"pharmacy","app:apk":"se.apoteket.recept","app:apple":"https://itunes.apple.com/se/app/mitt-apotek/id1053398061","branch":"Apoteket Tranan","brand":"Apoteket","name":"Apoteket","operator":"Apoteket AB (556138-6532)","owner":"Svenska Staten","ownership":"national","phone":"+46771450450","website:stock":"https://www.fass.se/"}},"geometry":{"type":"Point","coordinates":[17.9780238,59.3350061]}},{"type":"Feature","properties":{"id":822916971,"osm_type":"node","name":"Apotek Hjärtat","category":"pharmacy","tags":{"addr:city":"Solna","addr:country":"SE","addr:housenumber":"1","addr:postcode":"17145","addr:street":"Hotellgatan","amenity":"pharmacy","app:apple":"https://itunes.apple.com/se/app/apotek-hj%C3%A4rtat-n%C3%A4ra-dig/id1150817089","app:google":"https://play.google.com/store/apps/details?id=com.presencekit.apotek.se&hl=en_US","branch":"Hotellgatan","brand":"Apotek Hjärtat","brand:wikidata":"Q10416114","brand:wikipedia":"sv:Apotek Hjärtat","check_date":"2022-06-20","check_date:opening_hours":"2022-12-05","healthcare":"pharmacy","level":"0","name":"Apotek Hjärtat","opening_hours":"Mo-Fr 08:30-19:00; Sa 10:00-17:00; Su 11:00-17:00","operator":"Apotek Hjärtat Retail AB","owner":"ICA Gruppen AB","ownership":"private","phone":"+46 77 140 54 05","website:stock":"https://www.fass.se/","wheelchair":"yes"}},"geometry":{"type":"Point","coordinates":[17.9999949,59.3588135]}},{"type":"Feature","properties":{"id":834606049,"osm_type":"node","name":"Apotek Hjärtat","category":"pharmacy","tags":{"amenity":"pharmacy","app:apple":"https://itunes.apple.com/se/app/apotek-hj%C3%A4rtat-n%C3%A4ra-dig/id1150817089","app:google":"https://play.google.com/store/apps/details?id=com.presencekit.apotek.se&hl=en_US","brand":"Apotek Hjärtat","brand:wikidata":"Q10416114","brand:wikipedia":"sv:Apotek Hjärtat","check_date":"2025-12-12","check_date:opening_hours":"2025-12-12","contact:phone":"+46771405405","contact:website":"https://www.apotekhjartat.se/hitta-apotek-hjartat/apotek-hjartat-mariatorget-stockholm","dispensing":"yes","healthcare":"pharmacy","name":"Apotek Hjärtat","opening_hours":"Mo-Su 08:00-22:00","operator":"Apotek Hjärtat Retail AB","owner":"ICA Gruppen AB","ownership":"private","website:stock":"https://www.fass.se/","wheelchair":"yes"}},"geometry":{"type":"Point","coordinates":[18.0577693,59.3174173]}},{"type":"Feature","properties":{"id":838537711,"osm_type":"node","name":"Kronans Apotek","category":"pharmacy","tags":{"addr:city":"Sollentuna","addr:country":"SE","addr:housenumber":"6","addr:postcode":"19252","addr:street":"Edsbergs torg","amenity":"pharmacy","brand":"Kronans Apotek","brand:wikidata":"Q10549422","check_date":"2025-11-22","check_date:opening_hours":"2025-11-22","contact:email":"kundservice@kronansapotek.se","contact:website":"https://www.kronansapotek.se/hitta-apotek/kronans-apotek-sollentuna-edsberg-2153/","dispensing":"yes","drive_through":"no","healthcare":"pharmacy","name":"Kronans Apotek","opening_hours":"Mo-Fr 09:00-19:00; Sa 10:00-15:00","operator":"Kronans Apotek","website:stock":"https://www.fass.se/"}},"geometry":{"type":"Point","coordinates":[17.9663372,59.4454341]}},{"type":"Feature","properties":{"id":842452665,"osm_type":"node","name":"DOZ Apotek","category":"pharmacy","tags":{"amenity":"pharmacy","brand":"DOZ Apotek","brand:wikidata":"Q10475311","check_date":"2025-12-12","check_date:opening_hours":"2025-12-12","contact:phone":"+46850515180","contact:website":"https://dozapotek.se/apotek/stockholm/doz-apotek-stockholm-rosenlundsgatan","dispensing":"yes","drive_through":"no","healthcare":"pharmacy","name":"DOZ Apotek","opening_hours":"Mo-Fr 08:00-18:00; Sa 10:00-15:00; Su off","operator":"DOZ AB","owner":"Admenta Sweden AB","ownership":"private","website:stock":"https://www.fass.se/","wheelchair":"yes","wikipedia":"sv:DOZ Apotek"}},"geometry":{"type":"Point","coordinates":[18.0578219,59.3119303]}},{"type":"Feature","properties":{"id":849821115,"osm_type":"node","name":"Apoteket","category":"pharmacy","tags":{"amenity":"pharmacy","app:apk":"se.apoteket.recept","app:apple":"https://itunes.apple.com/se/app/mitt-apotek/id1053398061","branch":"Apoteket Ulven","brand":"Apoteket","healthcare":"pharmacy","name":"Apoteket","operator":"Apoteket AB (556138-6532)","owner":"Svenska Staten","ownership":"national","phone":"+46771450450","website:stock":"https://www.fass.se/"}},"geometry":{"type":"Point","coordinates":[17.986741,59.3500817]}},{"type":"Feature","properties":{"id":886342620,"osm_type":"node","name":"Apotek Hjärtat","category":"pharmacy","tags":{"amenity":"pharmacy","app:apple":"https://itunes.apple.com/se/app/apotek-hj%C3%A4rtat-n%C3%A4ra-dig/id1150817089","app:google":"https://play.google.com/store/apps/details?id=com.presencekit.apotek.se&hl=en_US","brand":"Apotek Hjärtat","brand:wikidata":"Q10416114","brand:wikipedia":"sv:Apotek Hjärtat","dispensing":"yes","healthcare":"pharmacy","name":"Apotek Hjärtat","operator":"Apotek Hjärtat Retail AB","owner":"ICA Gruppen AB","ownership":"private","phone":"+46771405405","website:stock":"https://www.fass.se/"}},"geometry":{"type":"Point","coordinates":[17.9669036,59.2940587]}},{"type":"Feature","properties":{"id":892214452,"osm_type":"node","name":"Kronans Apotek","category":"pharmacy","tags":{"addr:country":"SE","addr:housenumber":"4-6","addr:street":"Annebodavägen","amenity":"pharmacy","brand":"Kronans Apotek","brand:wikidata":"Q10549422","healthcare":"pharmacy","name":"Kronans Apotek","opening_hours":"Mo-Fr 08:30-12:15,13:15-16:00","website:stock":"https://www.fass.se/"}},"geometry":{"type":"Point","coordinates":[18.0301247,59.2847122]}},{"type":"Feature","properties":{"id":897762086,"osm_type":"node","name":"Kronans Apotek","category":"pharmacy","tags":{"amenity":"pharmacy","brand":"Kronans Apotek","brand:wikidata":"Q10549422","dispensing":"yes","healthcare":"pharmacy","name":"Kronans Apotek","opening_hours":"Mo-Fr 09:00-19:00; Sa 10:00-15:00","website":"https://www.kronansapotek.se/hitta-apotek/kronans-apotek-telefonplan-0734/"}},"geometry":{"type":"Point","coordinates":[17.9970116,59.2986734]}},{"type":"Feature","properties":{"id":918539681,"osm_type":"node","name":"Kronans Apotek","category":"pharmacy","tags":{"addr:city":"Djursholm","addr:street":"Vendevägen","amenity":"pharmacy","brand":"Kronans Apotek","brand:wikidata":"Q10549422","healthcare":"pharmacy","name":"Kronans Apotek","source":"survey","website:stock":"https://www.fass.se/"}},"geometry":{"type":"Point","coordinates":[18.0874797,59.3978579]}},{"type":"Feature","properties":{"id":918599506,"osm_type":"node","name":"Apoteket","category":"pharmacy","tags":{"amenity":"pharmacy","app:apk":"se.apoteket.recept","app:apple":"https://itunes.apple.com/se/app/mitt-apotek/id1053398061","brand":"Apoteket","brand:wikidata":"Q1785637","check_date:opening_hours":"2025-08-05","contact:website":"https://www.apoteket.se/apotek/apoteket-eken-danderyd/","fixme":"branch - vad heter detta apotek mera än apoteket?","healthcare":"pharmacy","level":"3","name":"Apoteket","opening_hours":"Mo-Fr 09:00-19:00; Sa 10:00-17:00; Su 11:00-17:00","operator":"Apoteket AB (556138-6532)","owner":"Svenska Staten","ownership":"national","phone":"+46771450450","source":"survey","website:stock":"https://www.fass.se/","wheelchair":"yes"}},"geometry":{"type":"Point","coordinates":[18.036546,59.3972969]}},{"type":"Feature","properties":{"id":947974193,"osm_type":"node","name":"Apoteket","category":"pharmacy","tags":{"amenity":"pharmacy","app:apple":"https://itunes.apple.com/se/app/mitt-apotek/id1053398061","app:google":"https://play.google.com/store/apps/details?id=se.apoteket.recept&hl=sv","branch":"Elefanten","brand":"Apoteket","brand:wikidata":"Q1785637","dispensing":"yes","healthcare":"pharmacy","name":"Apoteket","opening_hours":"Mo-Fr 08:00-19:00;Sa 10:00-16:00;Su 12:00-16:00","operator":"Apoteket AB (556138-6532)","owner":"Svenska Staten","phone":"+46771450450","website":"https://www.apoteket.se/apotek/apoteket-elefanten-stockholm","website:stock":"https://www.fass.se/"}},"geometry":{"type":"Point","coordinates":[18.0768263,59.3365013]}},{"type":"Feature","properties":{"id":1096582634,"osm_type":"node","name":"Apoteket Falken","category":"pharmacy","tags":{"amenity":"pharmacy","app:apple":"https://itunes.apple.com/se/app/mitt-apotek/id1053398061","app:google":"https://play.google.com/store/apps/details?id=se.apoteket.recept&hl=sv","brand":"Apoteket","dispensing":"yes","level":"0","name":"Apoteket Falken","opening_hours":"Mo-Fr 08:00-20:00;Sa 09:00-18:00;Su 10:00-18:00","operator":"Apoteket AB (556138-6532)","owner":"Svenska Staten","phone":"+46 77 145 04 50","website":"https://www.apoteket.se/apotek/apoteket-falken-stockholm","website:stock":"https://www.fass.se/","wheelchair":"yes"}},"geometry":{"type":"Point","coordinates":[18.09175,59.3399575]}},{"type":"Feature","properties":{"id":1164746872,"osm_type":"node","name":"Apoteket","category":"pharmacy","tags":{"amenity":"pharmacy","app:apple":"https://itunes.apple.com/se/app/mitt-apotek/id1053398061","app:google":"https://play.google.com/store/apps/details?id=se.apoteket.recept&hl=sv","branch":"Storken","brand":"Apoteket","brand:wikidata":"Q1785637","check_date":"2025-12-08","check_date:opening_hours":"2025-12-08","dispensing":"yes","healthcare":"pharmacy","name":"Apoteket","opening_hours":"Mo-Fr 09:00-18:00; Sa 10:00-15:00; Su off","operator":"Apoteket AB (556138-6532)","owner":"Svenska Staten","phone":"+46771450450","website":"https://www.apoteket.se/apotek/apoteket-storken-stockholm","website:stock":"https://www.fass.se/"}},"geometry":{"type":"Point","coordinates":[18.0867908,59.3342628]}},{"type":"Feature","properties":{"id":1184113935,"osm_type":"node","name":"Huddinge sjukhus apotek","category":"pharmacy","tags":{"amenity":"pharmacy","fixme":"vilken kedja tillhör detta apotek?","healthcare":"pharmacy","name":"Huddinge sjukhus apotek","website:stock":"https://www.fass.se/"}},"geometry":{"type":"Point","coordinates":[17.9351154,59.2202152]}},{"type":"Feature","properties":{"id":1193166693,"osm_type":"node","name":"Apotek Hjärtat","category":"pharmacy","tags":{"addr:country":"SE","addr:housenumber":"52","addr:street":"Storforsplan","amenity":"pharmacy","app:apple":"https://itunes.apple.com/se/app/apotek-hj%C3%A4rtat-n%C3%A4ra-dig/id1150817089","app:google":"https://play.google.com/store/apps/details?id=com.presencekit.apotek.se&hl=en_US","brand":"Apotek Hjärtat","brand:wikidata":"Q10416114","brand:wikipedia":"sv:Apotek Hjärtat","healthcare":"pharmacy","name":"Apotek Hjärtat","operator":"Apotek Hjärtat Retail AB","owner":"ICA Gruppen AB","ownership":"private","phone":"+46771405405","website:stock":"https://www.fass.se/","wheelchair":"limited"}},"geometry":{"type":"Point","coordinates":[18.0927988,59.2424761]}},{"type":"Feature","properties":{"id":1234015494,"osm_type":"node","name":"Apotek Hjärtat","category":"pharmacy","tags":{"addr:city":"Enskede","addr:country":"SE","addr:housenumber":"114","addr:street":"Gubbängstorget","amenity":"pharmacy","app:apple":"https://itunes.apple.com/se/app/apotek-hj%C3%A4rtat-n%C3%A4ra-dig/id1150817089","app:google":"https://play.google.com/store/apps/details?id=com.presencekit.apotek.se&hl=en_US","brand":"Apotek Hjärtat","brand:wikidata":"Q10416114","brand:wikipedia":"sv:Apotek Hjärtat","check_date":"2024-03-20","healthcare":"pharmacy","name":"Apotek Hjärtat","opening_hours":"Mo-Fr 09:00-18:00; Sa 10:00-14:00; Su off","operator":"Apotek Hjärtat Retail AB","owner":"ICA Gruppen AB","ownership":"private","phone":"+46771405405","website:stock":"https://www.fass.se/"}},"geometry":{"type":"Point","coordinates":[18.08297,59.2621672]}},{"type":"Feature","properties":{"id":1246188911,"osm_type":"node","name":"Apoteket","category":"pharmacy","tags":{"amenity":"pharmacy","app:apple":"https://itunes.apple.com/se/app/mitt-apotek/id1053398061","app:google":"https://play.google.com/store/apps/details?id=se.apoteket.recept&hl=sv","branch":"Götgatsbacken","brand":"Apoteket","brand:wikidata":"Q1785637","check_date":"2025-09-01","check_date:opening_hours":"2025-09-01","dispensing":"yes","healthcare":"pharmacy","name":"Apoteket","opening_hours":"Mo-Fr 09:00-19:00; Sa 11:00-17:00; Su off","operator":"Apoteket AB (556138-6532)","owner":"Svenska Staten","phone":"+46771450450","website":"https://www.apoteket.se/apotek/apoteket-gotgatsbacken-stockholm","website:stock":"https://www.fass.se/","wheelchair":"no"}},"geometry":{"type":"Point","coordinates":[18.0718139,59.3174736]}},{"type":"Feature","properties":{"id":1258633954,"osm_type":"node","name":"Apotek Hjärtat","category":"pharmacy","tags":{"amenity":"pharmacy","app:apple":"https://itunes.apple.com/se/app/apotek-hj%C3%A4rtat-n%C3%A4ra-dig/id1150817089","app:google":"https://play.google.com/store/apps/details?id=com.presencekit.apotek.se&hl=en_US","brand":"Apotek Hjärtat","brand:wikidata":"Q10416114","brand:wikipedia":"sv:Apotek Hjärtat","check_date":"2024-06-23","dispensing":"yes","healthcare":"pharmacy","level":"0","name":"Apotek Hjärtat","opening_hours":"Mo-Fr 08:30-19:00; Sa 10:00-17:00; Su 11:00-17:00","operator":"Apotek Hjärtat Retail AB","owner":"ICA Gruppen AB","ownership":"private","phone":"+46771405405","website":"https://www.apotekhjartat.se/","website:stock":"https://www.fass.se/","wheelchair":"yes"}},"geometry":{"type":"Point","coordinates":[18.0746717,59.3077799]}},{"type":"Feature","properties":{"id":1334429691,"osm_type":"node","name":"Kronans Apotek","category":"pharmacy","tags":{"addr:city":"Huddinge","addr:housenumber":"2","addr:postcode":"141 47","addr:street":"Forellvägen","amenity":"pharmacy","brand":"Kronans Apotek","brand:wikidata":"Q10549422","dispensing":"yes","healthcare":"pharmacy","name":"Kronans Apotek","opening_hours":"Mo-Fr 08:00-19:00; Sa, Su 10:00-17:00","website":"https://www.kronansapotek.se/hitta-apotek/kronans-apotek-huddinge-centrum-5041/","website:stock":"https://www.fass.se/"}},"geometry":{"type":"Point","coordinates":[17.981223,59.236965]}},{"type":"Feature","properties":{"id":1348515196,"osm_type":"node","name":"Apoteket","category":"pharmacy","tags":{"amenity":"pharmacy","app:apple":"https://itunes.apple.com/se/app/mitt-apotek/id1053398061","app:google":"https://play.google.com/store/apps/details?id=se.apoteket.recept&hl=sv","branch":"Fenix","brand":"Apoteket","brand:wikidata":"Q1785637","dispensing":"yes","healthcare":"pharmacy","name":"Apoteket","opening_hours":"Sa 10:00-18:00; Su 11:00-18:00; Mo-Fr 09:00-20:00","operator":"Apoteket AB (556138-6532)","owner":"Svenska Staten","phone":"+46771450450","website":"https://www.apoteket.se/apotek/apoteket-fenix-stockholm","website:stock":"https://www.fass.se/","wheelchair":"yes"}},"geometry":{"type":"Point","coordinates":[18.0751009,59.3112988]}},{"type":"Feature","properties":{"id":1369973056,"osm_type":"node","name":"Apoteket","category":"pharmacy","tags":{"addr:city":"Täby","addr:postcode":"187 66","addr:street":"Saluvägen","amenity":"pharmacy","app:apk":"se.apoteket.recept","app:apple":"https://itunes.apple.com/se/app/mitt-apotek/id1053398061","branch":"Apoteket Hästhoven","brand":"Apoteket","brand:wikidata":"Q1785637","healthcare":"pharmacy","name":"Apoteket","operator":"Apoteket AB (556138-6532)","owner":"Svenska Staten","ownership":"national","phone":"+46771450450","source":"survey","website":"https://www.apoteket.se/","website:stock":"https://www.fass.se/"}},"geometry":{"type":"Point","coordinates":[18.1339269,59.4626489]}},{"type":"Feature","properties":{"id":1386448411,"osm_type":"node","name":"Pharmacy vending machine","category":"pharmacy","tags":{"amenity":"pharmacy","dispensing":"no","healthcare":"pharmacy","name":"Pharmacy vending machine","website:stock":"https://www.fass.se/"}},"geometry":{"type":"Point","coordinates":[18.119299,59.3433492]}},{"type":"Feature","properties":{"id":1400116818,"osm_type":"node","name":"Apoteket","category":"pharmacy","tags":{"amenity":"pharmacy","app:apple":"https://itunes.apple.com/se/app/mitt-apotek/id1053398061","app:google":"https://play.google.com/store/apps/details?id=se.apoteket.recept&hl=sv","branch":"Ugglan","brand":"Apoteket","brand:wikidata":"Q1785637","check_date":"2026-04-22","check_date:opening_hours":"2026-04-22","dispensing":"yes","healthcare":"pharmacy","name":"Apoteket","opening_hours":"Mo-Fr 09:00-19:00; Sa 10:00-18:00; Su 11:00-18:00","operator":"Apoteket AB (556138-6532)","owner":"Svenska Staten","phone":"+46771450450","website":"https://www.apoteket.se/apotek/apoteket-ugglan-stockholm","website:stock":"https://www.fass.se/","wheelchair":"limited","wikidata":"Q10416128","wikimedia_commons":"Category:Apoteket Ugglan"}},"geometry":{"type":"Point","coordinates":[18.0610966,59.3340311]}},{"type":"Feature","properties":{"id":1419467119,"osm_type":"node","name":"","category":"pharmacy","tags":{"addr:city":"Tyresö","addr:country":"SE","addr:housenumber":"3","addr:street":"Kumla Allé","amenity":"pharmacy","entrance":"yes","website:stock":"https://www.fass.se/"}},"geometry":{"type":"Point","coordinates":[18.2014896,59.2225084]}},{"type":"Feature","properties":{"id":1457185943,"osm_type":"node","name":"Apotek Hjärtat","category":"pharmacy","tags":{"amenity":"pharmacy","app:apple":"https://itunes.apple.com/se/app/apotek-hj%C3%A4rtat-n%C3%A4ra-dig/id1150817089","app:google":"https://play.google.com/store/apps/details?id=com.presencekit.apotek.se&hl=en_US","brand":"Apotek Hjärtat","brand:wikidata":"Q10416114","brand:wikipedia":"sv:Apotek Hjärtat","check_date":"2025-11-14","check_date:opening_hours":"2025-11-14","contact:phone":"+46771405405","contact:website":"https://www.apotekhjartat.se/","dispensing":"yes","healthcare":"pharmacy","name":"Apotek Hjärtat","opening_hours":"Mo-Fr 08:00-21:00; Sa-Su 10:00-18:00","operator":"Apotek Hjärtat Retail AB","owner":"ICA Gruppen AB","ownership":"private","website:stock":"https://www.fass.se/"}},"geometry":{"type":"Point","coordinates":[18.0516688,59.3425272]}},{"type":"Feature","properties":{"id":1457780466,"osm_type":"node","name":"Kronans Apotek","category":"pharmacy","tags":{"addr:city":"Bromma","addr:housenumber":"185-187","addr:postcode":"16867","addr:street":"Ulvsundavägen","amenity":"pharmacy","brand":"Kronans Apotek","brand:wikidata":"Q10549422","healthcare":"pharmacy","name":"Kronans Apotek","opening_hours":"Mo-Fr 09:00-20:00; Sa 10:00-19:00; Su 10:00-18:00","phone":"+46 771 612 612","website":"https://www.kronansapotek.se/hitta-apotek/kronans-apotek-bromma-blocks-1651/"}},"geometry":{"type":"Point","coordinates":[17.9519799,59.3565847]}},{"type":"Feature","properties":{"id":1458578157,"osm_type":"node","name":"Apotek Hjärtat","category":"pharmacy","tags":{"amenity":"pharmacy","app:apple":"https://itunes.apple.com/se/app/apotek-hj%C3%A4rtat-n%C3%A4ra-dig/id1150817089","app:google":"https://play.google.com/store/apps/details?id=com.presencekit.apotek.se&hl=en_US","brand":"Apotek Hjärtat","brand:wikidata":"Q10416114","check_date":"2025-11-12","healthcare":"pharmacy","level":"-1","name":"Apotek Hjärtat","opening_hours":"Mo-Fr 07:00-18:30; Sa,Su off","operator":"Apotek Hjärtat Retail AB","owner":"ICA Gruppen AB","ownership":"private","phone":"+46771405405","website:stock":"https://www.fass.se/"}},"geometry":{"type":"Point","coordinates":[17.9710826,59.360696]}},{"type":"Feature","properties":{"id":1501759770,"osm_type":"node","name":"Apoteket","category":"pharmacy","tags":{"amenity":"pharmacy","app:apple":"https://itunes.apple.com/se/app/mitt-apotek/id1053398061","app:google":"https://play.google.com/store/apps/details?id=se.apoteket.recept&hl=sv","branch":"Björnen","brand":"Apoteket","brand:wikidata":"Q1785637","check_date:opening_hours":"2025-09-01","dispensing":"yes","healthcare":"pharmacy","name":"Apoteket","opening_hours":"Mo-Fr 08:00-22:00; Sa-Su 10:00-20:00","operator":"Apoteket AB (556138-6532)","owner":"Svenska Staten","phone":"+46771450450","website":"https://www.apoteket.se/apotek/apoteket-bjornen-stockholm/","website:stock":"https://www.fass.se/","wheelchair":"yes"}},"geometry":{"type":"Point","coordinates":[18.0753502,59.3145892]}},{"type":"Feature","properties":{"id":1547115762,"osm_type":"node","name":"Apoteket","category":"pharmacy","tags":{"amenity":"pharmacy","app:apk":"se.apoteket.recept","app:apple":"https://itunes.apple.com/se/app/mitt-apotek/id1053398061","branch":"Apoteket Duvan","brand":"Apoteket","brand:wikidata":"Q1785637","check_date":"2025-02-27","check_date:opening_hours":"2025-02-27","healthcare":"pharmacy","name":"Apoteket","opening_hours":"Mo-Su 08:00-22:00","operator":"Apoteket AB (556138-6532)","owner":"Svenska Staten","ownership":"national","phone":"+46771450450","website":"https://www.apoteket.se/apotek/apoteket-duvan-bromma/","website:stock":"https://www.fass.se/"}},"geometry":{"type":"Point","coordinates":[17.9396897,59.3388684]}},{"type":"Feature","properties":{"id":1650820211,"osm_type":"node","name":"Kronans Apotek","category":"pharmacy","tags":{"amenity":"pharmacy","brand":"Kronans Apotek","brand:wikidata":"Q10549422","check_date":"2024-02-19","dispensing":"yes","healthcare":"pharmacy","name":"Kronans Apotek","opening_hours":"Mo-Fr 09:00-18:00","website:stock":"https://www.fass.se/"}},"geometry":{"type":"Point","coordinates":[18.0817246,59.2568545]}},{"type":"Feature","properties":{"id":1711744339,"osm_type":"node","name":"Kronans Apotek","category":"pharmacy","tags":{"amenity":"pharmacy","name":"Kronans Apotek","opening_hours":"Mo-Fr 09:00-18:30; Sa 10:00-14:00","website:stock":"https://www.fass.se/","wheelchair":"no"}},"geometry":{"type":"Point","coordinates":[18.0932986,59.2851445]}},{"type":"Feature","properties":{"id":1716393333,"osm_type":"node","name":"DOZ Apotek","category":"pharmacy","tags":{"amenity":"pharmacy","brand":"DOZ Apotek","brand:wikidata":"Q10475311","dispensing":"yes","healthcare":"pharmacy","name":"DOZ Apotek","opening_hours":"Mo-Fr 08:00-19:00;Sa 10:00-16:00;Su off","operator":"LloydsApotek AB","owner":"Admenta Sweden AB","ownership":"private","phone":"+46-8-50515460","website":"https://www.lloydsapotek.se/","website:stock":"https://www.fass.se/","wikipedia":"sv:LloydsApotek"}},"geometry":{"type":"Point","coordinates":[18.0968865,59.3360233]}},{"type":"Feature","properties":{"id":1734073640,"osm_type":"node","name":"Kronans Droghandel Skarpnäck","category":"pharmacy","tags":{"addr:country":"SE","addr:housenumber":"44","addr:postcode":"12833","addr:street":"Skarpnäcks Allé","amenity":"pharmacy","check_date":"2024-07-20","name":"Kronans Droghandel Skarpnäck","opening_hours":"Mo-Fr 09:00-12:30,13:30-18:00; Sa-Su off","website":"http://www.kronansdroghandel.se/Valj-Apotek/Stockholms-lan/Kronans-Droghandel-Skarpnack/","website:stock":"https://www.fass.se/","wheelchair":"yes"}},"geometry":{"type":"Point","coordinates":[18.1289976,59.2674282]}},{"type":"Feature","properties":{"id":1745940622,"osm_type":"node","name":"Apoteket Globen","category":"pharmacy","tags":{"addr:country":"SE","addr:housenumber":"63","addr:street":"Arenavägen","amenity":"pharmacy","app:apk":"se.apoteket.recept","app:apple":"https://itunes.apple.com/se/app/mitt-apotek/id1053398061","branch":"Apoteket Globen","brand":"Apoteket","healthcare":"pharmacy","name":"Apoteket Globen","operator":"Apoteket AB (556138-6532)","owner":"Svenska Staten","ownership":"national","phone":"+46771450450","website:stock":"https://www.fass.se/"}},"geometry":{"type":"Point","coordinates":[18.0825348,59.2922658]}},{"type":"Feature","properties":{"id":1844263078,"osm_type":"node","name":"DOZ Apotek","category":"pharmacy","tags":{"amenity":"pharmacy","brand":"DOZ Apotek","brand:wikidata":"Q10475311","healthcare":"pharmacy","name":"DOZ Apotek","opening_hours":"Mo-Fr 08:00-19:00; Sa 10:00-16:00; Su 11:00-16:00","wikipedia":"sv:DOZ_Apotek"}},"geometry":{"type":"Point","coordinates":[17.964122,59.361916]}},{"type":"Feature","properties":{"id":1879690663,"osm_type":"node","name":"Aspuddens apotek","category":"pharmacy","tags":{"amenity":"pharmacy","check_date":"2025-04-19","check_date:opening_hours":"2025-04-19","dispensing":"yes","healthcare":"pharmacy","name":"Aspuddens apotek","opening_hours":"Fr 09:00-16:00; Su off; Mo-Th 10:00-18:00","website":"https://www.aspuddensapotek.se"}},"geometry":{"type":"Point","coordinates":[18.000954,59.3061293]}},{"type":"Feature","properties":{"id":1937256168,"osm_type":"node","name":"Gröndals Apotek","category":"pharmacy","tags":{"amenity":"pharmacy","dispensing":"yes","healthcare":"pharmacy","name":"Gröndals Apotek","opening_hours":"Mo-Fr 09:00-18:30;Sa-Su off","phone":"+46-8-12112112","website":"http://www.grondalsapotek.se/","website:stock":"https://www.fass.se/"}},"geometry":{"type":"Point","coordinates":[18.0123077,59.316151]}},{"type":"Feature","properties":{"id":1937952144,"osm_type":"node","name":"Doz Apotek","category":"pharmacy","tags":{"amenity":"pharmacy","check_date":"2023-08-13","dispensing":"yes","disused:amenity":"pharmacy","drive_through":"no","healthcare":"pharmacy","name":"Doz Apotek","opening_hours":"Mo-Fr 08:00-19:30;Sa 10:00-17:00;Su 11:00-15:00","operator":"Admenta Sweden AB","owner":"Admenta Sweden AB","ownership":"private","payment:mastercard":"yes","payment:visa":"yes","phone":"+46-8-334344","website":"https://dozapotek.se/","website:stock":"https://www.fass.se/","wikipedia":"sv:LloydsApotek"}},"geometry":{"type":"Point","coordinates":[18.0379627,59.3398498]}},{"type":"Feature","properties":{"id":2123703203,"osm_type":"node","name":"Apotek Hjärtat","category":"pharmacy","tags":{"addr:city":"Bandhagen","addr:country":"SE","addr:housenumber":"32","addr:postcode":"124 54","addr:street":"Högdalsgången","amenity":"pharmacy","app:apple":"https://itunes.apple.com/se/app/apotek-hj%C3%A4rtat-n%C3%A4ra-dig/id1150817089","app:google":"https://play.google.com/store/apps/details?id=com.presencekit.apotek.se&hl=en_US","brand":"Apotek Hjärtat","brand:wikidata":"Q10416114","brand:wikipedia":"sv:Apotek Hjärtat","healthcare":"pharmacy","name":"Apotek Hjärtat","operator":"Apotek Hjärtat Retail AB","owner":"ICA Gruppen AB","ownership":"private","phone":"+46771405405","website:stock":"https://www.fass.se/"}},"geometry":{"type":"Point","coordinates":[18.0406119,59.2639261]}},{"type":"Feature","properties":{"id":2139042161,"osm_type":"node","name":"Apotek Hjärtat","category":"pharmacy","tags":{"addr:city":"Solna","addr:country":"SE","addr:housenumber":"16","addr:postcode":"17141","addr:street":"Svetsarvägen","amenity":"pharmacy","branch":"ICA Maxi Solna","brand":"Apotek Hjärtat","brand:wikidata":"Q10416114","check_date":"2025-02-17","check_date:opening_hours":"2022-02-06","healthcare":"pharmacy","name":"Apotek Hjärtat","opening_hours":"Mo-Su 07:00-22:00","phone":"+46 771-405 405","toilets":"yes","toilets:access":"yes","toilets:wheelchair":"yes","website:stock":"https://www.fass.se/"}},"geometry":{"type":"Point","coordinates":[17.9801567,59.3585792]}},{"type":"Feature","properties":{"id":2146966120,"osm_type":"node","name":"Kronans Apotek","category":"pharmacy","tags":{"amenity":"pharmacy","brand":"Kronans Apotek","brand:wikidata":"Q10549422","brand:wikipedia":"sv:Kronans Apotek","check_date":"2025-12-02","check_date:opening_hours":"2025-12-02","contact:email":"kundservice@kronansapotek.se","contact:phone":"+46771612612","contact:website":"https://www.kronansapotek.se/hitta-apotek/kronans-apotek-stockholm-drottninggatan-1930/","healthcare":"pharmacy","name":"Kronans Apotek","opening_hours":"Mo-Fr 09:00-19:00; Sa 10:00-18:00; Su 11:00-18:00"}},"geometry":{"type":"Point","coordinates":[18.0609602,59.3341472]}},{"type":"Feature","properties":{"id":2171149288,"osm_type":"node","name":"Apoteket","category":"pharmacy","tags":{"amenity":"pharmacy","check_date":"2025-02-16","healthcare":"pharmacy","level":"0","name":"Apoteket","opening_hours":"10:00-20:00","website:stock":"https://www.fass.se/","wheelchair":"yes"}},"geometry":{"type":"Point","coordinates":[17.9432238,59.4041238]}},{"type":"Feature","properties":{"id":2173438795,"osm_type":"node","name":"Apotek Hjärtat","category":"pharmacy","tags":{"addr:city":"Bagarmossen","addr:country":"SE","addr:housenumber":"1","addr:postcode":"128 45","addr:street":"Svartågatan","amenity":"pharmacy","app:apple":"https://itunes.apple.com/se/app/apotek-hj%C3%A4rtat-n%C3%A4ra-dig/id1150817089","app:google":"https://play.google.com/store/apps/details?id=com.presencekit.apotek.se&hl=en_US","brand":"Apotek Hjärtat Bagarmossen","check_date":"2026-03-22","check_date:opening_hours":"2026-03-22","name":"Apotek Hjärtat","opening_hours":"Mo-Fr 09:00-18:30; Sa,Su 11:00-15:00","operator":"Apotek Hjärtat Retail AB","owner":"ICA Gruppen AB","ownership":"private","phone":"+46771405405","website":"https://www.apotekhjartat.se/hitta-apotek-hjartat/stockholm/apotek_hjartat_bagarmossens_centrum/","website:stock":"https://www.fass.se/"}},"geometry":{"type":"Point","coordinates":[18.13199,59.2767808]}},{"type":"Feature","properties":{"id":2288368226,"osm_type":"node","name":"Apoteket","category":"pharmacy","tags":{"amenity":"pharmacy","app:apk":"se.apoteket.recept","app:apple":"https://itunes.apple.com/se/app/mitt-apotek/id1053398061","branch":"Apoteket Spoven","brand":"Apoteket","dispensing":"yes","name":"Apoteket","operator":"Apoteket AB (556138-6532)","owner":"Svenska Staten","ownership":"national","phone":"+46771450450","source":"survey","survey:date":"2013-05-01","website:stock":"https://www.fass.se/"}},"geometry":{"type":"Point","coordinates":[17.9344913,59.2952833]}},{"type":"Feature","properties":{"id":2292768986,"osm_type":"node","name":"Apoteket","category":"pharmacy","tags":{"amenity":"pharmacy","brand":"Apoteket","brand:wikidata":"Q1785637","dispensing":"yes","healthcare":"pharmacy","name":"Apoteket"}},"geometry":{"type":"Point","coordinates":[18.0314391,59.333133]}},{"type":"Feature","properties":{"id":2372443984,"osm_type":"node","name":"Kronans Apotek","category":"pharmacy","tags":{"addr:city":"Hägersten","addr:country":"SE","addr:housenumber":"4","addr:postcode":"126 30","addr:street":"Västbergavägen","amenity":"pharmacy","brand":"Kronans Apotek","brand:wikidata":"Q10549422","dispensing":"yes","healthcare":"pharmacy","level":"1","name":"Kronans Apotek","opening_hours":"Mo-Fr 09:00-20:00; Sa 10:00-18:00; Su 11:00-18:00","website":"https://www.kronansapotek.se/hitta-apotek/kronans-apotek-vastberga-1827/","website:stock":"https://www.fass.se/"}},"geometry":{"type":"Point","coordinates":[18.0048911,59.2935847]}},{"type":"Feature","properties":{"id":2398801008,"osm_type":"node","name":"DOZ Apotek","category":"pharmacy","tags":{"amenity":"pharmacy","brand":"DOZ Apotek","brand:wikidata":"Q10475311","healthcare":"pharmacy","name":"DOZ Apotek","operator":"LloydsApotek AB","owner":"Admenta Sweden AB","ownership":"private","website:stock":"https://www.fass.se/","wikipedia":"sv:LloydsApotek"}},"geometry":{"type":"Point","coordinates":[18.1463999,59.3497808]}},{"type":"Feature","properties":{"id":2421874652,"osm_type":"node","name":"Apoteket Tigern","category":"pharmacy","tags":{"amenity":"pharmacy","check_date":"2025-12-14","check_date:opening_hours":"2025-12-14","contact:website":"https://www.apoteket.se/apotek/apoteket-tigern-sollentuna/","healthcare":"pharmacy","name":"Apoteket Tigern","note":"apoteket.se","opening_hours":"Mo-Fr 09:00-20:00; Sa 10:00-17:00; Su 11:00-17:00","operator":"Apoteket","website:stock":"https://www.fass.se/"}},"geometry":{"type":"Point","coordinates":[17.9156359,59.4709003]}},{"type":"Feature","properties":{"id":2422154351,"osm_type":"node","name":"Apotek Hjärtat","category":"pharmacy","tags":{"addr:city":"Sollentuna","addr:country":"SE","addr:housenumber":"1","addr:postcode":"19162","addr:street":"Mossvägen","amenity":"pharmacy","app:apple":"https://itunes.apple.com/se/app/apotek-hj%C3%A4rtat-n%C3%A4ra-dig/id1150817089","app:google":"https://play.google.com/store/apps/details?id=com.presencekit.apotek.se&hl=en_US","brand":"Apotek Hjärtat","brand:wikidata":"Q10416114","brand:wikipedia":"sv:Apotek Hjärtat","check_date":"2025-11-24","check_date:opening_hours":"2025-11-24","contact:phone":"+46771405405","contact:website":"https://www.apotekhjartat.se/hitta-apotek-hjartat/apotek-hjartat-ica-maxi-haggvik-sollentuna","healthcare":"pharmacy","name":"Apotek Hjärtat","opening_hours":"Mo-Su 07:00-22:00","operator":"Apotek Hjärtat Retail AB","owner":"ICA Gruppen AB","ownership":"private","website:stock":"https://www.fass.se/"}},"geometry":{"type":"Point","coordinates":[17.9324334,59.4378402]}},{"type":"Feature","properties":{"id":2440622658,"osm_type":"node","name":"LloydsApotek","category":"pharmacy","tags":{"amenity":"pharmacy","name":"LloydsApotek","operator":"LloydsApotek AB","owner":"Admenta Sweden AB","ownership":"private","website:stock":"https://www.fass.se/","wikipedia":"sv:LloydsApotek"}},"geometry":{"type":"Point","coordinates":[18.0389032,59.4326724]}},{"type":"Feature","properties":{"id":2493129706,"osm_type":"node","name":"Kronan","category":"pharmacy","tags":{"amenity":"pharmacy","check_date:opening_hours":"2022-11-04","healthcare":"pharmacy","name":"Kronan","opening_hours":"Mo-Fr 08:30-18:30; Sa 10:00-14:00","website:stock":"https://www.fass.se/"}},"geometry":{"type":"Point","coordinates":[17.9973221,59.253196]}},{"type":"Feature","properties":{"id":2504983265,"osm_type":"node","name":"Apotek Hjärtat","category":"pharmacy","tags":{"amenity":"pharmacy","app:apple":"https://itunes.apple.com/se/app/apotek-hj%C3%A4rtat-n%C3%A4ra-dig/id1150817089","app:google":"https://play.google.com/store/apps/details?id=com.presencekit.apotek.se&hl=en_US","brand":"Apotek Hjärtat","brand:wikidata":"Q10416114","brand:wikipedia":"sv:Apotek Hjärtat","check_date":"2024-07-24","check_date:opening_hours":"2024-07-24","dispensing":"yes","healthcare":"pharmacy","name":"Apotek Hjärtat","opening_hours":"Mo-Fr 10:00-20:00; Sa 10:00-18:00; Su 11:00-17:00","operator":"Apotek Hjärtat Retail AB","owner":"ICA Gruppen AB","ownership":"private","phone":"+46771405405","website:stock":"https://www.fass.se/"}},"geometry":{"type":"Point","coordinates":[18.1303803,59.3046551]}},{"type":"Feature","properties":{"id":2555676641,"osm_type":"node","name":"Apoteket","category":"pharmacy","tags":{"amenity":"pharmacy","app:apk":"se.apoteket.recept","app:apple":"https://itunes.apple.com/se/app/mitt-apotek/id1053398061","branch":"Apoteket Shop","brand":"Apoteket","brand:wikidata":"Q1785637","healthcare":"pharmacy","name":"Apoteket","operator":"Apoteket AB (556138-6532)","owner":"Svenska Staten","ownership":"national","phone":"+46771450450","website:stock":"https://www.fass.se/"}},"geometry":{"type":"Point","coordinates":[18.0908522,59.2428311]}},{"type":"Feature","properties":{"id":2571793077,"osm_type":"node","name":"Kronans Apotek","category":"pharmacy","tags":{"amenity":"pharmacy","brand":"Kronans Apotek","brand:wikidata":"Q10549422","brand:wikipedia":"sv:Kronans Apotek","check_date":"2024-06-11","healthcare":"pharmacy","name":"Kronans Apotek","website:stock":"https://www.fass.se/"}},"geometry":{"type":"Point","coordinates":[17.9805444,59.3330529]}},{"type":"Feature","properties":{"id":2593118918,"osm_type":"node","name":"Apotek Björknäs","category":"pharmacy","tags":{"amenity":"pharmacy","healthcare":"pharmacy","name":"Apotek Björknäs","website:stock":"https://www.fass.se/"}},"geometry":{"type":"Point","coordinates":[18.2290212,59.3159202]}},{"type":"Feature","properties":{"id":2633893168,"osm_type":"node","name":"Kronans Apotek","category":"pharmacy","tags":{"amenity":"pharmacy","brand":"Kronans Apotek","brand:wikidata":"Q10549422","brand:wikipedia":"sv:Kronans Apotek","check_date:opening_hours":"2025-08-24","healthcare":"pharmacy","level":"0","name":"Kronans Apotek","opening_hours":"Mo-Fr 08:00-20:00; Sa,Su 10:00-18:00","wheelchair":"yes"}},"geometry":{"type":"Point","coordinates":[18.0574342,59.3305077]}},{"type":"Feature","properties":{"id":2691344752,"osm_type":"node","name":"DOZ Apotek","category":"pharmacy","tags":{"amenity":"pharmacy","brand":"DOZ Apotek","brand:wikidata":"Q10475311","check_date":"2023-08-13","dispensing":"yes","drive_through":"no","healthcare":"pharmacy","internet_access":"no","name":"DOZ Apotek","opening_hours":"Mo-Fr 08:00-18:00; Sa 10:00-15:00; Su off","operator":"Admenta Sweden AB","owner":"Admenta Sweden AB","ownership":"private","payment:mastercard":"yes","payment:visa":"yes","phone":"+46-8-50515770","website":"https://dozapotek.se/","website:stock":"https://www.fass.se/","wikipedia":"sv:LloydsApotek"}},"geometry":{"type":"Point","coordinates":[18.0338263,59.3466325]}},{"type":"Feature","properties":{"id":2888592296,"osm_type":"node","name":"Apotek Hjärtat","category":"pharmacy","tags":{"addr:city":"Stockholm","addr:housenumber":"45","addr:postcode":"120 30","addr:street":"Hammarby Allé","amenity":"pharmacy","app:apple":"https://itunes.apple.com/se/app/apotek-hj%C3%A4rtat-n%C3%A4ra-dig/id1150817089","app:google":"https://play.google.com/store/apps/details?id=com.presencekit.apotek.se&hl=en_US","brand":"Apotek Hjärtat","brand:wikidata":"Q10416114","brand:wikipedia":"sv:Apotek Hjärtat","check_date:opening_hours":"2025-07-15","dispensing":"yes","healthcare":"pharmacy","name":"Apotek Hjärtat","opening_hours":"Mo-Fr 09:00-19:00; Sa 10:00-17:00; Su off","operator":"Apotek Hjärtat Retail AB","owner":"ICA Gruppen AB","ownership":"private","phone":"+46771405405","website":"https://www.apotekhjartat.se/","website:stock":"https://www.fass.se/"}},"geometry":{"type":"Point","coordinates":[18.0880693,59.3028966]}},{"type":"Feature","properties":{"id":3050914978,"osm_type":"node","name":"Kronans Apotek","category":"pharmacy","tags":{"amenity":"pharmacy","app:apple":"https://itunes.apple.com/se/app/kronans-apotek/id1129771604?l=en","app:google":"https://play.google.com/store/apps/details?id=se.kronansapotek.kronan","brand":"Kronans Apotek","brand:wikidata":"Q10549422","brand:wikipedia":"sv:Kronans Apotek","check_date":"2025-12-05","check_date:opening_hours":"2025-12-05","contact:phone":"+46771612612","contact:website":"https://www.kronansapotek.se/hitta-apotek/kronans-apotek-stockholm-karlavagen-2149/","dispensing":"yes","healthcare":"pharmacy","name":"Kronans Apotek","opening_hours":"Mo-Fr 09:00-19:00; Sa 10:00-15:00; Su off","operator":"Kronans Droghandel Apotek AB","website:stock":"https://www.fass.se/"}},"geometry":{"type":"Point","coordinates":[18.0811001,59.3397389]}},{"type":"Feature","properties":{"id":3294848260,"osm_type":"node","name":"Apotek Hjärtat","category":"pharmacy","tags":{"amenity":"pharmacy","brand":"Apotek Hjärtat","brand:wikidata":"Q10416114","brand:wikipedia":"sv:Apotek Hjärtat","healthcare":"pharmacy","name":"Apotek Hjärtat","opening_hours":"Mo-Fr 10:00-17:00;Sa 10:00-17:00;Su 11:00-17:00","website:stock":"https://www.fass.se/"}},"geometry":{"type":"Point","coordinates":[18.04642,59.4215751]}},{"type":"Feature","properties":{"id":3303878799,"osm_type":"node","name":"Apoteket","category":"pharmacy","tags":{"amenity":"pharmacy","app:apk":"se.apoteket.recept","app:apple":"https://itunes.apple.com/se/app/mitt-apotek/id1053398061","brand":"Apoteket","brand:wikidata":"Q1785637","fixme":"branch - vad heter detta apotek mera än apoteket?","healthcare":"pharmacy","name":"Apoteket","opening_hours":"Mo-Fr 08:00-20:00; Sa 09:00-18:00; Su 10:00-18:00","operator":"Apoteket AB (556138-6532)","owner":"Svenska Staten","ownership":"national","phone":"+46771450450","website:stock":"https://www.fass.se/","wheelchair":"yes"}},"geometry":{"type":"Point","coordinates":[18.0896027,59.242558]}},{"type":"Feature","properties":{"id":3392939827,"osm_type":"node","name":"Apoteket","category":"pharmacy","tags":{"amenity":"pharmacy","brand":"Apoteket","brand:wikidata":"Q1785637","dispensing":"yes","healthcare":"pharmacy","name":"Apoteket","opening_hours":"Su 11:00-16:00; Mo-Fr 09:00-19:00; Sa 10:00-16:00","operator":"Apoteket AB (556138-6532)","owner":"Svenska Staten","phone":"+46771450450","website":"https://www.apoteket.se/apotek/apoteket-hornsgatan-49-stockholm-stockholm/","website:stock":"https://www.fass.se/","wheelchair":"yes"}},"geometry":{"type":"Point","coordinates":[18.0574052,59.3181]}},{"type":"Feature","properties":{"id":3402696461,"osm_type":"node","name":"Apoteket","category":"pharmacy","tags":{"addr:country":"SE","addr:housenumber":"8","addr:street":"Hagsätra torg","amenity":"pharmacy","branch":"Morkullan","brand":"Apoteket","brand:wikidata":"Q1785637","dispensing":"yes","healthcare":"pharmacy","name":"Apoteket","opening_hours":"Mo-Fr 09:00-19:00; Sa 10:00-15:00","operator":"Apoteket AB (556138-6532)","payment:cash":"yes","payment:contactless":"yes","payment:credit_cards":"yes","payment:debit_cards":"yes","phone":"+46771450450","website":"https://www.apoteket.se/apotek/apoteket-morkullan-bandhagen/"}},"geometry":{"type":"Point","coordinates":[18.013785,59.262761]}},{"type":"Feature","properties":{"id":3447003535,"osm_type":"node","name":"Apotek Hjärtat","category":"pharmacy","tags":{"amenity":"pharmacy","app:apple":"https://itunes.apple.com/se/app/apotek-hj%C3%A4rtat-n%C3%A4ra-dig/id1150817089","app:google":"https://play.google.com/store/apps/details?id=com.presencekit.apotek.se&hl=en_US","brand":"Apotek Hjärtat","brand:wikidata":"Q10416114","brand:wikipedia":"sv:Apotek Hjärtat","check_date":"2025-12-12","check_date:opening_hours":"2025-12-12","contact:phone":"+46771405405","contact:website":"https://www.apotekhjartat.se/hitta-apotek-hjartat/stockholm/apotek_hjartat_folkungagatan_stockholm/","dispensing":"yes","healthcare":"pharmacy","name":"Apotek Hjärtat","opening_hours":"Mo-Fr 09:00-19:00; Sa 10:00-17:00; Su 11:00-16:00","operator":"Apotek Hjärtat Retail AB","owner":"ICA Gruppen AB","ownership":"private","website:stock":"https://www.fass.se/","wheelchair":"yes"}},"geometry":{"type":"Point","coordinates":[18.0761482,59.314402]}},{"type":"Feature","properties":{"id":3696210525,"osm_type":"node","name":"Apoteket","category":"pharmacy","tags":{"amenity":"pharmacy","app:apk":"se.apoteket.recept","app:apple":"https://itunes.apple.com/se/app/mitt-apotek/id1053398061","branch":"Apoteket Linnéan","brand":"Apoteket","dispensing":"yes","name":"Apoteket","opening_hours":"Mo-Fr 09:00-19:00; Sa 10:00-15:00","operator":"Apoteket AB (556138-6532)","owner":"Svenska Staten","ownership":"national","phone":"+46771450450","website:stock":"https://www.fass.se/","wheelchair":"yes"}},"geometry":{"type":"Point","coordinates":[18.1530333,59.2176703]}},{"type":"Feature","properties":{"id":3723792926,"osm_type":"node","name":"Apotek Hjärtat","category":"pharmacy","tags":{"amenity":"pharmacy","app:apple":"https://itunes.apple.com/se/app/apotek-hj%C3%A4rtat-n%C3%A4ra-dig/id1150817089","app:google":"https://play.google.com/store/apps/details?id=com.presencekit.apotek.se&hl=en_US","brand":"Apotek Hjärtat","brand:wikidata":"Q10416114","brand:wikipedia":"sv:Apotek Hjärtat","dispensing":"yes","healthcare":"pharmacy","name":"Apotek Hjärtat","operator":"Apotek Hjärtat Retail AB","owner":"ICA Gruppen AB","ownership":"private","phone":"+46771405405","website:stock":"https://www.fass.se/"}},"geometry":{"type":"Point","coordinates":[18.113191,59.284055]}},{"type":"Feature","properties":{"id":3779791974,"osm_type":"node","name":"Apoteket","category":"pharmacy","tags":{"amenity":"pharmacy","check_date":"2025-11-16","check_date:opening_hours":"2025-11-16","contact:website":"https://www.apoteket.se/apotek/apoteket-sankt-eriksplan-stockholm/","dispensing":"yes","name":"Apoteket","opening_hours":"Mo-Fr 08:00-19:00; Sa 10:00-17:00; Su 11:00-15:00"}},"geometry":{"type":"Point","coordinates":[18.0367759,59.3392498]}},{"type":"Feature","properties":{"id":3787179610,"osm_type":"node","name":"Bandhagens Apotek","category":"pharmacy","tags":{"addr:city":"Bandhagen","addr:country":"SE","addr:housenumber":"2","addr:postcode":"124 34","addr:street":"Bandhagsplan","amenity":"pharmacy","dispensing":"yes","drive_through":"no","healthcare":"pharmacy","name":"Bandhagens Apotek","opening_hours":"Mo-Fr 08:30-19:00; Sa 10:00-16:00","operator":"Mansourian Hälsa AB","phone":"+46 (0)8 449 64 10","source":"http://www.bandhagensapotek.se/","website":"http://www.bandhagensapotek.se/","website:stock":"https://www.fass.se/"}},"geometry":{"type":"Point","coordinates":[18.0482564,59.2701497]}},{"type":"Feature","properties":{"id":3793209817,"osm_type":"node","name":"Kronans Apotek","category":"pharmacy","tags":{"amenity":"pharmacy","brand":"Kronans Apotek","brand:wikidata":"Q10549422","brand:wikipedia":"sv:Kronans Apotek","check_date":"2025-04-15","healthcare":"pharmacy","name":"Kronans Apotek","opening_hours":"Mo-Fr 10:00-19:00; Sa 10:00-17:00; Su 11:00-16:00","website:stock":"https://www.fass.se/"}},"geometry":{"type":"Point","coordinates":[18.0130154,59.2750688]}},{"type":"Feature","properties":{"id":3938202338,"osm_type":"node","name":"Svea Vaccin","category":"pharmacy","tags":{"amenity":"pharmacy","check_date":"2024-07-26","healthcare":"pharmacy","name":"Svea Vaccin","website:stock":"https://www.fass.se/"}},"geometry":{"type":"Point","coordinates":[17.9715295,59.3604519]}},{"type":"Feature","properties":{"id":4020607805,"osm_type":"node","name":"Apoteket","category":"pharmacy","tags":{"addr:city":"Älvsjö","addr:country":"SE","addr:housenumber":"17A","addr:postcode":"12534","addr:street":"Älvsjö Torg","amenity":"pharmacy","app:apk":"se.apoteket.recept","app:apple":"https://itunes.apple.com/se/app/mitt-apotek/id1053398061","branch":"Apoteket Älvsjö Torg","brand":"Apoteket","brand:wikidata":"Q1785637","dispensing":"yes","healthcare":"pharmacy","name":"Apoteket","opening_hours":"Mo-Fr 07:00-20:00; Sa 10:00-16:00; Su 11:00-16:00","operator":"Apoteket AB (556138-6532)","owner":"Svenska Staten","ownership":"national","payment:cash":"yes","phone":"+46771450450","website":"https://www.apoteket.se/apotek/apoteket-alvsjo-torg-alvsjo","website:stock":"https://www.fass.se/","wheelchair":"yes"}},"geometry":{"type":"Point","coordinates":[18.0090219,59.2785746]}},{"type":"Feature","properties":{"id":4027968595,"osm_type":"node","name":"Apoteket","category":"pharmacy","tags":{"amenity":"pharmacy","app:apk":"se.apoteket.recept","app:apple":"https://itunes.apple.com/se/app/mitt-apotek/id1053398061","brand":"Apoteket","brand:wikidata":"Q1785637","check_date":"2025-02-15","dispensing":"yes","healthcare":"pharmacy","level":"0","name":"Apoteket","opening_hours":"Mo-Fr 09:00-21:00; Sa,Su 10:00-21:00","operator":"Apoteket AB (556138-6532)","owner":"Svenska Staten","ownership":"national","phone":"+46 77 145 04 50","website:stock":"https://www.fass.se/","wheelchair":"yes"}},"geometry":{"type":"Point","coordinates":[18.0040198,59.3704433]}},{"type":"Feature","properties":{"id":4140924946,"osm_type":"node","name":"Trångsunds apotek","category":"pharmacy","tags":{"amenity":"pharmacy","name":"Trångsunds apotek","website:stock":"https://www.fass.se/"}},"geometry":{"type":"Point","coordinates":[18.1321942,59.2277256]}},{"type":"Feature","properties":{"id":4207681358,"osm_type":"node","name":"Apoteket","category":"pharmacy","tags":{"amenity":"pharmacy","app:apk":"se.apoteket.recept","app:apple":"https://itunes.apple.com/se/app/mitt-apotek/id1053398061","brand":"Apoteket","brand:wikidata":"Q1785637","check_date":"2025-06-15","healthcare":"pharmacy","name":"Apoteket","opening_hours":"Mo-Fr 09:00-19:00; Sa 10:00-16:00; Su 11:00-16:00","operator":"Apoteket AB (556138-6532)","owner":"Svenska Staten","ownership":"national","phone":"+46771450450"}},"geometry":{"type":"Point","coordinates":[17.9694039,59.3626372]}},{"type":"Feature","properties":{"id":4416431973,"osm_type":"node","name":"Apoteket","category":"pharmacy","tags":{"amenity":"pharmacy","app:apple":"https://itunes.apple.com/se/app/mitt-apotek/id1053398061","app:google":"https://play.google.com/store/apps/details?id=se.apoteket.recept&hl=sv","branch":"Biet","brand":"Apoteket","brand:wikidata":"Q1785637","check_date":"2025-03-22","dispensing":"yes","healthcare":"pharmacy","name":"Apoteket","opening_hours":"Mo-Fr 09:00-19:00; Sa 10:00-15:00; Su off","operator":"Apoteket AB (556138-6532)","owner":"Svenska Staten","payment:cash":"yes","phone":"+46771450450","website":"https://www.apoteket.se/apotek/apoteket-biet-stockholm","website:stock":"https://www.fass.se/"}},"geometry":{"type":"Point","coordinates":[18.016747,59.3279845]}},{"type":"Feature","properties":{"id":4868240381,"osm_type":"node","name":"Kronans Apotek","category":"pharmacy","tags":{"amenity":"pharmacy","brand":"Kronans Apotek","brand:wikidata":"Q10549422","brand:wikipedia":"sv:Kronans Apotek","dispensing":"yes","healthcare":"pharmacy","name":"Kronans Apotek","opening_hours":"Sa 10:00-16:00; Su off; Mo-Fr 09:00-19:00","phone":"+46-771-612612","website":"https://www.kronansapotek.se","website:stock":"https://www.fass.se/","wheelchair":"yes"}},"geometry":{"type":"Point","coordinates":[18.090484,59.3584095]}},{"type":"Feature","properties":{"id":5126732026,"osm_type":"node","name":"Kronans Apotek","category":"pharmacy","tags":{"amenity":"pharmacy","app:apple":"https://itunes.apple.com/se/app/kronans-apotek/id1129771604?l=en","app:google":"https://play.google.com/store/apps/details?id=se.kronansapotek.kronan","brand":"Kronans Apotek","brand:wikidata":"Q10549422","brand:wikipedia":"sv:Kronans Apotek","check_date":"2025-09-04","check_date:opening_hours":"2025-09-04","dispensing":"yes","healthcare":"pharmacy","name":"Kronans Apotek","opening_hours":"Mo-Fr 09:00-19:00; Sa 10:00-16:00; Su 11:00-16:00","operator":"Kronans Droghandel Apotek AB","phone":"+46771612612","website":"https://www.kronansapotek.se","website:stock":"https://www.fass.se/"}},"geometry":{"type":"Point","coordinates":[18.0325477,59.3339295]}},{"type":"Feature","properties":{"id":5482736135,"osm_type":"node","name":"Apoteket","category":"pharmacy","tags":{"amenity":"pharmacy","app:apk":"se.apoteket.recept","app:apple":"https://itunes.apple.com/se/app/mitt-apotek/id1053398061","branch":"Apoteket Gasellen","brand":"Apoteket","brand:wikidata":"Q1785637","dispensing":"yes","healthcare":"pharmacy","name":"Apoteket","opening_hours":"Mo-Fr 09:00-19:00; Sa 10:00-14:00","operator":"Apoteket AB (556138-6532)","owner":"Svenska Staten","ownership":"national","phone":"+46771450450","website":"https://www.apoteket.se/privatpersoner/common/apotek.aspx?id=a07350001","website:stock":"https://www.fass.se/"}},"geometry":{"type":"Point","coordinates":[17.9748559,59.304169]}},{"type":"Feature","properties":{"id":5694721809,"osm_type":"node","name":"Svea Vaccin Nacka Forum","category":"pharmacy","tags":{"addr:country":"SE","addr:housenumber":"12","addr:street":"Forumvägen","amenity":"pharmacy","level":"2","name":"Svea Vaccin Nacka Forum","website:stock":"https://www.fass.se/"}},"geometry":{"type":"Point","coordinates":[18.1643461,59.3106965]}},{"type":"Feature","properties":{"id":5758649918,"osm_type":"node","name":"LloydsApotek","category":"pharmacy","tags":{"amenity":"pharmacy","dispensing":"yes","healthcare":"pharmacy","name":"LloydsApotek","opening_hours":"Mo-Fr 09:00-19:00; Sa 10:00-17:00; Su off","operator":"LloydsApotek AB","owner":"Admenta Sweden AB","ownership":"private","phone":"+46-8-50515420","website":"https://www.lloydsapotek.se","website:stock":"https://www.fass.se/","wikipedia":"sv:LloydsApotek"}},"geometry":{"type":"Point","coordinates":[18.1017767,59.3022513]}},{"type":"Feature","properties":{"id":5867342315,"osm_type":"node","name":"Västra Skogens apotek","category":"pharmacy","tags":{"addr:city":"Solna","addr:country":"SE","addr:housenumber":"24","addr:postcode":"17161","addr:street":"Johan Enbergs väg","amenity":"pharmacy","check_date":"2023-05-02","dispensing":"yes","email":"info@akallaapotek.se","healthcare":"pharmacy","name":"Västra Skogens apotek","opening_hours":"Mo-Fr 10:00-18:00","phone":"+46 8 277705","website":"http://www.västraskogensapotek.se/","website:stock":"https://www.fass.se/"}},"geometry":{"type":"Point","coordinates":[18.0030419,59.3476058]}},{"type":"Feature","properties":{"id":5908739992,"osm_type":"node","name":"Apotek Hjärtat","category":"pharmacy","tags":{"amenity":"pharmacy","app:apple":"https://itunes.apple.com/se/app/apotek-hj%C3%A4rtat-n%C3%A4ra-dig/id1150817089","app:google":"https://play.google.com/store/apps/details?id=com.presencekit.apotek.se&hl=en_US","brand":"Apotek Hjärtat","brand:wikidata":"Q10416114","brand:wikipedia":"sv:Apotek Hjärtat","dispensing":"yes","healthcare":"pharmacy","level":"0","name":"Apotek Hjärtat","opening_hours":"Mo-Fr 09:00-20:00; Sa 10:00-18:00; Su 11:00-17:00","operator":"Apotek Hjärtat Retail AB","owner":"ICA Gruppen AB","ownership":"private","phone":"+46 77 140 54 05","website:stock":"https://www.fass.se/","wheelchair":"yes"}},"geometry":{"type":"Point","coordinates":[18.0913046,59.339434]}},{"type":"Feature","properties":{"id":6001070878,"osm_type":"node","name":"Apoteket","category":"pharmacy","tags":{"amenity":"pharmacy","app:apk":"se.apoteket.recept","app:apple":"https://itunes.apple.com/se/app/mitt-apotek/id1053398061","brand":"Apoteket","brand:wikidata":"Q1785637","check_date":"2025-12-09","check_date:opening_hours":"2025-12-09","dispensing":"yes","healthcare":"pharmacy","name":"Apoteket","opening_hours":"Mo-Fr 09:00-19:00;Sa 10:00-17:00;Su 11:00-16:00","operator":"Apoteket AB (556138-6532)","owner":"Svenska Staten","ownership":"national","phone":"+46771450450","website":"https://www.apoteket.se/apotek/apoteket-odengatan-stockholm-stockholm","website:stock":"https://www.fass.se/"}},"geometry":{"type":"Point","coordinates":[18.0575233,59.3446894]}},{"type":"Feature","properties":{"id":6002579990,"osm_type":"node","name":"Apoteket Express Gullmarsplan","category":"pharmacy","tags":{"amenity":"pharmacy","app:apk":"se.apoteket.recept","app:apple":"https://itunes.apple.com/se/app/mitt-apotek/id1053398061","brand":"Apoteket","dispensing":"yes","fixme":"branch - vad heter detta apotek mera än apoteket?","name":"Apoteket Express Gullmarsplan","opening_hours":"Mo-Fr 07:00-21:00; Sa 10:00-17:00; Su 11:00-17:00","operator":"Apoteket AB (556138-6532)","owner":"Svenska Staten","ownership":"national","phone":"+46771450450","website":"https://www.apoteket.se/apotek/apoteket-gullmarsplan-stockholm-johanneshov","website:stock":"https://www.fass.se/"}},"geometry":{"type":"Point","coordinates":[18.0814241,59.2989834]}},{"type":"Feature","properties":{"id":6005464170,"osm_type":"node","name":"Kronans Apotek","category":"pharmacy","tags":{"amenity":"pharmacy","brand":"Kronans Apotek","brand:wikidata":"Q10549422","check_date":"2025-12-12","check_date:opening_hours":"2025-12-12","contact:phone":"+46859500720","contact:website":"https://www.kronansapotek.se/hitta-apotek/kronans-apotek-stockholm-sodra-station-5039/","dispensing":"yes","healthcare":"pharmacy","name":"Kronans Apotek","opening_hours":"Mo-Fr 07:00-19:00; Sa 11:00-16:00; Su off","payment:cash":"yes","website:stock":"https://www.fass.se/","wheelchair":"yes"}},"geometry":{"type":"Point","coordinates":[18.064534,59.3141537]}},{"type":"Feature","properties":{"id":6327124474,"osm_type":"node","name":"Apotek Hjärtat Mall of Scandinavia","category":"pharmacy","tags":{"amenity":"pharmacy","brand":"Apotek Hjärtat","brand:wikidata":"Q10416114","brand:wikipedia":"sv:Apotek Hjärtat","check_date":"2025-02-15","contact:website":"https://www.apotekhjartat.se/hitta-apotek-hjartat/apotek-hjartat-mall-of-scandinavia-solna","dispensing":"yes","healthcare":"pharmacy","level":"0","name":"Apotek Hjärtat Mall of Scandinavia","opening_hours":"Mo-Fr 09:00-21:00; Sa,Su 10:00-21:00","wheelchair":"yes"}},"geometry":{"type":"Point","coordinates":[18.004418,59.3703318]}},{"type":"Feature","properties":{"id":6578920957,"osm_type":"node","name":"Apoteksgruppen Frösunda","category":"pharmacy","tags":{"amenity":"pharmacy","dispensing":"yes","healthcare":"pharmacy","name":"Apoteksgruppen Frösunda","opening_hours":"Mo-Fr 09:00-18:00; Sa 10:00-14:00; Su closed","wheelchair":"yes"}},"geometry":{"type":"Point","coordinates":[18.0164583,59.3732138]}},{"type":"Feature","properties":{"id":6859063847,"osm_type":"node","name":"DOZ Apotek","category":"pharmacy","tags":{"amenity":"pharmacy","brand":"DOZ Apotek","brand:wikidata":"Q10475311","check_date":"2025-12-03","check_date:opening_hours":"2025-12-03","contact:phone":"+46850501900","contact:website":"https://dozapotek.se/doz-apotek-stockholm-centralstation-7350051481499","healthcare":"pharmacy","level":"-1","name":"DOZ Apotek","opening_hours":"Mo-Fr 06:00-21:00; Sa,Su 09:00-20:00","wheelchair":"yes"}},"geometry":{"type":"Point","coordinates":[18.0585654,59.3301888]}},{"type":"Feature","properties":{"id":6939292824,"osm_type":"node","name":"Hagalunds apotek","category":"pharmacy","tags":{"amenity":"pharmacy","dispensing":"yes","email":"info@hagalundsapotek.se","healthcare":"pharmacy","level":"0","name":"Hagalunds apotek","opening_hours":"Mo-Fr 09:00-18:00; Sa 10:00-13:00; Su closed","phone":"+46 8 277 816","website":"https://www.hagalundsapotek.se/"}},"geometry":{"type":"Point","coordinates":[18.0117904,59.3626431]}},{"type":"Feature","properties":{"id":7001385537,"osm_type":"node","name":"Kronans Apotek","category":"pharmacy","tags":{"amenity":"pharmacy","brand":"Kronans Apotek","brand:wikidata":"Q10549422","brand:wikipedia":"sv:Kronans Apotek","check_date":"2024-10-16","healthcare":"pharmacy","name":"Kronans Apotek","opening_hours":"Mo-Fr 08:00-21:00;Sa-Su 10:00-18:00","payment:cash":"yes","wheelchair":"yes"}},"geometry":{"type":"Point","coordinates":[18.0499758,59.3432274]}},{"type":"Feature","properties":{"id":7040619461,"osm_type":"node","name":"Apoteket","category":"pharmacy","tags":{"amenity":"pharmacy","brand":"Apoteket","brand:wikidata":"Q1785637","check_date":"2025-06-29","check_date:opening_hours":"2025-06-29","healthcare":"pharmacy","level":"0","name":"Apoteket","opening_hours":"Mo-Fr 09:00-19:00; Sa 10:00-17:00; Su 11:00-17:00","wheelchair":"yes"}},"geometry":{"type":"Point","coordinates":[18.000495,59.3600472]}},{"type":"Feature","properties":{"id":7069375448,"osm_type":"node","name":"Svea Apotek","category":"pharmacy","tags":{"amenity":"pharmacy","check_date":"2024-05-29","healthcare":"pharmacy","name":"Svea Apotek","opening_hours":"Mo-Fr 09:00-18:00","phone":"08 500 22 251","website":"www.citypoteket.se","wheelchair":"no"}},"geometry":{"type":"Point","coordinates":[18.0579532,59.3418451]}},{"type":"Feature","properties":{"id":7118965708,"osm_type":"node","name":"Kronans Apotek","category":"pharmacy","tags":{"amenity":"pharmacy","brand":"Kronans Apotek","brand:wikidata":"Q10549422","brand:wikipedia":"sv:Kronans Apotek","check_date":"2020-01-09","dispensing":"yes","healthcare":"pharmacy","name":"Kronans Apotek"}},"geometry":{"type":"Point","coordinates":[18.0473529,59.3382562]}},{"type":"Feature","properties":{"id":7165983805,"osm_type":"node","name":"Apotek Hjärtat","category":"pharmacy","tags":{"amenity":"pharmacy","brand":"Apotek Hjärtat","brand:wikidata":"Q10416114","brand:wikipedia":"sv:Apotek Hjärtat","check_date":"2023-04-08","contact:phone":"+46771405405","contact:website":"https://www.apotekhjartat.se/hitta-apotek-hjartat/apotek-hjartat-ica-supermarket-sabbatsberg","healthcare":"pharmacy","name":"Apotek Hjärtat","opening_hours":"Mo-Fr 10:00-20:00; Sa-Su 10:00-18:00"}},"geometry":{"type":"Point","coordinates":[18.0471277,59.3398426]}},{"type":"Feature","properties":{"id":7771298066,"osm_type":"node","name":"Kronans Apotek","category":"pharmacy","tags":{"addr:city":"Sköndal","addr:country":"SE","addr:housenumber":"87","addr:postcode":"128 66","addr:street":"Sköndalsvägen","amenity":"pharmacy","brand":"Kronans Apotek","brand:wikidata":"Q10549422","dispensing":"yes","healthcare":"pharmacy","name":"Kronans Apotek","opening_hours":"Mo-Fr 09:00-18:00; Sa 10:00-15:00","phone":"+46 8-933258","website":"https://www.kronansapotek.se/hitta-apotek/kronans-apotek-skondal-0391/","website:stock":"https://www.fass.se/"}},"geometry":{"type":"Point","coordinates":[18.1143539,59.2558103]}},{"type":"Feature","properties":{"id":8115409508,"osm_type":"node","name":"Apotek Hjärtat","category":"pharmacy","tags":{"amenity":"pharmacy","brand":"Apotek Hjärtat","brand:wikidata":"Q10416114","brand:wikipedia":"sv:Apotek Hjärtat","check_date":"2024-06-23","dispensing":"yes","healthcare":"pharmacy","name":"Apotek Hjärtat","opening_hours":"Mo-Fr 08:00-20:00; Sa-Su 10:00-18:00","operator":"Apotek Hjärtat Retail AB","owner":"ICA Gruppen AB","ownership":"private","payment:cash":"yes","phone":"+46771405405","website":"https://www.apotekhjartat.se/","website:stock":"https://www.fass.se/","wheelchair":"yes"}},"geometry":{"type":"Point","coordinates":[18.0660332,59.3123967]}},{"type":"Feature","properties":{"id":8720256797,"osm_type":"node","name":"Kronans Apotek","category":"pharmacy","tags":{"addr:city":"Nacka","addr:country":"SE","addr:housenumber":"16","addr:postcode":"131 54","addr:street":"Smedjegatan","amenity":"pharmacy","brand":"Kronans Apotek","brand:wikidata":"Q10549422","contact:website":"https://www.kronansapotek.se/","dispensing":"yes","entrance":"yes","healthcare":"pharmacy","name":"Kronans Apotek","opening_hours":"Mo-Fr 08:00-18:00"}},"geometry":{"type":"Point","coordinates":[18.1218831,59.3063491]}},{"type":"Feature","properties":{"id":9036377415,"osm_type":"node","name":"Kronans Apotek","category":"pharmacy","tags":{"addr:city":"Sollentuna","addr:country":"SE","addr:housenumber":"12B","addr:postcode":"19268","addr:street":"Kung Hans väg","amenity":"pharmacy","brand":"Apoteksgruppen","brand:wikidata":"Q10416129","contact:email":"kundservice@kronansapotek.se","contact:phone":"+4687547837","contact:website":"https://www.kronansapotek.se/hitta-apotek/kronans-apotek-rotebro-0304/","healthcare":"pharmacy","name":"Kronans Apotek","opening_hours":"Mo-Fr 08:30-18:00; Sa-Su closed","operator":"Kronans Apotek"}},"geometry":{"type":"Point","coordinates":[17.9137116,59.4755796]}},{"type":"Feature","properties":{"id":9101572984,"osm_type":"node","name":"Kronans Apotek","category":"pharmacy","tags":{"amenity":"pharmacy","brand":"Kronans Apotek","check_date":"2025-12-05","check_date:opening_hours":"2025-12-05","contact:website":"https://www.kronansapotek.se/hitta-apotek/kronans-apotek-stockholm-ostermalmstorg-2171/","healthcare":"pharmacy","name":"Kronans Apotek","opening_hours":"Mo-Fr 09:00-19:00; Sa 10:00-15:00"}},"geometry":{"type":"Point","coordinates":[18.0787078,59.3367132]}},{"type":"Feature","properties":{"id":9624730742,"osm_type":"node","name":"Apoteket Svanen","category":"pharmacy","tags":{"amenity":"pharmacy","brand":"Apoteket","brand:wikidata":"Q1785637","healthcare":"pharmacy","level":"1","name":"Apoteket Svanen"}},"geometry":{"type":"Point","coordinates":[18.1652904,59.3089737]}},{"type":"Feature","properties":{"id":9774672960,"osm_type":"node","name":"Kronans Apotek","category":"pharmacy","tags":{"amenity":"pharmacy","branch":"Sundbyberg","brand":"Kronans Apotek","brand:wikidata":"Q10549422","check_date":"2025-11-11","dispensing":"yes","healthcare":"pharmacy","name":"Kronans Apotek","opening_hours":"Mo-Fr 08:00-18:00; Sa 10:00-15:00","website":"https://www.kronansapotek.se"}},"geometry":{"type":"Point","coordinates":[17.9726409,59.3612242]}},{"type":"Feature","properties":{"id":9897421795,"osm_type":"node","name":"Kronans Apotek","category":"pharmacy","tags":{"amenity":"pharmacy","brand":"Kronans Apotek","brand:wikidata":"Q10549422","brand:wikipedia":"sv:Kronans Apotek","dispensing":"yes","healthcare":"pharmacy","level":"-1","name":"Kronans Apotek","opening_hours":"Mo-Fr 09:00-20:00; Sa 10:00-18:00; Su 11:00-18:00","operator":"Kronans Droghandel Apotek AB","payment:cash":"yes","phone":"+46771612612","website":"https://www.kronansapotek.se","website:stock":"https://www.fass.se/","wheelchair":"limited","wheelchair:description":"No steps and accessible entrance, however tight turning radius and tightly packed shelfs."}},"geometry":{"type":"Point","coordinates":[18.0338596,59.3166942]}},{"type":"Feature","properties":{"id":9990685939,"osm_type":"node","name":"Apotek Hjärtat","category":"pharmacy","tags":{"addr:city":"Hägersten","addr:country":"SE","addr:housenumber":"5","addr:postcode":"129 52","addr:street":"Fruängsgången","amenity":"pharmacy","app:apple":"https://itunes.apple.com/se/app/apotek-hj%C3%A4rtat-n%C3%A4ra-dig/id1150817089","app:google":"https://play.google.com/store/apps/details?id=com.presencekit.apotek.se&hl=en_US","brand":"Apotek Hjärtat","brand:wikidata":"Q10416114","brand:wikipedia":"sv:Apotek Hjärtat","dispensing":"yes","healthcare":"pharmacy","name":"Apotek Hjärtat","opening_hours":"Mo-Fr 09:00-19:00; Sa 10:00-15:00","operator":"Apotek Hjärtat Retail AB","owner":"ICA Gruppen AB","ownership":"private","phone":"+46 771-405 405","website":"https://www.apotekhjartat.se/hitta-apotek-hjartat/stockholm/apotek_hjartat_fruangen_centrum/","website:stock":"https://www.fass.se/"}},"geometry":{"type":"Point","coordinates":[17.9641768,59.2855373]}},{"type":"Feature","properties":{"id":10189313118,"osm_type":"node","name":"Apotek Hjärtat","category":"pharmacy","tags":{"amenity":"pharmacy","brand":"Apotek Hjärtat","brand:wikidata":"Q10416114","check_date":"2025-12-11","check_date:opening_hours":"2025-12-11","contact:website":"https://www.apotekhjartat.se/hitta-apotek-hjartat/apotek-hjartat-skanstull-stockholm","healthcare":"pharmacy","level":"0","name":"Apotek Hjärtat","opening_hours":"Mo-Fr 08:30-19:00; Sa 10:00-17:00; Su 11:00-17:00"}},"geometry":{"type":"Point","coordinates":[18.0751196,59.3082379]}},{"type":"Feature","properties":{"id":10253627022,"osm_type":"node","name":"Apoteket","category":"pharmacy","tags":{"amenity":"pharmacy","branch":"Hinden","brand":"Apoteket","brand:wikidata":"Q1785637","healthcare":"pharmacy","name":"Apoteket","opening_hours":"Mo-Fr 09:00-13:00, 14:00-18:00","phone":"+46771450450"}},"geometry":{"type":"Point","coordinates":[18.0997096,59.2953484]}},{"type":"Feature","properties":{"id":10766449181,"osm_type":"node","name":"Kronans Apotek","category":"pharmacy","tags":{"amenity":"pharmacy","app:apple":"https://itunes.apple.com/se/app/kronans-apotek/id1129771604","app:google":"https://play.google.com/store/apps/details?id=se.kronansapotek.kronan","brand":"Kronans Apotek","brand:wikidata":"Q10549422","healthcare":"pharmacy","name":"Kronans Apotek","opening_hours":"Mo-Fr 08:30-18:00; Sa 10:00-16:00","phone":"+46771612612","website":"https://www.kronansapotek.se"}},"geometry":{"type":"Point","coordinates":[17.9374025,59.2213652]}},{"type":"Feature","properties":{"id":11112135314,"osm_type":"node","name":"Apoteket","category":"pharmacy","tags":{"addr:housenumber":"3","addr:street":"Eugeniavägen","amenity":"pharmacy","brand":"Apoteket","brand:wikidata":"Q1785637","check_date":"2024-05-29","dispensing":"yes","drive_through":"no","healthcare":"pharmacy","internet_access":"no","level":"0","name":"Apoteket","opening_hours":"Mo-Fr 07:00-19:00; Sa-Su 10:00-15:00","payment:mastercard":"yes","payment:visa":"yes","website":"https://apoteket.se","wheelchair":"yes"}},"geometry":{"type":"Point","coordinates":[18.0298445,59.3483062]}},{"type":"Feature","properties":{"id":11112135315,"osm_type":"node","name":"Kronans Apotek","category":"pharmacy","tags":{"amenity":"pharmacy","brand":"Kronans Apotek","brand:wikidata":"Q10549422","check_date":"2023-08-13","dispensing":"yes","drive_through":"no","healthcare":"pharmacy","internet_access":"no","level":"0","name":"Kronans Apotek","opening_hours":"Mo-Fr 08:00-17:00; Sa 09:00-15:00; Su off","payment:mastercard":"yes","payment:visa":"yes","website":"https://www.kronansapotek.se","wheelchair":"yes"}},"geometry":{"type":"Point","coordinates":[18.0328594,59.3486237]}},{"type":"Feature","properties":{"id":11118221389,"osm_type":"node","name":"Apoteket","category":"pharmacy","tags":{"amenity":"pharmacy","brand":"Apoteket","brand:wikidata":"Q1785637","healthcare":"pharmacy","name":"Apoteket","opening_hours":"Mo-Fr 09:00-20:00; Sa 10:00-17:00; Su 11:00-17:00","wheelchair":"yes"}},"geometry":{"type":"Point","coordinates":[18.1382035,59.4593139]}},{"type":"Feature","properties":{"id":11238181796,"osm_type":"node","name":"Apotek Hjärtat","category":"pharmacy","tags":{"addr:city":"Huddinge","addr:country":"SE","addr:housenumber":"40","addr:postcode":"141 51","addr:street":"Ebba Bååts torg","amenity":"pharmacy","brand":"Apotek Hjärtat","brand:wikidata":"Q10416114","dispensing":"yes","drive_through":"no","healthcare":"pharmacy","name":"Apotek Hjärtat","opening_hours":"Mo-Su 08:00-22:00","website":"https://www.apotekhjartat.se/hitta-apotek-hjartat/apotek-hjartat-ica-maxi-flemingsberg"}},"geometry":{"type":"Point","coordinates":[17.9489399,59.218668]}},{"type":"Feature","properties":{"id":11251519278,"osm_type":"node","name":"Apoteket","category":"pharmacy","tags":{"addr:city":"Sollentuna","addr:country":"SE","addr:housenumber":"82","addr:postcode":"19162","addr:street":"Norra Malmvägen","amenity":"pharmacy","brand":"Apoteket","brand:wikidata":"Q1785637","check_date":"2025-12-07","check_date:opening_hours":"2025-12-07","contact:website":"https://www.apoteket.se/apotek/apoteket-haggvik-sollentuna/","healthcare":"pharmacy","name":"Apoteket","opening_hours":"Mo-Fr 09:00-19:00; Sa 10:00-17:00; Su 11:00-17:00"}},"geometry":{"type":"Point","coordinates":[17.9335042,59.4406481]}},{"type":"Feature","properties":{"id":11736855313,"osm_type":"node","name":"Apotek","category":"pharmacy","tags":{"amenity":"pharmacy","healthcare":"pharmacy","name":"Apotek","opening_hours":"Mo-Fr 08:30-18:30; Sa 10:00-14:00","wheelchair":"no"}},"geometry":{"type":"Point","coordinates":[18.1025952,59.348077]}},{"type":"Feature","properties":{"id":11989713674,"osm_type":"node","name":"Kronans Apotek","category":"pharmacy","tags":{"amenity":"pharmacy","brand":"Kronans Apotek","brand:wikidata":"Q10549422","healthcare":"pharmacy","name":"Kronans Apotek"}},"geometry":{"type":"Point","coordinates":[17.9372104,59.3862476]}},{"type":"Feature","properties":{"id":11993273210,"osm_type":"node","name":"Apotek Hjärtat","category":"pharmacy","tags":{"amenity":"pharmacy","brand":"Apoteket","brand:wikidata":"Q1785637","check_date":"2025-02-16","healthcare":"pharmacy","level":"0","name":"Apotek Hjärtat"}},"geometry":{"type":"Point","coordinates":[17.9456561,59.4024676]}},{"type":"Feature","properties":{"id":12006058412,"osm_type":"node","name":"Apotek-a","category":"pharmacy","tags":{"amenity":"pharmacy","healthcare":"pharmacy","name":"Apotek-a"}},"geometry":{"type":"Point","coordinates":[17.9140769,59.4149489]}},{"type":"Feature","properties":{"id":12014513391,"osm_type":"node","name":"DOZ Apotek","category":"pharmacy","tags":{"amenity":"pharmacy","brand":"DOZ Apotek","brand:wikidata":"Q10475311","healthcare":"pharmacy","name":"DOZ Apotek"}},"geometry":{"type":"Point","coordinates":[18.0912097,59.2428951]}},{"type":"Feature","properties":{"id":12016563685,"osm_type":"node","name":"DOZ Apotek","category":"pharmacy","tags":{"amenity":"pharmacy","brand":"DOZ Apotek","brand:wikidata":"Q10475311","healthcare":"pharmacy","name":"DOZ Apotek","opening_hours":"Mo-Fr 09:00-19:00; Sa 10:00-17:00; Su 11:00-16:00"}},"geometry":{"type":"Point","coordinates":[18.0418428,59.2634875]}},{"type":"Feature","properties":{"id":12017092371,"osm_type":"node","name":"Mecinkd Fotvård","category":"pharmacy","tags":{"amenity":"pharmacy","healthcare":"pharmacy","name":"Mecinkd Fotvård"}},"geometry":{"type":"Point","coordinates":[18.0520696,59.268158]}},{"type":"Feature","properties":{"id":12027927734,"osm_type":"node","name":"Medstore","category":"pharmacy","tags":{"amenity":"pharmacy","healthcare":"pharmacy","name":"Medstore"}},"geometry":{"type":"Point","coordinates":[17.9443373,59.3411605]}},{"type":"Feature","properties":{"id":12030859048,"osm_type":"node","name":"Apotek","category":"pharmacy","tags":{"amenity":"pharmacy","healthcare":"pharmacy","name":"Apotek"}},"geometry":{"type":"Point","coordinates":[18.0796413,59.2940846]}},{"type":"Feature","properties":{"id":12331385440,"osm_type":"node","name":"DOZ Apotek","category":"pharmacy","tags":{"addr:city":"Sollentuna","addr:country":"SE","addr:floor":"1","addr:housenumber":"163C","addr:postcode":"19147","addr:street":"Sollentunavägen","amenity":"pharmacy","brand":"DOZ Apotek","brand:wikidata":"Q10475311","check_date":"2025-11-18","check_date:opening_hours":"2025-11-18","contact:email":"sollentuna.sollentunacentrum@lloydsapotek.se","contact:phone":"+4686231100","contact:website":"http://dozapotek.se","healthcare":"pharmacy","level":"1","name":"DOZ Apotek","opening_hours":"Mo-Fr 09:00-20:00; Sa-Su 10:00-18:00"}},"geometry":{"type":"Point","coordinates":[17.9517791,59.4281004]}},{"type":"Feature","properties":{"id":12681468042,"osm_type":"node","name":"Essingens Apotek","category":"pharmacy","tags":{"addr:city":"Stockholm","addr:housenumber":"8","addr:postcode":"112 61","addr:street":"Essinge Brogata","amenity":"pharmacy","dispensing":"yes","drive_through":"no","email":"info@essingensapotek.se","healthcare":"pharmacy","name":"Essingens Apotek","opening_hours":"Mo-Fr 09:00-18:30; Sa 10:00-15:00","phone":"+46 81 2112 100","website":"https://essingensapotek.se"}},"geometry":{"type":"Point","coordinates":[18.0069413,59.325208]}},{"type":"Feature","properties":{"id":12846703880,"osm_type":"node","name":"Apoteket","category":"pharmacy","tags":{"amenity":"pharmacy","brand":"Apoteket","brand:wikidata":"Q1785637","healthcare":"pharmacy","name":"Apoteket","opening_hours":"Mo-Fr 10:00-20:00; Sa, Su 10:00-16:00"}},"geometry":{"type":"Point","coordinates":[17.924192,59.2670797]}},{"type":"Feature","properties":{"id":13006271297,"osm_type":"node","name":"Kronans Apotek","category":"pharmacy","tags":{"amenity":"pharmacy","brand":"Kronans Apotek","brand:wikidata":"Q10549422","healthcare":"pharmacy","name":"Kronans Apotek","opening_hours":"Mo-Fr 08:30-18:00; Sa 11:00-14:30"}},"geometry":{"type":"Point","coordinates":[18.0360681,59.3813311]}},{"type":"Feature","properties":{"id":13100743689,"osm_type":"node","name":"Sollentuna Apotek","category":"pharmacy","tags":{"amenity":"pharmacy","healthcare":"pharmacy","name":"Sollentuna Apotek","opening_hours":"Mo-Fr 10:00-18:00","phone":"+46760213524"}},"geometry":{"type":"Point","coordinates":[17.9449753,59.4280817]}},{"type":"Feature","properties":{"id":13122801894,"osm_type":"node","name":"Apoteket","category":"pharmacy","tags":{"amenity":"pharmacy","brand":"Apoteket","brand:wikidata":"Q1785637","check_date":"2025-12-13","check_date:opening_hours":"2025-12-13","contact:website":"https://www.apoteket.se/apotek/apoteket-ersta-sjukhus-stockholm/","healthcare":"pharmacy","name":"Apoteket","opening_hours":"Mo-Fr 08:00-18:00; Sa 10:00-15:00"}},"geometry":{"type":"Point","coordinates":[18.0889126,59.3160444]}},{"type":"Feature","properties":{"id":13236931350,"osm_type":"node","name":"Svea Vaccin","category":"pharmacy","tags":{"amenity":"pharmacy","check_date":"2025-12-06","check_date:opening_hours":"2025-12-06","contact:email":"karlavagen@sveavaccin.se","contact:phone":"+46735426693","contact:website":"https://sveavaccin.se/vara-mottagningar/stockholm/karlavagen/","healthcare":"pharmacy","name":"Svea Vaccin","opening_hours":"Mo-Fr 10:00-18:00; Sa,Su closed"}},"geometry":{"type":"Point","coordinates":[18.064243,59.3445211]}},{"type":"Feature","properties":{"id":13328778466,"osm_type":"node","name":"Kronans Apotek","category":"pharmacy","tags":{"amenity":"pharmacy","brand":"Kronans Apotek","check_date":"2025-11-24","check_date:opening_hours":"2025-11-24","contact:email":"kundservice@kronansapotek.se","contact:phone":"+46771612612","contact:website":"https://www.kronansapotek.se/hitta-apotek/kronans-apotek-haggvik-1929/","healthcare":"pharmacy","name":"Kronans Apotek","opening_hours":"Mo-Fr 10:00-19:00; Sa 10:00-16:00; Su 11:00-16:00"}},"geometry":{"type":"Point","coordinates":[17.9284855,59.4373072]}},{"type":"Feature","properties":{"id":13358101890,"osm_type":"node","name":"Apotek Hjärtat","category":"pharmacy","tags":{"amenity":"pharmacy","brand":"Apotek Hjärtat","brand:wikidata":"Q10416114","check_date":"2025-12-06","healthcare":"pharmacy","level":"4","name":"Apotek Hjärtat"}},"geometry":{"type":"Point","coordinates":[18.0092197,59.3374904]}},{"type":"Feature","properties":{"id":13391207791,"osm_type":"node","name":"Kronans Apotek","category":"pharmacy","tags":{"amenity":"pharmacy","brand":"Kronans Apotek","contact:email":"kundservice@kronansapotek.se","contact:phone":"+46771612612","contact:website":"https://www.kronansapotek.se/hitta-apotek/kronans-apotek-morby-centrum-1919/","healthcare":"pharmacy","level":"3","name":"Kronans Apotek","opening_hours":"Mo-Fr 09:00-19:00; Sa 10:00-17:00; Su 11:00-17:00"}},"geometry":{"type":"Point","coordinates":[18.0363731,59.3978729]}},{"type":"Feature","properties":{"id":13614874120,"osm_type":"node","name":"Kronans Apotek","category":"pharmacy","tags":{"amenity":"pharmacy","brand":"Kronans Apotek","brand:wikidata":"Q10549422","healthcare":"pharmacy","name":"Kronans Apotek"}},"geometry":{"type":"Point","coordinates":[18.2300895,59.245483]}},{"type":"Feature","properties":{"id":42330513,"osm_type":"way","name":"Apoteket","category":"pharmacy","tags":{"addr:country":"SE","addr:housenumber":"179","addr:street":"Tussmötevägen","amenity":"pharmacy","brand":"Apoteket","brand:wikidata":"Q1785637","building":"yes","healthcare":"pharmacy","name":"Apoteket","operator":"Apoteket","website:stock":"https://www.fass.se/"}},"geometry":{"type":"Point","coordinates":[18.0658295,59.278241]}},{"type":"Feature","properties":{"id":1311862224,"osm_type":"way","name":"Apoteket","category":"pharmacy","tags":{"amenity":"pharmacy","brand":"Apoteket","brand:wikidata":"Q1785637","brand:wikipedia":"sv:Apoteket","healthcare":"pharmacy","indoor":"room","level":"0","name":"Apoteket","website:stock":"https://www.fass.se/"}},"geometry":{"type":"Point","coordinates":[17.9439471,59.4020279]}}]}