{"type":"FeatureCollection","features":[{"type":"Feature","properties":{"id":257804153,"osm_type":"node","name":"","category":"police","tags":{"amenity":"police"}},"geometry":{"type":"Point","coordinates":[18.0938935,59.2416988]}},{"type":"Feature","properties":{"id":312522565,"osm_type":"node","name":"Citypolisen","category":"police","tags":{"amenity":"police","check_date":"2024-07-29","name":"Citypolisen"}},"geometry":{"type":"Point","coordinates":[18.038929,59.3320731]}},{"type":"Feature","properties":{"id":452555000,"osm_type":"node","name":"City Södermalm","category":"police","tags":{"amenity":"police","name":"City Södermalm","opening_hours":"Mo, Tu, Th 09:00-16:00; We 12:00-19:00; Fr 10:00-16:00","website":"https://www.polisen.se/Stockholms_lan/Kontakta-oss/Polisstationer/Stockholms-lan/City1/Sodermalm/","wheelchair":"yes"}},"geometry":{"type":"Point","coordinates":[18.0574996,59.3169038]}},{"type":"Feature","properties":{"id":1168312590,"osm_type":"node","name":"Polisstation Täby","category":"police","tags":{"amenity":"police","check_date":"2024-03-30","name":"Polisstation Täby","source":"survey","wheelchair":"yes"}},"geometry":{"type":"Point","coordinates":[18.0685991,59.4447616]}},{"type":"Feature","properties":{"id":1439606368,"osm_type":"node","name":"Älvsjö lokala poliskontor","category":"police","tags":{"amenity":"police","name":"Älvsjö lokala poliskontor"}},"geometry":{"type":"Point","coordinates":[18.0077634,59.2782005]}},{"type":"Feature","properties":{"id":2179581584,"osm_type":"node","name":"Lidingö Polisstation","category":"police","tags":{"amenity":"police","name":"Lidingö Polisstation"}},"geometry":{"type":"Point","coordinates":[18.1361753,59.3650292]}},{"type":"Feature","properties":{"id":2836684939,"osm_type":"node","name":"Polisen Globen","category":"police","tags":{"addr:city":"Johanneshov","addr:country":"SE","addr:housenumber":"63","addr:postcode":"121 77","addr:street":"Arenavägen","amenity":"police","name":"Polisen Globen"}},"geometry":{"type":"Point","coordinates":[18.0820908,59.2922903]}},{"type":"Feature","properties":{"id":5466921028,"osm_type":"node","name":"Säkerhetspolisen","category":"police","tags":{"addr:city":"Solna","addr:country":"SE","addr:housenumber":"2","addr:postcode":"17173","addr:street":"Bolstomtavägen","amenity":"police","check_date":"2024-11-05","government":"yes","name":"Säkerhetspolisen","name:en":"Swedish Security Service","name:fi":"Turvallisuuspoliisi","name:sv":"Säkerhetspolisen"}},"geometry":{"type":"Point","coordinates":[18.0105345,59.3522792]}},{"type":"Feature","properties":{"id":8177082708,"osm_type":"node","name":"Polisen Flemingsberg","category":"police","tags":{"addr:city":"Huddinge","addr:country":"SE","addr:housenumber":"9","addr:postcode":"141 51","addr:street":"Björnkullavägen","amenity":"police","name":"Polisen Flemingsberg","note":"Ingen lokal postadress.\nPassexpedition.","operator":"Polismyndigheten","website":"https://polisen.se/om-polisen/kontakt/polisstationer/stockholms-lan/stockholm-syd/flemingsberg/"}},"geometry":{"type":"Point","coordinates":[17.9470775,59.2168911]}},{"type":"Feature","properties":{"id":12308940212,"osm_type":"node","name":"","category":"police","tags":{"addr:city":"Handen","addr:housenumber":"3","addr:postcode":"136 46","addr:street":"Runstensvägen","amenity":"police","website":"https://polisen.se/om-polisen/kontakt/polisstationer/stockholms-lan/stockholm-syd/haninge/?mtm_campaign=gmb&mtm_kwd=polisstation"}},"geometry":{"type":"Point","coordinates":[18.1408713,59.1695828]}},{"type":"Feature","properties":{"id":12571039818,"osm_type":"node","name":"Polisens passexpedition Stockholm city","category":"police","tags":{"amenity":"police","check_date:opening_hours":"2025-04-25","check_date:opening_hours:url":"2025-04-25","name":"Polisens passexpedition Stockholm city","opening_hours":"Mo 12:00-18:00; Tu-Th 09:00-16:00; Fr 10:00-16:00; Sa off; Su off; PH off","opening_hours:url":"polisen.se"}},"geometry":{"type":"Point","coordinates":[18.0399442,59.3305182]}},{"type":"Feature","properties":{"id":13006728272,"osm_type":"node","name":"Passexpedition","category":"police","tags":{"amenity":"police","name":"Passexpedition"}},"geometry":{"type":"Point","coordinates":[18.1077117,59.2422383]}},{"type":"Feature","properties":{"id":13006728279,"osm_type":"node","name":"Lokalpolisområde Farsta","category":"police","tags":{"amenity":"police","name":"Lokalpolisområde Farsta"}},"geometry":{"type":"Point","coordinates":[18.1076545,59.2415855]}},{"type":"Feature","properties":{"id":35407853,"osm_type":"way","name":"Järva polisstation","category":"police","tags":{"amenity":"police","building":"yes","name":"Järva polisstation"}},"geometry":{"type":"Point","coordinates":[17.9321089,59.3875721]}},{"type":"Feature","properties":{"id":117405911,"osm_type":"way","name":"Polisen Nacka","category":"police","tags":{"addr:city":"Nacka Strand","addr:country":"SE","addr:housenumber":"1","addr:postcode":"131 52","addr:street":"Jakobsdalsvägen","amenity":"police","building":"government","name":"Polisen Nacka","opening_hours":"Mo-Tu 9-16, We 9-19, Th-Fr 9-16","phone":"SE=+46 77 114 14 00","source":"Bing","url":"https://polisen.se/om-polisen/kontakt/polisstationer/stockholms-lan/stockholm-syd/nacka/?mtm_campaign=gmb&mtm_kwd=polisstation"}},"geometry":{"type":"Point","coordinates":[18.1642668,59.3150407]}},{"type":"Feature","properties":{"id":173697500,"osm_type":"way","name":"Västberga polishus","category":"police","tags":{"amenity":"police","building":"civic","name":"Västberga polishus","roof:colour":"black"}},"geometry":{"type":"Point","coordinates":[18.0110314,59.2921469]}},{"type":"Feature","properties":{"id":812633883,"osm_type":"way","name":"","category":"police","tags":{"addr:city":"Huddinge","addr:housenumber":"1","addr:postcode":"14144","addr:street":"Novavägen","amenity":"police","building":"yes"}},"geometry":{"type":"Point","coordinates":[17.9504756,59.2307792]}},{"type":"Feature","properties":{"id":3120268,"osm_type":"relation","name":"","category":"police","tags":{"amenity":"police","building":"commercial","building:levels":"10","type":"multipolygon"}},"geometry":{"type":"Point","coordinates":[17.9492666,59.4262048]}},{"type":"Feature","properties":{"id":14584213,"osm_type":"relation","name":"","category":"police","tags":{"amenity":"police","type":"multipolygon"}},"geometry":{"type":"Point","coordinates":[18.0043475,59.3552196]}}]}