{"type":"FeatureCollection","features":[{"type":"Feature","properties":{"id":1139452362,"osm_type":"node","name":"Kungliga Svenska Balettskolan","category":"school_high","tags":{"addr:city":"Stockholm","addr:country":"SE","addr:housenumber":"39","addr:street":"Söder Mälarstrand","amenity":"school","check_date":"2024-05-27","email":"kungligasvenskabalettskolan@stockholm.se","fax":"+46 8 508 33 520","grades":"4-9","isced:level":"2;3","name":"Kungliga Svenska Balettskolan","name:de":"Königliche Schwedische Ballettschule","name:en":"The Royal Swedish Ballet School","name:sv":"Kungliga Svenska Balettskolan","phone":"+46 8 508 33 510","website":"https://kungligasvenskabalettskolan.stockholm.se/","wikidata":"Q10550223","wikipedia":"sv:Kungliga Svenska Balettskolan"}},"geometry":{"type":"Point","coordinates":[18.0520487,59.3206564]}},{"type":"Feature","properties":{"id":1340899520,"osm_type":"node","name":"Tyska skolan","category":"school_high","tags":{"amenity":"school","check_date":"2025-12-06","contact:email":"dss@tyskaskolan.se","contact:phone":"+46840919400","contact:website":"https://tyskaskolan.se/","education":"school","grades":"0-12","isced:level":"1-3","name":"Tyska skolan","operator":"Deutscher Schulverein Stockholm (Tyska Skolföreningen)","operator:type":"private","wikidata":"Q289100","wikimedia_commons":"Category:Tyska skolan Stockholm","wikipedia":"sv:Tyska skolan Stockholm"}},"geometry":{"type":"Point","coordinates":[18.0700336,59.3421828]}},{"type":"Feature","properties":{"id":241129368,"osm_type":"way","name":"Södra Latins gymnasium","category":"school_high","tags":{"alt_name":"Södra Latin","amenity":"kindergarten","check_date":"2024-04-28","isced:level":"3","name":"Södra Latins gymnasium","operator":"Stockholms stad","operator:type":"government","operator:wikidata":"Q506250","website":"https://sodralatinsgymnasium.stockholm.se/","wikidata":"Q7666369","wikipedia":"sv:Södra Latin"}},"geometry":{"type":"Point","coordinates":[18.0690666,59.3168237]}},{"type":"Feature","properties":{"id":375624669,"osm_type":"way","name":"Östra gymnasiet","category":"school_high","tags":{"amenity":"school","isced:level":"3","name":"Östra gymnasiet","website":"https://www.huddinge.se/ostragymnasiet/","wikidata":"Q10728294","wikipedia":"sv:Östra gymnasiet, Huddinge kommun"}},"geometry":{"type":"Point","coordinates":[18.149277,59.2230272]}}]}