{"type":"FeatureCollection","features":[{"type":"Feature","properties":{"id":14869751,"osm_type":"way","name":"Eriksdalsbadet","category":"stadium","tags":{"building":"stadium","building:colour":"salmon","check_date":"2025-12-13","check_date:opening_hours":"2025-12-13","contact:website":"https://motionera.stockholm/trana-gymma-simma/eriksdalsbadet/","email":"eriksdalsbadet@​stockholm.se","leisure":"stadium","name":"Eriksdalsbadet","phone":"+46850840250","roof:colour":"lightgray","sport":"swimming","start_date":"1999","wheelchair":"yes","wikidata":"Q4356776","wikipedia":"sv:Eriksdalsbadet"}},"geometry":{"type":"Point","coordinates":[18.0758299,59.3045582]}},{"type":"Feature","properties":{"id":25431325,"osm_type":"way","name":"Avicii Arena","category":"stadium","tags":{"alt_name":"Globen","architect":"Berg Arkitektkontor","architect:wikidata":"Q10428319","building":"public","capacity":"16000","check_date":"2026-05-29","description":"Multiarena för musik, sport och evenemang.","ele":"130","height":"85","layer":"2","leisure":"stadium","name":"Avicii Arena","name:en":"Avicii Arena","name:ru":"Авичи-Арена","official_name":"Avicii Arena","old_name":"Ericsson Globe","old_name:en":"Ericsson Globe","old_name:ru":"Глобен-Арена","roof:colour":"white","roof:height":"66","roof:levels":"22","roof:shape":"dome","short_name":"Globen","sport":"multi","start_date":"1989-02-19","website":"https://aviciiarena.se","wheelchair":"limited","wikidata":"Q32926","wikipedia":"sv:Globen"}},"geometry":{"type":"Point","coordinates":[18.0832128,59.2936091]}},{"type":"Feature","properties":{"id":112501537,"osm_type":"way","name":"Hovet","category":"stadium","tags":{"building":"stadium","height":"17 m","leisure":"stadium","name":"Hovet","name:de":"Hovet","name:en":"Hovet","roof:colour":"lightgray","roof:inscription":"ERICSSON","roof:inscription:colour":"skyblue","roof:inscription:font":"Arial Black","start_date":"1955","wheelchair":"yes","wikidata":"Q304362","wikipedia":"sv:Hovet (arena)"}},"geometry":{"type":"Point","coordinates":[18.0818848,59.2948883]}},{"type":"Feature","properties":{"id":193461738,"osm_type":"way","name":"3Arena","category":"stadium","tags":{"building":"stadium","height":"52 m","layer":"1","leisure":"stadium","name":"3Arena","old_name":"Tele2 Arena","wikidata":"Q2701834","wikipedia":"sv:3Arena"}},"geometry":{"type":"Point","coordinates":[18.0844776,59.2910971]}},{"type":"Feature","properties":{"id":502190886,"osm_type":"way","name":"Eriksdalsbadet","category":"stadium","tags":{"leisure":"stadium","name":"Eriksdalsbadet","sport":"swimming","website":"https://motionera.stockholm/trana-gymma-simma/eriksdalsbadet/"}},"geometry":{"type":"Point","coordinates":[18.0720428,59.3056246]}},{"type":"Feature","properties":{"id":922538236,"osm_type":"way","name":"","category":"stadium","tags":{"leisure":"stadium","sport":"basketball"}},"geometry":{"type":"Point","coordinates":[17.9902325,59.2781779]}},{"type":"Feature","properties":{"id":1330344470,"osm_type":"way","name":"Huddinge Motorstadion","category":"stadium","tags":{"leisure":"stadium","name":"Huddinge Motorstadion","sport":"motor"}},"geometry":{"type":"Point","coordinates":[17.9815224,59.1696317]}},{"type":"Feature","properties":{"id":1932910,"osm_type":"relation","name":"Strawberry Arena","category":"stadium","tags":{"alt_name":"Strawberry Arena","building":"stadium","building:levels":"9","check_date":"2025-02-15","height":"33","leisure":"stadium","name":"Strawberry Arena","old_name":"Friends Arena","roof:orientation":"along","roof:shape":"round","source":"Detaljplan Solna Kommun","source:name":"http://www.swedbankarena.se/press_namnbyte_friends_arena.asp","sport":"multi;bandy;motorcycle_speedway;soccer","type":"multipolygon","wikidata":"Q1138684","wikipedia":"sv:Friends Arena"}},"geometry":{"type":"Point","coordinates":[18.0005625,59.3725041]}},{"type":"Feature","properties":{"id":11095283,"osm_type":"relation","name":"Stockholms stadion","category":"stadium","tags":{"alt_name":"Stockholms Olympiastadion","alt_name:fi":"Tukholman stadion","historic":"stadium","leisure":"stadium","name":"Stockholms stadion","name:fi":"Tukholman olympiastadion","name:sv":"Stockholms stadion","type":"site","wikidata":"Q727078","wikipedia":"sv:Stockholms stadion"}},"geometry":{"type":"Point","coordinates":[18.0793814,59.3455496]}},{"type":"Feature","properties":{"id":15998621,"osm_type":"relation","name":"Solvalla","category":"stadium","tags":{"leisure":"stadium","name":"Solvalla","sport":"horse_racing","type":"multipolygon","website":"https://www.solvalla.se/","wikidata":"Q1937546"}},"geometry":{"type":"Point","coordinates":[17.9381463,59.3667139]}}]}