{"type":"FeatureCollection","features":[{"type":"Feature","properties":{"id":29898117,"osm_type":"node","name":"Teater Galeasen","category":"theatre","tags":{"amenity":"theatre","check_date":"2026-04-22","name":"Teater Galeasen","website":"https://galeasen.se/","wikidata":"Q7691863","wikipedia":"sv:Teater Galeasen"}},"geometry":{"type":"Point","coordinates":[18.0833585,59.3272996]}},{"type":"Feature","properties":{"id":36309663,"osm_type":"node","name":"Stockholms Roddförening","category":"theatre","tags":{"addr:city":"Stockholm","addr:housenumber":"22","addr:postcode":"115 25","addr:street":"Lidovägen","amenity":"events_venue","club":"sport","name":"Stockholms Roddförening","sport":"rowing","website":"https://www.stockholmsroddforening.se/"}},"geometry":{"type":"Point","coordinates":[18.1288673,59.3307619]}},{"type":"Feature","properties":{"id":94070610,"osm_type":"node","name":"Edsvik Konsthall","category":"theatre","tags":{"amenity":"arts_centre","name":"Edsvik Konsthall","wikidata":"Q5340341"}},"geometry":{"type":"Point","coordinates":[17.9588514,59.4405059]}},{"type":"Feature","properties":{"id":271876645,"osm_type":"node","name":"Kungliga Operan","category":"theatre","tags":{"amenity":"theatre","description:en":"Nineteenth century opera house, guided tours in summer.","name":"Kungliga Operan","name:en":"Royal Swedish Opera","name:fi":"Kuninkaallinen ooppera","name:sv":"Kungliga Operan","phone":"+4687914300","theatre:type":"opera_house","website":"https://www.operan.se/","wheelchair":"yes","wikidata":"Q254283","wikimedia_commons":"Category:Kungliga operan","wikipedia":"sv:Kungliga Operan"}},"geometry":{"type":"Point","coordinates":[18.0699588,59.3296435]}},{"type":"Feature","properties":{"id":290945823,"osm_type":"node","name":"Rålambshovsparkens amfiteater","category":"theatre","tags":{"amenity":"theatre","name":"Rålambshovsparkens amfiteater","name:sv":"Rålambshovsparkens amfiteater","parkteater":"amfiteater"}},"geometry":{"type":"Point","coordinates":[18.025269,59.3277194]}},{"type":"Feature","properties":{"id":300237394,"osm_type":"node","name":"Cosmonova","category":"theatre","tags":{"amenity":"cinema","name":"Cosmonova","operator":"Naturhistoriska riksmuseet","wikidata":"Q2998313","wikimedia_commons":"Category:Cosmonova","wikipedia":"sv:Cosmonova"}},"geometry":{"type":"Point","coordinates":[18.0545521,59.3686826]}},{"type":"Feature","properties":{"id":322586531,"osm_type":"node","name":"Teater Roi","category":"theatre","tags":{"amenity":"theatre","check_date":"2024-05-16","name":"Teater Roi"}},"geometry":{"type":"Point","coordinates":[18.1387012,59.1748391]}},{"type":"Feature","properties":{"id":370939230,"osm_type":"node","name":"China Teatern","category":"theatre","tags":{"amenity":"theatre","check_date":"2026-05-04","email":"biljettbokning@chinateatern.se","name":"China Teatern","name:en":"China Theatre","phone":"+46 8 611 74 70","website":"https://www.chinateatern.se/","wikidata":"Q1073615","wikimedia_commons":"Category:Chinateatern","wikipedia":"sv:Chinateatern"}},"geometry":{"type":"Point","coordinates":[18.0733328,59.332513]}},{"type":"Feature","properties":{"id":373464853,"osm_type":"node","name":"Maxim","category":"theatre","tags":{"amenity":"theatre","name":"Maxim","website":"https://maximteatern.com/","wikidata":"Q374436","wikimedia_commons":"Category:Maximteatern","wikipedia":"sv:Maximteatern"}},"geometry":{"type":"Point","coordinates":[18.0889484,59.3369084]}},{"type":"Feature","properties":{"id":373824733,"osm_type":"node","name":"Teatern Gröna Lund","category":"theatre","tags":{"amenity":"theatre","name":"Teatern Gröna Lund","wikidata":"Q10509982","wikimedia_commons":"Category:Gröna Lund-teatern","wikipedia":"sv:Gröna Lund-teatern"}},"geometry":{"type":"Point","coordinates":[18.0966026,59.3243553]}},{"type":"Feature","properties":{"id":410525920,"osm_type":"node","name":"Park","category":"theatre","tags":{"amenity":"cinema","name":"Park","operator":"SF","phone":"+46 8 522 232 00","website":"https://biografenpark.se/","wikidata":"Q3365398","wikimedia_commons":"Category:Biograf Park","wikipedia":"sv:Park (biograf)"}},"geometry":{"type":"Point","coordinates":[18.0745212,59.3378596]}},{"type":"Feature","properties":{"id":413513849,"osm_type":"node","name":"Olympiateatern","category":"theatre","tags":{"amenity":"theatre","check_date":"2025-11-16","contact:email":"info@olympiateatern.se","name":"Olympiateatern","source":"survey","website":"https://www.olympiateatern.se"}},"geometry":{"type":"Point","coordinates":[18.0478785,59.3417236]}},{"type":"Feature","properties":{"id":415981773,"osm_type":"node","name":"Oscarsteatern","category":"theatre","tags":{"amenity":"theatre","check_date":"2024-04-25","name":"Oscarsteatern","website":"https://www.oscarsteatern.se/","wheelchair":"limited","wikidata":"Q3439887","wikimedia_commons":"Category:Oscarsteatern","wikipedia":"sv:Oscarsteatern"}},"geometry":{"type":"Point","coordinates":[18.0560276,59.3334674]}},{"type":"Feature","properties":{"id":426931991,"osm_type":"node","name":"Filmstaden Söder","category":"theatre","tags":{"amenity":"cinema","contact:phone":"+46856260000","contact:website":"https://www.filmstaden.se/biograf/NCG37226/filmstaden-soder","facebook":"https://www.facebook.com/FilmstadenAB/","name":"Filmstaden Söder","operator":"SF","wheelchair":"yes","wikidata":"Q3072167","wikipedia":"sv:Filmstaden Söder"}},"geometry":{"type":"Point","coordinates":[18.0711342,59.3140545]}},{"type":"Feature","properties":{"id":432619504,"osm_type":"node","name":"Strindbergs Intima Teater","category":"theatre","tags":{"amenity":"theatre","check_date":"2024-07-06","name":"Strindbergs Intima Teater","payment:cash":"no","website":"https://www.strindbergsintimateater.se/","wikidata":"Q7623892","wikipedia":"sv:Strindbergs Intima Teater"}},"geometry":{"type":"Point","coordinates":[18.0537512,59.335512]}},{"type":"Feature","properties":{"id":442049900,"osm_type":"node","name":"Bio Kontrast","category":"theatre","tags":{"amenity":"cinema","name":"Bio Kontrast","opening_hours":"\"Depending on programme, sign outside showing the current movies shown and times\"","website":"http://arstafolketshus.org/?page_id=25","wikidata":"Q10429749"}},"geometry":{"type":"Point","coordinates":[18.0526946,59.2975284]}},{"type":"Feature","properties":{"id":449884311,"osm_type":"node","name":"Rigoletto","category":"theatre","tags":{"amenity":"cinema","facebook":"https://www.facebook.com/FilmstadenAB/","name":"Rigoletto","opening_hours":"Mo-Fr 16:30-21:15; Sa-Su 13:30-21:15; ","operator":"SF","payment:cash":"no","phone":"+46 8 562 600 00","website":"https://www.filmstaden.se/stockholm/biograf/rigoletto/","wheelchair":"yes","wikidata":"Q3431963","wikimedia_commons":"Category:Biograf Rigoletto","wikipedia":"sv:Rigoletto (biograf)"}},"geometry":{"type":"Point","coordinates":[18.0683826,59.3361365]}},{"type":"Feature","properties":{"id":449884345,"osm_type":"node","name":"Saga","category":"theatre","tags":{"amenity":"cinema","check_date":"2024-02-10","name":"Saga","opening_hours":"\"See website\"","operator":"SF","payment:cash":"no","phone":"+46 8 562 600 00","website":"https://www.filmstaden.se/biograf/NCG50537/saga","wheelchair":"limited","wikidata":"Q3461313","wikimedia_commons":"Category:Saga (biograf)","wikipedia":"sv:Saga (biograf, Stockholm)"}},"geometry":{"type":"Point","coordinates":[18.0670248,59.336058]}},{"type":"Feature","properties":{"id":474987953,"osm_type":"node","name":"Grand","category":"theatre","tags":{"amenity":"cinema","brand":"Svenska Bio","brand:wikidata":"Q3506261","check_date":"2024-10-29","check_date:opening_hours":"2024-10-29","facebook":"https://www.facebook.com/FilmstadenAB/","name":"Grand","opening_hours":"Mo-Su 12:00-21:00","operator":"Svenska Bio","payment:cash":"no","website":"https://www.filmstaden.se/biograf/NCG49012/grand-stockholm","wikidata":"Q921471","wikimedia_commons":"Category:Biograf Grand","wikipedia":"sv:Grand (biograf, Stockholm)"}},"geometry":{"type":"Point","coordinates":[18.0598191,59.3391066]}},{"type":"Feature","properties":{"id":507149966,"osm_type":"node","name":"Ö2SCENKONST","category":"theatre","tags":{"amenity":"theatre","check_date":"2025-11-27","contact:phone":"+46703334467","contact:website":"https://www.o2scenkonst.se","name":"Ö2SCENKONST"}},"geometry":{"type":"Point","coordinates":[18.0446318,59.3296527]}},{"type":"Feature","properties":{"id":507149970,"osm_type":"node","name":"Pipersgatan 4","category":"theatre","tags":{"amenity":"theatre","name":"Pipersgatan 4"}},"geometry":{"type":"Point","coordinates":[18.045121,59.3290522]}},{"type":"Feature","properties":{"id":512538746,"osm_type":"node","name":"Nalen","category":"theatre","tags":{"amenity":"events_venue","name":"Nalen"}},"geometry":{"type":"Point","coordinates":[18.0675869,59.336994]}},{"type":"Feature","properties":{"id":530742536,"osm_type":"node","name":"Bio Rio","category":"theatre","tags":{"amenity":"cinema","facebook":"https://www.facebook.com/TheBioRio/","name":"Bio Rio","operator":"Folkets hus och parker","phone":"+46 8 669 95 00","website":"https://www.biorio.se","wheelchair":"no","wikidata":"Q3432288","wikipedia":"sv:Biografen Rio"}},"geometry":{"type":"Point","coordinates":[18.0306705,59.3152993]}},{"type":"Feature","properties":{"id":532019857,"osm_type":"node","name":"Sture","category":"theatre","tags":{"amenity":"cinema","check_date":"2025-12-05","contact:email":"kundservice@filmstaden.se","contact:phone":"+46856260000","contact:website":"https://www.filmstaden.se/stockholm/biograf/sture/","name":"Sture","payment:cash":"no","wheelchair":"yes","wikidata":"Q10429753","wikimedia_commons":"Category:Biografen Sture","wikipedia":"sv:Biografen Sture"}},"geometry":{"type":"Point","coordinates":[18.0677236,59.3389757]}},{"type":"Feature","properties":{"id":534288014,"osm_type":"node","name":"Tellus","category":"theatre","tags":{"amenity":"cinema","name":"Tellus","phone":"+46 8 645 75 51","screen":"1","website":"https://www.tellusbio.nu/","wikidata":"Q10429754","wikipedia":"sv:Biografen Tellus"}},"geometry":{"type":"Point","coordinates":[18.0075991,59.3019888]}},{"type":"Feature","properties":{"id":552514135,"osm_type":"node","name":"Victoria","category":"theatre","tags":{"amenity":"cinema","check_date":"2026-04-18","check_date:opening_hours":"2026-04-18","facebook":"https://www.facebook.com/FilmstadenAB/","name":"Victoria","opening_hours":"Mo-Su 09:30-21:00","operator":"Svenska Bio","payment:cash":"yes","website":"https://www.filmstaden.se/biograf/NCG74195/victoria-stockholm","wheelchair":"limited","wikidata":"Q3557676","wikipedia":"sv:Victoria (biograf, Stockholm)"}},"geometry":{"type":"Point","coordinates":[18.074399,59.3128375]}},{"type":"Feature","properties":{"id":660471762,"osm_type":"node","name":"Orionteatern","category":"theatre","tags":{"amenity":"theatre","name":"Orionteatern","website":"https://www.orionteatern.se/","wikidata":"Q7102802","wikipedia":"sv:Orionteatern"}},"geometry":{"type":"Point","coordinates":[18.0901758,59.3082954]}},{"type":"Feature","properties":{"id":727631942,"osm_type":"node","name":"Dieselverkstaden","category":"theatre","tags":{"amenity":"theatre","check_date":"2024-06-29","name":"Dieselverkstaden","wheelchair":"yes"}},"geometry":{"type":"Point","coordinates":[18.120744,59.3054932]}},{"type":"Feature","properties":{"id":762643756,"osm_type":"node","name":"Eva Funck's dockteater","category":"theatre","tags":{"amenity":"theatre","check_date":"2025-04-10","contact:email":"eva@honapona.com","contact:website":"https://evafunck.se","name":"Eva Funck's dockteater"}},"geometry":{"type":"Point","coordinates":[18.0401313,59.3380916]}},{"type":"Feature","properties":{"id":762680572,"osm_type":"node","name":"Giljotin","category":"theatre","tags":{"amenity":"theatre","check_date":"2025-11-29","contact:email":"teatergiljotin@gmail.com","contact:phone":"+468303000","contact:website":"http://www.teatergiljotin.se/","name":"Giljotin","payment:cash":"yes"}},"geometry":{"type":"Point","coordinates":[18.0381839,59.3404288]}},{"type":"Feature","properties":{"id":762680604,"osm_type":"node","name":"Påfågeln","category":"theatre","tags":{"amenity":"theatre","check_date":"2019-12-09","name":"Påfågeln","wheelchair":"yes","wikidata":"Q10647874","wikimedia_commons":"Category:Biograf Påfågeln"}},"geometry":{"type":"Point","coordinates":[18.0374329,59.3403285]}},{"type":"Feature","properties":{"id":772629838,"osm_type":"node","name":"Teaterverket","category":"theatre","tags":{"amenity":"theatre","contact:website":"https://teaterverket.se","name":"Teaterverket","wikidata":"Q10691647","wikipedia":"sv:Teater Pero"}},"geometry":{"type":"Point","coordinates":[18.0560757,59.3438561]}},{"type":"Feature","properties":{"id":846109905,"osm_type":"node","name":"Scala","category":"theatre","tags":{"amenity":"theatre","name":"Scala","website":"https://www.scalateatern.se/"}},"geometry":{"type":"Point","coordinates":[18.0535769,59.3362441]}},{"type":"Feature","properties":{"id":1085498347,"osm_type":"node","name":"Dockteatern Tittut","category":"theatre","tags":{"amenity":"theatre","check_date":"2025-12-14","contact:email":"info@dockteaterntittut.se","contact:phone":"+4687207599","contact:website":"https://dockteaterntittut.se/","name":"Dockteatern Tittut"}},"geometry":{"type":"Point","coordinates":[18.0477736,59.3184295]}},{"type":"Feature","properties":{"id":1151507535,"osm_type":"node","name":"Tribunalen","category":"theatre","tags":{"amenity":"theatre","check_date":"2025-12-10","contact:email":"info@tribunalen.com","contact:phone":"+468849433","contact:website":"https://www.tribunalen.com/","name":"Tribunalen","payment:cash":"no","wikidata":"Q7691867"}},"geometry":{"type":"Point","coordinates":[18.0526453,59.3177878]}},{"type":"Feature","properties":{"id":1168312498,"osm_type":"node","name":"Tibble Teater","category":"theatre","tags":{"amenity":"theatre","check_date":"2025-11-21","name":"Tibble Teater","source":"survey"}},"geometry":{"type":"Point","coordinates":[18.0661899,59.4426235]}},{"type":"Feature","properties":{"id":1211022052,"osm_type":"node","name":"Folkoperan","category":"theatre","tags":{"amenity":"theatre","check_date":"2025-12-10","contact:email":"info@folkoperan.se","contact:phone":"+4686160750","contact:website":"https://www.folkoperan.se/","name":"Folkoperan","wikidata":"Q5464597","wikipedia":"sv:Folkoperan"}},"geometry":{"type":"Point","coordinates":[18.0582517,59.3184677]}},{"type":"Feature","properties":{"id":1234015481,"osm_type":"node","name":"Teater Moment","category":"theatre","tags":{"addr:city":"Enskede","addr:country":"SE","addr:housenumber":"117","addr:place":"Gubbängstorget","amenity":"theatre","name":"Teater Moment"}},"geometry":{"type":"Point","coordinates":[18.0841689,59.2624592]}},{"type":"Feature","properties":{"id":1246702436,"osm_type":"node","name":"Zita","category":"theatre","tags":{"amenity":"cinema","check_date":"2024-05-25","facebook":"https://www.facebook.com/zitafolketsbio/","name":"Zita","operator":"Folkets Bio","payment:cash":"yes","phone":"+46 8 23 20 20","website":"https://zita.se/","wheelchair":"yes","wikidata":"Q3575618","wikimedia_commons":"Category:Zita (biograf)","wikipedia":"sv:Zita"}},"geometry":{"type":"Point","coordinates":[18.0683754,59.3384125]}},{"type":"Feature","properties":{"id":1246702442,"osm_type":"node","name":"Skandia","category":"theatre","tags":{"amenity":"cinema","check_date":"2024-04-28","email":"info@bioskandia.se","facebook":"https://www.facebook.com/FilmstadenAB/","name":"Skandia","opening_hours":"Th-Su 15:00-22:00","operator":"SF","payment:cash":"no","phone":"+46 8 562 600 00","website":"https://bioskandia.se/","wheelchair":"yes","wikidata":"Q693444","wikimedia_commons":"Category:Biograf Skandia","wikipedia":"sv:Skandia (biograf)"}},"geometry":{"type":"Point","coordinates":[18.0600785,59.3353939]}},{"type":"Feature","properties":{"id":1255318556,"osm_type":"node","name":"Teater Tre","category":"theatre","tags":{"amenity":"theatre","name":"Teater Tre","phone":"+46 8 669 00 60","website":"https://www.teatertre.se/"}},"geometry":{"type":"Point","coordinates":[18.0550359,59.317734]}},{"type":"Feature","properties":{"id":1348515178,"osm_type":"node","name":"Göta Lejon","category":"theatre","tags":{"amenity":"theatre","check_date":"2025-12-11","contact:email":"info@gotalejon.se","contact:phone":"+46850529000","contact:website":"https://www.gotalejon.se/","name":"Göta Lejon","wikidata":"Q3124568","wikipedia":"sv:Göta Lejon"}},"geometry":{"type":"Point","coordinates":[18.0738979,59.3138723]}},{"type":"Feature","properties":{"id":1457186252,"osm_type":"node","name":"Pygméteatern","category":"theatre","tags":{"amenity":"theatre","check_date":"2020-01-09","contact:email":"info@pygmeteatern.se","contact:phone":"+468310321","contact:website":"https://www.pygmeteatern.se","name":"Pygméteatern"}},"geometry":{"type":"Point","coordinates":[18.0500792,59.3422485]}},{"type":"Feature","properties":{"id":1478208836,"osm_type":"node","name":"Intiman","category":"theatre","tags":{"amenity":"theatre","check_date":"2023-04-22","name":"Intiman","phone":"+46 8 30 12 50","website":"https://www.intiman.se","wikidata":"Q10536356","wikimedia_commons":"Category:Intiman","wikipedia":"sv:Intiman"}},"geometry":{"type":"Point","coordinates":[18.0481755,59.3420123]}},{"type":"Feature","properties":{"id":1508674366,"osm_type":"node","name":"Dur & Moll","category":"theatre","tags":{"amenity":"theatre","check_date":"2024-05-01","name":"Dur & Moll","website":"http://www.durochmoll.se/"}},"geometry":{"type":"Point","coordinates":[18.0840997,59.3173419]}},{"type":"Feature","properties":{"id":1559519173,"osm_type":"node","name":"Vår Teater","category":"theatre","tags":{"amenity":"theatre","check_date":"2026-04-20","name":"Vår Teater"}},"geometry":{"type":"Point","coordinates":[18.0510949,59.2974609]}},{"type":"Feature","properties":{"id":1687109912,"osm_type":"node","name":"Filmstaden Råsunda","category":"theatre","tags":{"addr:city":"Solna","addr:country":"SE","addr:housenumber":"9","addr:street":"Greta Garbos väg","amenity":"cinema","brand":"Filmstaden","brand:wikidata":"Q3459512","check_date:opening_hours":"2024-10-18","name":"Filmstaden Råsunda","opening_hours:signed":"no","source":"survey","toilets:wheelchair":"yes","website":"https://www.filmstaden.se/stockholm/biograf/filmstaden-rasunda/","wheelchair":"yes","wikidata":"Q106574403"}},"geometry":{"type":"Point","coordinates":[17.981863,59.3670518]}},{"type":"Feature","properties":{"id":1708073926,"osm_type":"node","name":"Elverket","category":"theatre","tags":{"amenity":"theatre","name":"Elverket","website":"https://www.dramaten.se/dramaten/Infor-Besoket/Teaterlankar/Elverket/"}},"geometry":{"type":"Point","coordinates":[18.0881895,59.3357807]}},{"type":"Feature","properties":{"id":1741554549,"osm_type":"node","name":"Stallet","category":"theatre","tags":{"amenity":"concert_hall","name":"Stallet","website":"https://www.stallet.st/"}},"geometry":{"type":"Point","coordinates":[18.0761391,59.3309609]}},{"type":"Feature","properties":{"id":1831307863,"osm_type":"node","name":"Bio Bristol","category":"theatre","tags":{"addr:country":"SE","addr:housenumber":"39","addr:street":"Sturegatan","amenity":"cinema","check_date":"2025-11-30","name":"Bio Bristol","screen":"1","website":"https://biobristol.se/","wikidata":"Q108688272","wikimedia_commons":"Category:Bristol, Stockholm","wikipedia":"sv:Bristol (biograf)"}},"geometry":{"type":"Point","coordinates":[17.9667658,59.3634958]}},{"type":"Feature","properties":{"id":1981420217,"osm_type":"node","name":"Stockholms Stadsteater","category":"theatre","tags":{"addr:city":"Stockholm","addr:country":"SE","addr:housenumber":"5","addr:postcode":"111 51","addr:street":"Beridarebanan","amenity":"theatre","facebook":"https://www.facebook.com/kulturhusetstadsteatern","name":"Stockholms Stadsteater","name:fi":"Tukholman kaupunginteatteri","name:sv":"Stockholms Stadsteater","phone":"+46 8 506 202 00","website":"https://kulturhusetstadsteatern.se/","wikidata":"Q119095404","wikimedia_commons":"Category:Stockholms stadsteater","wikipedia":"sv:Stockholms stadsteater"}},"geometry":{"type":"Point","coordinates":[18.0645062,59.3318988]}},{"type":"Feature","properties":{"id":2129439289,"osm_type":"node","name":"Lederman","category":"theatre","tags":{"amenity":"theatre","check_date":"2020-03-12","contact:email":"info@teaterlederman.com","contact:phone":"+468303094","contact:website":"http://www.teaterlederman.com/","name":"Lederman"}},"geometry":{"type":"Point","coordinates":[18.0393721,59.3414735]}},{"type":"Feature","properties":{"id":2178855503,"osm_type":"node","name":"Brunnsgatan fyra","category":"theatre","tags":{"amenity":"theatre","check_date":"2025-12-06","contact:email":"info@brunnsgatanfyra.se","contact:phone":"+4663260010","contact:website":"https://brunnsgatanfyra.se/","name":"Brunnsgatan fyra","wikidata":"Q3437133","wikipedia":"sv:Teater Brunnsgatan Fyra"}},"geometry":{"type":"Point","coordinates":[18.070001,59.3367918]}},{"type":"Feature","properties":{"id":2178855508,"osm_type":"node","name":"Nalen Klubb","category":"theatre","tags":{"amenity":"theatre","name":"Nalen Klubb"}},"geometry":{"type":"Point","coordinates":[18.0681098,59.3371838]}},{"type":"Feature","properties":{"id":2282477423,"osm_type":"node","name":"Reflexen Bio & teater","category":"theatre","tags":{"amenity":"theatre","name":"Reflexen Bio & teater","start_date":"1961","website":"https://reflexen.nu/"}},"geometry":{"type":"Point","coordinates":[18.1142096,59.2839176]}},{"type":"Feature","properties":{"id":2282477424,"osm_type":"node","name":"Turteatern","category":"theatre","tags":{"amenity":"theatre","name":"Turteatern","website":"https://turteatern.se"}},"geometry":{"type":"Point","coordinates":[18.1135391,59.2844932]}},{"type":"Feature","properties":{"id":2329855114,"osm_type":"node","name":"Dansens hus","category":"theatre","tags":{"amenity":"theatre","name":"Dansens hus","phone":"+46850899000","website":"https://dansenshus.se/"}},"geometry":{"type":"Point","coordinates":[18.0560735,59.3361235]}},{"type":"Feature","properties":{"id":2368984946,"osm_type":"node","name":"GreenHub","category":"theatre","tags":{"amenity":"events_venue","name":"GreenHub"}},"geometry":{"type":"Point","coordinates":[18.0608469,59.3361423]}},{"type":"Feature","properties":{"id":2392169655,"osm_type":"node","name":"Filmstaden Sickla","category":"theatre","tags":{"access":"customers","addr:city":"Nacka","addr:country":"SE","addr:housenumber":"19","addr:postcode":"131 54","addr:street":"Marcusplatsen","amenity":"cinema","entrance":"main","name":"Filmstaden Sickla","operator":"SF","payment:contactless":"yes","payment:credit_cards":"yes","payment:debit_cards":"yes","screen":"5","wheelchair":"yes","wikidata":"Q16643853","wikipedia":"sv:Filmstaden Sickla"}},"geometry":{"type":"Point","coordinates":[18.1217511,59.3053029]}},{"type":"Feature","properties":{"id":2571339524,"osm_type":"node","name":"Bus, Barnens Underjordiska Scen","category":"theatre","tags":{"amenity":"theatre","check_date":"2024-04-15","name":"Bus, Barnens Underjordiska Scen","website":"http://underjordiska.com/"}},"geometry":{"type":"Point","coordinates":[18.0758741,59.3125448]}},{"type":"Feature","properties":{"id":2734287093,"osm_type":"node","name":"Mälarhöjdens friluftsteater","category":"theatre","tags":{"amenity":"theatre","name":"Mälarhöjdens friluftsteater","theatre:type":"open_air"}},"geometry":{"type":"Point","coordinates":[17.9387574,59.3018292]}},{"type":"Feature","properties":{"id":2941061242,"osm_type":"node","name":"Aliasteatern","category":"theatre","tags":{"amenity":"theatre","check_date":"2024-04-10","contact:phone":"+468328290","contact:website":"https://www.aliasteatern.com/","name":"Aliasteatern","wheelchair":"yes"}},"geometry":{"type":"Point","coordinates":[18.0435136,59.3414595]}},{"type":"Feature","properties":{"id":2941061260,"osm_type":"node","name":"Stockholms Improvisationsteater","category":"theatre","tags":{"amenity":"theatre","check_date":"2020-03-10","name":"Stockholms Improvisationsteater","phone":"+46 8 30 62 42"}},"geometry":{"type":"Point","coordinates":[18.0415186,59.3418272]}},{"type":"Feature","properties":{"id":3470883232,"osm_type":"node","name":"Teater Tiddelipom","category":"theatre","tags":{"amenity":"theatre","check_date":"2025-07-25","name":"Teater Tiddelipom","url":"http://www.teatertiddelipom.se"}},"geometry":{"type":"Point","coordinates":[18.0953834,59.258964]}},{"type":"Feature","properties":{"id":3505761149,"osm_type":"node","name":"","category":"theatre","tags":{"addr:city":"Bromma","addr:country":"SE","addr:housenumber":"23","addr:postcode":"167 41","addr:street":"Porfyrvägen","amenity":"arts_centre"}},"geometry":{"type":"Point","coordinates":[17.9882259,59.336126]}},{"type":"Feature","properties":{"id":3632123746,"osm_type":"node","name":"","category":"theatre","tags":{"amenity":"theatre","theatre:type":"amphi"}},"geometry":{"type":"Point","coordinates":[18.1565356,59.2588817]}},{"type":"Feature","properties":{"id":3637529492,"osm_type":"node","name":"ZebraDans","category":"theatre","tags":{"amenity":"theatre","name":"ZebraDans","website":"https://www.zebradans.se/"}},"geometry":{"type":"Point","coordinates":[18.0859935,59.3104148]}},{"type":"Feature","properties":{"id":3736581519,"osm_type":"node","name":"Playhouse","category":"theatre","tags":{"amenity":"theatre","check_date":"2025-12-02","contact:email":"info@playhouseteater.se","contact:phone":"+4686544030","contact:website":"https://www.playhouseteater.se/","name":"Playhouse","wheelchair":"limited","wikidata":"Q37324922","wikimedia_commons":"Category:Regina, Stocholm"}},"geometry":{"type":"Point","coordinates":[18.0592049,59.3359403]}},{"type":"Feature","properties":{"id":3876645344,"osm_type":"node","name":"Bio Cosmopolite","category":"theatre","tags":{"amenity":"cinema","name":"Bio Cosmopolite","wikidata":"Q18287182"}},"geometry":{"type":"Point","coordinates":[18.1706598,59.1720267]}},{"type":"Feature","properties":{"id":4210655352,"osm_type":"node","name":"SF Mall of Scandinavia","category":"theatre","tags":{"addr:city":"Solna","addr:postcode":"16979","alt_name":"Filmstaden Scandinavia","amenity":"cinema","check_date":"2025-02-15","facebook":"https://www.facebook.com/FilmstadenAB/","internet_access":"wlan","level":"2","name":"SF Mall of Scandinavia","opening_hours":"Mo-Th 11:00-21:30; Fr 11:00-01:00; Sa 10:00-01:00; Su 10:00-21:30","payment:cash":"no","phone":"+46 8 562 600 00","website":"https://www.filmstaden.se","wheelchair":"yes","wikidata":"Q26253250","wikimedia_commons":"Category:Filmstaden Scandinavia","wikipedia":"sv:Filmstaden Scandinavia"}},"geometry":{"type":"Point","coordinates":[18.0035738,59.3711433]}},{"type":"Feature","properties":{"id":4591848425,"osm_type":"node","name":"Eskil Teater","category":"theatre","tags":{"amenity":"theatre","name":"Eskil Teater","theatre:type":"amphi"}},"geometry":{"type":"Point","coordinates":[18.1469515,59.1664932]}},{"type":"Feature","properties":{"id":4752254806,"osm_type":"node","name":"Forellen","category":"theatre","tags":{"amenity":"cinema","name":"Forellen","opening_hours":"\"Depends on availability of movies and staff.\"","wikidata":"Q108179551"}},"geometry":{"type":"Point","coordinates":[18.2284807,59.2456439]}},{"type":"Feature","properties":{"id":4778164021,"osm_type":"node","name":"PK Impro Comedy Club","category":"theatre","tags":{"amenity":"theatre","check_date":"2025-09-03","name":"PK Impro Comedy Club"}},"geometry":{"type":"Point","coordinates":[18.0490603,59.3483544]}},{"type":"Feature","properties":{"id":5760827183,"osm_type":"node","name":"Bio Capitol","category":"theatre","tags":{"amenity":"cinema","check_date":"2019-12-09","facebook":"https://www.facebook.com/biocapitolsthlm/","name":"Bio Capitol","payment:cash":"no","phone":"+46 8 511 657 81","screen":"1","website":"https://www.capitolbio.se/","wheelchair":"no","wikidata":"Q10441998","wikimedia_commons":"Category:Biograf Capitol"}},"geometry":{"type":"Point","coordinates":[18.0373588,59.3402097]}},{"type":"Feature","properties":{"id":5770512819,"osm_type":"node","name":"Institut Français","category":"theatre","tags":{"amenity":"arts_centre","name":"Institut Français","name:fr":"Institut Français de Suède","phone":"+46 8 459 53 00","website":"https://www.institutfrancais-suede.com/"}},"geometry":{"type":"Point","coordinates":[18.0791249,59.3388958]}},{"type":"Feature","properties":{"id":6964626276,"osm_type":"node","name":"Skyddsrummet","category":"theatre","tags":{"amenity":"events_venue","email":"poseidon@skyddsrummet.se","level":"0","name":"Skyddsrummet","phone":"+46 70 793 95 50","website":"https://skyddsrummet.se/"}},"geometry":{"type":"Point","coordinates":[18.0553598,59.3208121]}},{"type":"Feature","properties":{"id":7222082417,"osm_type":"node","name":"Olympiateatern","category":"theatre","tags":{"alt_name":"Olympiateatern & Uusi Teatteri","amenity":"theatre","check_date":"2020-02-18","name":"Olympiateatern"}},"geometry":{"type":"Point","coordinates":[18.0479127,59.3416924]}},{"type":"Feature","properties":{"id":7222082421,"osm_type":"node","name":"Teaterverket","category":"theatre","tags":{"amenity":"theatre","check_date":"2020-02-18","contact:website":"https://teaterverket.se","name":"Teaterverket"}},"geometry":{"type":"Point","coordinates":[18.0479291,59.3416743]}},{"type":"Feature","properties":{"id":7271560653,"osm_type":"node","name":"Vasateatern","category":"theatre","tags":{"amenity":"theatre","check_date":"2024-08-06","contact:website":"https://www.scandichotels.com/sv/hotell/scandic-grand-central/vasateatern","name":"Vasateatern","wikidata":"Q4992703","wikimedia_commons":"Category:Vasateatern","wikipedia":"sv:Vasateatern"}},"geometry":{"type":"Point","coordinates":[18.0558784,59.3341484]}},{"type":"Feature","properties":{"id":7658292720,"osm_type":"node","name":"Mini-amfiteater","category":"theatre","tags":{"amenity":"theatre","name":"Mini-amfiteater","theatre:type":"amphi"}},"geometry":{"type":"Point","coordinates":[18.0963159,59.247167]}},{"type":"Feature","properties":{"id":9457854572,"osm_type":"node","name":"Bio Aspen","category":"theatre","tags":{"addr:city":"Hägersten","addr:country":"SE","addr:housenumber":"100A","addr:postcode":"126 49","addr:street":"Hägerstensvägen","amenity":"cinema","name":"Bio Aspen","screen":"1","website":"https://www.bioaspen.se","wheelchair":"yes","wikidata":"Q94305740"}},"geometry":{"type":"Point","coordinates":[18.0066425,59.3060441]}},{"type":"Feature","properties":{"id":9636128312,"osm_type":"node","name":"","category":"theatre","tags":{"amenity":"theatre","attraction":"yes","description":"Teater och djurvisning för barn"}},"geometry":{"type":"Point","coordinates":[18.1071594,59.3269105]}},{"type":"Feature","properties":{"id":9801826780,"osm_type":"node","name":"Solna Kulturskola","category":"theatre","tags":{"amenity":"arts_centre","name":"Solna Kulturskola","website":"https://www.solna.se/kulturskolan"}},"geometry":{"type":"Point","coordinates":[17.99664,59.3541407]}},{"type":"Feature","properties":{"id":10011872118,"osm_type":"node","name":"Presensimpro","category":"theatre","tags":{"amenity":"theatre","check_date":"2026-06-04","name":"Presensimpro"}},"geometry":{"type":"Point","coordinates":[18.0107858,59.3026734]}},{"type":"Feature","properties":{"id":10810932710,"osm_type":"node","name":"","category":"theatre","tags":{"amenity":"events_venue","operator":"Park Folkets hus","website":"https://parkfolketshus.nu/hyra-vara-lokaler/"}},"geometry":{"type":"Point","coordinates":[18.0271343,59.2831886]}},{"type":"Feature","properties":{"id":11583945961,"osm_type":"node","name":"Telefonfabriken","category":"theatre","tags":{"amenity":"theatre","name":"Telefonfabriken"}},"geometry":{"type":"Point","coordinates":[17.9906205,59.298874]}},{"type":"Feature","properties":{"id":11778719024,"osm_type":"node","name":"Kyrksalen","category":"theatre","tags":{"amenity":"events_venue","name":"Kyrksalen"}},"geometry":{"type":"Point","coordinates":[18.1040264,59.3548834]}},{"type":"Feature","properties":{"id":11868345907,"osm_type":"node","name":"Brygghuset","category":"theatre","tags":{"amenity":"events_venue","check_date":"2025-12-22","name":"Brygghuset","phone":"+46 8 555 352 02","website":"https://www.brygghuset.se"}},"geometry":{"type":"Point","coordinates":[18.0491269,59.3450621]}},{"type":"Feature","properties":{"id":11901021112,"osm_type":"node","name":"Konstfrämjandet","category":"theatre","tags":{"amenity":"arts_centre","check_date":"2024-05-13","name":"Konstfrämjandet","website":"https://www.konstframjandet.se/","wheelchair":"no"}},"geometry":{"type":"Point","coordinates":[18.0634068,59.3174623]}},{"type":"Feature","properties":{"id":11952587138,"osm_type":"node","name":"Fabric Forest","category":"theatre","tags":{"amenity":"events_venue","check_date":"2025-12-12","contact:email":"info@fabric-forest.se","contact:website":"https://fabric-forest.se","name":"Fabric Forest"}},"geometry":{"type":"Point","coordinates":[18.0598874,59.318241]}},{"type":"Feature","properties":{"id":11993273232,"osm_type":"node","name":"Filmstaden Kista","category":"theatre","tags":{"addr:city":"Kista","addr:street":"Modeboulevarden","amenity":"cinema","check_date":"2025-02-16","level":"1","name":"Filmstaden Kista","phone":"+46 8 562 600 00","website":"https://www.filmstaden.se/stockholm/biograf/filmstaden-kista/"}},"geometry":{"type":"Point","coordinates":[17.9439218,59.4037448]}},{"type":"Feature","properties":{"id":12161968371,"osm_type":"node","name":"WTC festvåning","category":"theatre","tags":{"amenity":"events_venue","name":"WTC festvåning"}},"geometry":{"type":"Point","coordinates":[18.0544098,59.3330477]}},{"type":"Feature","properties":{"id":12507153689,"osm_type":"node","name":"Sjöhuset","category":"theatre","tags":{"addr:city":"Lidingö","addr:country":"SE","addr:housenumber":"50","addr:postcode":"18162","addr:street":"Saltsjövägen","amenity":"events_venue","contact:email":"info@nackacatering.se","contact:phone":"+46 739 200408","contact:website":"https://sjohusetfest.se","name":"Sjöhuset"}},"geometry":{"type":"Point","coordinates":[18.2088969,59.3420827]}},{"type":"Feature","properties":{"id":13067667086,"osm_type":"node","name":"Huddinge Konferenscenter","category":"theatre","tags":{"addr:city":"Huddinge","addr:country":"SE","addr:housenumber":"3","addr:postcode":"141 35","addr:street":"Patron Pehrs väg","amenity":"events_venue","name":"Huddinge Konferenscenter","phone":"+46 8 588 918 80","website":"https://huddingekonferenscenter.se"}},"geometry":{"type":"Point","coordinates":[17.9764301,59.2363102]}},{"type":"Feature","properties":{"id":13313576090,"osm_type":"node","name":"Sollentuna kulturskola","category":"theatre","tags":{"amenity":"arts_centre","check_date":"2025-11-17","contact:email":"kontaktcenter@sollentuna.se","contact:phone":"+46857921000","contact:website":"https://www.sollentuna.se/kulturskolan/","name":"Sollentuna kulturskola"}},"geometry":{"type":"Point","coordinates":[17.9521835,59.4272611]}},{"type":"Feature","properties":{"id":13351191233,"osm_type":"node","name":"Ateljé Edsvik","category":"theatre","tags":{"amenity":"arts_centre","check_date":"2025-12-03","contact:website":"https://www.atelje-edsvik.se","name":"Ateljé Edsvik","shop":"craft"}},"geometry":{"type":"Point","coordinates":[17.9573414,59.440696]}},{"type":"Feature","properties":{"id":13381467724,"osm_type":"node","name":"Miniteatern","category":"theatre","tags":{"amenity":"theatre","contact:mobile":"+46704941748","contact:phone":"+468302157","contact:website":"https://miniteatern.se","name":"Miniteatern"}},"geometry":{"type":"Point","coordinates":[18.0399277,59.3403151]}},{"type":"Feature","properties":{"id":13383754401,"osm_type":"node","name":"Studio Västberga","category":"theatre","tags":{"addr:housenumber":"5","addr:postcode":"12630","addr:street":"Vretensborgsvägen","amenity":"theatre","contact:instagram":"studiovastberga","internet_access":"wlan","name":"Studio Västberga"}},"geometry":{"type":"Point","coordinates":[18.0175753,59.29905]}},{"type":"Feature","properties":{"id":13446019501,"osm_type":"node","name":"Bio Fågel Blå","category":"theatre","tags":{"amenity":"cinema","email":"mail@biofagelbla.se","name":"Bio Fågel Blå","website":"https://biofagelbla.se"}},"geometry":{"type":"Point","coordinates":[18.0862703,59.3379832]}},{"type":"Feature","properties":{"id":4875989,"osm_type":"way","name":"Stora Skuggans Amfiteater","category":"theatre","tags":{"amenity":"theatre","leisure":"pitch","name":"Stora Skuggans Amfiteater","surface":"grass"}},"geometry":{"type":"Point","coordinates":[18.0761583,59.3669269]}},{"type":"Feature","properties":{"id":5174887,"osm_type":"way","name":"Berwaldhallen","category":"theatre","tags":{"amenity":"theatre","building":"theatre","building:colour":"grey","building:levels":"3","building:material":"concrete","check_date":"2024-07-21","name":"Berwaldhallen","opening_hours":"Mo-Fr 09:00-18:00; Sa 10:00-15:00; Su 10:00-14:00","roof:colour":"black","roof:shape":"flat","start_date":"1979","theatre:genre":"philharmonic","theatre:type":"concert_hall","website":"https://sverigesradio.se/berwaldhallen/","wikidata":"Q829222","wikimedia_commons":"Category:Berwaldhallen","wikipedia":"sv:Berwaldhallen"}},"geometry":{"type":"Point","coordinates":[18.1004239,59.3333265]}},{"type":"Feature","properties":{"id":5192172,"osm_type":"way","name":"Cirkus","category":"theatre","tags":{"amenity":"theatre","building":"yes","check_date":"2026-05-23","name":"Cirkus","roof:colour":"red","wikidata":"Q4356477","wikimedia_commons":"Category:Cirkus, Stockholm","wikipedia":"sv:Cirkus, Stockholm"}},"geometry":{"type":"Point","coordinates":[18.0999659,59.3248928]}},{"type":"Feature","properties":{"id":5347325,"osm_type":"way","name":"Confidencen","category":"theatre","tags":{"addr:city":"Solna","addr:postcode":"170 79","alt_name":"Ulriksdals slottsteater","amenity":"theatre","building":"theatre","check_date":"2022-07-30","historic":"theatre","name":"Confidencen","toilets":"yes","website":"https://www.confidencen.se/","wikidata":"Q260592","wikipedia":"sv:Ulriksdals slottsteater"}},"geometry":{"type":"Point","coordinates":[18.0173347,59.3862669]}},{"type":"Feature","properties":{"id":16892248,"osm_type":"way","name":"Parkteatern Hägersten","category":"theatre","tags":{"amenity":"theatre","designation":"Outdoor theatre","name":"Parkteatern Hägersten","note":"parkteater","source":"Local knoledge","theatre:type":"open_air"}},"geometry":{"type":"Point","coordinates":[17.9872538,59.2979368]}},{"type":"Feature","properties":{"id":18779818,"osm_type":"way","name":"Konserthuset","category":"theatre","tags":{"amenity":"theatre","building":"concert_hall","building:colour":"#8FB7D7","building:levels":"6","building:material":"plaster","check_date":"2025-09-28","name":"Konserthuset","name:fi":"Konserttitalo","name:ko":"스톡홀름 콘서트홀","name:sv":"Konserthuset","roof:colour":"#626679","roof:levels":"1","roof:shape":"hipped","start_date":"1926","theatre":"concert_hall","website":"https://www.konserthuset.se/","wheelchair":"yes","wikidata":"Q653773","wikimedia_commons":"Category:Konserthuset","wikipedia":"sv:Konserthuset Stockholm"}},"geometry":{"type":"Point","coordinates":[18.0631695,59.3350798]}},{"type":"Feature","properties":{"id":23620148,"osm_type":"way","name":"Sollidenscenen","category":"theatre","tags":{"amenity":"theatre","name":"Sollidenscenen","name:en":"Solliden Stage","tourism":"attraction"}},"geometry":{"type":"Point","coordinates":[18.1017945,59.3254947]}},{"type":"Feature","properties":{"id":24210110,"osm_type":"way","name":"Dramaten","category":"theatre","tags":{"amenity":"theatre","architect":"Fredrik Lilljekvist","architect:wikidata":"Q952657","building":"theatre","building:architecture":"art_nouveau","building:colour":"#E5E3C4","building:levels":"5","check_date":"2026-04-24","heritage":"2","heritage:operator":"raa","heritage:website":"https://bebyggelseregistret.raa.se/bbr2/byggnad/visaHistorik.raa?byggnadId=21400000337948&page=historik","name":"Dramaten","name:en":"Royal Dramatic Theatre","name:ru":"Королевский драматический театр","official_name":"Kungliga dramatiska teatern","payment:cash":"no","ref:SE:raa":"21400000337948","start_date":"1908","website":"https://www.dramaten.se/","wikidata":"Q1140265","wikimedia_commons":"Category:Kungliga Dramatiska Teatern","wikipedia":"sv:Dramaten","year_of_construction":"1901 - 1908"}},"geometry":{"type":"Point","coordinates":[18.0770237,59.3332829]}},{"type":"Feature","properties":{"id":27738885,"osm_type":"way","name":"Södra Teatern","category":"theatre","tags":{"amenity":"theatre","building":"theatre","name":"Södra Teatern","name:ko":"세드라 극장","source":"Yahoo","website":"https://www.sodrateatern.com/","wikidata":"Q3825202","wikimedia_commons":"Category:Södra teatern","wikipedia":"sv:Södra Teatern"}},"geometry":{"type":"Point","coordinates":[18.0743141,59.3184279]}},{"type":"Feature","properties":{"id":27742094,"osm_type":"way","name":"Eric Ericsonhallen","category":"theatre","tags":{"alt_name":"Skeppsholmskyrkan","amenity":"concert_hall","building":"concert_hall","building:colour":"white","building:levels":"2","description":"Built in 1823-49 as a church, Skeppsholmskyrkan, but closed in 2002. Now a concert hall.","name":"Eric Ericsonhallen","operator":"Eric Ericson International Choral Centre","roof:colour":"green","roof:shape":"dome","source":"Yahoo;Bing:local_knowledge","start_date":"1842","website":"https://ericericsonhallen.se/","wikidata":"Q1785830","wikimedia_commons":"Category:Skeppsholmskyrkan","wikipedia":"sv:Skeppsholmskyrkan","wikipedia:en":"Skeppsholmskyrkan"}},"geometry":{"type":"Point","coordinates":[18.082479,59.3263845]}},{"type":"Feature","properties":{"id":27776215,"osm_type":"way","name":"Fullersta bio","category":"theatre","tags":{"amenity":"arts_centre","building":"yes","name":"Fullersta bio","wikidata":"Q10499927"}},"geometry":{"type":"Point","coordinates":[17.972705,59.2401479]}},{"type":"Feature","properties":{"id":29321699,"osm_type":"way","name":"G:a Folkets hus","category":"theatre","tags":{"addr:country":"SE","addr:housenumber":"21","addr:street":"Folkparken","amenity":"theatre","building":"yes","check_date":"2024-05-16","name":"G:a Folkets hus"}},"geometry":{"type":"Point","coordinates":[18.1384131,59.1748543]}},{"type":"Feature","properties":{"id":40840328,"osm_type":"way","name":"Huddinge aula","category":"theatre","tags":{"addr:city":"Huddinge","addr:country":"SE","addr:housenumber":"1","addr:postcode":"141 38","addr:street":"Gymnasietorget","amenity":"theatre","building":"public","name":"Huddinge aula"}},"geometry":{"type":"Point","coordinates":[17.9953443,59.2432182]}},{"type":"Feature","properties":{"id":40855271,"osm_type":"way","name":"Tonsalen","category":"theatre","tags":{"addr:city":"Huddinge","addr:country":"SE","addr:housenumber":"6","addr:postcode":"141 62","addr:street":"Kyrkogårdsvägen","amenity":"theatre","building":"yes","name":"Tonsalen","website":"https://teater-slava.squarespace.com/"}},"geometry":{"type":"Point","coordinates":[17.9861188,59.2383129]}},{"type":"Feature","properties":{"id":41992729,"osm_type":"way","name":"Sländan","category":"theatre","tags":{"addr:city":"Tullinge","addr:housenumber":"22","addr:postcode":"14638","addr:street":"Eklundshovsvägen","amenity":"cinema","building":"yes","name":"Sländan","phone":"+468 449 9100","website":"https://bio-slandan.se/","wikidata":"Q108681142"}},"geometry":{"type":"Point","coordinates":[17.9112455,59.1893227]}},{"type":"Feature","properties":{"id":98327585,"osm_type":"way","name":"Ormteatern","category":"theatre","tags":{"amenity":"theatre","building":"yes","check_date":"2024-10-13","name":"Ormteatern"}},"geometry":{"type":"Point","coordinates":[18.1301037,59.1650886]}},{"type":"Feature","properties":{"id":130263874,"osm_type":"way","name":"Tranebergsstugan","category":"theatre","tags":{"addr:city":"Stockholm","addr:country":"SE","addr:housenumber":"2","addr:postcode":"165 47","addr:street":"Tranebergsslingan","amenity":"events_venue","building":"yes","name":"Tranebergsstugan","website":"https://tranebergsstugan.se/"}},"geometry":{"type":"Point","coordinates":[17.9913439,59.3332701]}},{"type":"Feature","properties":{"id":142039924,"osm_type":"way","name":"Långholmens amfiteater","category":"theatre","tags":{"amenity":"theatre","check_date":"2025-07-16","name":"Långholmens amfiteater"}},"geometry":{"type":"Point","coordinates":[18.0343393,59.3218687]}},{"type":"Feature","properties":{"id":162222844,"osm_type":"way","name":"Musikaliska","category":"theatre","tags":{"amenity":"concert_hall","building":"yes","building:colour":"yellow","building:levels":"3","name":"Musikaliska","roof:colour":"black","roof:shape":"gabled","start_date":"1877","website":"https://www.musikaliska.com/","wikidata":"Q10550216","wikimedia_commons":"Category:Kungliga Musikaliska Akademiens hus","wikipedia":"sv:Kungliga Musikaliska Akademiens hus"}},"geometry":{"type":"Point","coordinates":[18.0761239,59.3310903]}},{"type":"Feature","properties":{"id":169468005,"osm_type":"way","name":"Park Folkets Hus","category":"theatre","tags":{"addr:city":"Älvsjö","addr:country":"SE","addr:housenumber":"181","addr:postcode":"12535","addr:street":"Götalandsvägen","amenity":"cinema","building":"yes","building:colour":"yellow","building:material":"plaster","name":"Park Folkets Hus","roof:colour":"#f66151","roof:shape":"gabled","start_date":"1928","website":"https://parkfolketshus.nu/","wikidata":"Q18331897","wikipedia":"sv:Park-Bio"}},"geometry":{"type":"Point","coordinates":[18.0272566,59.2831582]}},{"type":"Feature","properties":{"id":233037508,"osm_type":"way","name":"Huset","category":"theatre","tags":{"addr:city":"Huddinge","addr:country":"SE","addr:housenumber":"46","addr:postcode":"14146","addr:street":"Sjödalsvägen","amenity":"arts_centre","building":"yes","name":"Huset"}},"geometry":{"type":"Point","coordinates":[17.9929397,59.2308892]}},{"type":"Feature","properties":{"id":240003127,"osm_type":"way","name":"Tornvillan","category":"theatre","tags":{"amenity":"events_venue","building":"commercial","building:colour":"firebrick","building:levels":"2","building:material":"brick","name":"Tornvillan","roof:colour":"red","roof:material":"metal","start_date":"1889","website":"http://www.tornvillan.se/","wikidata":"Q10700178"}},"geometry":{"type":"Point","coordinates":[18.1640623,59.3186347]}},{"type":"Feature","properties":{"id":421432038,"osm_type":"way","name":"Ekensdal","category":"theatre","tags":{"addr:country":"SE","addr:housenumber":"151","addr:street":"Skurusundsvägen","amenity":"events_venue","building":"yes","delivery":"no","description:sv":"konferense","level":"0","name":"Ekensdal","takeaway":"no","website":"https://ekensdal.se/"}},"geometry":{"type":"Point","coordinates":[18.2046769,59.3324707]}},{"type":"Feature","properties":{"id":463998201,"osm_type":"way","name":"","category":"theatre","tags":{"amenity":"theatre","surface":"wood","theatre:type":"amphi"}},"geometry":{"type":"Point","coordinates":[18.1471721,59.1666055]}},{"type":"Feature","properties":{"id":604663387,"osm_type":"way","name":"Sprallen","category":"theatre","tags":{"amenity":"theatre","check_date":"2024-05-13","name":"Sprallen","theatre:type":"open_air"}},"geometry":{"type":"Point","coordinates":[18.0722269,59.3037282]}},{"type":"Feature","properties":{"id":842147355,"osm_type":"way","name":"Biograf forellen","category":"theatre","tags":{"addr:housenumber":"9,7A","addr:street":"Bollmora torg","amenity":"cinema","building":"retail","name":"Biograf forellen"}},"geometry":{"type":"Point","coordinates":[18.228518,59.2457029]}},{"type":"Feature","properties":{"id":1299955749,"osm_type":"way","name":"Filmstaden Sergel","category":"theatre","tags":{"amenity":"cinema","brand":"Filmstaden","brand:wikidata":"Q3459512","email":"info@sfbio.se","facebook":"https://www.facebook.com/FilmstadenAB/","indoor":"room","level":"0","name":"Filmstaden Sergel","operator":"SF","phone":"+46 8 562 600 00","room":"shop","website":"https://www.filmstaden.se/biograf/NCG27927/filmstaden-sergel","wheelchair":"yes","wikidata":"Q3072166","wikimedia_commons":"Category:Filmstaden Sergel","wikipedia":"sv:Filmstaden Sergel"}},"geometry":{"type":"Point","coordinates":[18.0626797,59.3344485]}},{"type":"Feature","properties":{"id":1350940961,"osm_type":"way","name":"","category":"theatre","tags":{"amenity":"theatre","building":"theatre","building:levels":"3","roof:shape":"flat"}},"geometry":{"type":"Point","coordinates":[18.0743378,59.3139232]}},{"type":"Feature","properties":{"id":14143353,"osm_type":"relation","name":"Vitabergsparken","category":"theatre","tags":{"amenity":"theatre","name":"Vitabergsparken","parkteater":"vitabergsparken","theatre:type":"amphi","type":"multipolygon"}},"geometry":{"type":"Point","coordinates":[18.0914646,59.3107459]}}]}