{"type":"FeatureCollection","features":[{"type":"Feature","properties":{"id":1314052,"osm_type":"node","name":"Konstfack","category":"university","tags":{"addr:housenumber":"14","addr:postcode":"12626","addr:street":"LM Ericssons Väg","amenity":"university","name":"Konstfack","name:en":"Konstfack University of Arts, Crafts and Design","name:fi":"Taideteollinen korkeakoulu","name:sv":"Konstfack","website":"http://konstfack.se","wikidata":"Q1782926","wikipedia":"sv:Konstfack"}},"geometry":{"type":"Point","coordinates":[17.9942096,59.2997731]}},{"type":"Feature","properties":{"id":208474091,"osm_type":"node","name":"Karolinska Institutet","category":"university","tags":{"amenity":"university","education":"university","name":"Karolinska Institutet","name:fi":"Karoliininen instituutti","name:sv":"Karolinska Institutet","wikidata":"Q219564","wikipedia":"sv:Karolinska Institutet"}},"geometry":{"type":"Point","coordinates":[18.0310658,59.3515453]}},{"type":"Feature","properties":{"id":248911579,"osm_type":"node","name":"Stockholms konstnärliga högskola","category":"university","tags":{"amenity":"university","education":"university","name":"Stockholms konstnärliga högskola","name:en":"Stockholm University of the Arts","name:sv":"Stockholms konstnärliga högskola","website":"httpshttps://www.uniarts.se/","wikidata":"Q2393363","wikipedia":"svStockholms konstnärliga högskola"}},"geometry":{"type":"Point","coordinates":[18.0661109,59.3533631]}},{"type":"Feature","properties":{"id":415335204,"osm_type":"node","name":"Stockholms Konstnärliga Högskola","category":"university","tags":{"amenity":"university","name":"Stockholms Konstnärliga Högskola","name:fi":"\"Tukholman Taideyliopisto","name:sv":"Stockholms Konstnärliga Högskola","website":"https://www.uniarts.se/","wikidata":"Q2320013","wikipedia":"sv:Stockholms konstnärliga högskola"}},"geometry":{"type":"Point","coordinates":[18.0731948,59.3501954]}},{"type":"Feature","properties":{"id":510596629,"osm_type":"node","name":"KTH Kista","category":"university","tags":{"addr:country":"SE","addr:housenumber":"22","addr:street":"Isafjordsgatan","amenity":"university","name":"KTH Kista","name:en":"KTH Kista Campus","website":"https://www.kth.se/om/kontakt/campus/kth-kista-1.640358"}},"geometry":{"type":"Point","coordinates":[17.949861,59.404734]}},{"type":"Feature","properties":{"id":1818022388,"osm_type":"node","name":"Stockholms konstnärliga högskola","category":"university","tags":{"addr:country":"SE","addr:housenumber":"34","addr:street":"Brinellvägen","amenity":"university","education":"university","name":"Stockholms konstnärliga högskola"}},"geometry":{"type":"Point","coordinates":[18.0703114,59.3514352]}},{"type":"Feature","properties":{"id":1872294284,"osm_type":"node","name":"Stockholms konstnärliga högskola","category":"university","tags":{"amenity":"university","name":"Stockholms konstnärliga högskola","name:fi":"\"Tukholman Taideyliopisto","name:sv":"Stockholms konstnärliga högskola","wikidata":"Q3412538","wikimedia_commons":"Category:Stockholm Academy of Dramatic Arts","wikipedia":"sv:Stockholms konstnärliga högskola"}},"geometry":{"type":"Point","coordinates":[18.1010728,59.3394108]}},{"type":"Feature","properties":{"id":1935675095,"osm_type":"node","name":"Stockholms konstnärliga högskola","category":"university","tags":{"addr:country":"SE","addr:housenumber":"193","addr:postcode":"115 53","addr:street":"Valhallavägen","amenity":"university","name":"Stockholms konstnärliga högskola"}},"geometry":{"type":"Point","coordinates":[18.1019725,59.3394339]}},{"type":"Feature","properties":{"id":2053526038,"osm_type":"node","name":"EIT ICT Labs Stockholm","category":"university","tags":{"addr:city":"Kista","addr:country":"SE","addr:housenumber":"16","addr:postcode":"16440","addr:street":"Kistagången","amenity":"university","name":"EIT ICT Labs Stockholm","wheelchair":"yes"}},"geometry":{"type":"Point","coordinates":[17.9493462,59.4051478]}},{"type":"Feature","properties":{"id":2986059654,"osm_type":"node","name":"Stockholms konstnärliga högskola","category":"university","tags":{"amenity":"university","name":"Stockholms konstnärliga högskola","name:fi":"Tukholman taiteellinen korkeakoulu","name:sv":"Stockholms konstnärliga högskola","website":"https://www.uniarts.se/","wikidata":"Q15295883","wikipedia":"sv:Stockholms konstnärliga högskola"}},"geometry":{"type":"Point","coordinates":[18.0951305,59.3348023]}},{"type":"Feature","properties":{"id":3233960063,"osm_type":"node","name":"Försvarshögskolan","category":"university","tags":{"amenity":"university","education":"university","name":"Försvarshögskolan","name:en":"Swedish Defence University","name:fi":"Maanpuolustuskorkeakoulu","name:sv":"Försvarshögskolan","website":"https://www.fhs.se","wheelchair":"yes","wikidata":"Q7654779","wikimedia_commons":"Category:Swedish Defence University","wikipedia":"sv:Försvarshögskolan, Sverige"}},"geometry":{"type":"Point","coordinates":[18.0691412,59.3490702]}},{"type":"Feature","properties":{"id":3233960064,"osm_type":"node","name":"Röda Korsets högskola","category":"university","tags":{"amenity":"university","education":"university","name":"Röda Korsets högskola","name:sv":"Röda Korsets högskola","wikidata":"Q7303964","wikimedia_commons":"Category:Röda Korsets Högskola","wikipedia":"sv:Röda Korsets högskola"}},"geometry":{"type":"Point","coordinates":[18.0715775,59.3495294]}},{"type":"Feature","properties":{"id":3244530550,"osm_type":"node","name":"Sophiahemmet Högskola","category":"university","tags":{"amenity":"university","education":"university","name":"Sophiahemmet Högskola","wikidata":"Q7562940","wikipedia":"sv:Sophiahemmet Högskola"}},"geometry":{"type":"Point","coordinates":[18.0770881,59.3463221]}},{"type":"Feature","properties":{"id":12628673754,"osm_type":"node","name":"Institutionen för mediestudier, JMK","category":"university","tags":{"addr:city":"Stockholm","addr:housenumber":"104","addr:postcode":"11526","addr:street":"Karlavägen","amenity":"university","name":"Institutionen för mediestudier, JMK","operator":"Stockholms Universitet","operator:type":"university","website":"https://www.su.se/institutionen-for-mediestudier/"}},"geometry":{"type":"Point","coordinates":[18.0980174,59.3355367]}},{"type":"Feature","properties":{"id":13279821101,"osm_type":"node","name":"Climate Action Center","category":"university","tags":{"addr:housenumber":"43","addr:street":"Teknikringen","amenity":"university","education":"university","name":"Climate Action Center"}},"geometry":{"type":"Point","coordinates":[18.0716542,59.3505198]}},{"type":"Feature","properties":{"id":31515585,"osm_type":"way","name":"KTH: Arkitekturskolan","category":"university","tags":{"amenity":"university","building":"yes","building:levels":"6","building:material":"concrete","name":"KTH: Arkitekturskolan","name:en":"KTH: School of Architecture","name:fi":"KTH: Arkkitehtuurin koulu","name:sv":"KTH: Arkitekturskolan","roof:shape":"flat","start_date":"1969","wikidata":"Q10418034","wikimedia_commons":"Category:Arkitekturskolan, Östermalmsgatan","wikipedia":"sv:Arkitekturskolans byggnad, Östermalmsgatan"}},"geometry":{"type":"Point","coordinates":[18.0692083,59.3436857]}},{"type":"Feature","properties":{"id":39839742,"osm_type":"way","name":"Campus Konradsberg","category":"university","tags":{"amenity":"university","name":"Campus Konradsberg"}},"geometry":{"type":"Point","coordinates":[18.0127561,59.3297063]}},{"type":"Feature","properties":{"id":63082892,"osm_type":"way","name":"Stockholms universitet","category":"university","tags":{"amenity":"university","name":"Stockholms universitet","name:en":"Stockholm University","name:fi":"Tukholman yliopisto","name:sv":"Stockholms universitet","website":"https://www.su.se/"}},"geometry":{"type":"Point","coordinates":[18.0595498,59.3661977]}},{"type":"Feature","properties":{"id":102577804,"osm_type":"way","name":"Novum","category":"university","tags":{"amenity":"university","building":"yes","check_date":"2025-06-04","name":"Novum"}},"geometry":{"type":"Point","coordinates":[17.9403256,59.2206908]}},{"type":"Feature","properties":{"id":165847212,"osm_type":"way","name":"Polishögskolan","category":"university","tags":{"amenity":"university","name":"Polishögskolan","website":"https://www.polisen.se/bli-polis","wikidata":"Q10636124","wikipedia":"sv:Polishögskolan"}},"geometry":{"type":"Point","coordinates":[17.997239,59.395328]}},{"type":"Feature","properties":{"id":177902945,"osm_type":"way","name":"AlbaNova","category":"university","tags":{"amenity":"university","check_date":"2024-04-23","education":"university","name":"AlbaNova","website":"https://www.albanova.se/","wikidata":"Q1803674","wikimedia_commons":"Category:AlbaNova University Center","wikipedia":"sv:Albanova"}},"geometry":{"type":"Point","coordinates":[18.0576704,59.3532113]}},{"type":"Feature","properties":{"id":220630733,"osm_type":"way","name":"Lilla Frescati","category":"university","tags":{"amenity":"university","name":"Lilla Frescati"}},"geometry":{"type":"Point","coordinates":[18.0489264,59.3655105]}},{"type":"Feature","properties":{"id":221105651,"osm_type":"way","name":"Frescati Hage","category":"university","tags":{"amenity":"university","name":"Frescati Hage","wikidata":"Q10498903","wikimedia_commons":"Category:Frescati hage","wikipedia":"sv:Frescati hage"}},"geometry":{"type":"Point","coordinates":[18.0528031,59.3613143]}},{"type":"Feature","properties":{"id":228132834,"osm_type":"way","name":"Kräftriket","category":"university","tags":{"amenity":"university","education":"university","name":"Kräftriket","wikidata":"Q10549668","wikimedia_commons":"Category:Kräftriket","wikipedia":"sv:Kräftriket"}},"geometry":{"type":"Point","coordinates":[18.0541158,59.3572812]}},{"type":"Feature","properties":{"id":234004016,"osm_type":"way","name":"Socialhögskolan","category":"university","tags":{"amenity":"university","education":"university","name":"Socialhögskolan","wikidata":"Q10672910","wikimedia_commons":"Category:Sveaplans Gymnasium","wikipedia":"sv:Socialhögskolan (Stockholms universitet)"}},"geometry":{"type":"Point","coordinates":[18.0518403,59.3509044]}},{"type":"Feature","properties":{"id":317156082,"osm_type":"way","name":"Kungliga Tekniska högskolan","category":"university","tags":{"amenity":"university","check_date":"2024-04-11","education":"university","internet_access":"wlan","name":"Kungliga Tekniska högskolan","name:en":"Royal Institute of Technology","name:fi":"Kuninkaallinen teknillinen korkeakoulu","name:is":"Konunglegi tækniháskólinn","name:sv":"Kungliga Tekniska högskolan","short_name":"KTH","wikidata":"Q854280","wikipedia":"sv:Kungliga Tekniska högskolan"}},"geometry":{"type":"Point","coordinates":[18.0689832,59.3498511]}},{"type":"Feature","properties":{"id":318337290,"osm_type":"way","name":"Gymnastik- och idrottshögskolan","category":"university","tags":{"amenity":"university","name":"Gymnastik- och idrottshögskolan","name:fi":"Ruotsin voimistelu- ja urheilukorkeakoulu","name:sv":"Gymnastik- och idrottshögskolan","wikidata":"Q1558323","wikipedia":"sv:Gymnastik- och idrottshögskolan"}},"geometry":{"type":"Point","coordinates":[18.080458,59.3466631]}},{"type":"Feature","properties":{"id":469783987,"osm_type":"way","name":"Kungliga Musikhögskolan","category":"university","tags":{"amenity":"university","check_date":"2019-12-25","name":"Kungliga Musikhögskolan","name:en":"Royal College of Music","name:fi":"Kuninkaallinen musiikkikorkeakoulu","name:sv":"Kungliga Musikhögskolan","wikidata":"Q61754233"}},"geometry":{"type":"Point","coordinates":[18.0809677,59.344141]}},{"type":"Feature","properties":{"id":583638128,"osm_type":"way","name":"Stockholms universitet","category":"university","tags":{"amenity":"university","name":"Stockholms universitet","name:en":"Stockholm University","name:fi":"Tukholman yliopisto","name:is":"Stokkhólmsháskóli","name:sv":"Stockholms universitet","website":"https://www.su.se/"}},"geometry":{"type":"Point","coordinates":[18.0587043,59.3633258]}},{"type":"Feature","properties":{"id":894279258,"osm_type":"way","name":"KTH Flemingsberg","category":"university","tags":{"amenity":"university","check_date":"2025-11-30","name":"KTH Flemingsberg","operator":"Kungliga Tekniska Högskolan"}},"geometry":{"type":"Point","coordinates":[17.9380525,59.2216739]}},{"type":"Feature","properties":{"id":1211106882,"osm_type":"way","name":"Albano campusområde","category":"university","tags":{"amenity":"university","education":"university","name":"Albano campusområde"}},"geometry":{"type":"Point","coordinates":[18.0573662,59.3549189]}},{"type":"Feature","properties":{"id":1364108,"osm_type":"relation","name":"Kungliga Konsthögskolan","category":"university","tags":{"addr:city":"Stockholm","addr:country":"SE","addr:postcode":"111 49","addr:street":"Flaggmansvägen","amenity":"university","building":"university","building:colour":"yellow","building:levels":"4","name":"Kungliga Konsthögskolan","name:de":"Königliche Kunsthochschule","name:en":"Royal Institute of Art","roof:colour":"black","type":"multipolygon","website":"https://www.kkh.se/","wikidata":"Q3355352","wikipedia":"sv:Kungliga Konsthögskolan"}},"geometry":{"type":"Point","coordinates":[18.0830007,59.3242724]}},{"type":"Feature","properties":{"id":11030195,"osm_type":"relation","name":"Handelshögskolan","category":"university","tags":{"addr:city":"Stockholm","amenity":"university","check_date":"2020-04-24","name":"Handelshögskolan","name:cs":"Vysoká škola ekonomická ve Stockholmu","name:de":"Handelshochschule Stockholm","name:en":"tockholm School of Economics","name:es":"Escuela de economía de Estocolmo","name:et":"Stockholmi Majandusülikool","name:fi":"Tukholman kauppakorkeakoulu","name:fr":"École d'économie de Stockholm","name:it":"Scuola di economia di Stoccolma","name:nl":"Handelshogeschool van Stockholm","name:no":"Handelshøyskolen i Stockholm","name:pl":"Wyższa Szkoła Handlowa w Sztokholmie","name:pt":"Escola Superior de Economia de Estocolmo","name:ru":"Стокгольмская школа экономики","name:sv":"Handelshögskolan i Stockholm","name:uk":"Стокгольмська школа економіки","operator:type":"private","phone":"+46 8 736 90 00","short_name":"HHS","short_name:en":"SSE","short_name:sv":"HHS","start_date":"1909-05-27","type":"site","website":"https://www.hhs.se/","wheelchair":"limited","wikidata":"Q1061504","wikipedia":"sv:Handelshögskolan i Stockholm"}},"geometry":{"type":"Point","coordinates":[18.0569139,59.341209]}},{"type":"Feature","properties":{"id":12143272,"osm_type":"relation","name":"Södertörns högskola","category":"university","tags":{"amenity":"university","check_date":"2023-11-07","int_name":"Södertörn University","name":"Södertörns högskola","name:de":"Hochschule Södertörn","name:en":"Södertörn University","name:fi":"Södertörnin korkeakoulu","name:fr":"Université de Södertörn","name:sv":"Södertörns högskola","type":"multipolygon","website":"https://www.sh.se/","wikidata":"Q3110979","wikipedia":"sv:Södertörns högskola"}},"geometry":{"type":"Point","coordinates":[17.9415761,59.2189389]}},{"type":"Feature","properties":{"id":12169424,"osm_type":"relation","name":"Karolinska Institutet campus Flemingsberg","category":"university","tags":{"amenity":"university","name":"Karolinska Institutet campus Flemingsberg","name:en":"Karolinska Institute campus Flemingsberg","operator":"Karolinska Institutet","source":"https://ki.se/om-ki/kontakta-och-besok-karolinska-institutet","type":"multipolygon","website":"https://ki.se/","wikidata":"Q219564","wikipedia":"sv:Karolinska Institutet"}},"geometry":{"type":"Point","coordinates":[17.9395034,59.2195062]}},{"type":"Feature","properties":{"id":14528354,"osm_type":"relation","name":"Militärhögskolan Karlberg","category":"university","tags":{"access":"yes","amenity":"university","landuse":"military","name":"Militärhögskolan Karlberg","name:en":"Military Academy Karlberg","name:fi":"Karlbergin sotakorkeakoulu","name:ru":"Военная академия Карлберг","type":"multipolygon","website":"https://www.forsvarsmakten.se/en/about/organisation/training-units-schools-and-centres/military-academy-karlberg/","wikidata":"Q2467768","wikipedia":"sv:Militärhögskolan Karlberg"}},"geometry":{"type":"Point","coordinates":[18.01765,59.3426211]}},{"type":"Feature","properties":{"id":15833128,"osm_type":"relation","name":"Sundbybergs folkhögskola","category":"university","tags":{"amenity":"university","name":"Sundbybergs folkhögskola","phone":"+46-8-445 39 00","type":"multipolygon","website":"https://sundbybergsfolkhogskola.se"}},"geometry":{"type":"Point","coordinates":[17.939778,59.3770363]}}]}