{"type":"FeatureCollection","features":[{"type":"Feature","properties":{"id":415276633,"osm_type":"node","name":"Awake djursjukhus","category":"veterinary","tags":{"amenity":"veterinary","check_date":"2025-12-09","check_date:opening_hours":"2025-12-09","contact:email":"info@awakedjursjukhus.se","contact:phone":"+46843733401","contact:website":"https://www.awakedjursjukhus.se/stockholm","name":"Awake djursjukhus","opening_hours":"24/7","opening_hours:signed":"no"}},"geometry":{"type":"Point","coordinates":[18.0381767,59.3159633]}},{"type":"Feature","properties":{"id":1211144086,"osm_type":"node","name":"Årstakliniken","category":"veterinary","tags":{"addr:country":"SE","addr:housenumber":"17","addr:street":"Lindetorpsvägen","amenity":"veterinary","name":"Årstakliniken","wheelchair":"yes"}},"geometry":{"type":"Point","coordinates":[18.067127,59.294342]}},{"type":"Feature","properties":{"id":1307005495,"osm_type":"node","name":"Djurkliniken Farsta centrum","category":"veterinary","tags":{"addr:country":"SE","addr:housenumber":"27","addr:street":"Munkforsplan","amenity":"veterinary","entrance":"yes","name":"Djurkliniken Farsta centrum"}},"geometry":{"type":"Point","coordinates":[18.094024,59.2421713]}},{"type":"Feature","properties":{"id":2396136360,"osm_type":"node","name":"Sollentuna Djurklinik","category":"veterinary","tags":{"addr:city":"Sollentuna","addr:country":"SE","addr:housenumber":"23","addr:postcode":"19251","addr:street":"Djupdalsvägen","amenity":"veterinary","check_date":"2024-10-22","contact:email":"info@sollentunadjurklinik.se","contact:phone":"+468350035","contact:website":"http://sollentunadjurklinik.se","name":"Sollentuna Djurklinik","opening_hours":"Mo-Th 08:00-18:00; Fr 08:00-17:00; Sa-Su off"}},"geometry":{"type":"Point","coordinates":[17.9519128,59.4455087]}},{"type":"Feature","properties":{"id":2604800592,"osm_type":"node","name":"Haninge djurklinik","category":"veterinary","tags":{"amenity":"veterinary","check_date:opening_hours":"2025-03-30","name":"Haninge djurklinik","opening_hours":"Mo-Th 08:00-20:00; Fr 08:00-16:00; Sa,Su off"}},"geometry":{"type":"Point","coordinates":[18.1319325,59.1772312]}},{"type":"Feature","properties":{"id":2698725587,"osm_type":"node","name":"Djurkliniken","category":"veterinary","tags":{"addr:city":"Stockholm","addr:housenumber":"23","addr:postcode":"11553","addr:street":"Värtavägen","amenity":"veterinary","check_date":"2025-12-08","check_date:opening_hours":"2025-12-08","contact:email":"christina_bonnier@hotmail.com","contact:phone":"+4686610090","contact:website":"https://www.smadjurskliniken-cb.se","name":"Djurkliniken","opening_hours":"Mo-We 09:00-15:00; Th closed; Fr 09:00-15:00; Sa-Su closed","operator":"Christina Bonnier"}},"geometry":{"type":"Point","coordinates":[18.0963301,59.3414692]}},{"type":"Feature","properties":{"id":4767271062,"osm_type":"node","name":"Huddinge Djurklinik","category":"veterinary","tags":{"amenity":"veterinary","name":"Huddinge Djurklinik"}},"geometry":{"type":"Point","coordinates":[17.9297237,59.2653898]}},{"type":"Feature","properties":{"id":6594633073,"osm_type":"node","name":"Hagsätra Veterinärmottagning","category":"veterinary","tags":{"addr:city":"Bandhagen","addr:country":"SE","addr:housenumber":"37","addr:postcode":"124 73","addr:street":"Glanshammarsgatan","amenity":"veterinary","check_date:opening_hours":"2025-02-01","name":"Hagsätra Veterinärmottagning","opening_hours":"Mo-Fr 08:00-16:00","phone":"+4687493150","website":"https://hagsatravet.se/"}},"geometry":{"type":"Point","coordinates":[18.0131966,59.2636805]}},{"type":"Feature","properties":{"id":6594853044,"osm_type":"node","name":"Södermalms veterinärklinik","category":"veterinary","tags":{"amenity":"veterinary","check_date":"2024-02-20","name":"Södermalms veterinärklinik","opening_hours":"Mo-Fr 08:00-17:00","payment:cash":"no","phone":"+468333760","website":"https://sodervet.se/"}},"geometry":{"type":"Point","coordinates":[18.0818694,59.3131315]}},{"type":"Feature","properties":{"id":6594853045,"osm_type":"node","name":"Ahlbergs Veterinärpraktik","category":"veterinary","tags":{"amenity":"veterinary","check_date":"2025-12-12","check_date:opening_hours":"2025-12-12","contact:phone":"+4687200655","contact:website":"https://ahlbergsvet.se/","name":"Ahlbergs Veterinärpraktik","opening_hours":"Mo 10:00-19:00; Tu-Fr 10:00-17:00"}},"geometry":{"type":"Point","coordinates":[18.0640363,59.3123945]}},{"type":"Feature","properties":{"id":8806746209,"osm_type":"node","name":"Sjöstadens Veterinärpraktik","category":"veterinary","tags":{"amenity":"veterinary","name":"Sjöstadens Veterinärpraktik","phone":"+4686411730","website":"https://www.sjostadensvetpraktik.se/"}},"geometry":{"type":"Point","coordinates":[18.106504,59.3052953]}},{"type":"Feature","properties":{"id":8815755614,"osm_type":"node","name":"Zootopia Vet","category":"veterinary","tags":{"addr:country":"SE","addr:housenumber":"4","addr:street":"Lågskärsvägen","amenity":"veterinary","name":"Zootopia Vet","opening_hours":"Mo-Fr 10:00-18:00","phone":"+4686592050","website":"https://www.zootopiavet.se/"}},"geometry":{"type":"Point","coordinates":[18.112881,59.2848519]}},{"type":"Feature","properties":{"id":8977916538,"osm_type":"node","name":"Djursjukhuset Albano","category":"veterinary","tags":{"addr:city":"Danderyd","addr:country":"SE","addr:housenumber":"21A","addr:postcode":"182 36","addr:street":"Rinkebyvägen","amenity":"veterinary","email":"albano@anicura.se","name":"Djursjukhuset Albano","opening_hours":"Mo-Fr 07:00-22:00; Sa,Su 10:00-22:00","phone":"+46 8-505 304 00","website":"https://www.anicura.se/djursjukhuset-albano/"}},"geometry":{"type":"Point","coordinates":[18.0409938,59.416894]}},{"type":"Feature","properties":{"id":9713948090,"osm_type":"node","name":"Stochholms Djurklinik","category":"veterinary","tags":{"amenity":"veterinary","check_date":"2024-06-11","contact:website":"https://stockholmsdjurklinik.se","name":"Stochholms Djurklinik"}},"geometry":{"type":"Point","coordinates":[17.9795202,59.3332287]}},{"type":"Feature","properties":{"id":10575448910,"osm_type":"node","name":"Evidensia djurkliniken Nacka","category":"veterinary","tags":{"addr:city":"Nacka","addr:country":"SE","addr:housenumber":"11","addr:postcode":"131 54","addr:street":"Planiavägen","amenity":"veterinary","name":"Evidensia djurkliniken Nacka"}},"geometry":{"type":"Point","coordinates":[18.1335318,59.3046683]}},{"type":"Feature","properties":{"id":11925916546,"osm_type":"node","name":"Vasastans veterinärklinik","category":"veterinary","tags":{"amenity":"veterinary","check_date":"2025-11-30","check_date:opening_hours":"2025-11-30","contact:phone":"+46812139139","contact:website":"https://evidensia.se/klinik/vasastans-veterinarklinik/","name":"Vasastans veterinärklinik","opening_hours":"Mo-Th 07:00-19:00; Fr 07:00-17:45; Sa-Su off"}},"geometry":{"type":"Point","coordinates":[18.0571694,59.3472504]}},{"type":"Feature","properties":{"id":11989582361,"osm_type":"node","name":"Rinkeby Djurklinik","category":"veterinary","tags":{"amenity":"veterinary","name":"Rinkeby Djurklinik"}},"geometry":{"type":"Point","coordinates":[17.9293503,59.3920695]}},{"type":"Feature","properties":{"id":12009207207,"osm_type":"node","name":"Kati’s Hundvård","category":"veterinary","tags":{"amenity":"veterinary","name":"Kati’s Hundvård"}},"geometry":{"type":"Point","coordinates":[17.9623612,59.2922874]}},{"type":"Feature","properties":{"id":12016638148,"osm_type":"node","name":"Silk Dog Rehab","category":"veterinary","tags":{"amenity":"veterinary","name":"Silk Dog Rehab"}},"geometry":{"type":"Point","coordinates":[18.0376664,59.2668417]}},{"type":"Feature","properties":{"id":13006728270,"osm_type":"node","name":"Farsta djurklinik","category":"veterinary","tags":{"amenity":"veterinary","name":"Farsta djurklinik","operator":"Evidensia"}},"geometry":{"type":"Point","coordinates":[18.108863,59.2420865]}},{"type":"Feature","properties":{"id":13119251595,"osm_type":"node","name":"Sollentuna Veterinärklinik","category":"veterinary","tags":{"amenity":"veterinary","check_date":"2025-11-20","check_date:opening_hours":"2025-11-20","contact:email":"boka@sollvet.se","contact:phone":"+4686231010","contact:website":"https://sollvet.se","name":"Sollentuna Veterinärklinik","opening_hours":"Mo 10:00-17:00; Tu 08:30-16:00; We 15:00-19:00; Th 08:30-16:00; Fr 08:30-14:00; Sa-Su closed"}},"geometry":{"type":"Point","coordinates":[17.9324209,59.4453763]}},{"type":"Feature","properties":{"id":13298264444,"osm_type":"node","name":"AniMed","category":"veterinary","tags":{"amenity":"veterinary","check_date":"2025-12-10","check_date:opening_hours":"2025-12-10","name":"AniMed","opening_hours":"Mo-Fr 08:00-17:00"}},"geometry":{"type":"Point","coordinates":[17.9695323,59.3618165]}},{"type":"Feature","properties":{"id":13404341310,"osm_type":"node","name":"AniMed Djurklinik","category":"veterinary","tags":{"addr:housenumber":"1","addr:street":"Ängsstigen","amenity":"veterinary","name":"AniMed Djurklinik","opening_hours":"Mo-Fr 08:00-17:00","website":"https://animed.se/"}},"geometry":{"type":"Point","coordinates":[17.9764192,59.3649661]}},{"type":"Feature","properties":{"id":13535286601,"osm_type":"node","name":"Alla Tassars Veterinärklinik","category":"veterinary","tags":{"amenity":"veterinary","name":"Alla Tassars Veterinärklinik"}},"geometry":{"type":"Point","coordinates":[18.0138253,59.3017866]}},{"type":"Feature","properties":{"id":48977465,"osm_type":"way","name":"AniCura Regiondjursjukhuset Bagarmossen","category":"veterinary","tags":{"amenity":"veterinary","building":"yes","name":"AniCura Regiondjursjukhuset Bagarmossen","opening_hours":"Mo-Su,PH 00:00-00:00"}},"geometry":{"type":"Point","coordinates":[18.1421656,59.2776387]}},{"type":"Feature","properties":{"id":188220252,"osm_type":"way","name":"Djursjukhuset i Bagarmossen","category":"veterinary","tags":{"addr:city":"Bagarmossen","addr:country":"SE","addr:housenumber":"17","addr:postcode":"128 48","addr:street":"Ljusnevägen","amenity":"veterinary","name":"Djursjukhuset i Bagarmossen","opening_hours":"Mo-Su,PH 00:00-00:00"}},"geometry":{"type":"Point","coordinates":[18.1423619,59.2775807]}}]}