{"type":"FeatureCollection","features":[{"type":"Feature","properties":{"id":680764890,"osm_type":"way","name":"Länsresidenset Malmö","category":"castle","tags":{"building":"office","building:levels":"2","castle_type":"stately","government":"governor","heritage":"2","heritage:operator":"raa","historic":"castle","name":"Länsresidenset Malmö","office":"government","owner":"Statens Fastighetsverk","owner:wikidata":"Q909090","ref:SE:raa":"21400000357043","wikidata":"Q10651202","wikipedia":"sv:Residenset i Malmö"}},"geometry":{"type":"Point","coordinates":[13.0010067,55.6069199]}},{"type":"Feature","properties":{"id":282978,"osm_type":"relation","name":"Malmöhus slott","category":"castle","tags":{"building":"yes","building:material":"brick","height":"8 m","historic":"castle","name":"Malmöhus slott","type":"multipolygon","wikidata":"Q1810918","wikipedia":"sv:Malmöhus"}},"geometry":{"type":"Point","coordinates":[12.9871145,55.6047852]}}]}