{"type":"FeatureCollection","features":[{"type":"Feature","properties":{"id":22953451,"osm_type":"way","name":"Sankt Pauli norra kyrkogård","category":"cemetery","tags":{"fenced":"yes","landuse":"cemetery","name":"Sankt Pauli norra kyrkogård","short_name":"S:t Pauli norra kyrkogård","wikidata":"Q19680026"}},"geometry":{"type":"Point","coordinates":[13.0169101,55.6004255]}},{"type":"Feature","properties":{"id":28302313,"osm_type":"way","name":"","category":"cemetery","tags":{"amenity":"grave_yard","wikidata":"Q115303098"}},"geometry":{"type":"Point","coordinates":[13.0235908,55.5624524]}},{"type":"Feature","properties":{"id":28418142,"osm_type":"way","name":"Sankt Pauli mellersta kyrkogård","category":"cemetery","tags":{"fenced":"yes","landuse":"cemetery","name":"Sankt Pauli mellersta kyrkogård","short_name":"S:t Pauli mellersta kyrkogård","wikidata":"Q19680095"}},"geometry":{"type":"Point","coordinates":[13.0198695,55.5977249]}},{"type":"Feature","properties":{"id":28418157,"osm_type":"way","name":"Sankt Pauli södra kyrkogård","category":"cemetery","tags":{"fenced":"yes","landuse":"cemetery","name":"Sankt Pauli södra kyrkogård","opening_hours":"Mo-Su 07:15-21:00","short_name":"S:t Pauli södra kyrkogård","wikidata":"Q19802195"}},"geometry":{"type":"Point","coordinates":[13.0260315,55.5963591]}},{"type":"Feature","properties":{"id":28439219,"osm_type":"way","name":"Östra kyrkogården","category":"cemetery","tags":{"landuse":"cemetery","name":"Östra kyrkogården","wikidata":"Q8079086"}},"geometry":{"type":"Point","coordinates":[13.0449511,55.5940304]}},{"type":"Feature","properties":{"id":28494122,"osm_type":"way","name":"","category":"cemetery","tags":{"amenity":"grave_yard","wikidata":"Q115303100"}},"geometry":{"type":"Point","coordinates":[13.0837961,55.5778017]}},{"type":"Feature","properties":{"id":28582099,"osm_type":"way","name":"","category":"cemetery","tags":{"amenity":"grave_yard","wikidata":"Q115302722"}},"geometry":{"type":"Point","coordinates":[13.0798288,55.6347387]}},{"type":"Feature","properties":{"id":28757828,"osm_type":"way","name":"","category":"cemetery","tags":{"amenity":"grave_yard","wikidata":"Q56808218"}},"geometry":{"type":"Point","coordinates":[13.0552838,55.579446]}},{"type":"Feature","properties":{"id":30024211,"osm_type":"way","name":"Gamla kyrkogården","category":"cemetery","tags":{"landuse":"cemetery","name":"Gamla kyrkogården","name:es":"Cementerio Viejo","wikidata":"Q19817363"}},"geometry":{"type":"Point","coordinates":[12.9965624,55.6018929]}},{"type":"Feature","properties":{"id":30063064,"osm_type":"way","name":"Hyllie Kyrkogård","category":"cemetery","tags":{"landuse":"cemetery","name":"Hyllie Kyrkogård","wikidata":"Q55376445"}},"geometry":{"type":"Point","coordinates":[12.963205,55.5666165]}},{"type":"Feature","properties":{"id":30853657,"osm_type":"way","name":"Bunkeflo kyrkogård","category":"cemetery","tags":{"landuse":"cemetery","name":"Bunkeflo kyrkogård"}},"geometry":{"type":"Point","coordinates":[12.9621188,55.5563255]}},{"type":"Feature","properties":{"id":33762964,"osm_type":"way","name":"","category":"cemetery","tags":{"landuse":"cemetery","wikidata":"Q115303104"}},"geometry":{"type":"Point","coordinates":[13.1188557,55.5859631]}},{"type":"Feature","properties":{"id":34080567,"osm_type":"way","name":"","category":"cemetery","tags":{"amenity":"grave_yard","wikidata":"Q115303103"}},"geometry":{"type":"Point","coordinates":[13.0974503,55.5502715]}},{"type":"Feature","properties":{"id":76098470,"osm_type":"way","name":"","category":"cemetery","tags":{"amenity":"grave_yard","wikidata":"Q115302724"}},"geometry":{"type":"Point","coordinates":[13.1128702,55.6360293]}},{"type":"Feature","properties":{"id":277765209,"osm_type":"way","name":"Djurkyrkogård","category":"cemetery","tags":{"landuse":"cemetery","name":"Djurkyrkogård","note":"pets"}},"geometry":{"type":"Point","coordinates":[13.051623,55.6285983]}},{"type":"Feature","properties":{"id":407209313,"osm_type":"way","name":"Östra kyrkogården","category":"cemetery","tags":{"denomination":"sunni","landuse":"cemetery","name":"Östra kyrkogården","religion":"muslim"}},"geometry":{"type":"Point","coordinates":[13.052105,55.592276]}},{"type":"Feature","properties":{"id":55652,"osm_type":"relation","name":"","category":"cemetery","tags":{"landuse":"cemetery","type":"multipolygon","wikidata":"Q19668297"}},"geometry":{"type":"Point","coordinates":[12.9457224,55.5727049]}}]}