{"type":"FeatureCollection","features":[{"type":"Feature","properties":{"id":2400733778,"osm_type":"node","name":"Ellstorpsrådet","category":"community_centre","tags":{"amenity":"community_centre","contact:city":"Malmö","contact:country":"SE","contact:housenumber":"1","contact:postcode":"21217","contact:street":"Sofierogatan","entrance":"yes","name":"Ellstorpsrådet"}},"geometry":{"type":"Point","coordinates":[13.0311326,55.6045078]}},{"type":"Feature","properties":{"id":2629795116,"osm_type":"node","name":"Foo Café","category":"community_centre","tags":{"addr:city":"Malmö","addr:country":"SE","addr:housenumber":"12a","addr:postcode":"21220","addr:street":"Carlsgatan","amenity":"community_centre","email":"malmoe@foocafe.org","internet_access":"yes","internet_access:fee":"no","name":"Foo Café","operator":"Foo Café AB","operator:type":"private","phone":"+46 731 737 700","website":"https://foocafe.org/"}},"geometry":{"type":"Point","coordinates":[13.0019561,55.6113149]}},{"type":"Feature","properties":{"id":3414468655,"osm_type":"node","name":"Rådhushallen","category":"community_centre","tags":{"amenity":"community_centre","name":"Rådhushallen"}},"geometry":{"type":"Point","coordinates":[13.0018881,55.606673]}},{"type":"Feature","properties":{"id":11270939075,"osm_type":"node","name":"Fryshuset","category":"community_centre","tags":{"addr:city":"Malmö","addr:housenumber":"2A","addr:postcode":"21422","addr:street":"Norra Parkgatan","amenity":"community_centre","community_centre":"youth_centre","name":"Fryshuset","opening_hours":"Mo 13:00-21:00; We 15:00-21:00; Fr 15:00-23:00","website":"https://www.fryshuset.se/"}},"geometry":{"type":"Point","coordinates":[13.0129034,55.5946289]}},{"type":"Feature","properties":{"id":11889165607,"osm_type":"node","name":"Rörsjö fritidsgård","category":"community_centre","tags":{"addr:city":"Malmö","addr:housenumber":"3","addr:postcode":"21218","addr:street":"Sallerupsvägen","amenity":"community_centre","community_centre":"youth_centre","community_centre:for":"juvenile","contact:instagram":"rorsjofritidsgard","name":"Rörsjö fritidsgård","opening_hours":"Mo-Th 14:00-21:00; Fr-Sa 14:00-22:00","operator":"Malmö stad","operator:type":"public","website":"https://malmo.se/Uppleva-och-gora/For-familjer-barn-och-unga/Fritidsgardar/Rorsjo-fritidsgard.html"}},"geometry":{"type":"Point","coordinates":[13.0250538,55.6049971]}},{"type":"Feature","properties":{"id":11915559169,"osm_type":"node","name":"Sensus","category":"community_centre","tags":{"addr:housenumber":"5","addr:postcode":"21140","addr:street":"Södra Vallgatan","amenity":"community_centre","name":"Sensus","name:en":"Sensus Study Society Malmö","name:sv":"Sensus studieförbund Malmö","opening_hours":"Mo-Fr 08:00-17:00","phone":"+46406645680","website":"https://www.sensus.se/"}},"geometry":{"type":"Point","coordinates":[12.9995957,55.6012746]}},{"type":"Feature","properties":{"id":11936696825,"osm_type":"node","name":"Sofielund fritidsgård","category":"community_centre","tags":{"addr:housenumber":"32","addr:street":"Palmgatan","amenity":"community_centre","community_centre":"youth_centre","community_centre:for":"juvenile","name":"Sofielund fritidsgård","operator":"Malmö stad","operator:type":"public"}},"geometry":{"type":"Point","coordinates":[13.0158313,55.5856356]}},{"type":"Feature","properties":{"id":12164925172,"osm_type":"node","name":"Flamman","category":"community_centre","tags":{"addr:city":"Malmö","addr:housenumber":"5","addr:postcode":"214 25","addr:street":"Sofielundsvägen","amenity":"community_centre","community_centre":"youth_centre","name":"Flamman","website":"https://www.flammanmalmo.se/"}},"geometry":{"type":"Point","coordinates":[13.0072691,55.590682]}},{"type":"Feature","properties":{"id":12164954570,"osm_type":"node","name":"Flamman","category":"community_centre","tags":{"addr:city":"Malmö","addr:housenumber":"6","addr:postcode":"216 24","addr:street":"Hyllievångsvägen","amenity":"community_centre","community_centre":"youth_centre","name":"Flamman","operator":"b"}},"geometry":{"type":"Point","coordinates":[12.9773288,55.5730524]}},{"type":"Feature","properties":{"id":12294018738,"osm_type":"node","name":"Möllans Basement","category":"community_centre","tags":{"addr:city":"Malmö","addr:housenumber":"13","addr:postcode":"214 27","addr:street":"Ahlmansgatan","amenity":"community_centre","community_centre":"youth_centre","name":"Möllans Basement","website":"https://www.mollansbasement.se/"}},"geometry":{"type":"Point","coordinates":[13.0099671,55.5886102]}},{"type":"Feature","properties":{"id":12390428376,"osm_type":"node","name":"RFSL Malmö","category":"community_centre","tags":{"addr:city":"Malmö","addr:housenumber":"7","addr:street":"Bangatan","amenity":"community_centre","community_centre:for":"lgbtq","lgbtq":"primary","name":"RFSL Malmö","website":"https://malmo.rfsl.se","wheelchair":"yes"}},"geometry":{"type":"Point","coordinates":[13.0095097,55.5894497]}},{"type":"Feature","properties":{"id":28791269,"osm_type":"way","name":"Limhamns Folkets Hus","category":"community_centre","tags":{"addr:city":"Limhamn","addr:country":"SE","addr:housenumber":"61","addr:place":"Limhamns Folkets Hus","addr:postcode":"216 14","addr:street":"Linnégatan","amenity":"community_centre","building":"yes","contact:email":"info@limhamn.fh.se","contact:phone":"+46 40 15 52 70","loc_name":"Folkets hus","name":"Limhamns Folkets Hus","opening_hours":"Tu,Th 10:00-14:00","website":"https://www.limhamn.fh.se/"}},"geometry":{"type":"Point","coordinates":[12.9371483,55.5806774]}},{"type":"Feature","properties":{"id":89605854,"osm_type":"way","name":"Magneten","category":"community_centre","tags":{"amenity":"community_centre","building":"yes","community_centre":"community_hall","name":"Magneten","operator":"Burlövs Kommun","operator:type":"government"}},"geometry":{"type":"Point","coordinates":[13.0797488,55.6328102]}},{"type":"Feature","properties":{"id":243499183,"osm_type":"way","name":"Ödet","category":"community_centre","tags":{"addr:city":"Malmö","addr:country":"SE","addr:housenumber":"22","addr:postcode":"214 46","addr:street":"Idunsgatan","amenity":"community_centre","building":"yes","name":"Ödet","website":"https://ödet.org/"}},"geometry":{"type":"Point","coordinates":[13.0126437,55.5855641]}},{"type":"Feature","properties":{"id":255094046,"osm_type":"way","name":"Folkets hus","category":"community_centre","tags":{"addr:city":"Malmö","addr:country":"SE","addr:housenumber":"2","addr:street":"Hyacintgatan","amenity":"community_centre","building":"yes","name":"Folkets hus"}},"geometry":{"type":"Point","coordinates":[12.9876461,55.5728075]}},{"type":"Feature","properties":{"id":542844577,"osm_type":"way","name":"Kirsebergs Fritids- & Kulturhus","category":"community_centre","tags":{"amenity":"community_centre","name":"Kirsebergs Fritids- & Kulturhus"}},"geometry":{"type":"Point","coordinates":[13.043221,55.6112724]}},{"type":"Feature","properties":{"id":680587045,"osm_type":"way","name":"Fontänhuset","category":"community_centre","tags":{"addr:country":"SE","addr:housenumber":"14","addr:street":"Engelbrektsgatan","amenity":"community_centre","building":"apartments","check_date:opening_hours":"2025-02-17","name":"Fontänhuset","opening_hours:signed":"no"}},"geometry":{"type":"Point","coordinates":[12.998241,55.6041724]}}]}