{"type":"FeatureCollection","features":[{"type":"Feature","properties":{"id":1343662536,"osm_type":"node","name":"Folktandvården","category":"dentistry","tags":{"addr:city":"Malmö","addr:country":"SE","addr:housenumber":"53","addr:street":"Lilla Varvsgatan","amenity":"dentist","brand":"Folktandvården","brand:wikidata":"Q10497476","brand:wikipedia":"sv:Folktandvården","healthcare":"dentist","name":"Folktandvården"}},"geometry":{"type":"Point","coordinates":[12.9880036,55.614546]}},{"type":"Feature","properties":{"id":2400745426,"osm_type":"node","name":"Agrona Dentallaboratorium","category":"dentistry","tags":{"addr:city":"Malmö","addr:country":"SE","addr:housenumber":"3","addr:postcode":"21217","addr:street":"Sofierogatan","amenity":"dentist","entrance":"yes","name":"Agrona Dentallaboratorium","phone":"+46-40-932549"}},"geometry":{"type":"Point","coordinates":[13.0320566,55.6042822]}},{"type":"Feature","properties":{"id":2400997266,"osm_type":"node","name":"Ellstorps Tandläkarmottagning","category":"dentistry","tags":{"amenity":"dentist","entrance":"yes","name":"Ellstorps Tandläkarmottagning","phone":"+46-40-29 07 37"}},"geometry":{"type":"Point","coordinates":[13.0309308,55.603091]}},{"type":"Feature","properties":{"id":2715607982,"osm_type":"node","name":"Specialisttandvård Malmö, Folktandvården Skåne AB","category":"dentistry","tags":{"addr:city":"Malmö","addr:housenumber":"12","addr:postcode":"214 27","addr:street":"Spårvägsgatan","amenity":"dentist","branch":"Skåne","brand":"Folktandvården","brand:wikidata":"Q10497476","check_date":"2024-07-08","healthcare":"dentist","name":"Specialisttandvård Malmö, Folktandvården Skåne AB","opening_hours":"Mo-Th 07:45-16:45; Fr 07:45-15:45","phone":"+46 40 623 06 10"}},"geometry":{"type":"Point","coordinates":[13.009444,55.588115]}},{"type":"Feature","properties":{"id":3929741006,"osm_type":"node","name":"Husie Tandvård","category":"dentistry","tags":{"amenity":"dentist","healthcare":"dentist","name":"Husie Tandvård"}},"geometry":{"type":"Point","coordinates":[13.0743059,55.5937117]}},{"type":"Feature","properties":{"id":4397767525,"osm_type":"node","name":"Folktandvården","category":"dentistry","tags":{"amenity":"dentist","brand":"Folktandvården","brand:wikidata":"Q10497476","brand:wikipedia":"sv:Folktandvården","healthcare":"dentist","name":"Folktandvården"}},"geometry":{"type":"Point","coordinates":[13.0086175,55.6061543]}},{"type":"Feature","properties":{"id":5598192647,"osm_type":"node","name":"Folktandvården","category":"dentistry","tags":{"addr:street":"Västra Rönneholmsvägen","amenity":"dentist","branch":"Skåne","brand":"Folktandvården","brand:wikidata":"Q10497476","healthcare":"dentist","name":"Folktandvården"}},"geometry":{"type":"Point","coordinates":[12.9860308,55.5951766]}},{"type":"Feature","properties":{"id":5780623859,"osm_type":"node","name":"","category":"dentistry","tags":{"addr:city":"Malmö","addr:country":"SE","addr:housenumber":"23A","addr:street":"Annebergsgatan","amenity":"dentist","entrance":"yes","healthcare":"dentist"}},"geometry":{"type":"Point","coordinates":[12.9959759,55.5830528]}},{"type":"Feature","properties":{"id":5780623860,"osm_type":"node","name":"","category":"dentistry","tags":{"addr:city":"Malmö","addr:country":"SE","addr:housenumber":"23B","addr:street":"Annebergsgatan","amenity":"dentist","entrance":"yes","healthcare":"dentist"}},"geometry":{"type":"Point","coordinates":[12.9961698,55.5830164]}},{"type":"Feature","properties":{"id":7577741336,"osm_type":"node","name":"TandCity","category":"dentistry","tags":{"addr:city":"Malmö","addr:country":"SE","addr:housenumber":"1","addr:postcode":"21122","addr:street":"Hamngatan","amenity":"dentist","check_date":"2025-02-28","check_date:opening_hours":"2025-02-28","email":"info@tandcity.se","healthcare":"dentist","name":"TandCity","opening_hours":"Mo-Fr 07:00-20:00; Sa 09:00-17:00","phone":"+46 40 23 66 00","website":"https://tandcity.se"}},"geometry":{"type":"Point","coordinates":[12.9994088,55.6075241]}},{"type":"Feature","properties":{"id":7600379143,"osm_type":"node","name":"Tandläkare Bitte Widding","category":"dentistry","tags":{"amenity":"dentist","healthcare":"dentist","name":"Tandläkare Bitte Widding"}},"geometry":{"type":"Point","coordinates":[12.9469076,55.5890665]}},{"type":"Feature","properties":{"id":9057038628,"osm_type":"node","name":"Malmö Tandvård","category":"dentistry","tags":{"amenity":"dentist","healthcare":"dentist","name":"Malmö Tandvård"}},"geometry":{"type":"Point","coordinates":[12.9929464,55.6130828]}},{"type":"Feature","properties":{"id":9894560132,"osm_type":"node","name":"PTJ Dental Malmö","category":"dentistry","tags":{"addr:city":"Malmö","addr:country":"SE","addr:housenumber":"65","addr:postcode":"217 62","addr:street":"Stadiongatan","amenity":"dentist","contact:email":"ptjdentalmalmo@ptj.se","contact:phone":"+46 40 86 005","healthcare":"dentist","name":"PTJ Dental Malmö","opening_hours":"Mo-Th 08:00-12:00, 13:00-16:30, Fr 08:00-12:00","website":"https://www.ptj.se/ptjdental-malmo"}},"geometry":{"type":"Point","coordinates":[12.9753805,55.5849323]}},{"type":"Feature","properties":{"id":9949473003,"osm_type":"node","name":"True Smile tandvård","category":"dentistry","tags":{"amenity":"dentist","check_date":"2022-08-12","healthcare":"dentist","name":"True Smile tandvård","opening_hours":"10:00-17:00","operator":"Nizar Ilhamoi","phone":"+46 70 010 11 05"}},"geometry":{"type":"Point","coordinates":[13.0012557,55.5981106]}},{"type":"Feature","properties":{"id":9949473004,"osm_type":"node","name":"Triangelns tandläkargrupp","category":"dentistry","tags":{"addr:floor":"4","amenity":"dentist","check_date":"2022-08-12","healthcare":"dentist","name":"Triangelns tandläkargrupp"}},"geometry":{"type":"Point","coordinates":[13.0012828,55.5980958]}},{"type":"Feature","properties":{"id":9949473005,"osm_type":"node","name":"","category":"dentistry","tags":{"amenity":"dentist","check_date":"2022-08-12","healthcare":"dentist","operator":"Elisabeth Skytting"}},"geometry":{"type":"Point","coordinates":[13.0013113,55.5980833]}},{"type":"Feature","properties":{"id":9949588100,"osm_type":"node","name":"","category":"dentistry","tags":{"amenity":"dentist","check_date":"2022-08-12","healthcare":"dentist","operator":"Michael Blitz"}},"geometry":{"type":"Point","coordinates":[13.0008762,55.5972225]}},{"type":"Feature","properties":{"id":10582644081,"osm_type":"node","name":"Folktandvården","category":"dentistry","tags":{"addr:city":"Malmö","addr:country":"SE","addr:floor":"2","addr:housenumber":"56","addr:postcode":"21212","addr:street":"Östra Förstadsgatan","amenity":"dentist","brand":"Folktandvården","brand:wikidata":"Q10497476","healthcare":"dentist","level:ref":"2","name":"Folktandvården","operator":"Folktandvården Skåne","operator:wikidata":"Q116432514"}},"geometry":{"type":"Point","coordinates":[13.0229232,55.606138]}},{"type":"Feature","properties":{"id":10753036584,"osm_type":"node","name":"Stjärntandläkarna","category":"dentistry","tags":{"addr:city":"Malmö","addr:country":"SE","addr:housenumber":"46","addr:postcode":"217 73","addr:street":"Erikslustvägen","amenity":"dentist","healthcare":"dentist","name":"Stjärntandläkarna","opening_hours":"Mo-Th 07:30-18:00; Fr-Su 07:30-14:00"}},"geometry":{"type":"Point","coordinates":[12.9616874,55.5904253]}},{"type":"Feature","properties":{"id":10754116881,"osm_type":"node","name":"Smile of Sweden","category":"dentistry","tags":{"amenity":"dentist","healthcare":"dentist","name":"Smile of Sweden"}},"geometry":{"type":"Point","coordinates":[13.0094007,55.5705902]}},{"type":"Feature","properties":{"id":10754157951,"osm_type":"node","name":"Folktandvården","category":"dentistry","tags":{"amenity":"dentist","brand":"Folktandvården","brand:wikidata":"Q10497476","healthcare":"dentist","name":"Folktandvården"}},"geometry":{"type":"Point","coordinates":[13.0033275,55.5814835]}},{"type":"Feature","properties":{"id":11253294863,"osm_type":"node","name":"Folktandvården Skåne","category":"dentistry","tags":{"addr:housenumber":"60","addr:street":"Klagshamnsvägen 60","amenity":"dentist","name":"Folktandvården Skåne","opening_hours":"Mo, Th 07:00-18:00; Tu, We 07:00-17:00; Fr 07:00-16:00","phone":"0406230230","website":"https://folktandvardenskane.se/kliniker/malmo-bunkeflo/"}},"geometry":{"type":"Point","coordinates":[12.9184777,55.5512492]}},{"type":"Feature","properties":{"id":11778842669,"osm_type":"node","name":"Tandhälsan Olsson & Skeppar","category":"dentistry","tags":{"addr:housenumber":"8","addr:postcode":"211 56","addr:street":"Kamrergatan","amenity":"dentist","healthcare":"dentist","name":"Tandhälsan Olsson & Skeppar","opening_hours":"Mo-Tu, Th 07:00-19:00; We 07:00-13:00; Fr 08:00-13:00","phone":"+46406745660","website":"https://tandh.se/"}},"geometry":{"type":"Point","coordinates":[13.012237,55.5994574]}},{"type":"Feature","properties":{"id":12097519301,"osm_type":"node","name":"Happident","category":"dentistry","tags":{"amenity":"dentist","healthcare":"dentist","name":"Happident"}},"geometry":{"type":"Point","coordinates":[12.9768454,55.6129602]}},{"type":"Feature","properties":{"id":12386431227,"osm_type":"node","name":"","category":"dentistry","tags":{"amenity":"dentist","healthcare":"dentist"}},"geometry":{"type":"Point","coordinates":[13.0711883,55.632218]}},{"type":"Feature","properties":{"id":12450325353,"osm_type":"node","name":"Tandvård Burlöv","category":"dentistry","tags":{"amenity":"dentist","healthcare":"dentist","name":"Tandvård Burlöv","operator":"Vårdcentralen Burlöv","payment:mastercard":"yes","payment:visa":"yes"}},"geometry":{"type":"Point","coordinates":[13.0864439,55.6398295]}},{"type":"Feature","properties":{"id":12607252513,"osm_type":"node","name":"Tandvårdsgruppen S:t Göran","category":"dentistry","tags":{"addr:city":"Malmö","addr:housenumber":"5C","addr:postcode":"216 19","addr:street":"Sankt Göransgatan","amenity":"dentist","contact:email":"tsg@ptj.se","contact:phone":"+46 40-16 42 60","contact:website":"https://www.ptj.se/tandvardsgruppen-st-goran/kontakt--oppettider/","healthcare":"dentist","name":"Tandvårdsgruppen S:t Göran","opening_hours":"Mo-Th 07:50-17:30, Fr 07:50-12:00","phone":"+46 40-16 42 08","website":"https://www.ptj.se/tandvardsgruppen-st-goran/"}},"geometry":{"type":"Point","coordinates":[12.9586923,55.5876]}},{"type":"Feature","properties":{"id":12750328253,"osm_type":"node","name":"Tandstudio","category":"dentistry","tags":{"amenity":"dentist","healthcare":"dentist","name":"Tandstudio","opening_hours":"Mo-Th 08:00-17:00; Fr 08:00-15:00"}},"geometry":{"type":"Point","coordinates":[13.0063982,55.5852989]}},{"type":"Feature","properties":{"id":12787667101,"osm_type":"node","name":"White Tandvård","category":"dentistry","tags":{"addr:housenumber":"8B","addr:postcode":"211 39","addr:street":"Gustav Adolfs torg","amenity":"dentist","email":"malmo@whitetandvard.se","healthcare":"dentist","name":"White Tandvård","phone":"040-6110661","website":"https://www.whitetandvard.se/"}},"geometry":{"type":"Point","coordinates":[13.0011103,55.6021253]}},{"type":"Feature","properties":{"id":13666458901,"osm_type":"node","name":"Luxadent Malmö","category":"dentistry","tags":{"addr:housenumber":"13c","addr:postcode":"21532","addr:street":"Hyllie boulevard","amenity":"dentist","level":"1","name":"Luxadent Malmö","opening_hours":"Mo-Fr 07:00-20:00; Sa 09:00-16:00","phone":"+46 40 805 95","website":"http://luxadent.se"}},"geometry":{"type":"Point","coordinates":[12.9750213,55.5640876]}},{"type":"Feature","properties":{"id":28798923,"osm_type":"way","name":"Folktandvården","category":"dentistry","tags":{"addr:city":"Limhamn","addr:country":"SE","addr:housenumber":"58","addr:postcode":"216 14","addr:street":"Linnégatan","amenity":"dentist","branch":"Skåne","brand":"Folktandvården","brand:wikidata":"Q10497476","building":"yes","check_date":"2022-10-29","contact:website":"https://folktandvardenskane.se/kliniker/malmo-limhamn/","email":"malmo.limhamn@folktandvardenskane.se","healthcare":"dentist","name":"Folktandvården","opening_hours":"Mo-Tu 07:00-18:30; We-Th 07:00-17:00; Fr 07:00-16:00; \"Day before public holiday 07:00-16:00\"","payment:cash":"no","payment:mastercard":"yes","payment:visa":"yes"}},"geometry":{"type":"Point","coordinates":[12.9380297,55.5813897]}},{"type":"Feature","properties":{"id":137411597,"osm_type":"way","name":"Folktandvården","category":"dentistry","tags":{"addr:city":"Malmö","addr:country":"SE","addr:housenumber":"2","addr:postcode":"212 43","addr:street":"Norra Bulltoftavägen","amenity":"dentist","branch":"Kirseberg","brand":"Folktandvården","brand:wikidata":"Q10497476","brand:wikipedia":"sv:Folktandvården","building":"yes","healthcare":"dentist","name":"Folktandvården"}},"geometry":{"type":"Point","coordinates":[13.0360249,55.6109277]}}]}