{"type":"FeatureCollection","features":[{"type":"Feature","properties":{"id":12609852948,"osm_type":"node","name":"Station Burlöv","category":"fire_station","tags":{"addr:city":"Arlöv","addr:housenumber":"39","addr:postcode":"232 35","addr:street":"Lommavägen","amenity":"fire_station","fire_station:type":"local_station","fire_station:type:SV":"deltidsstation","name":"Station Burlöv","operator":"Räddningstjänsten Syd","operator:wikidata":"Q10658399"}},"geometry":{"type":"Point","coordinates":[13.0693671,55.6368464]}},{"type":"Feature","properties":{"id":12610590289,"osm_type":"node","name":"Malmö Frivilliga Brandkår","category":"fire_station","tags":{"addr:city":"Malmö","addr:housenumber":"20","addr:street":"Drottninggatan","amenity":"fire_station","fire_station:type":"voluntary","fire_station:type:SV":"räddningsvärn","name":"Malmö Frivilliga Brandkår","operator":"Räddningstjänsten Syd","operator:wikidata":"Q10658399","short_name":"MFB","website":"https://www.brandmuseumrsyd.se/malmo_frivilliga_brandkar.htm"}},"geometry":{"type":"Point","coordinates":[13.0088347,55.6023114]}},{"type":"Feature","properties":{"id":1031855079,"osm_type":"way","name":"Station Hyllie","category":"fire_station","tags":{"addr:city":"Malmö","addr:country":"SE","addr:housenumber":"4","addr:postcode":"216 23","addr:street":"Annetorpsvägen","amenity":"fire_station","fire_station:type":"main_station","loc_name":"Hyllie brandstation","name":"Station Hyllie","operator":"Räddningstjänsten Syd","operator:wikidata":"Q10658399","website":"https://www.rsyd.se/om-oss/haer-finns-vi/"}},"geometry":{"type":"Point","coordinates":[12.9603674,55.5652685]}},{"type":"Feature","properties":{"id":1361962379,"osm_type":"way","name":"Station Jägersro","category":"fire_station","tags":{"addr:city":"Malmö","addr:housenumber":"110B-E","addr:street":"Amiralsgatan","amenity":"fire_station","fire_station:type":"main_station","loc_name":"Jägersro brandstation","name":"Station Jägersro","operator":"Räddningstjänsten Syd","operator:wikidata":"Q10658399","website":"https://www.rsyd.se/om-oss/haer-finns-vi/"}},"geometry":{"type":"Point","coordinates":[13.0686703,55.5799951]}},{"type":"Feature","properties":{"id":1361974429,"osm_type":"way","name":"Station Centrum","category":"fire_station","tags":{"addr:city":"Malmö","addr:housenumber":"20","addr:street":"Drottninggatan","amenity":"fire_station","fire_station:type":"main_station","fire_station:type:SV":"heltidsstation","name":"Station Centrum","operator":"Räddningstjänsten Syd","operator:wikidata":"Q10658399","start_date":"1894-03-31","website":"https://www.rsyd.se/om-oss/haer-finns-vi/"}},"geometry":{"type":"Point","coordinates":[13.0092339,55.6022576]}}]}