{"type":"FeatureCollection","features":[{"type":"Feature","properties":{"id":256278735,"osm_type":"node","name":"Lidl","category":"grocery","tags":{"brand":"Lidl","name":"Lidl","shop":"supermarket"}},"geometry":{"type":"Point","coordinates":[13.0892851,55.6413425]}},{"type":"Feature","properties":{"id":444875347,"osm_type":"node","name":"Oliv Livs","category":"grocery","tags":{"name":"Oliv Livs","payment:cash":"yes","shop":"convenience"}},"geometry":{"type":"Point","coordinates":[13.0175826,55.602334]}},{"type":"Feature","properties":{"id":444875362,"osm_type":"node","name":"Coop Värnhem","category":"grocery","tags":{"addr:city":"Malmö","addr:country":"SE","addr:housenumber":"72","addr:postcode":"21214","addr:street":"Föreningsgatan","brand":"Coop (Sweden)","brand:wikidata":"Q15229319","brand:wikipedia":"sv:Coop Butiker & Stormarknader","name":"Coop Värnhem","opening_hours":"Mo-Su 07:00-23:00","payment:cash":"yes","phone":"+46 10 741 66 90","shop":"supermarket","website":"https://www.coop.se/butiker-erbjudanden/coop/coop-varnhem/","wheelchair":"yes"}},"geometry":{"type":"Point","coordinates":[13.0245578,55.6051524]}},{"type":"Feature","properties":{"id":444875369,"osm_type":"node","name":"Hemköp Malmö Värnhem","category":"grocery","tags":{"addr:city":"Malmö","addr:country":"SE","addr:housenumber":"12","addr:postcode":"21212","addr:street":"Östra Förstadsgatan","brand":"Hemköp","brand:wikidata":"Q10521746","brand:wikipedia":"sv:Hemköp","check_date:opening_hours":"2025-05-12","email":"info.malmo.plaza@hemkop.se","level":"0","name":"Hemköp Malmö Värnhem","opening_hours":"Mo-Su 07:00-23:00","payment:cash":"yes","phone":"+46-40-189080","shop":"supermarket","website":"https://www.hemkop.se/butik/4199","wheelchair":"yes"}},"geometry":{"type":"Point","coordinates":[13.0261045,55.6073464]}},{"type":"Feature","properties":{"id":444881100,"osm_type":"node","name":"Coop Östra Förstadsgatan","category":"grocery","tags":{"addr:city":"Malmö","addr:country":"SE","addr:housenumber":"34","addr:street":"Östra Förstadsgatan","brand":"Coop","brand:wikidata":"Q106684510","name":"Coop Östra Förstadsgatan","opening_hours":"Mo-Fr 08:00-20:00, Sa 09:00-18:00, Su 10:00-18:00","phone":"010-7463750","shop":"supermarket","website":"https://www.coop.se/butiker-erbjudanden/coop/coop-ostra-forstadsgatan/","wheelchair":"yes"}},"geometry":{"type":"Point","coordinates":[13.0191464,55.6070415]}},{"type":"Feature","properties":{"id":536815428,"osm_type":"node","name":"ICA Supermarket Söder","category":"grocery","tags":{"addr:city":"Malmö","addr:country":"SE","addr:housenumber":"83","addr:postcode":"214 20","addr:street":"Södra Förstadsgatan","brand":"ICA Supermarket","brand:wikidata":"Q1663776","brand:wikipedia":"sv:Ica","check_date":"2025-06-20","diet:vegan":"yes","diet:vegetarian":"yes","name":"ICA Supermarket Söder","opening_hours":"Mo-Su 08:00-23:00","payment:cash":"yes","phone":"+46 40 33 02 90","shop":"supermarket","website":"https://www.ica.se/supermarketsoder","wheelchair":"yes"}},"geometry":{"type":"Point","coordinates":[13.0053657,55.5919734]}},{"type":"Feature","properties":{"id":536819323,"osm_type":"node","name":"ICA Supermarket Möllevången","category":"grocery","tags":{"addr:country":"SE","addr:housenumber":"21","addr:postcode":"214 25","addr:street":"Sofielundsvägen","brand":"ICA Supermarket","brand:wikidata":"Q1663776","brand:wikipedia":"sv:Ica","check_date":"2025-06-20","check_date:opening_hours":"2021-05-15","name":"ICA Supermarket Möllevången","opening_hours":"Mo-Su 08:00-21:00","payment:cash":"yes","shop":"supermarket","website":"https://www.ica.se/butiker/supermarket/malmo/ica-supermarket-mollevangen-2736/start/","wheelchair":"yes"}},"geometry":{"type":"Point","coordinates":[13.0106421,55.5900059]}},{"type":"Feature","properties":{"id":578393371,"osm_type":"node","name":"Coop Norra Parkgatan","category":"grocery","tags":{"addr:city":"Malmö","addr:country":"SE","addr:housenumber":"1","addr:street":"Norra Parkgatan","brand":"Coop","brand:wikidata":"Q106684510","brand:wikipedia":"sv:Coop Butiker & Stormarknader","check_date:opening_hours":"2023-07-08","name":"Coop Norra Parkgatan","opening_hours":"Mo-Su 07:00-23:00","operator":"Coop","payment:cash":"yes","shop":"supermarket","wheelchair":"yes"}},"geometry":{"type":"Point","coordinates":[13.0127291,55.5955544]}},{"type":"Feature","properties":{"id":621122330,"osm_type":"node","name":"Tempo Mido","category":"grocery","tags":{"addr:city":"Malmö","addr:country":"SE","addr:housenumber":"18","addr:postcode":"21142","addr:street":"Fersens väg","alt_name":"Mido","contact:facebook":"https://www.facebook.com/malmomarket/","email":"info.malmo.mido@tempo.se","name":"Tempo Mido","official_name":"Tempo Malmö Mido Fersensväg","opening_hours":"Mo-Fr 07:00-22:00, Sa-Su 08:00-22:00","phone":"+46 040-122249","shop":"convenience","short_name":"Tempo","source":"survey","website":"https://www.tempo.se/butiker-och-oppettider/fersens-vag-malmo"}},"geometry":{"type":"Point","coordinates":[12.9964464,55.5978761]}},{"type":"Feature","properties":{"id":625987377,"osm_type":"node","name":"7-Eleven","category":"grocery","tags":{"brand":"7-Eleven","brand:wikidata":"Q259340","brand:wikipedia":"sv:7-Eleven","check_date:opening_hours":"2024-03-23","name":"7-Eleven","opening_hours":"Mo-Fr 06:00-23:00; Sa,Su 07:00-23:00","operator":"7-Eleven","shop":"convenience","wheelchair":"yes"}},"geometry":{"type":"Point","coordinates":[12.9962489,55.6091022]}},{"type":"Feature","properties":{"id":812825424,"osm_type":"node","name":"Willys Malmö Katrinelund","category":"grocery","tags":{"addr:city":"Malmö","addr:country":"SE","addr:housenumber":"38","addr:postcode":"21214","addr:street":"Celsiusgatan","brand":"Willys","brand:wikidata":"Q10720214","check_date:opening_hours":"2025-11-01","name":"Willys Malmö Katrinelund","opening_hours":"Mo-Fr 07:00-21:00; Sa-Su 08:00-21:00","operator":"Willy:s","payment:cash":"yes","phone":"040-6803440","shop":"supermarket","website":"https://www.willys.se/butik/2114"}},"geometry":{"type":"Point","coordinates":[13.0335,55.5995]}},{"type":"Feature","properties":{"id":916170296,"osm_type":"node","name":"Suzi's Livs","category":"grocery","tags":{"name":"Suzi's Livs","shop":"convenience"}},"geometry":{"type":"Point","coordinates":[13.0127494,55.5987649]}},{"type":"Feature","properties":{"id":1012287178,"osm_type":"node","name":"Direkten","category":"grocery","tags":{"brand":"Direkten","brand:wikidata":"Q105693281","check_date":"2024-07-07","name":"Direkten","shop":"convenience","wheelchair":"yes"}},"geometry":{"type":"Point","coordinates":[13.008522,55.5954494]}},{"type":"Feature","properties":{"id":1305712307,"osm_type":"node","name":"Ekohallen","category":"grocery","tags":{"addr:city":"Malmö","addr:country":"SE","addr:housenumber":"177","addr:postcode":"21375","addr:street":"Agnesfridsvägen","name":"Ekohallen","opening_hours":"09:00-20:00","operator":"EKO Stormarknad","payment:cash":"yes","phone":"+46.40142100","shop":"supermarket","website":"https://www.ekostormarknad.se/besok-butik/malmo/"}},"geometry":{"type":"Point","coordinates":[13.0477175,55.566862]}},{"type":"Feature","properties":{"id":1306158755,"osm_type":"node","name":"Willys Hemma Malmö Möllevången","category":"grocery","tags":{"addr:city":"Malmö","addr:country":"SE","addr:housenumber":"14","addr:postcode":"214 26","addr:street":"Claesgatan","brand":"Willys","brand:wikidata":"Q10720214","brand:wikipedia":"sv:willys","changing_table":"no","check_date:opening_hours":"2023-10-12","name":"Willys Hemma Malmö Möllevången","opening_hours":"Mo-Su 08:00-21:00","organic":"yes","payment:cash":"yes","phone":"+46 40 633 78 80","shop":"supermarket","website":"https://www.willys.se/butik/2870","wheelchair":"yes"}},"geometry":{"type":"Point","coordinates":[13.0080658,55.5896711]}},{"type":"Feature","properties":{"id":1309167969,"osm_type":"node","name":"Coop Kornettsgatan","category":"grocery","tags":{"addr:city":"Malmö","addr:country":"SE","addr:housenumber":"13","addr:street":"Kornettsgatan","alt_name":"Coop Nära Kornettsgatan","brand":"Coop","brand:wikidata":"Q106684510","name":"Coop Kornettsgatan","opening_hours":"Mo-Su 07:00-23:00","operator":"Coop","payment:cash":"yes","phone":"010-7416830","shop":"supermarket","website":"https://www.coop.se/butiker-erbjudanden/coop/coop-kornettsgatan/","wheelchair":"no"}},"geometry":{"type":"Point","coordinates":[13.0117354,55.6003679]}},{"type":"Feature","properties":{"id":1309285652,"osm_type":"node","name":"Mathallen Lugnet","category":"grocery","tags":{"addr:city":"Malmö","addr:country":"SE","addr:housenumber":"2","addr:postcode":"211 60","addr:street":"Lugna gatan","name":"Mathallen Lugnet","opening_hours":"Mo-Su 07:00-22:00","payment:cash":"yes","phone":"+46 40 924420","shop":"supermarket","website":"https://www.mathallen.nu/"}},"geometry":{"type":"Point","coordinates":[13.005696,55.597741]}},{"type":"Feature","properties":{"id":1309301894,"osm_type":"node","name":"Möllevångstorget","category":"grocery","tags":{"amenity":"marketplace","check_date:opening_hours":"2024-09-05","name":"Möllevångstorget","opening_hours":"Mo-Sa 08:00-15:00","payment:cash":"yes","wheelchair":"yes"}},"geometry":{"type":"Point","coordinates":[13.0080007,55.5915976]}},{"type":"Feature","properties":{"id":1512477367,"osm_type":"node","name":"Coop Malmö Central","category":"grocery","tags":{"addr:city":"Malmö","addr:country":"SE","addr:housenumber":"1","addr:street":"Skeppsbron C, Centralplan","branch":"Malmö central","brand":"Coop","brand:wikidata":"Q106684510","brand:wikipedia":"sv:Coop Butiker & Stormarknader","contact:phone":"+46 10 741 23 00","name":"Coop Malmö Central","opening_hours":"Mo-Fr 06:00-23:00; Sa-Su 07:00-23:00","payment:cash":"yes","phone":"+46 10-7412301","shop":"supermarket","website":"https://www.coop.se/butiker-erbjudanden/coop/coop-malmo-central/","wheelchair":"yes"}},"geometry":{"type":"Point","coordinates":[12.9994913,55.6092142]}},{"type":"Feature","properties":{"id":1623950670,"osm_type":"node","name":"Coop Tessins Väg","category":"grocery","tags":{"addr:city":"Malmö","addr:country":"SE","addr:housenumber":"12","addr:street":"Tessins Väg","brand":"Coop (Sweden)","brand:wikidata":"Q15229319","name":"Coop Tessins Väg","opening_hours":"Mo-Su 8:00-22:00","phone":"010-7416550","shop":"supermarket","website":"https://www.coop.se/butiker-erbjudanden/coop/coop-tessins-vag/"}},"geometry":{"type":"Point","coordinates":[12.9754885,55.6004566]}},{"type":"Feature","properties":{"id":1669555380,"osm_type":"node","name":"Direkten","category":"grocery","tags":{"brand":"Direkten","brand:wikidata":"Q105693281","name":"Direkten","opening_hours":"Mo-Fr 07:00-20:30; Sa-Su 08:00-20:30","shop":"convenience","wheelchair":"yes"}},"geometry":{"type":"Point","coordinates":[12.9838572,55.5977276]}},{"type":"Feature","properties":{"id":1669560486,"osm_type":"node","name":"Hemköp Malmö Kronprinsen","category":"grocery","tags":{"addr:city":"Malmö","addr:country":"SE","addr:housenumber":"52","addr:street":"Regementsgatan","brand":"Hemköp","brand:wikidata":"Q10521746","brand:wikipedia":"sv:Hemköp","name":"Hemköp Malmö Kronprinsen","opening_hours":"Mo-Su 07:00-23:00","phone":"040-12 4343","shop":"supermarket","website":"https://www.hemkop.se/butik/4114","wheelchair":"yes"}},"geometry":{"type":"Point","coordinates":[12.9843816,55.5985953]}},{"type":"Feature","properties":{"id":1669904558,"osm_type":"node","name":"Coop Köpenhamnsvägen","category":"grocery","tags":{"addr:city":"Malmö","addr:country":"SE","addr:housenumber":"2","addr:street":"Köpenhamnsvägen","brand":"Coop","brand:wikidata":"Q106684510","name":"Coop Köpenhamnsvägen","opening_hours":"Mo-Su 08:00-22:00","phone":"010-7416610","shop":"supermarket","website":"https://www.coop.se/butiker-erbjudanden/coop/coop-kopenhamnsvagen/"}},"geometry":{"type":"Point","coordinates":[12.9861371,55.5932973]}},{"type":"Feature","properties":{"id":1677336063,"osm_type":"node","name":"Lidl","category":"grocery","tags":{"addr:city":"Malmö","addr:country":"SE","addr:housenumber":"42","addr:street":"Västra Varvsgatan","brand":"Lidl","brand:wikidata":"Q151954","brand:wikipedia":"sv:Lidl","name":"Lidl","opening_hours":"Mo-Fr 08:00-21:00; Sa 08:00-19:00; Su 09:00-19:00","shop":"supermarket","wheelchair":"limited"}},"geometry":{"type":"Point","coordinates":[12.9760893,55.6138918]}},{"type":"Feature","properties":{"id":1677337189,"osm_type":"node","name":"01 Livs","category":"grocery","tags":{"contact:phone":"+46-406116543","name":"01 Livs","opening_hours":"Mo-Su 07:30-23:00","opening_hours:signed":"no","shop":"convenience"}},"geometry":{"type":"Point","coordinates":[12.9749418,55.6129064]}},{"type":"Feature","properties":{"id":1685945148,"osm_type":"node","name":"Victoria Livs","category":"grocery","tags":{"designation":"Normally open 8-23","name":"Victoria Livs","opening_hours":"Mo-Su 08:00-23:00","payment:cash":"yes","shop":"convenience"}},"geometry":{"type":"Point","coordinates":[13.0212482,55.5836083]}},{"type":"Feature","properties":{"id":1685952667,"osm_type":"node","name":"Handlarn","category":"grocery","tags":{"addr:city":"Malmö","addr:country":"SE","addr:housenumber":"1b","addr:street":"Östra Förstadsgatan","check_date":"2023-11-18","name":"Handlarn","opening_hours":"Mo-Fr 07:00-22:00; Sa-Su 08:00-22:00","shop":"convenience","wheelchair":"yes"}},"geometry":{"type":"Point","coordinates":[13.0149426,55.6078009]}},{"type":"Feature","properties":{"id":1726889253,"osm_type":"node","name":"Bagdad shop","category":"grocery","tags":{"addr:street":"Ängelholmsgatan","check_date":"2025-06-20","level":"0","name":"Bagdad shop","opening_hours":"Mo-Sa 08:00-24:00, Su 08:00-23:00","payment:cash":"yes","shop":"convenience"}},"geometry":{"type":"Point","coordinates":[13.0090114,55.5921606]}},{"type":"Feature","properties":{"id":1726889259,"osm_type":"node","name":"Baider","category":"grocery","tags":{"name":"Baider","shop":"convenience"}},"geometry":{"type":"Point","coordinates":[13.0068882,55.5911177]}},{"type":"Feature","properties":{"id":1726889269,"osm_type":"node","name":"Lidl","category":"grocery","tags":{"brand":"Lidl","brand:wikidata":"Q151954","brand:wikipedia":"sv:Lidl","name":"Lidl","opening_hours":"Mo-Fr 08:00-21:00, Sa 08:00-20:00, Su 09:00-20:00","payment:cash":"yes","payment:mastercard":"yes","payment:visa":"yes","shop":"supermarket"}},"geometry":{"type":"Point","coordinates":[13.0064731,55.5863816]}},{"type":"Feature","properties":{"id":1726889282,"osm_type":"node","name":"Sami frukt & grönt","category":"grocery","tags":{"check_date":"2025-06-20","name":"Sami frukt & grönt","old_name":"Sami frukt & grönt","shop":"greengrocer"}},"geometry":{"type":"Point","coordinates":[13.0062983,55.5910612]}},{"type":"Feature","properties":{"id":1726889300,"osm_type":"node","name":"Time","category":"grocery","tags":{"check_date":"2025-06-20","name":"Time","opening_hours":"Mo-Th 06:00-24:00, Fr,Sa 06:00-01:00, Su 07:00-24:00","payment:cash":"yes","shop":"convenience"}},"geometry":{"type":"Point","coordinates":[13.015841,55.589904]}},{"type":"Feature","properties":{"id":1745595579,"osm_type":"node","name":"Maxi ICA Stormarknad Västra Hamnen","category":"grocery","tags":{"addr:city":"Malmö","addr:country":"SE","addr:housenumber":"12","addr:postcode":"211 77","addr:street":"Masttorget","brand":"Maxi ICA Stormarknad","brand:wikidata":"Q1663776","brand:wikipedia":"sv:Ica","check_date:opening_hours":"2025-12-28","contact:website":"https://www.ica.se/butiker/maxi/malmo/maxi-ica-stormarknad-vastra-hamnen-1003569/","email":"kundkontakt.malmo@maxi.ica.se","name":"Maxi ICA Stormarknad Västra Hamnen","opening_hours":"Mo-Su 07:00-22:00","phone":"+46.406601600","shop":"supermarket","short_name":"ICA Maxi","toilets:wheelchair":"yes","website":"https://www.ica.se/butiker/maxi/malmo/maxi-ica-stormarknad-vastra-hamnen-1003569/","wheelchair":"yes"}},"geometry":{"type":"Point","coordinates":[12.9801942,55.611825]}},{"type":"Feature","properties":{"id":1784418306,"osm_type":"node","name":"Bazaar Food Market","category":"grocery","tags":{"addr:city":"Malmö","addr:country":"SE","addr:housenumber":"2","addr:street":"Adlerfeldts väg","brand":"Bazaar food market","name":"Bazaar Food Market","shop":"supermarket","wheelchair":"yes"}},"geometry":{"type":"Point","coordinates":[13.0460078,55.5865697]}},{"type":"Feature","properties":{"id":1836544904,"osm_type":"node","name":"Coop Karolingatan","category":"grocery","tags":{"addr:city":"Malmö","addr:country":"SE","addr:housenumber":"1","addr:street":"Karolingat","brand":"Coop (Sweden)","brand:wikidata":"Q15229319","name":"Coop Karolingatan","phone":"010-7416620","shop":"supermarket","website":"https://www.coop.se/butiker-erbjudanden/coop/coop-karolingatan/"}},"geometry":{"type":"Point","coordinates":[13.0648412,55.5821689]}},{"type":"Feature","properties":{"id":1985858792,"osm_type":"node","name":"ICA Kvantum","category":"grocery","tags":{"addr:street":"Hyllie stationsväg","brand":"ICA Kvantum","brand:wikidata":"Q1663776","brand:wikipedia":"sv:Ica","name":"ICA Kvantum","opening_hours":"Mo-Su 07:00-22:00","shop":"supermarket","source":"survey","website":"https://www.ica.se/butiker/kvantum/malmo/ica-kvantum-malmo-emporia-13771/start/","wheelchair":"yes"}},"geometry":{"type":"Point","coordinates":[12.9727513,55.564331]}},{"type":"Feature","properties":{"id":2014053452,"osm_type":"node","name":"Jour Livs","category":"grocery","tags":{"name":"Jour Livs","shop":"convenience"}},"geometry":{"type":"Point","coordinates":[13.0194946,55.5824903]}},{"type":"Feature","properties":{"id":2014053455,"osm_type":"node","name":"Nallens Livs","category":"grocery","tags":{"name":"Nallens Livs","opening_hours":"Mo-Fr 08:00-22:00; Sa 09:00-22:00; Su 09:00-21:00","payment:cash":"yes","shop":"convenience","source":"local_knowledge"}},"geometry":{"type":"Point","coordinates":[13.0143555,55.5831361]}},{"type":"Feature","properties":{"id":2266100147,"osm_type":"node","name":"Ronnebygatans Ekolivs","category":"grocery","tags":{"addr:city":"Malmö","addr:country":"SE","addr:housenumber":"1A","addr:postcode":"21158","addr:street":"Ronnebygatan","check_date:opening_hours":"2025-04-24","diet:vegan":"yes","diet:vegetarian":"only","facebook":"https://www.facebook.com/ekolivs","name":"Ronnebygatans Ekolivs","opening_hours":"Tu-Fr 15:00-18:00","operator":"föreningen Ronnebygatans ekologiska livs och boklåda","organic":"only","payment:cash":"yes","payment:credit_cards":"yes","payment:swish":"yes","shop":"convenience","website":"https://www.ekolivs.se/"}},"geometry":{"type":"Point","coordinates":[13.0155049,55.5955181]}},{"type":"Feature","properties":{"id":2266100439,"osm_type":"node","name":"Mathyllan","category":"grocery","tags":{"name":"Mathyllan","payment:cash":"yes","shop":"convenience"}},"geometry":{"type":"Point","coordinates":[13.0165617,55.5944754]}},{"type":"Feature","properties":{"id":2308779876,"osm_type":"node","name":"Livs & café","category":"grocery","tags":{"name":"Livs & café","shop":"convenience","wheelchair":"limited"}},"geometry":{"type":"Point","coordinates":[12.9989686,55.612282]}},{"type":"Feature","properties":{"id":2372989960,"osm_type":"node","name":"Mido Quality","category":"grocery","tags":{"check_date":"2024-05-24","name":"Mido Quality","opening_hours":"Su-Th 06:00-01:00, Fr,Sa 00:00-24:00","payment:cash":"yes","shop":"convenience"}},"geometry":{"type":"Point","coordinates":[13.0195016,55.5926558]}},{"type":"Feature","properties":{"id":2377437261,"osm_type":"node","name":"Coop Västra Hamnen","category":"grocery","tags":{"addr:city":"Malmö","addr:country":"SE","addr:housenumber":"75","addr:postcode":"211 75","addr:street":"Östra Varvsgatan","brand":"Coop (Sweden)","brand:wikidata":"Q15229319","brand:wikipedia":"sv:Coop Butiker & Stormarknader","check_date":"2023-11-03","name":"Coop Västra Hamnen","opening_hours":"Mo-Fr 08:00-20:00; Sa 08:00-20:00; Su 10:00-20:00","payment:cash":"yes","payment:mastercard":"yes","payment:visa":"yes","phone":"010-7463710","shop":"supermarket","wheelchair":"yes"}},"geometry":{"type":"Point","coordinates":[12.9838179,55.6156836]}},{"type":"Feature","properties":{"id":2403236111,"osm_type":"node","name":"Hemköp Malmö Triangeln","category":"grocery","tags":{"addr:city":"Malmö","addr:country":"SE","addr:housenumber":"58","addr:postcode":"211 43","addr:street":"Södra Förstadsgatan","brand":"Hemköp","brand:wikidata":"Q10521746","brand:wikipedia":"sv:Hemköp","check_date":"2024-05-15","name":"Hemköp Malmö Triangeln","opening_hours":"Mo-Su 07:00-23:00","phone":"040-103477","post_office":"post_partner","post_office:brand":"PostNord","shop":"supermarket","website":"https://www.hemkop.se/butik/4247"}},"geometry":{"type":"Point","coordinates":[13.0034464,55.5955238]}},{"type":"Feature","properties":{"id":2403601384,"osm_type":"node","name":"7-Eleven","category":"grocery","tags":{"brand":"7-Eleven","brand:wikidata":"Q259340","check_date:opening_hours":"2024-05-15","name":"7-Eleven","opening_hours":"Mo-Fr 05:15-23:00; Sa 06:00-23:00; Su 07:00-23:00","shop":"convenience"}},"geometry":{"type":"Point","coordinates":[12.9999785,55.594312]}},{"type":"Feature","properties":{"id":2408182195,"osm_type":"node","name":"FOOD-Land","category":"grocery","tags":{"addr:city":"Malmö","addr:country":"SE","addr:housenumber":"2A","addr:postcode":"21218","addr:street":"Östervärnsgatan","entrance":"yes","name":"FOOD-Land","shop":"convenience","wheelchair":"no"}},"geometry":{"type":"Point","coordinates":[13.0251931,55.605284]}},{"type":"Feature","properties":{"id":2627259334,"osm_type":"node","name":"Ziko i Malmö","category":"grocery","tags":{"addr:city":"Malmö","addr:postcode":"212 18","addr:street":"Lundavägen","name":"Ziko i Malmö","shop":"convenience"}},"geometry":{"type":"Point","coordinates":[13.0265455,55.6066254]}},{"type":"Feature","properties":{"id":2747390883,"osm_type":"node","name":"7-Eleven","category":"grocery","tags":{"brand":"7-Eleven","brand:wikidata":"Q259340","brand:wikipedia":"sv:7-Eleven","name":"7-Eleven","opening_hours":"Mo-Th 06:00-00:00; Fr-Sa 06:00-03:00; Su 07:00-00:00","shop":"convenience","wheelchair":"limited"}},"geometry":{"type":"Point","coordinates":[13.0008532,55.6087867]}},{"type":"Feature","properties":{"id":2747390898,"osm_type":"node","name":"Direkten","category":"grocery","tags":{"addr:country":"SE","addr:housenumber":"95D","addr:street":"Södra Förstadsgatan","branch":"Södervärn","brand":"Direkten","brand:wikidata":"Q105693281","check_date":"2023-08-11","name":"Direkten","opening_hours":"Mo-Fr 10:00-22:00; Sa-Su 12:00-22:00","payment:credit_cards":"yes","payment:debit_cards":"yes","payment:mastercard":"yes","payment:visa":"yes","shop":"convenience"}},"geometry":{"type":"Point","coordinates":[13.0052667,55.5899459]}},{"type":"Feature","properties":{"id":2829498054,"osm_type":"node","name":"Centrumgrossisten i Malmö AB","category":"grocery","tags":{"addr:city":"Malmö","addr:country":"SE","addr:housenumber":"2","addr:street":"Öckerögatan","entrance":"yes","name":"Centrumgrossisten i Malmö AB","shop":"greengrocer"}},"geometry":{"type":"Point","coordinates":[13.0341726,55.6168436]}},{"type":"Feature","properties":{"id":2834275204,"osm_type":"node","name":"Matkassen i Segevång AB","category":"grocery","tags":{"addr:city":"Malmö","addr:country":"SE","addr:housenumber":"70B","addr:postcode":"21227","addr:street":"Kronetorpsgatan","name":"Matkassen i Segevång AB","shop":"convenience"}},"geometry":{"type":"Point","coordinates":[13.0546703,55.6155021]}},{"type":"Feature","properties":{"id":2836403400,"osm_type":"node","name":"ICA Kvantum Malmborgs Caroli","category":"grocery","tags":{"addr:city":"Malmö","addr:country":"SE","addr:housenumber":"59","addr:postcode":"21127","addr:street":"Stora Kvarngatan","brand":"ICA Kvantum","brand:wikidata":"Q1663776","brand:wikipedia":"sv:Ica","check_date:opening_hours":"2025-02-28","email":"per.tengberg@kvantum.ica.se","name":"ICA Kvantum Malmborgs Caroli","opening_hours":"Mo-Fr 07:00-22:00; Sa-Su 08:00-22:00","phone":"+46.40103300","shop":"supermarket","website":"https://www.ica.se/butiker/kvantum/malmo/ica-kvantum-malmborgs-caroli-1004490/"}},"geometry":{"type":"Point","coordinates":[13.0078761,55.6062325]}},{"type":"Feature","properties":{"id":2840594895,"osm_type":"node","name":"Family Livs","category":"grocery","tags":{"addr:city":"Malmö","addr:country":"SE","addr:housenumber":"2","addr:postcode":"21224","addr:street":"Östra Fäladsgatan","entrance":"yes","name":"Family Livs","shop":"convenience"}},"geometry":{"type":"Point","coordinates":[13.0475024,55.6158816]}},{"type":"Feature","properties":{"id":3139894480,"osm_type":"node","name":"Willys","category":"grocery","tags":{"addr:city":"Malmö","brand":"Willys","brand:wikidata":"Q10720214","brand:wikipedia":"sv:Willys","name":"Willys","opening_hours":"Mo-Fr 07:00-21:00; Sa-Su 08:00-21:00","payment:cash":"yes","shop":"supermarket"}},"geometry":{"type":"Point","coordinates":[13.0053355,55.5825304]}},{"type":"Feature","properties":{"id":3139894499,"osm_type":"node","name":"ICA Malmborgs","category":"grocery","tags":{"addr:city":"Malmö","addr:housename":"Mobilia","brand":"ICA Kvantum","brand:wikidata":"Q1663776","brand:wikipedia":"sv:Ica","name":"ICA Malmborgs","shop":"supermarket","wheelchair":"yes"}},"geometry":{"type":"Point","coordinates":[13.0046755,55.5799059]}},{"type":"Feature","properties":{"id":3139895240,"osm_type":"node","name":"Blekingsborgs Livs","category":"grocery","tags":{"addr:housename":"Blekingsborg","name":"Blekingsborgs Livs","shop":"convenience"}},"geometry":{"type":"Point","coordinates":[13.0013254,55.5779091]}},{"type":"Feature","properties":{"id":3146021788,"osm_type":"node","name":"Dalaplans Livs","category":"grocery","tags":{"addr:city":"Malmö","addr:street":"Dalaplan","check_date":"2025-04-12","check_date:opening_hours":"2025-04-12","name":"Dalaplans Livs","opening_hours":"Mo-Fr 08:00-23:00; Sa 11:00-22:00; Su 11:00-19:00","shop":"convenience"}},"geometry":{"type":"Point","coordinates":[13.0067597,55.5848339]}},{"type":"Feature","properties":{"id":3246610559,"osm_type":"node","name":"WiLLY:S","category":"grocery","tags":{"addr:city":"Malmö","addr:postcode":"21532","brand":"Willys","brand:wikidata":"Q10720214","brand:wikipedia":"sv:Willys","name":"WiLLY:S","opening_hours":"Mo-Su 08:00-22:00","payment:american_express":"yes","payment:cash":"yes","payment:maestro":"yes","payment:mastercard":"yes","payment:visa":"yes","phone":"+46 40-636 73 20","shop":"supermarket","source":"survey","website":"https://www.willys.se/butik/2244","wheelchair":"limited"}},"geometry":{"type":"Point","coordinates":[12.9728113,55.564548]}},{"type":"Feature","properties":{"id":3369323316,"osm_type":"node","name":"Time","category":"grocery","tags":{"name":"Time","shop":"convenience"}},"geometry":{"type":"Point","coordinates":[13.0037907,55.6026379]}},{"type":"Feature","properties":{"id":3382696348,"osm_type":"node","name":"Toppen Livs","category":"grocery","tags":{"addr:country":"SE","addr:housenumber":"9","addr:postcode":"21218","addr:street":"Lundavägen","alt_name":"Toppenlivs","entrance":"yes","name":"Toppen Livs","opening_hours":"09:00-21:00","shop":"convenience"}},"geometry":{"type":"Point","coordinates":[13.0258171,55.6062724]}},{"type":"Feature","properties":{"id":3402696467,"osm_type":"node","name":"Direkten","category":"grocery","tags":{"brand":"Direkten","brand:wikidata":"Q105693281","name":"Direkten","opening_hours":"Mo-Fr 08:30-21:00; Sa 12:00-21:00; Su 12:00-19:00","shop":"convenience"}},"geometry":{"type":"Point","coordinates":[13.005749,55.607813]}},{"type":"Feature","properties":{"id":3440575124,"osm_type":"node","name":"ICA Supermarket Bellevuegården","category":"grocery","tags":{"addr:city":"Malmö","addr:country":"SE","addr:housenumber":"3","addr:postcode":"21766","addr:street":"Svansjögatan","brand":"ICA Supermarket","brand:wikidata":"Q1663776","brand:wikipedia":"sv:Ica","email":"urban.larsson@supermarket.ica.se","name":"ICA Supermarket Bellevuegården","phone":"+46 40 130910","shop":"supermarket","website":"https://www.ica.se/butiker/supermarket/malmo/ica-supermarket-bellevuegarden-2763/start/","wheelchair":"yes"}},"geometry":{"type":"Point","coordinates":[12.9762056,55.5807856]}},{"type":"Feature","properties":{"id":3470842011,"osm_type":"node","name":"7-Eleven","category":"grocery","tags":{"brand":"7-Eleven","brand:wikidata":"Q259340","brand:wikipedia":"sv:7-Eleven","name":"7-Eleven","opening_hours":"Mo-Th 07:00-20:00, Fr 07:00-00:30, Sa 10:00-24:00, Su 10:00-17:00","shop":"convenience"}},"geometry":{"type":"Point","coordinates":[13.00325,55.6045355]}},{"type":"Feature","properties":{"id":3473354982,"osm_type":"node","name":"Malmö Livs","category":"grocery","tags":{"check_date":"2024-07-08","name":"Malmö Livs","opening_hours":"Mo-Fr 06:00-24:00, Sa 07:00-01:00, Su 08:00-24:00","payment:cash":"yes","shop":"convenience"}},"geometry":{"type":"Point","coordinates":[13.016397,55.5894276]}},{"type":"Feature","properties":{"id":3486039917,"osm_type":"node","name":"Coop Nobeltorget","category":"grocery","tags":{"addr:city":"Malmö","addr:country":"SE","addr:housenumber":"68","addr:postcode":"21437","addr:street":"Amiralsgatan","brand":"Coop","brand:wikidata":"Q106684510","check_date":"2024-05-24","name":"Coop Nobeltorget","opening_hours":"Mo-Fr 07:00-23:00","operator":"Coop","payment:cash":"yes","shop":"supermarket"}},"geometry":{"type":"Point","coordinates":[13.0199935,55.592334]}},{"type":"Feature","properties":{"id":3486091607,"osm_type":"node","name":"ICA Nära","category":"grocery","tags":{"addr:city":"Malmö","addr:country":"SE","addr:housenumber":"96","addr:postcode":"21437","addr:street":"Amiralsgatan","brand":"ICA Nära","brand:wikidata":"Q1663776","brand:wikipedia":"sv:Ica","name":"ICA Nära","opening_hours":"Mo-Su 07:00-22:00","operator":"ICA","payment:cash":"yes","payment:contactless":"yes","payment:credit_cards":"yes","phone":"+46 40 97 06 65","shop":"supermarket"}},"geometry":{"type":"Point","coordinates":[13.0275984,55.5906388]}},{"type":"Feature","properties":{"id":3678677042,"osm_type":"node","name":"Polonus","category":"grocery","tags":{"check_date":"2025-08-15","cuisine":"polish","language:pl":"yes","name":"Polonus","opening_hours":"Mo-Fr 10:00-18:00; Sa 10:00-16:00","payment:cash":"yes","shop":"supermarket"}},"geometry":{"type":"Point","coordinates":[13.0053101,55.5916777]}},{"type":"Feature","properties":{"id":3693537008,"osm_type":"node","name":"Matix Livs","category":"grocery","tags":{"name":"Matix Livs","shop":"convenience"}},"geometry":{"type":"Point","coordinates":[13.0731011,55.6325381]}},{"type":"Feature","properties":{"id":3744635802,"osm_type":"node","name":"Lugnets livs","category":"grocery","tags":{"name":"Lugnets livs","opening_hours":"Mo-Fr 08:00-21:00; Sa 09:00-21:00; Su 10:00-20:00","shop":"convenience"}},"geometry":{"type":"Point","coordinates":[13.0047378,55.6001136]}},{"type":"Feature","properties":{"id":3777446769,"osm_type":"node","name":"ICA Nära","category":"grocery","tags":{"brand":"ICA Nära","brand:wikidata":"Q1663776","name":"ICA Nära","operator":"ICA","shop":"supermarket"}},"geometry":{"type":"Point","coordinates":[12.9217197,55.5820772]}},{"type":"Feature","properties":{"id":3786483532,"osm_type":"node","name":"ICA Nära","category":"grocery","tags":{"brand":"ICA Nära","brand:wikidata":"Q1663776","brand:wikipedia":"sv:Ica","name":"ICA Nära","opening_hours":"08:00-22:00","operator":"ICA","shop":"supermarket"}},"geometry":{"type":"Point","coordinates":[12.9894131,55.5621943]}},{"type":"Feature","properties":{"id":3786483534,"osm_type":"node","name":"Fosie livs","category":"grocery","tags":{"name":"Fosie livs","shop":"convenience"}},"geometry":{"type":"Point","coordinates":[13.0182552,55.5587762]}},{"type":"Feature","properties":{"id":3786516975,"osm_type":"node","name":"Fiskehoddorna","category":"grocery","tags":{"amenity":"marketplace","check_date:opening_hours":"2025-02-28","name":"Fiskehoddorna","opening_hours":"Tu-Sa 06:30-13:00","wikidata":"Q10495778","wikipedia":"sv:Fiskehoddorna"}},"geometry":{"type":"Point","coordinates":[12.9837937,55.605212]}},{"type":"Feature","properties":{"id":4020124889,"osm_type":"node","name":"Alm livs","category":"grocery","tags":{"name":"Alm livs","shop":"convenience"}},"geometry":{"type":"Point","coordinates":[13.0237745,55.5767343]}},{"type":"Feature","properties":{"id":4037719313,"osm_type":"node","name":"Värnhems hörna","category":"grocery","tags":{"name":"Värnhems hörna","shop":"convenience"}},"geometry":{"type":"Point","coordinates":[13.0178028,55.6071279]}},{"type":"Feature","properties":{"id":4217517387,"osm_type":"node","name":"Doora livs","category":"grocery","tags":{"name":"Doora livs","shop":"convenience"}},"geometry":{"type":"Point","coordinates":[12.9996361,55.600685]}},{"type":"Feature","properties":{"id":4244066569,"osm_type":"node","name":"Handlar'n","category":"grocery","tags":{"name":"Handlar'n","shop":"convenience"}},"geometry":{"type":"Point","coordinates":[12.9325132,55.5582317]}},{"type":"Feature","properties":{"id":4248067503,"osm_type":"node","name":"Coop","category":"grocery","tags":{"branch":"Kirseberg","brand":"Coop","brand:wikidata":"Q106684510","brand:wikipedia":"sv:Coop Butiker & Stormarknader","name":"Coop","opening_hours":"Mo-Su 08:00-22:00","shop":"supermarket"}},"geometry":{"type":"Point","coordinates":[13.0361914,55.6087711]}},{"type":"Feature","properties":{"id":4271147464,"osm_type":"node","name":"Euro mat","category":"grocery","tags":{"name":"Euro mat","payment:cash":"yes","shop":"convenience"}},"geometry":{"type":"Point","coordinates":[13.0254038,55.5803737]}},{"type":"Feature","properties":{"id":4285960590,"osm_type":"node","name":"Indo Pak General Store","category":"grocery","tags":{"addr:city":"Malmö","addr:country":"SE","addr:housenumber":"8","addr:postcode":"21430","addr:street":"Ystadvägen","check_date:opening_hours":"2023-09-20","cuisine":"indian;pakistan;african","name":"Indo Pak General Store","opening_hours:signed":"no","payment:cash":"yes","shop":"supermarket"}},"geometry":{"type":"Point","coordinates":[13.0075753,55.5841516]}},{"type":"Feature","properties":{"id":4355299090,"osm_type":"node","name":"Lidl","category":"grocery","tags":{"brand":"Lidl","brand:wikidata":"Q151954","brand:wikipedia":"sv:Lidl","check_date":"2025-06-21","name":"Lidl","opening_hours":"Mo-Fr 09:00-21:00; Sa, Su 10:00-19:00","shop":"supermarket"}},"geometry":{"type":"Point","coordinates":[13.0052467,55.5962134]}},{"type":"Feature","properties":{"id":4356741063,"osm_type":"node","name":"Frukthuset","category":"grocery","tags":{"name":"Frukthuset","shop":"greengrocer"}},"geometry":{"type":"Point","coordinates":[13.0234096,55.5771283]}},{"type":"Feature","properties":{"id":4356741075,"osm_type":"node","name":"Kabul kött/bröd/livsmedel","category":"grocery","tags":{"cuisine":"afghan","name":"Kabul kött/bröd/livsmedel","shop":"convenience"}},"geometry":{"type":"Point","coordinates":[13.0228758,55.5767341]}},{"type":"Feature","properties":{"id":4370633356,"osm_type":"node","name":"Najlalivs","category":"grocery","tags":{"addr:street":"Lorensborgsgatan","name":"Najlalivs","opening_hours":"Mo-Su 08:00-22:00","shop":"supermarket"}},"geometry":{"type":"Point","coordinates":[12.9822131,55.5886368]}},{"type":"Feature","properties":{"id":4370635844,"osm_type":"node","name":"ICA Nära Lorensborg","category":"grocery","tags":{"addr:street":"Hallingsgatan","brand":"ICA Nära","brand:wikidata":"Q1663776","brand:wikipedia":"sv:Ica","name":"ICA Nära Lorensborg","opening_hours":"Mo-Su 08:00-20:00","shop":"supermarket","website":"https://www.ica.se/butiker/nara/malmo/ica-nara-lorensborg-17442/start/"}},"geometry":{"type":"Point","coordinates":[12.9826643,55.5863181]}},{"type":"Feature","properties":{"id":4396309489,"osm_type":"node","name":"99:ans Livs","category":"grocery","tags":{"check_date":"2024-07-08","name":"99:ans Livs","name:en":"99:ans Livs","name:sv":"99:ans Livs","opening_hours":"Mo-Fr 08:00-20:00; Sa-Su 09:00-19:00","payment:cash":"yes","shop":"supermarket"}},"geometry":{"type":"Point","coordinates":[13.0259886,55.5933491]}},{"type":"Feature","properties":{"id":4450105111,"osm_type":"node","name":"Bagdadi livs","category":"grocery","tags":{"name":"Bagdadi livs","shop":"convenience"}},"geometry":{"type":"Point","coordinates":[13.0250756,55.5777746]}},{"type":"Feature","properties":{"id":4450105112,"osm_type":"node","name":"Redo livs","category":"grocery","tags":{"name":"Redo livs","shop":"convenience"}},"geometry":{"type":"Point","coordinates":[13.0252656,55.5777587]}},{"type":"Feature","properties":{"id":4496973301,"osm_type":"node","name":"FG Hallen","category":"grocery","tags":{"name":"FG Hallen","shop":"greengrocer"}},"geometry":{"type":"Point","coordinates":[12.9906046,55.6079226]}},{"type":"Feature","properties":{"id":4523457089,"osm_type":"node","name":"Orientfood","category":"grocery","tags":{"addr:country":"SE","addr:housenumber":"5","addr:street":"Norra Grängesbergsgatan","cuisine":"middle_eastern","name":"Orientfood","name:en":"Orientfood","name:sv":"Orientfood","opening_hours":"Mo-Fr 08:00-20:00; Sa,Su 09:00-20:00","payment:cash":"yes","shop":"supermarket"}},"geometry":{"type":"Point","coordinates":[13.0268725,55.5877347]}},{"type":"Feature","properties":{"id":4708097474,"osm_type":"node","name":"ICA Supermarket Värnhem","category":"grocery","tags":{"addr:city":"Malmö","addr:country":"SE","addr:housenumber":"50","addr:postcode":"212 12","addr:street":"Östra Förstadsgatan","branch":"Värnhem","brand":"ICA Supermarket","brand:wikidata":"Q1663776","brand:wikipedia":"sv:Ica","contact:email":"robert.strand@supermarket.ica.se","contact:phone":"+46 40-10 12 30","level":"0","name":"ICA Supermarket Värnhem","opening_hours":"Mo-Su 07:00-23:00","operator":"Matbutiken i Värnhem AB","payment:cash":"yes","payment:mastercard":"yes","payment:visa":"yes","shop":"supermarket","website":"https://www.ica.se/butiker/supermarket/malmo/ica-supermarket-varnhem-15976/start/","wheelchair":"yes"}},"geometry":{"type":"Point","coordinates":[13.0222446,55.6063096]}},{"type":"Feature","properties":{"id":4788911621,"osm_type":"node","name":"ICA Supermarket Hansa","category":"grocery","tags":{"brand":"ICA Supermarket","brand:wikidata":"Q1663776","brand:wikipedia":"sv:Ica","check_date:opening_hours":"2023-07-12","name":"ICA Supermarket Hansa","name:sv":"ICA Supermarket Hansa","opening_hours":"Mo-Su 08:00-22:00","payment:cash":"yes","shop":"supermarket","wheelchair":"yes"}},"geometry":{"type":"Point","coordinates":[13.0036916,55.6034004]}},{"type":"Feature","properties":{"id":5378110864,"osm_type":"node","name":"Coop Slottsstaden","category":"grocery","tags":{"addr:city":"Malmö","addr:country":"SE","addr:housenumber":"70","addr:postcode":"217 51","addr:street":"Regementsgatan","brand":"Coop","brand:wikidata":"Q106684510","name":"Coop Slottsstaden","opening_hours":"Mo-Su 07:00-22:00","shop":"supermarket"}},"geometry":{"type":"Point","coordinates":[12.9794073,55.598292]}},{"type":"Feature","properties":{"id":5409509621,"osm_type":"node","name":"Lidl","category":"grocery","tags":{"addr:city":"Malmö","addr:country":"SE","addr:housenumber":"2","addr:postcode":"21773","addr:street":"Torupsgatan","brand":"Lidl","brand:wikidata":"Q151954","brand:wikipedia":"sv:Lidl","name":"Lidl","name:en":"Lidl","opening_hours":"Mo-Fr 08:00-21:00; Sa 08:00-19:00; Su 09:00-19:00","payment:cash":"yes","payment:credit_cards":"yes","payment:maestro":"yes","payment:mastercard":"yes","payment:visa":"yes","shop":"supermarket","website":"https://www.lidl.se/"}},"geometry":{"type":"Point","coordinates":[12.9661877,55.5935762]}},{"type":"Feature","properties":{"id":5775943889,"osm_type":"node","name":"Frukt & Livs","category":"grocery","tags":{"name":"Frukt & Livs","shop":"convenience"}},"geometry":{"type":"Point","coordinates":[13.0205798,55.5736116]}},{"type":"Feature","properties":{"id":5780568113,"osm_type":"node","name":"","category":"grocery","tags":{"shop":"convenience"}},"geometry":{"type":"Point","coordinates":[13.0542979,55.582085]}},{"type":"Feature","properties":{"id":5780568114,"osm_type":"node","name":"","category":"grocery","tags":{"shop":"convenience"}},"geometry":{"type":"Point","coordinates":[13.0536327,55.5817347]}},{"type":"Feature","properties":{"id":5780568120,"osm_type":"node","name":"","category":"grocery","tags":{"shop":"convenience"}},"geometry":{"type":"Point","coordinates":[13.0528495,55.582376]}},{"type":"Feature","properties":{"id":5834378330,"osm_type":"node","name":"7-Eleven","category":"grocery","tags":{"brand":"7-Eleven","brand:wikidata":"Q259340","brand:wikipedia":"sv:7-Eleven","check_date":"2025-02-17","check_date:opening_hours":"2024-07-07","level":"0","name":"7-Eleven","opening_hours:signed":"no","payment:cash":"no","payment:mastercard":"yes","payment:visa":"yes","self_checkout":"yes","shop":"convenience","wheelchair":"yes"}},"geometry":{"type":"Point","coordinates":[13.0000166,55.6096197]}},{"type":"Feature","properties":{"id":6250391760,"osm_type":"node","name":"Maxi ICA Stormarknad","category":"grocery","tags":{"branch":"Burlöv","brand":"Maxi ICA Stormarknad","brand:wikidata":"Q1663776","brand:wikipedia":"sv:Ica","contact:phone":"+46 40-10 09 00","contact:website":"https://www.ica.se/butiker/maxi/burlov/maxi-ica-stormarknad-burlov-1003428/","name":"Maxi ICA Stormarknad","opening_hours":"Mo-Su 07:00-22:00","payment:cash":"yes","payment:mastercard":"yes","payment:visa":"yes","shop":"supermarket","short_name":"ICA Maxi","start_date":"2019-08-21"}},"geometry":{"type":"Point","coordinates":[13.0847657,55.6390456]}},{"type":"Feature","properties":{"id":6451530885,"osm_type":"node","name":"Lidl","category":"grocery","tags":{"branch":"Caroli","brand":"Lidl","brand:wikidata":"Q151954","brand:wikipedia":"sv:Lidl","check_date:opening_hours":"2025-12-31","name":"Lidl","opening_hours":"Mo-Fr 08:00-21:00; Sa 08:00-19:00; Su 09:00-19:00","shop":"supermarket","wheelchair":"yes"}},"geometry":{"type":"Point","coordinates":[13.0075015,55.6065806]}},{"type":"Feature","properties":{"id":7012705909,"osm_type":"node","name":"X:-tra","category":"grocery","tags":{"addr:city":"Malmö","addr:housenumber":"44","addr:postcode":"21221","addr:street":"Vattenverksvägen","branch":"Vattenverksvägen","name":"X:-tra","opening_hours":"Mo-Fr 07:00-21:00; Sa 08:00-21:00; Su 09:00-21:00","phone":"+46 10 7463010","shop":"supermarket","website":"https://x-tra.se/butiker/kirseberg"}},"geometry":{"type":"Point","coordinates":[13.0440089,55.6091644]}},{"type":"Feature","properties":{"id":7038193632,"osm_type":"node","name":"Coop","category":"grocery","tags":{"addr:city":"Limhamn","addr:country":"SE","addr:housenumber":"3C","addr:postcode":"216 47","addr:street":"Övägen","brand":"Coop (Sweden)","brand:wikidata":"Q15229319","name":"Coop","opening_hours":"Mo-Su 07:00-22:00","shop":"supermarket","wheelchair":"yes"}},"geometry":{"type":"Point","coordinates":[12.9270269,55.5873503]}},{"type":"Feature","properties":{"id":7095824521,"osm_type":"node","name":"Fosie Livs","category":"grocery","tags":{"name":"Fosie Livs","shop":"convenience"}},"geometry":{"type":"Point","coordinates":[13.0086508,55.5805678]}},{"type":"Feature","properties":{"id":7114802932,"osm_type":"node","name":"Evelinas Livs","category":"grocery","tags":{"addr:city":"Limhamn","addr:country":"SE","addr:housenumber":"51","addr:postcode":"21615","addr:street":"Västanväg","name":"Evelinas Livs","shop":"convenience"}},"geometry":{"type":"Point","coordinates":[12.9435908,55.5842619]}},{"type":"Feature","properties":{"id":7283161484,"osm_type":"node","name":"Iskander","category":"grocery","tags":{"check_date":"2024-07-08","cuisine":"middle_eastern","name":"Iskander","opening_hours":"Mo-Sa 10:00-21:00; Su 11:00-21:00","payment:cash":"yes","shop":"convenience"}},"geometry":{"type":"Point","coordinates":[13.0144229,55.5908141]}},{"type":"Feature","properties":{"id":7283168687,"osm_type":"node","name":"Mathallen","category":"grocery","tags":{"addr:city":"Malmö","addr:country":"SE","addr:housenumber":"59","addr:postcode":"214 48","addr:street":"Lantmannagatan","check_date":"2024-05-10","cuisine":"middle_eastern;turkish","name":"Mathallen","old_name":"Özen Allfrukt","opening_hours":"Mo-Su,PH 07:00-22:00","payment:cash":"yes","payment:mastercard":"yes","payment:visa":"yes","shop":"supermarket","wheelchair":"yes"}},"geometry":{"type":"Point","coordinates":[13.0189644,55.5808909]}},{"type":"Feature","properties":{"id":7283438900,"osm_type":"node","name":"Nassim Livs Medel","category":"grocery","tags":{"addr:city":"Malmö","addr:country":"SE","addr:housenumber":"10","addr:postcode":"21423","addr:street":"Simrishamnsgatan","cuisine":"persian","name":"Nassim Livs Medel","shop":"convenience","wheelchair":"no"}},"geometry":{"type":"Point","coordinates":[13.0090277,55.5918212]}},{"type":"Feature","properties":{"id":7283438901,"osm_type":"node","name":"Öst Asien Livs","category":"grocery","tags":{"addr:city":"Malmö","addr:country":"SE","addr:housenumber":"12","addr:postcode":"21423","addr:street":"Simrishamnsgatan","cuisine":"asian","name":"Öst Asien Livs","opening_hours":"Mo-Fr 09:00-19:00; Sa 09:00-16:00","payment:cash":"yes","payment:credit_cards":"yes","shop":"convenience"}},"geometry":{"type":"Point","coordinates":[13.009421,55.5917706]}},{"type":"Feature","properties":{"id":7283438904,"osm_type":"node","name":"Kina Center Livs","category":"grocery","tags":{"addr:city":"Malmö","addr:housenumber":"7","addr:postcode":"21424","addr:street":"Möllevångstorget","check_date":"2024-05-24","cuisine":"asian","name":"Kina Center Livs","opening_hours":"Mo-Fr 09:00-18:00; Sa 09:00-16:00","payment:cash":"yes","payment:credit_cards":"yes","phone":"+4640924380","shop":"convenience","wheelchair":"no"}},"geometry":{"type":"Point","coordinates":[13.0081455,55.5911855]}},{"type":"Feature","properties":{"id":7283438911,"osm_type":"node","name":"Zara livs","category":"grocery","tags":{"name":"Zara livs","opening_hours":"Mo-Th 07:00-23:00; Fr 07:00-24:00, Sa 08:00-24:00, Su 07:00-23:00","payment:cash":"yes","shop":"convenience"}},"geometry":{"type":"Point","coordinates":[13.0216372,55.5944224]}},{"type":"Feature","properties":{"id":7284339390,"osm_type":"node","name":"Tehran Supermarket","category":"grocery","tags":{"addr:city":"Malmö","addr:country":"SE","addr:housenumber":"9A","addr:postcode":"21424","addr:street":"Ystadsgatan","cuisine":"persian","name":"Tehran Supermarket","opening_hours":"Mo-Fr 08:00-19:00; Sa 08:00-18:00","payment:cash":"yes","shop":"convenience"}},"geometry":{"type":"Point","coordinates":[13.0089734,55.5910317]}},{"type":"Feature","properties":{"id":7294162868,"osm_type":"node","name":"Mini Sweet Livs","category":"grocery","tags":{"addr:city":"Malmö","addr:country":"SE","addr:housenumber":"41","addr:postcode":"214 22","addr:street":"Södra Skolgatan","name":"Mini Sweet Livs","payment:cash":"yes","shop":"convenience"}},"geometry":{"type":"Point","coordinates":[13.0063809,55.5927656]}},{"type":"Feature","properties":{"id":7294162869,"osm_type":"node","name":"Afghan Shamshad Livs","category":"grocery","tags":{"addr:city":"Malmö","addr:country":"SE","addr:housenumber":"35","addr:postcode":"21420","addr:street":"Möllevångsgatan","check_date":"2025-06-20","name":"Afghan Shamshad Livs","payment:cash":"yes","shop":"convenience"}},"geometry":{"type":"Point","coordinates":[13.007059,55.5932735]}},{"type":"Feature","properties":{"id":7510191853,"osm_type":"node","name":"Rötter","category":"grocery","tags":{"addr:city":"Malmö","addr:country":"SE","addr:housenumber":"30","addr:postcode":"21152","addr:street":"Föreningsgatan","name":"Rötter","opening_hours":"Mo-Fr 11:00-18:00","shop":"greengrocer","website":"http://www.rötter.com/html/Valkommen.html"}},"geometry":{"type":"Point","coordinates":[13.0098083,55.5993009]}},{"type":"Feature","properties":{"id":8084187846,"osm_type":"node","name":"Hamurabi Livs","category":"grocery","tags":{"addr:city":"Malmö","addr:country":"SE","addr:housenumber":"4","addr:street":"Ystadsgatan","name":"Hamurabi Livs","shop":"convenience","wheelchair":"no"}},"geometry":{"type":"Point","coordinates":[13.009547,55.5911724]}},{"type":"Feature","properties":{"id":8084187848,"osm_type":"node","name":"Möllans livs","category":"grocery","tags":{"addr:city":"Malmö","addr:country":"SE","addr:housenumber":"6","addr:street":"Ystadsgatan","name":"Möllans livs","shop":"convenience","wheelchair":"no"}},"geometry":{"type":"Point","coordinates":[13.0097419,55.5911373]}},{"type":"Feature","properties":{"id":8122329551,"osm_type":"node","name":"Sham livs","category":"grocery","tags":{"addr:city":"Malmö","addr:country":"SE","addr:housenumber":"10","addr:postcode":"21424","addr:street":"Ystadsgatan","addr:unit":"A","name":"Sham livs","shop":"convenience","wheelchair":"no"}},"geometry":{"type":"Point","coordinates":[13.0104867,55.5909765]}},{"type":"Feature","properties":{"id":9131629088,"osm_type":"node","name":"Desi Livs","category":"grocery","tags":{"addr:city":"Malmö","addr:country":"SE","addr:housenumber":"34","addr:postcode":"21420","addr:street":"Möllevångsgatan","check_date":"2025-06-20","cuisine":"indian;pakistani","name":"Desi Livs","shop":"convenience"}},"geometry":{"type":"Point","coordinates":[13.0060183,55.5935709]}},{"type":"Feature","properties":{"id":9142564356,"osm_type":"node","name":"Baraban","category":"grocery","tags":{"addr:city":"Malmö","addr:country":"SE","addr:housenumber":"13","addr:postcode":"21131","addr:street":"Östra Förstadsgatan","check_date":"2024-11-16","cuisine":"russian;ukrainian","name":"Baraban","opening_hours":"Mo,We-Fr 11:00-18:00; Sa 11:00-16:00","phone":"+46703821551","shop":"supermarket","website":"https://baraban.se"}},"geometry":{"type":"Point","coordinates":[13.0157402,55.6076525]}},{"type":"Feature","properties":{"id":9227654102,"osm_type":"node","name":"","category":"grocery","tags":{"amenity":"marketplace"}},"geometry":{"type":"Point","coordinates":[12.9713508,55.59809]}},{"type":"Feature","properties":{"id":9449801300,"osm_type":"node","name":"Dammfri Handlaren","category":"grocery","tags":{"addr:city":"Malmö","addr:country":"SE","addr:housenumber":"22","addr:postcode":"21746","addr:street":"Ribevägen","name":"Dammfri Handlaren","opening_hours":"Mo-Sa 08:00-20:00; Su 09:00-20:00","payment:apple_pay":"yes","payment:cards":"yes","payment:cash":"yes","payment:coins":"yes","payment:contactless":"yes","payment:credit_cards":"yes","payment:debit_cards":"yes","payment:google_pay":"yes","payment:mastercard":"yes","payment:notes":"yes","payment:visa":"yes","payment:visa_debit":"yes","payment:visa_electron":"yes","shop":"convenience","toilets":"no"}},"geometry":{"type":"Point","coordinates":[12.9781111,55.5912487]}},{"type":"Feature","properties":{"id":9949485306,"osm_type":"node","name":"Willys Hemma","category":"grocery","tags":{"brand":"Willys","brand:wikidata":"Q10720214","check_date":"2024-10-29","check_date:opening_hours":"2024-10-29","name":"Willys Hemma","opening_hours":"08:00-22:00","payment:cash":"yes","payment:mastercard":"yes","payment:visa":"yes","shop":"supermarket","wheelchair":"yes"}},"geometry":{"type":"Point","coordinates":[13.001306,55.5987495]}},{"type":"Feature","properties":{"id":10006727317,"osm_type":"node","name":"Coop Nydala","category":"grocery","tags":{"addr:city":"Malmö","addr:country":"SE","addr:housenumber":"4","addr:street":"Nydalatorget","brand":"Coop","brand:wikidata":"Q106684510","name":"Coop Nydala","phone":"+46 10-741 65 90","shop":"supermarket","website":"https://www.coop.se/butiker-erbjudanden/coop/coop-nydala/"}},"geometry":{"type":"Point","coordinates":[13.0201162,55.5731743]}},{"type":"Feature","properties":{"id":10130500626,"osm_type":"node","name":"Ica Nära","category":"grocery","tags":{"addr:city":"Malmö","addr:street":"Tessins väg","branch":"Ribersborg","brand":"ICA Nära","brand:wikidata":"Q1663776","name":"Ica Nära","opening_hours":"PH,Mo-Su 07:00-22:00","operator":"ICA","payment:cash":"yes","payment:credit_cards":"yes","payment:debit_cards":"yes","shop":"supermarket"}},"geometry":{"type":"Point","coordinates":[12.979759,55.6024489]}},{"type":"Feature","properties":{"id":10177222302,"osm_type":"node","name":"ICA Supermarket Limhamns Sjöstad","category":"grocery","tags":{"addr:city":"Limhamn","addr:housenumber":"2E","addr:postcode":"216 18","addr:street":"Geijersgatan","brand":"ICA Supermarket","brand:wikidata":"Q1663776","name":"ICA Supermarket Limhamns Sjöstad","opening_hours":"Mo-Su 07:00-22:00","shop":"supermarket"}},"geometry":{"type":"Point","coordinates":[12.9394443,55.5911286]}},{"type":"Feature","properties":{"id":10570157688,"osm_type":"node","name":"Coop","category":"grocery","tags":{"brand":"Coop","brand:wikidata":"Q106684510","name":"Coop","shop":"supermarket"}},"geometry":{"type":"Point","coordinates":[13.0101036,55.5675473]}},{"type":"Feature","properties":{"id":10612103121,"osm_type":"node","name":"Coop Forum","category":"grocery","tags":{"branch":"Jägersro","brand":"Coop Forum","brand:wikidata":"Q16951401","name":"Coop Forum","phone":"+46 10 741 65 00","shop":"supermarket","website":"https://www.coop.se/butiker-erbjudanden/coop-forum/coop-forum-jagersro/","wikidata":"Q124008791"}},"geometry":{"type":"Point","coordinates":[13.0591017,55.5701427]}},{"type":"Feature","properties":{"id":10678718598,"osm_type":"node","name":"PH Asian Market","category":"grocery","tags":{"addr:city":"Malmö","addr:housenumber":"12B","addr:postcode":"21212","addr:street":"Fredsgatan","cuisine":"asian;filipino","email":"peter@philfoodmarket.se","facebook":"https://www.facebook.com/people/PH-Asian-Market-Malm%C3%B6/100087650810674/","level":"1","name":"PH Asian Market","opening_hours":"Mo-Fr 10:00-20:00; Sa-Su 10:00-18:00","payment:cash":"yes","phone":"+46 73 985 41 78","shop":"convenience","website":"https://www.entremalmo.se/butiker/ph-asian-market"}},"geometry":{"type":"Point","coordinates":[13.024718,55.6077717]}},{"type":"Feature","properties":{"id":10702832218,"osm_type":"node","name":"Stora Coop Burlöv","category":"grocery","tags":{"branch":"Burlöv","brand":"Coop","brand:wikidata":"Q106684510","name":"Stora Coop Burlöv","opening_hours":"Mo-Su 07:00-22:00","payment:cash":"yes","payment:mastercard":"yes","payment:visa":"yes","phone":"+46 10-742 68 30","shop":"supermarket","website":"https://www.coop.se/butiker-erbjudanden/stora-coop/stora-coop-burlov/"}},"geometry":{"type":"Point","coordinates":[13.0841546,55.6423282]}},{"type":"Feature","properties":{"id":10752148630,"osm_type":"node","name":"Med Mera Livs","category":"grocery","tags":{"addr:city":"Malmö","addr:country":"SE","addr:housenumber":"40","addr:postcode":"21219","addr:street":"Lundavägen","name":"Med Mera Livs","old_name":"Rara Livs","shop":"convenience"}},"geometry":{"type":"Point","coordinates":[13.03231,55.6097188]}},{"type":"Feature","properties":{"id":10752148633,"osm_type":"node","name":"Daryan Livs","category":"grocery","tags":{"addr:city":"Malmö","addr:street":"Kronetorpsgatan","name":"Daryan Livs","shop":"convenience"}},"geometry":{"type":"Point","coordinates":[13.0539019,55.6152209]}},{"type":"Feature","properties":{"id":10752148636,"osm_type":"node","name":"Sege Livs","category":"grocery","tags":{"addr:city":"Malmö","addr:street":"Kronetorpsgatan","name":"Sege Livs","shop":"convenience"}},"geometry":{"type":"Point","coordinates":[13.0499714,55.6143416]}},{"type":"Feature","properties":{"id":10752148646,"osm_type":"node","name":"Folkets livs","category":"grocery","tags":{"addr:city":"Malmö","addr:street":"Vattenverksvägen","name":"Folkets livs","shop":"convenience"}},"geometry":{"type":"Point","coordinates":[13.0379267,55.609085]}},{"type":"Feature","properties":{"id":10752148660,"osm_type":"node","name":"Awad livs","category":"grocery","tags":{"name":"Awad livs","shop":"convenience"}},"geometry":{"type":"Point","coordinates":[13.0425548,55.6142857]}},{"type":"Feature","properties":{"id":10752148665,"osm_type":"node","name":"Kirsebergs Livs","category":"grocery","tags":{"name":"Kirsebergs Livs","opening_hours":"Mo-Fr 07:00-24:30, Sa-Su 09:00-24:30","shop":"convenience"}},"geometry":{"type":"Point","coordinates":[13.0407674,55.6073894]}},{"type":"Feature","properties":{"id":10754116863,"osm_type":"node","name":"Direkten","category":"grocery","tags":{"brand":"Direkten","brand:wikidata":"Q105693281","name":"Direkten","opening_hours":"Mo-Fr 09:00-19:00; Sa 09:00-15:00; Su 11:00-14:00","shop":"convenience"}},"geometry":{"type":"Point","coordinates":[12.9796186,55.5983059]}},{"type":"Feature","properties":{"id":10754116872,"osm_type":"node","name":"Willys Hemma Malmö Lindängen","category":"grocery","tags":{"addr:city":"Malmö","addr:country":"SE","addr:housenumber":"176","addr:street":"Munkhättegatan","brand":"Willys","brand:wikidata":"Q10720214","name":"Willys Hemma Malmö Lindängen","phone":"040-6707560","shop":"supermarket","website":"https://www.willys.se/butik/2843"}},"geometry":{"type":"Point","coordinates":[13.0148577,55.5589117]}},{"type":"Feature","properties":{"id":10754116879,"osm_type":"node","name":"Willys Hemma Malmö Söderkulla","category":"grocery","tags":{"addr:city":"Malmö","addr:country":"SE","addr:housenumber":"2","addr:street":"Söderkullatorget","brand":"Willys","brand:wikidata":"Q10720214","name":"Willys Hemma Malmö Söderkulla","phone":"040-321750","shop":"supermarket","website":"https://www.willys.se/butik/2865"}},"geometry":{"type":"Point","coordinates":[13.0089,55.5704]}},{"type":"Feature","properties":{"id":10754116887,"osm_type":"node","name":"Ystadsvägens Livs","category":"grocery","tags":{"check_date:opening_hours":"2023-09-20","name":"Ystadsvägens Livs","opening_hours:signed":"no","shop":"convenience"}},"geometry":{"type":"Point","coordinates":[13.0077449,55.583705]}},{"type":"Feature","properties":{"id":10754116892,"osm_type":"node","name":"Korner Livs","category":"grocery","tags":{"name":"Korner Livs","opening_hours":"Mo-Th 07:00-23:00, Fr 07:00-24:00, Sa 08:00-24:00, Su 08:00-23:00","shop":"convenience"}},"geometry":{"type":"Point","coordinates":[13.0058841,55.5855522]}},{"type":"Feature","properties":{"id":10754116897,"osm_type":"node","name":"Södervärns Livs","category":"grocery","tags":{"check_date":"2025-06-20","name":"Södervärns Livs","shop":"convenience"}},"geometry":{"type":"Point","coordinates":[13.0072112,55.5877818]}},{"type":"Feature","properties":{"id":10754116898,"osm_type":"node","name":"Ryff Livs","category":"grocery","tags":{"name":"Ryff Livs","opening_hours":"Mo-Su 08:00-22:00","shop":"convenience"}},"geometry":{"type":"Point","coordinates":[13.0312728,55.5801701]}},{"type":"Feature","properties":{"id":10754157909,"osm_type":"node","name":"Lindängen Tobak & Spel","category":"grocery","tags":{"name":"Lindängen Tobak & Spel","shop":"convenience"}},"geometry":{"type":"Point","coordinates":[13.0162762,55.5581975]}},{"type":"Feature","properties":{"id":10754157915,"osm_type":"node","name":"Direkten","category":"grocery","tags":{"brand":"Direkten","brand:wikidata":"Q105693281","name":"Direkten","shop":"convenience"}},"geometry":{"type":"Point","coordinates":[13.020663,55.5731663]}},{"type":"Feature","properties":{"id":10754157921,"osm_type":"node","name":"Spel & Tobak","category":"grocery","tags":{"name":"Spel & Tobak","shop":"convenience"}},"geometry":{"type":"Point","coordinates":[13.004047,55.5799987]}},{"type":"Feature","properties":{"id":10754157977,"osm_type":"node","name":"Stop & Shop","category":"grocery","tags":{"name":"Stop & Shop","shop":"convenience"}},"geometry":{"type":"Point","coordinates":[13.0279311,55.6039486]}},{"type":"Feature","properties":{"id":10754158035,"osm_type":"node","name":"Hemköp Malmö Elinegård","category":"grocery","tags":{"addr:city":"Limhamn","addr:country":"SE","addr:housenumber":"8","addr:street":"Tröskgatan","brand":"Hemköp","brand:wikidata":"Q10521746","name":"Hemköp Malmö Elinegård","phone":"040-6707230","shop":"supermarket","website":"https://www.hemkop.se/butik/4212"}},"geometry":{"type":"Point","coordinates":[12.9467959,55.5687079]}},{"type":"Feature","properties":{"id":10754677888,"osm_type":"node","name":"City Gross","category":"grocery","tags":{"addr:housenumber":"3C","addr:postcode":"215 34","addr:street":"Hyllie allé","check_date:opening_hours":"2025-11-16","name":"City Gross","opening_hours":"Mo-Su 06:00-22:00","phone":"+46 40 665 49 00","shop":"supermarket","website":"https://www.citygross.se/"}},"geometry":{"type":"Point","coordinates":[12.982628,55.561502]}},{"type":"Feature","properties":{"id":10756703232,"osm_type":"node","name":"Jojo Livs","category":"grocery","tags":{"name":"Jojo Livs","shop":"convenience"}},"geometry":{"type":"Point","coordinates":[12.9857436,55.5937542]}},{"type":"Feature","properties":{"id":10756703235,"osm_type":"node","name":"Tea livs","category":"grocery","tags":{"name":"Tea livs","shop":"convenience"}},"geometry":{"type":"Point","coordinates":[12.9837789,55.5904103]}},{"type":"Feature","properties":{"id":10756703261,"osm_type":"node","name":"Pak Asian Foods","category":"grocery","tags":{"name":"Pak Asian Foods","shop":"convenience"}},"geometry":{"type":"Point","coordinates":[12.988072,55.5935075]}},{"type":"Feature","properties":{"id":10756703265,"osm_type":"node","name":"Yassob Aldin Livs","category":"grocery","tags":{"name":"Yassob Aldin Livs","shop":"convenience"}},"geometry":{"type":"Point","coordinates":[12.9735209,55.5921391]}},{"type":"Feature","properties":{"id":10756703270,"osm_type":"node","name":"Krocksbäcks Livs","category":"grocery","tags":{"name":"Krocksbäcks Livs","shop":"convenience"}},"geometry":{"type":"Point","coordinates":[12.9741982,55.5736316]}},{"type":"Feature","properties":{"id":10756703272,"osm_type":"node","name":"Holma Livs","category":"grocery","tags":{"name":"Holma Livs","shop":"convenience"}},"geometry":{"type":"Point","coordinates":[12.9844414,55.5714356]}},{"type":"Feature","properties":{"id":10756703273,"osm_type":"node","name":"Frukthuset","category":"grocery","tags":{"name":"Frukthuset","shop":"convenience"}},"geometry":{"type":"Point","coordinates":[12.9839715,55.5715316]}},{"type":"Feature","properties":{"id":10756703274,"osm_type":"node","name":"Vällkommen in","category":"grocery","tags":{"name":"Vällkommen in","shop":"convenience"}},"geometry":{"type":"Point","coordinates":[12.9899153,55.5749252]}},{"type":"Feature","properties":{"id":10756703303,"osm_type":"node","name":"Myway","category":"grocery","tags":{"name":"Myway","shop":"convenience"}},"geometry":{"type":"Point","coordinates":[13.0232563,55.6060701]}},{"type":"Feature","properties":{"id":10756727716,"osm_type":"node","name":"ICA Nära","category":"grocery","tags":{"brand":"ICA Nära","brand:wikidata":"Q1663776","level":"0","name":"ICA Nära","shop":"supermarket"}},"geometry":{"type":"Point","coordinates":[13.0022842,55.5953211]}},{"type":"Feature","properties":{"id":10794121345,"osm_type":"node","name":"Direkten","category":"grocery","tags":{"name":"Direkten","shop":"convenience"}},"geometry":{"type":"Point","coordinates":[12.9358102,55.588262]}},{"type":"Feature","properties":{"id":10794121349,"osm_type":"node","name":"Malmgården Livs & Tobak","category":"grocery","tags":{"name":"Malmgården Livs & Tobak","shop":"convenience"}},"geometry":{"type":"Point","coordinates":[13.0208056,55.605546]}},{"type":"Feature","properties":{"id":10794121351,"osm_type":"node","name":"Öresunds livs","category":"grocery","tags":{"name":"Öresunds livs","shop":"convenience"}},"geometry":{"type":"Point","coordinates":[12.9217935,55.5892843]}},{"type":"Feature","properties":{"id":10932379141,"osm_type":"node","name":"Kärleks hörnan Livs","category":"grocery","tags":{"addr:city":"Malmö","addr:country":"SE","addr:housenumber":"30","addr:postcode":"211 42","addr:street":"Storgatan","name":"Kärleks hörnan Livs","note":"The name is spelled that way on the signs.","shop":"convenience"}},"geometry":{"type":"Point","coordinates":[12.9972281,55.5995674]}},{"type":"Feature","properties":{"id":11763806799,"osm_type":"node","name":"Toko","category":"grocery","tags":{"name":"Toko","shop":"convenience"}},"geometry":{"type":"Point","coordinates":[13.0089805,55.5966284]}},{"type":"Feature","properties":{"id":11893410041,"osm_type":"node","name":"Asian Mini Market","category":"grocery","tags":{"name":"Asian Mini Market","shop":"convenience"}},"geometry":{"type":"Point","coordinates":[13.0082574,55.586455]}},{"type":"Feature","properties":{"id":11904361852,"osm_type":"node","name":"Temple of Spices","category":"grocery","tags":{"addr:housenumber":"9A","addr:postcode":"21743","cuisine":"indian","name":"Temple of Spices","opening_hours":"Mo-Su 11:00-19:00","phone":"+46707540406","shop":"supermarket"}},"geometry":{"type":"Point","coordinates":[12.9832286,55.5937646]}},{"type":"Feature","properties":{"id":11925325821,"osm_type":"node","name":"Livs 2000","category":"grocery","tags":{"name":"Livs 2000","opening_hours":"Mo-Su 07:00-00:00","shop":"convenience"}},"geometry":{"type":"Point","coordinates":[13.0086304,55.6041446]}},{"type":"Feature","properties":{"id":11951787869,"osm_type":"node","name":"Signalen Livsmedel","category":"grocery","tags":{"addr:housenumber":"12","addr:postcode":"217 49","addr:street":"Östra Stallmästaregatan","name":"Signalen Livsmedel","opening_hours":"Mo-Su 08:00-22:00","phone":"+4640264475","shop":"convenience"}},"geometry":{"type":"Point","coordinates":[12.9766885,55.596793]}},{"type":"Feature","properties":{"id":12103966241,"osm_type":"node","name":"Simrishamnsgatan livs","category":"grocery","tags":{"addr:city":"Malmö","addr:housenumber":"1A","addr:postcode":"214 23","addr:street":"Simrishamnsgatan","name":"Simrishamnsgatan livs","shop":"convenience"}},"geometry":{"type":"Point","coordinates":[13.0094157,55.5915931]}},{"type":"Feature","properties":{"id":12103966242,"osm_type":"node","name":"Èkó Hove Livs","category":"grocery","tags":{"addr:city":"Malmö","addr:housenumber":"1B","addr:postcode":"214 23","addr:street":"Simrishamnsgatan","cuisine":"african","name":"Èkó Hove Livs","shop":"convenience"}},"geometry":{"type":"Point","coordinates":[13.0094941,55.5915894]}},{"type":"Feature","properties":{"id":12134311782,"osm_type":"node","name":"InterFood","category":"grocery","tags":{"name":"InterFood","shop":"supermarket"}},"geometry":{"type":"Point","coordinates":[13.0456579,55.5864824]}},{"type":"Feature","properties":{"id":12162388986,"osm_type":"node","name":"Mini Livs","category":"grocery","tags":{"addr:housenumber":"16","addr:street":"Bergsgatan","name":"Mini Livs","shop":"convenience"}},"geometry":{"type":"Point","coordinates":[13.008966,55.5950865]}},{"type":"Feature","properties":{"id":12163054019,"osm_type":"node","name":"Bahram Livs","category":"grocery","tags":{"addr:housenumber":"1","addr:street":"Claesgatan","name":"Bahram Livs","shop":"convenience"}},"geometry":{"type":"Point","coordinates":[13.0083598,55.5909438]}},{"type":"Feature","properties":{"id":12219201106,"osm_type":"node","name":"Jouren Livs","category":"grocery","tags":{"addr:city":"Arlöv","addr:housenumber":"65","addr:postcode":"211 31","addr:street":"Lundavägen","name":"Jouren Livs","opening_hours":"Mo-Su, PH 08:00-24:00","payment:cash":"yes","payment:mastercard":"yes","payment:visa":"yes","shop":"convenience"}},"geometry":{"type":"Point","coordinates":[13.0804054,55.6363001]}},{"type":"Feature","properties":{"id":12307305024,"osm_type":"node","name":"ICA Nära","category":"grocery","tags":{"branch":"Kvarnhamnen","brand":"ICA Nära","brand:wikidata":"Q1663776","name":"ICA Nära","opening_hours":"Mo-Fr 07:00-21:00, Sa-Su 08:00-21:00","payment:cash":"yes","payment:mastercard":"yes","payment:visa":"yes","shop":"supermarket","wheelchair":"yes"}},"geometry":{"type":"Point","coordinates":[12.9876603,55.6079692]}},{"type":"Feature","properties":{"id":12320276874,"osm_type":"node","name":"Marknadsbörsen","category":"grocery","tags":{"addr:housenumber":"4","addr:street":"Fricksgatan","amenity":"marketplace","name":"Marknadsbörsen","opening_hours":"We 17:00-20:00; Sa 09:00-16:00; Su 10:00-16:00"}},"geometry":{"type":"Point","coordinates":[13.0067108,55.5899652]}},{"type":"Feature","properties":{"id":12449728129,"osm_type":"node","name":"Willys","category":"grocery","tags":{"branch":"Burlöv Center","brand":"Willys","brand:wikidata":"Q10720214","contact:phone":"+46 40-688 09 00","contact:website":"https://www.willys.se/butik/arlov/willys-burlov-center-2328","name":"Willys","opening_hours":"Mo-Su 08:00-21:00","payment:cash":"yes","payment:mastercard":"yes","payment:visa":"yes","shop":"supermarket"}},"geometry":{"type":"Point","coordinates":[13.0841674,55.6394832]}},{"type":"Feature","properties":{"id":12451419101,"osm_type":"node","name":"Amart","category":"grocery","tags":{"branch":"Burlöv","contact:email":"ella.amartfood@gmail.com","contact:mobile":"+46 735-04 90 56","contact:website":"https://www.amart.nu/#kontakt","cuisine":"asian","name":"Amart","opening_hours":"Mo-Fr 10:00-20:00, Sa-Su 10:00-18:00","shop":"convenience"}},"geometry":{"type":"Point","coordinates":[13.0849992,55.6399355]}},{"type":"Feature","properties":{"id":12668199763,"osm_type":"node","name":"Amart","category":"grocery","tags":{"addr:city":"Malmö","addr:housenumber":"41","addr:postcode":"21146","addr:street":"Södra Förstadsgatan","check_date":"2025-03-15","email":"amart.tri.k@gmail.com","level":"0","name":"Amart","phone":"+46 76 307 3450","shop":"convenience","source":"local knowledge","website":"https://www.amart.nu/"}},"geometry":{"type":"Point","coordinates":[13.0019262,55.5948033]}},{"type":"Feature","properties":{"id":12687194703,"osm_type":"node","name":"EAF Store","category":"grocery","tags":{"contact:facebook":"https://www.facebook.com/people/East-Asian-Food-AB/100057281897448/","cuisine":"asian","name":"EAF Store","opening_hours":"Mo-Fr 09:00-18:00; Sa 10:00-16:00","shop":"supermarket","website":"https://www.eastasianfood.com/"}},"geometry":{"type":"Point","coordinates":[13.0095105,55.589653]}},{"type":"Feature","properties":{"id":13037818095,"osm_type":"node","name":"Bellas Corner","category":"grocery","tags":{"name":"Bellas Corner","shop":"convenience"}},"geometry":{"type":"Point","coordinates":[12.9946534,55.6098651]}},{"type":"Feature","properties":{"id":13208398468,"osm_type":"node","name":"Willys","category":"grocery","tags":{"addr:city":"Malmö","addr:country":"SE","addr:housenumber":"1","addr:street":"Frölichs väg","brand":"Willys","name":"Willys","opening_hours":"Mo-Su 08:00-20:00","shop":"supermarket"}},"geometry":{"type":"Point","coordinates":[13.0462381,55.5864265]}},{"type":"Feature","properties":{"id":13254397649,"osm_type":"node","name":"Direkten","category":"grocery","tags":{"branch":"Västra Hamnen","brand":"Direkten","brand:wikidata":"Q105693281","name":"Direkten","opening_hours":"Mo-Fr 07:00-19:00; Sa-Su 08:00-18:00","shop":"convenience","wheelchair":"yes"}},"geometry":{"type":"Point","coordinates":[12.9838332,55.6070773]}},{"type":"Feature","properties":{"id":13667035101,"osm_type":"node","name":"Boulevard Tobak","category":"grocery","tags":{"name":"Boulevard Tobak","shop":"convenience"}},"geometry":{"type":"Point","coordinates":[12.9766434,55.5693037]}},{"type":"Feature","properties":{"id":28654838,"osm_type":"way","name":"Stora Coop","category":"grocery","tags":{"addr:housenumber":"24","addr:postcode":"217 62","addr:street":"Stadiongatan","brand":"Coop","brand:wikidata":"Q106684510","brand:wikipedia":"sv:Coop Butiker & Stormarknader","building":"retail","name":"Stora Coop","opening_hours":"Mo-Su 07:00-22:00","payment:cash":"yes","payment:contactless":"yes","payment:credit_cards":"yes","payment:debit_cards":"yes","payment:mastercard":"yes","payment:visa":"yes","phone":"010-7415300","shop":"supermarket","website":"https://www.coop.se/butiker-erbjudanden/stora-coop/stora-coop-stadion/"}},"geometry":{"type":"Point","coordinates":[12.990702,55.5801251]}},{"type":"Feature","properties":{"id":30425231,"osm_type":"way","name":"ICA Kvantum Malmborgs Erikslust","category":"grocery","tags":{"brand":"ICA Kvantum","brand:wikidata":"Q1663776","building":"retail","building:levels":"2","name":"ICA Kvantum Malmborgs Erikslust","opening_hours":"09:00-21:00","payment:cash":"yes","payment:mastercard":"yes","payment:visa":"yes","roof:shape":"hipped","shop":"supermarket","website":"https://www.ica.se/butiker/kvantum/malmo/ica-kvantum-malmborg-erikslust-2724/start/"}},"geometry":{"type":"Point","coordinates":[12.9664132,55.5948834]}},{"type":"Feature","properties":{"id":50084088,"osm_type":"way","name":"Willy:s","category":"grocery","tags":{"addr:city":"Limhamn","addr:country":"SE","addr:housenumber":"42","addr:postcode":"21614","addr:street":"Linnégatan","brand":"Willys","brand:wikidata":"Q10720214","brand:wikipedia":"sv:Willys","building":"retail","building:levels":"2","name":"Willy:s","opening_hours":"Mo-Su 07:00-21:00","operator":"Axfood","phone":"+4640165430","roof:shape":"flat","shop":"supermarket","website":"https://www.willys.se/butik/2144"}},"geometry":{"type":"Point","coordinates":[12.9340412,55.5821839]}},{"type":"Feature","properties":{"id":51524982,"osm_type":"way","name":"ICA Kvantum Malmborgs","category":"grocery","tags":{"addr:city":"Limhamn","addr:country":"SE","addr:housenumber":"48","addr:postcode":"21614","addr:street":"Linnégatan","alt_name":"Malmborgs","brand":"ICA Kvantum","brand:wikidata":"Q1663776","brand:wikipedia":"sv:Ica","building":"apartments","check_date:opening_hours":"2025-07-09","email":"sebastian.malmborg@kvantum.ica.se","layer":"1","name":"ICA Kvantum Malmborgs","opening_hours":"Mo-Su 07:00-22:00","phone":"+46 40-36 36 60","shop":"supermarket","website":"https://www.ica.se/butiker/kvantum/malmo/ica-kvantum-malmborgs-limhamn-2737/start/"}},"geometry":{"type":"Point","coordinates":[12.9359005,55.5816662]}},{"type":"Feature","properties":{"id":52375601,"osm_type":"way","name":"Lidl","category":"grocery","tags":{"addr:city":"Malmö","addr:country":"SE","addr:housenumber":"3","addr:postcode":"21765","addr:street":"Delsjögatan","brand":"Lidl","brand:wikidata":"Q151954","brand:wikipedia":"sv:Lidl","building":"yes","check_date":"2025-12-28","name":"Lidl","organic":"yes","payment:cash":"yes","shop":"supermarket","website":"https://www.lidl.se/sv/index.htm","wheelchair":"yes"}},"geometry":{"type":"Point","coordinates":[12.9791812,55.5787629]}},{"type":"Feature","properties":{"id":56083470,"osm_type":"way","name":"ICA Supermarket","category":"grocery","tags":{"addr:city":"Malmö","addr:country":"SE","addr:housenumber":"3","addr:street":"Hermodsdalstorget","brand":"ICA Supermarket","brand:wikidata":"Q1663776","brand:wikipedia":"sv:Ica","building":"yes","check_date":"2025-12-28","name":"ICA Supermarket","opening_hours":"Mo-Sa 07:00-22:00, Su 09:00-22:00","shop":"supermarket"}},"geometry":{"type":"Point","coordinates":[13.0201455,55.5668511]}},{"type":"Feature","properties":{"id":87574695,"osm_type":"way","name":"Öresunds livs","category":"grocery","tags":{"addr:housenumber":"10B","addr:postcode":"216 42","addr:street":"Övägen","building":"yes","check_date":"2026-05-03","check_date:opening_hours":"2026-05-03","name":"Öresunds livs","opening_hours":"Mo-Su 06:00-22:00","phone":"072-922 58 32","shop":"supermarket","source":"bing","website":"https://wolt.com/sv/swe/malmo/venue/nra-dej-resunds-livs"}},"geometry":{"type":"Point","coordinates":[12.9217766,55.589262]}},{"type":"Feature","properties":{"id":125735563,"osm_type":"way","name":"ICA Maxi Ystadvägen","category":"grocery","tags":{"addr:city":"Malmö","addr:country":"SE","addr:housenumber":"4","addr:postcode":"213 63","addr:street":"Cypressvägen","brand":"Maxi ICA Stormarknad","brand:wikidata":"Q1663776","brand:wikipedia":"sv:Ica","building":"yes","name":"ICA Maxi Ystadvägen","opening_hours":"Mo-Su 06:00-23:00","payment:cash":"yes","shop":"supermarket","short_name":"ICA Maxi","website":"http://www.maximalmo.se/","wheelchair":"yes"}},"geometry":{"type":"Point","coordinates":[13.0366536,55.5732675]}},{"type":"Feature","properties":{"id":126204015,"osm_type":"way","name":"Lidl","category":"grocery","tags":{"addr:country":"SE","addr:housenumber":"1B","addr:postcode":"21228","addr:street":"Knivgatan","brand":"Lidl","brand:wikidata":"Q151954","brand:wikipedia":"sv:Lidl","building":"yes","check_date":"2025-12-14","email":"kundtjanst@lidl.se","name":"Lidl","opening_hours":"Mo-Fr 09:00-20:00,Sa 09:00-19:00,Su 10:00-18:00","phone":"+46 8 5555 7000","shop":"supermarket","website":"https://www.lidl.se/"}},"geometry":{"type":"Point","coordinates":[13.0377548,55.6007058]}},{"type":"Feature","properties":{"id":126923783,"osm_type":"way","name":"","category":"grocery","tags":{"addr:city":"Arlöv","addr:country":"SE","addr:housenumber":"32","addr:postcode":"232 34","addr:street":"Hantverkaregatan","building":"yes","shop":"supermarket"}},"geometry":{"type":"Point","coordinates":[13.0831867,55.6419853]}},{"type":"Feature","properties":{"id":132609678,"osm_type":"way","name":"Lidl","category":"grocery","tags":{"addr:housenumber":"45A","addr:street":"Hyllie kyrkoväg","brand":"Lidl","brand:wikidata":"Q151954","building":"retail","name":"Lidl","opening_hours":"Mo-Su 08:00-21:00","shop":"supermarket"}},"geometry":{"type":"Point","coordinates":[12.9296047,55.5780886]}},{"type":"Feature","properties":{"id":161969231,"osm_type":"way","name":"Abdos","category":"grocery","tags":{"addr:city":"Malmö","addr:country":"SE","addr:housenumber":"55","addr:street":"Danska vägen","building":"yes","email":"abdos22@hotmail.com","name":"Abdos","opening_hours":"Mo-Fr 07:00-21:00,Sa-Su 07:00-18:00","payment:cash":"yes","phone":"+4640.218685","shop":"supermarket","website":"http://abdosfood.se/"}},"geometry":{"type":"Point","coordinates":[13.0376936,55.5950069]}},{"type":"Feature","properties":{"id":167053599,"osm_type":"way","name":"Circle K","category":"grocery","tags":{"branch":"Malmö Spillepengen","brand":"Circle K","brand:wikidata":"Q3268010","building":"yes","name":"Circle K","opening_hours":"Mo-Fr 05:00-21:00; Sa 07:00-21:00; Su 08:00-21:00","shop":"convenience"}},"geometry":{"type":"Point","coordinates":[13.0473039,55.6278933]}},{"type":"Feature","properties":{"id":170849544,"osm_type":"way","name":"X:-tra Dalbyvägen","category":"grocery","tags":{"addr:city":"Arlöv","addr:housenumber":"65","addr:postcode":"232 33","addr:street":"Dalbyvägen","brand":"Coop","brand:wikidata":"Q15229319","building":"yes","name":"X:-tra Dalbyvägen","note":"Netto existerar inte i Sverige sedan 2020.","opening_hours":"Mo-Su 07:00-22:00; ","operator":"Coop","phone":"+46 10 746 3690","shop":"supermarket","source":"https://x-tra.se/butiker/dalbyvagen","website":"https://x-tra.se/butiker/dalbyvagen"}},"geometry":{"type":"Point","coordinates":[13.0825921,55.6333492]}},{"type":"Feature","properties":{"id":175447079,"osm_type":"way","name":"City Gross","category":"grocery","tags":{"addr:city":"Arlöv","addr:country":"SE","addr:housenumber":"20","addr:postcode":"23261","addr:street":"Vassvägen","building":"yes","email":"CityGross.StoraBernstorp@bergendahls.se","name":"City Gross","opening_hours":"Mo-Su 07:00-21:00","operator":"City Gross","phone":"+46.406358700","shop":"supermarket","toilets:wheelchair":"yes","website":"https://www.citygross.se/butiker/stora-bernstorp/","wheelchair":"yes"}},"geometry":{"type":"Point","coordinates":[13.1010634,55.6118419]}},{"type":"Feature","properties":{"id":187072516,"osm_type":"way","name":"Malmö Saluhall","category":"grocery","tags":{"addr:city":"Malmö","addr:country":"SE","addr:housename":"Malmö Saluhall (Godsmagasinet)","addr:housenumber":"6","addr:postcode":"211 18","addr:street":"Gibraltargatan","amenity":"marketplace","building":"yes","contact:phone":"+46 40 6267730","name":"Malmö Saluhall","opening_hours":"Mo-Th 11:00-20:00; Fr,Sa 11:00-21:00; Su 11:00-17:00","website":"http://www.malmosaluhall.se"}},"geometry":{"type":"Point","coordinates":[12.9908522,55.6078421]}},{"type":"Feature","properties":{"id":208669154,"osm_type":"way","name":"","category":"grocery","tags":{"addr:city":"Arlöv","addr:country":"SE","addr:housenumber":"8","addr:street":"Kronetorpsvägen","building":"yes","shop":"convenience"}},"geometry":{"type":"Point","coordinates":[13.0819443,55.6457151]}},{"type":"Feature","properties":{"id":208846850,"osm_type":"way","name":"","category":"grocery","tags":{"addr:city":"Arlöv","addr:country":"SE","addr:housenumber":"20","addr:street":"Norregatan","building":"yes","shop":"convenience"}},"geometry":{"type":"Point","coordinates":[13.0680549,55.6413163]}},{"type":"Feature","properties":{"id":208846856,"osm_type":"way","name":"Coop","category":"grocery","tags":{"brand":"Coop","building":"yes","name":"Coop","opening_hours":"Mo-Sa 08:00-20:00; Su 10:00-20:00","shop":"supermarket"}},"geometry":{"type":"Point","coordinates":[13.0593615,55.6383664]}},{"type":"Feature","properties":{"id":211713797,"osm_type":"way","name":"ICA Supermarket Bunkeflostrand","category":"grocery","tags":{"addr:city":"Bunkeflostrand","addr:country":"SE","addr:housenumber":"40","addr:postcode":"21837","addr:street":"Klagshamnsvägen","brand":"ICA Supermarket","brand:wikidata":"Q1663776","brand:wikipedia":"sv:Ica","building":"retail","name":"ICA Supermarket Bunkeflostrand","opening_hours":"Mo-Su 08:00-21:00","phone":"040-165990","shop":"supermarket","website":"https://www.ica.se/butiker/supermarket/malmo/ica-supermarket-bunkeflostrand-2768/start/"}},"geometry":{"type":"Point","coordinates":[12.9195731,55.5553001]}},{"type":"Feature","properties":{"id":211722508,"osm_type":"way","name":"Coop Djupadal","category":"grocery","tags":{"addr:city":"Limhamn","addr:country":"SE","addr:housenumber":"29","addr:postcode":"216 22","addr:street":"Viarpsgatan","brand":"Coop","building":"commercial","building:levels":"1","check_date:opening_hours":"2022-12-06","name":"Coop Djupadal","opening_hours":"Mo-Su 08:00-22:00","operator":"Coop","phone":"+46107 41 65 72","roof:shape":"half-hipped","shop":"convenience","website":"https://www.coop.se/106651","wheelchair":"yes"}},"geometry":{"type":"Point","coordinates":[12.9617169,55.5735711]}},{"type":"Feature","properties":{"id":216961367,"osm_type":"way","name":"Ica Nära Oxie","category":"grocery","tags":{"brand":"ICA Nära","brand:wikidata":"Q1663776","brand:wikipedia":"sv:Ica","building":"yes","name":"Ica Nära Oxie","opening_hours":"Mo-Fr 07:00-21:00;Sa-Su 08:00-21:00","shop":"supermarket"}},"geometry":{"type":"Point","coordinates":[13.0963953,55.5498545]}},{"type":"Feature","properties":{"id":219177011,"osm_type":"way","name":"Maxi ICA Stormarknad Toftanäs","category":"grocery","tags":{"addr:city":"Malmö","addr:housenumber":"10","addr:postcode":"21241","addr:street":"Topplocksgatan","brand":"Maxi ICA Stormarknad","brand:wikidata":"Q1663776","brand:wikipedia":"sv:Ica","building":"yes","name":"Maxi ICA Stormarknad Toftanäs","opening_hours":"07:00-23:00","phone":"+46406006800","shop":"supermarket","short_name":"ICA Maxi","website":"https://www.ica.se/butiker/maxi/malmo/maxi-ica-stormarknad-toftanas-1003807/"}},"geometry":{"type":"Point","coordinates":[13.0982732,55.5973526]}},{"type":"Feature","properties":{"id":219714949,"osm_type":"way","name":"Coop","category":"grocery","tags":{"brand":"Coop","brand:wikidata":"Q106684510","building":"yes","name":"Coop","opening_hours":"07:00 - 22:00","shop":"supermarket","toilets":"yes","website":"https://www.coop.se/butiker-erbjudanden/coop/coop-bulltofta/","wheelchair":"yes"}},"geometry":{"type":"Point","coordinates":[13.0624107,55.5961281]}},{"type":"Feature","properties":{"id":232691013,"osm_type":"way","name":"Lucu Food","category":"grocery","tags":{"addr:country":"SE","addr:housenumber":"1","addr:postcode":"21228","addr:street":"Singelgatan","name":"Lucu Food","opening_hours":"Mo-Fr 08:00-21:00,Sa 08:00-19:00,Su 08:00-18:00","payment:cash":"yes","shop":"supermarket","website":"https://www.lucufood.se/"}},"geometry":{"type":"Point","coordinates":[13.0408215,55.6015587]}},{"type":"Feature","properties":{"id":249515910,"osm_type":"way","name":"","category":"grocery","tags":{"building":"yes","shop":"supermarket"}},"geometry":{"type":"Point","coordinates":[13.0894824,55.6414322]}},{"type":"Feature","properties":{"id":568699237,"osm_type":"way","name":"ICA Supermarket","category":"grocery","tags":{"addr:city":"Malmö","addr:country":"SE","addr:housenumber":"62","addr:postcode":"21741","addr:street":"Västra Rönneholmsvägen","brand":"ICA Supermarket","brand:wikidata":"Q1663776","brand:wikipedia":"sv:Ica","building":"yes","name":"ICA Supermarket","opening_hours":"Mo-Su 07:30-22:00","shop":"supermarket"}},"geometry":{"type":"Point","coordinates":[12.9814928,55.595114]}},{"type":"Feature","properties":{"id":680437999,"osm_type":"way","name":"ICA Nära Gamla Väster","category":"grocery","tags":{"addr:city":"Malmö","addr:country":"SE","addr:housenumber":"15","addr:postcode":"211 33","addr:street":"Engelbrektsgatan","brand":"ICA Nära","brand:wikidata":"Q1663776","brand:wikipedia":"sv:Ica","building":"yes","check_date:opening_hours":"2025-12-30","name":"ICA Nära Gamla Väster","opening_hours":"07:00-22:00","payment:cash":"yes","phone":"+46 40 973072","shop":"supermarket","website":"https://www.ica.se/butiker/nara/malmo/ica-nara-gamla-vaster-16808/start/","wheelchair":"yes"}},"geometry":{"type":"Point","coordinates":[12.9979665,55.6038843]}}]}