{"type":"FeatureCollection","features":[{"type":"Feature","properties":{"id":2078850849,"osm_type":"node","name":"Estetikcentrum","category":"healthcare_center","tags":{"amenity":"doctors","healthcare":"doctor","healthcare:speciality":"plastic_surgery","name":"Estetikcentrum"}},"geometry":{"type":"Point","coordinates":[13.0052166,55.603103]}},{"type":"Feature","properties":{"id":2405640094,"osm_type":"node","name":"Capio Citykliniken","category":"healthcare_center","tags":{"amenity":"clinic","healthcare":"clinic","name":"Capio Citykliniken","phone":"+46-40-600 28 00","website":"http://www.capiovardcentral.se/Skane/Malmo-Singelgatan/start/"}},"geometry":{"type":"Point","coordinates":[13.0395173,55.6013836]}},{"type":"Feature","properties":{"id":3369322608,"osm_type":"node","name":"Vårdhuset","category":"healthcare_center","tags":{"amenity":"clinic","healthcare":"clinic","name":"Vårdhuset"}},"geometry":{"type":"Point","coordinates":[13.0023235,55.6024137]}},{"type":"Feature","properties":{"id":4321180556,"osm_type":"node","name":"Sorgenfrimottagningen","category":"healthcare_center","tags":{"addr:city":"Malmö","addr:country":"SE","addr:housenumber":"56","addr:postcode":"214 33","addr:street":"Nobelvägen","amenity":"clinic","check_date":"2025-06-20","healthcare":"clinic","name":"Sorgenfrimottagningen","operator":"Region Skåne"}},"geometry":{"type":"Point","coordinates":[13.0209914,55.5945135]}},{"type":"Feature","properties":{"id":4796518421,"osm_type":"node","name":"Vårdcentralen Gullviksborg","category":"healthcare_center","tags":{"amenity":"clinic","healthcare":"clinic","name":"Vårdcentralen Gullviksborg"}},"geometry":{"type":"Point","coordinates":[13.0227287,55.5677735]}},{"type":"Feature","properties":{"id":4796519971,"osm_type":"node","name":"Vårdcentralen Multi Clinic","category":"healthcare_center","tags":{"amenity":"clinic","emergency":"yes","name":"Vårdcentralen Multi Clinic"}},"geometry":{"type":"Point","coordinates":[13.013603,55.559358]}},{"type":"Feature","properties":{"id":4804318251,"osm_type":"node","name":"Capio Vårdcentral Bunkeflo-Hyllie","category":"healthcare_center","tags":{"addr:city":"Bunkeflostrand","addr:country":"SE","addr:housenumber":"5","addr:street":"Sadelmakarebyn","amenity":"clinic","name":"Capio Vårdcentral Bunkeflo-Hyllie","opening_hours":"Mo-Fr 08:00-17:00","phone":"040167700","website":"https://capio.se/hitta-mottagning/primarvard/vardcentraler/bunkeflo-hyllie/"}},"geometry":{"type":"Point","coordinates":[12.9363599,55.5573428]}},{"type":"Feature","properties":{"id":5780623858,"osm_type":"node","name":"Vårdcentralen Borgmästaregården","category":"healthcare_center","tags":{"addr:city":"Malmö","addr:country":"SE","addr:housenumber":"1","addr:postcode":"214 67","addr:street":"Albinsrogatan","entrance":"yes","healthcare":"clinic","name":"Vårdcentralen Borgmästaregården","opening_hours":"Mo-Fr 08:00-17:00","operator":"Region Skåne","phone":"+46 40 623 92 00","website":"https://www.1177.se/Skane/hitta-vard/kontaktkort/Vardcentralen-Borgmastaregarden/"}},"geometry":{"type":"Point","coordinates":[12.9967768,55.5828141]}},{"type":"Feature","properties":{"id":7671270996,"osm_type":"node","name":"Malmö Medical Center","category":"healthcare_center","tags":{"addr:city":"Malmö","addr:country":"SE","addr:housenumber":"14","addr:postcode":"211 20","addr:street":"Stormgatan","amenity":"doctors","healthcare":"doctor","healthcare:speciality":"surgery;dermatology;gastroenterology","level":"2","name":"Malmö Medical Center","note":"Telefontid: Måndag-torsdag 08:30-09:30 Avvikelser i öppettider och telefontider kan förekomma.","opening_hours":"Mo-Th 08:00-16:30","phone":"+46 40 642 80 00","website":"https://www.malmomedicalcenter.se/"}},"geometry":{"type":"Point","coordinates":[12.9986005,55.6119622]}},{"type":"Feature","properties":{"id":7671365638,"osm_type":"node","name":"Flygmedicinskt Centrum","category":"healthcare_center","tags":{"addr:city":"Malmö","addr:country":"SE","addr:housenumber":"14","addr:postcode":"211 20","addr:street":"Stormgatan","amenity":"doctors","description":"Approved and authorized by the Transport Agency as Aeromedical Center (AeMC); the authorization is European and issued by the EASA (European Aviation Safety Authority) through the Transport Agency.","email":"mottagning@flygmedc.se","fax":"+46 40 684 91 25","healthcare":"doctor","healthcare:speciality":"aviation_medical_examination;dive_medical_examination;Flights_psychology;Aviation_medicine","name":"Flygmedicinskt Centrum","phone":"+46 40 20 81 25","website":"https://www.flygmedc.se/"}},"geometry":{"type":"Point","coordinates":[12.9985411,55.6119727]}},{"type":"Feature","properties":{"id":8612195712,"osm_type":"node","name":"Capio Citykliniken","category":"healthcare_center","tags":{"addr:city":"Malmö","addr:country":"SE","addr:housenumber":"13","addr:postcode":"211 19","addr:street":"Hallenborgs gata","amenity":"clinic","healthcare":"clinic","name":"Capio Citykliniken","operator":"Capio","operator:type":"private","operator:wikidata":"Q498606"}},"geometry":{"type":"Point","coordinates":[12.9891459,55.6138414]}},{"type":"Feature","properties":{"id":8944868965,"osm_type":"node","name":"Vårdcentralen Limhamn","category":"healthcare_center","tags":{"addr:city":"Limhamn","addr:country":"SE","addr:housenumber":"1","addr:postcode":"216 12","addr:street":"Övägen","amenity":"clinic","healthcare":"clinic","healthcare:speciality":"physiotherapy;paediatrics;psychiatry","name":"Vårdcentralen Limhamn"}},"geometry":{"type":"Point","coordinates":[12.9276032,55.5870241]}},{"type":"Feature","properties":{"id":9338341296,"osm_type":"node","name":"Lönngårdens Vårdcentral","category":"healthcare_center","tags":{"healthcare":"doctor","name":"Lönngårdens Vårdcentral"}},"geometry":{"type":"Point","coordinates":[13.0256636,55.5833505]}},{"type":"Feature","properties":{"id":9750172029,"osm_type":"node","name":"Örestadskliniken","category":"healthcare_center","tags":{"addr:city":"Malmö","addr:country":"SE","addr:housenumber":"4","addr:postcode":"217 67","addr:street":"Eddagatan","alt_name":"Örestadsklinikens vårdcentral","amenity":"clinic","contact:phone":"+46 40-16 32 00","full_name":"Doktor.se Örestadskliniken","healthcare":"clinic","healthcare:speciality":"rehabilitation;psychology;children;midwife","name":"Örestadskliniken","opening_hours":"Mo-Th 07:30-12:00,12:45-17:00, Fr 07:30-12:00,12:45-16:00; PH off","operator":"Doktor.se","operator:type":"private","website":"https://doktor.se/mottagningar/orestadskliniken/"}},"geometry":{"type":"Point","coordinates":[12.971125,55.585695]}},{"type":"Feature","properties":{"id":9750172030,"osm_type":"node","name":"Carlakliniken","category":"healthcare_center","tags":{"addr:city":"Malmö","addr:country":"SE","addr:housenumber":"6","addr:postcode":"217 67","addr:street":"Eddagatan","amenity":"doctors","email":"malmo@carlakliniken.se","full_name":"Carlakliniken Malmö","healthcare":"doctor","healthcare:speciality":"gynaecology","name":"Carlakliniken","opening_hours":"by_appointment","payment:cards":"yes","payment:cash":"no","payment:swish":"yes","website":"https://carlakliniken.se/malmo/"}},"geometry":{"type":"Point","coordinates":[12.9716896,55.5855335]}},{"type":"Feature","properties":{"id":9949473006,"osm_type":"node","name":"More Than Skin Deep","category":"healthcare_center","tags":{"amenity":"clinic","check_date":"2022-08-12","healthcare":"clinic","healthcare:speciality":"dermatology","name":"More Than Skin Deep"}},"geometry":{"type":"Point","coordinates":[13.0013106,55.5981061]}},{"type":"Feature","properties":{"id":10136582906,"osm_type":"node","name":"Doktor P-Å Boström","category":"healthcare_center","tags":{"addr:country":"SE","addr:housenumber":"31","addr:street":"Södra Skolgatan","amenity":"doctors","healthcare":"doctor","name":"Doktor P-Å Boström"}},"geometry":{"type":"Point","coordinates":[13.0061435,55.5939279]}},{"type":"Feature","properties":{"id":10136587481,"osm_type":"node","name":"Gordius","category":"healthcare_center","tags":{"addr:country":"SE","addr:housenumber":"9","addr:street":"Grönegatan","amenity":"doctors","healthcare":"doctor","name":"Gordius"}},"geometry":{"type":"Point","coordinates":[13.0112529,55.6066634]}},{"type":"Feature","properties":{"id":10270084257,"osm_type":"node","name":"Evidia","category":"healthcare_center","tags":{"addr:country":"SE","addr:housenumber":"12","addr:street":"Fredsgatan","amenity":"clinic","description":"Röntgen klinik","healthcare":"clinic","name":"Evidia","phone":"040-619 69 50","website":"https://www.evidia.se/kontakta-oss/enheter/evidia-malmo-entre-rontgen/"}},"geometry":{"type":"Point","coordinates":[13.0249781,55.6078071]}},{"type":"Feature","properties":{"id":10752148655,"osm_type":"node","name":"Kirsebergs Fotvård","category":"healthcare_center","tags":{"amenity":"doctors","healthcare":"doctor","healthcare:speciality":"podiatry","name":"Kirsebergs Fotvård"}},"geometry":{"type":"Point","coordinates":[13.0337798,55.6099251]}},{"type":"Feature","properties":{"id":10753036579,"osm_type":"node","name":"Curakliniken","category":"healthcare_center","tags":{"addr:city":"Malmö","addr:country":"SE","addr:housenumber":"22","addr:postcode":"217 73","addr:street":"Erikslustvägen","amenity":"doctors","healthcare":"doctor","name":"Curakliniken"}},"geometry":{"type":"Point","coordinates":[12.9659452,55.5936034]}},{"type":"Feature","properties":{"id":10754116875,"osm_type":"node","name":"Vårdcentralen Fosietorp","category":"healthcare_center","tags":{"amenity":"doctors","healthcare":"doctor","name":"Vårdcentralen Fosietorp"}},"geometry":{"type":"Point","coordinates":[13.0104608,55.5666133]}},{"type":"Feature","properties":{"id":10756703254,"osm_type":"node","name":"Anneli's Fortvårdsklinik","category":"healthcare_center","tags":{"amenity":"doctors","healthcare":"doctor","healthcare:speciality":"podiatry","name":"Anneli's Fortvårdsklinik"}},"geometry":{"type":"Point","coordinates":[12.9902536,55.5949077]}},{"type":"Feature","properties":{"id":11862152029,"osm_type":"node","name":"Vårdcentralen Eden","category":"healthcare_center","tags":{"addr:city":"Malmö","addr:housenumber":"44","addr:postcode":"214 20","addr:street":"Möllevångsgatan","amenity":"clinic","healthcare":"clinic","name":"Vårdcentralen Eden"}},"geometry":{"type":"Point","coordinates":[13.0106257,55.5933015]}},{"type":"Feature","properties":{"id":11862152030,"osm_type":"node","name":"Möllevångens vårdcentral","category":"healthcare_center","tags":{"amenity":"clinic","healthcare":"clinic","name":"Möllevångens vårdcentral"}},"geometry":{"type":"Point","coordinates":[13.0081655,55.5885643]}},{"type":"Feature","properties":{"id":11937407669,"osm_type":"node","name":"Bellevue Vårdcentral","category":"healthcare_center","tags":{"addr:housenumber":"3","addr:postcode":"217 65","addr:street":"Stensjögatan","amenity":"clinic","email":"info@bellevuevardcentral.se","healthcare":"clinic","name":"Bellevue Vårdcentral","name:en":"Bellevue Care Clinic","opening_hours":"Mo-Fr 08:00-12:00, 13:00-17:00","phone":"+46104243000","website":"https://bellevuevardcentral.se/"}},"geometry":{"type":"Point","coordinates":[12.9808628,55.5825937]}},{"type":"Feature","properties":{"id":12073548827,"osm_type":"node","name":"Victoria Vård & Hälsa","category":"healthcare_center","tags":{"addr:city":"Limhamn","addr:housenumber":"2","addr:postcode":"216 32","addr:street":"Lilla Högestensgatan","amenity":"clinic","contact:phone":"+46 40-602 80 30","contact:website":"https://www.victoriavardochhalsa.com/kontakta-oss","healthcare":"clinic","healthcare:speciality":"general;gynaecology;chiropractic;cardiology;psychiatry;otolaryngology;physiatry","name":"Victoria Vård & Hälsa","opening_hours":"Mo-Fr 08:00-16:00","website":"https://www.victoriavardochhalsa.com/"}},"geometry":{"type":"Point","coordinates":[12.9331229,55.572808]}},{"type":"Feature","properties":{"id":12134311783,"osm_type":"node","name":"Vital Vårdcentral","category":"healthcare_center","tags":{"amenity":"doctors","healthcare":"doctor","healthcare:speciality":"general","name":"Vital Vårdcentral","website":"https://vitalvardcentral.se/"}},"geometry":{"type":"Point","coordinates":[13.0465014,55.586829]}},{"type":"Feature","properties":{"id":12238508175,"osm_type":"node","name":"Reproduktionsmottagning RMC","category":"healthcare_center","tags":{"addr:city":"Malmö","addr:country":"SE","addr:housenumber":"11F","addr:postcode":"20502","addr:street":"Östra Varvsgatan","amenity":"doctors","healthcare":"doctor","name":"Reproduktionsmottagning RMC","phone":"+4640332164","website":"https://www.1177.se/Skane/hitta-vard/kontaktkort/Reproduktionsmottagning-Malmo/"}},"geometry":{"type":"Point","coordinates":[12.9856791,55.6157031]}},{"type":"Feature","properties":{"id":12238508176,"osm_type":"node","name":"Logopedimottagning 1","category":"healthcare_center","tags":{"addr:city":"Malmö","addr:country":"SE","addr:housenumber":"11F","addr:postcode":"20502","addr:street":"Östra Varvsgatan","amenity":"doctors","healthcare":"doctor","level":"4","name":"Logopedimottagning 1","phone":"+46406257400","website":"https://vard.skane.se/skanes-universitetssjukhus-sus/mottagningar-och-avdelningar/logopedimottagning-1-malmo/"}},"geometry":{"type":"Point","coordinates":[12.9856362,55.6158001]}},{"type":"Feature","properties":{"id":12238575760,"osm_type":"node","name":"Vuxenpsykiatrimottagning könsidentitet","category":"healthcare_center","tags":{"addr:city":"Malmö","addr:country":"SE","addr:housenumber":"9","addr:postcode":"20502","addr:street":"Hans Michelsensgatan","amenity":"doctors","healthcare":"doctor","level":"12","name":"Vuxenpsykiatrimottagning könsidentitet","phone":"+4640335924","website":"https://vard.skane.se/psykiatri-skane/mottagningar-och-avdelningar/vuxenpsykiatrimottagning-konsidentitet-lund/"}},"geometry":{"type":"Point","coordinates":[12.9995915,55.6123052]}},{"type":"Feature","properties":{"id":12238876626,"osm_type":"node","name":"Hudmottagning","category":"healthcare_center","tags":{"addr:city":"Malmö","addr:country":"SE","addr:housenumber":"18","addr:postcode":"205 02","addr:street":"Jan Waldenströms gata","amenity":"doctors","healthcare":"doctor","healthcare:speciality":"dermatology","level":"6","name":"Hudmottagning","phone":"+4640331750","website":"https://vard.skane.se/skanes-universitetssjukhus-sus/mottagningar-och-avdelningar/hudmottagning-malmo/"}},"geometry":{"type":"Point","coordinates":[13.0011284,55.5876472]}},{"type":"Feature","properties":{"id":12238876627,"osm_type":"node","name":"Hudmottagning ljusbehandling","category":"healthcare_center","tags":{"addr:city":"Malmö","addr:country":"SE","addr:housenumber":"16","addr:postcode":"205 02","addr:street":"Jan Waldenströms gata","amenity":"doctors","healthcare":"doctor","healthcare:speciality":"dermatology","level":"6","name":"Hudmottagning ljusbehandling","phone":"+4640336520","website":"https://vard.skane.se/skanes-universitetssjukhus-sus/mottagningar-och-avdelningar/hudmottagning-ljusbehandling-malmo/"}},"geometry":{"type":"Point","coordinates":[13.0009997,55.5878988]}},{"type":"Feature","properties":{"id":12324034635,"osm_type":"node","name":"Vårdcentralen Kryddgården","category":"healthcare_center","tags":{"addr:city":"Malmö","addr:country":"SE","addr:housenumber":"1","addr:postcode":"21373","addr:street":"Von Troils väg","alt_name":"Vårdcentralen Rosengård;Vårdcentralen Törnrosen","amenity":"clinic","healthcare":"clinic","name":"Vårdcentralen Kryddgården","opening_hours":"Mo-Fr 08:00-17:00","phone":"+46 40-623 48 80","website":"https://www.1177.se/Skane/hitta-vard/kontaktkort/Vardcentralen-Kryddgarden/"}},"geometry":{"type":"Point","coordinates":[13.0487961,55.5861802]}},{"type":"Feature","properties":{"id":12451352394,"osm_type":"node","name":"Doktor24","category":"healthcare_center","tags":{"branch":"Apoteket Källan","healthcare":"vaccination_centre","name":"Doktor24","opening_hours":"Mo-Fr 09:00-13:00; 13:30-17:00","website":"https://doktor24.se/mottagningar/apoteket-kallan/"}},"geometry":{"type":"Point","coordinates":[13.0839596,55.6406337]}},{"type":"Feature","properties":{"id":12582739924,"osm_type":"node","name":"Aleris","category":"healthcare_center","tags":{"addr:city":"Malmö","addr:housenumber":"2","addr:postcode":"215 32","addr:street":"Hyllie Stationstorg","amenity":"clinic","branch":"Specialistvård Malmö Arena","healthcare":"clinic","healthcare:speciality":"gynaecology;general;cardiology;plastic_surgery;weight_loss;physiotherapy","name":"Aleris","opening_hours":"Mo-Fr 08:00-16:00","operator":"Aleris Group AB","operator:type":"private","payment:cards":"only","payment:cash":"no","payment:mastercard":"yes","payment:visa":"yes","website":"https://www.aleris.se/mottagningar/malmo/malmo-arena/"}},"geometry":{"type":"Point","coordinates":[12.9759861,55.5639595]}},{"type":"Feature","properties":{"id":12607211446,"osm_type":"node","name":"Öresundsläkarna","category":"healthcare_center","tags":{"addr:city":"Malmö","addr:housenumber":"80A","addr:postcode":"212 37","addr:street":"Jägersrovägen","amenity":"clinic","contact:email":"info@oresundshalsan.se","contact:phone":"+46 40-49 16 10","contact:website":"https://oresundslakarna.se/kontakt/","healthcare":"clinic","name":"Öresundsläkarna","opening_hours":"Mo-Fr 08:00-16:30","operator:type":"private","payment:cash":"yes","payment:mastercard":"yes","payment:swish":"yes","payment:visa":"yes","website":"https://oresundslakarna.se/"}},"geometry":{"type":"Point","coordinates":[13.0473721,55.57525]}},{"type":"Feature","properties":{"id":12607220992,"osm_type":"node","name":"MACC People Medicinska intyg","category":"healthcare_center","tags":{"addr:city":"Malmö","addr:housenumber":"6E","addr:postcode":"212 35","addr:street":"Derbyvägen","contact:email":"info@intyg.nu","contact:phone":"+46 20-24 71 12","contact:website":"https://intyg.nu/kontakta-oss/","healthcare":"doctor","healthcare:speciality":"medical_certificates","name":"MACC People Medicinska intyg","operator":"MACC People","payment:cash":"no","payment:mastercard":"yes","payment:swish":"yes","payment:visa":"yes","website":"https://intyg.nu/"}},"geometry":{"type":"Point","coordinates":[13.0651886,55.5784188]}},{"type":"Feature","properties":{"id":12607264859,"osm_type":"node","name":"Vårdcentralen Jägersrohälsan","category":"healthcare_center","tags":{"addr:city":"Malmö","addr:housenumber":"6E","addr:postcode":"212 35","addr:street":"Derbyvägen","amenity":"clinic","contact:email":"info@jagersrohalsan.se","contact:phone":"+46 40-40 08 00","contact:website":"https://jagersrohalsan.se/contact-us/","healthcare":"clinic","healthcare:speciality":"diabetology;physiotherapy;psychiatry;gynaecology","name":"Vårdcentralen Jägersrohälsan","opening_hours":"Mo-Fr 08:00-12:00, 13:00-17:00; PH off","operator":"MACC People AB","operator:type":"private","website":"https://jagersrohalsan.se/"}},"geometry":{"type":"Point","coordinates":[13.0652024,55.578395]}},{"type":"Feature","properties":{"id":12618141871,"osm_type":"node","name":"Vårdcentral Stationstorget","category":"healthcare_center","tags":{"addr:city":"Arlöv","addr:housenumber":"24B","addr:postcode":"232 34","addr:street":"Hantverkaregatan","amenity":"clinic","contact:phone":"+46 40-619 50 70","contact:website":"https://www.ptj.se/vardcentral-stationstorget/kontakt--oppettider/","healthcare":"clinic","healthcare:speciality":"psychiatry;vaccination;physiotherapy","name":"Vårdcentral Stationstorget","opening_hours":"Mo-Fr 08:00-17:00","operator":"Praktikertjänst Vårdcentral Stationstorget","operator:type":"private","payment:cash":"no","payment:mastercard":"yes","payment:swish":"yes","payment:visa":"yes","start_date":"2024-09-02","website":"https://www.ptj.se/vardcentral-stationstorget/"}},"geometry":{"type":"Point","coordinates":[13.080287,55.6404881]}},{"type":"Feature","properties":{"id":12618249751,"osm_type":"node","name":"Vårdcentralen Limhamnsläkarna","category":"healthcare_center","tags":{"addr:city":"Limhamn","addr:housenumber":"7","addr:postcode":"216 14","addr:street":"Apoteksgatan","amenity":"clinic","contact:phone":"+46 40-615 01 30","contact:website":"https://www.ptj.se/vardcentralen-limhamnslakarna/kontakt--oppettider/","healthcare":"clinic","name":"Vårdcentralen Limhamnsläkarna","opening_hours":"Mo-Fr 08:00-16:00","operator":"Praktikertjänst Limhamnsläkarna","operator:type":"private","payment:cash":"no","payment:invoice":"yes","payment:mastercard":"yes","payment:swish":"yes","payment:visa":"yes","start_date":"2022-02-01","website":"https://www.ptj.se/vardcentralen-limhamnslakarna/"}},"geometry":{"type":"Point","coordinates":[12.9334988,55.5813794]}},{"type":"Feature","properties":{"id":12618249762,"osm_type":"node","name":"BVC Limhamnsläkarna","category":"healthcare_center","tags":{"addr:city":"Limhamn","addr:housenumber":"45","addr:postcode":"216 14","addr:street":"Linnégatan","amenity":"clinic","contact:phone":"+46 40-615 01 30","contact:website":"https://www.ptj.se/vardcentralen-limhamnslakarna/kontakt--oppettider/","healthcare":"clinic","healthcare:speciality":"paediatrics","name":"BVC Limhamnsläkarna","opening_hours":"Mo-Fr 08:00-16:00","operator":"Praktikertjänst Limhamnsläkarna","operator:type":"private","payment:cash":"no","payment:invoice":"yes","payment:mastercard":"yes","payment:swish":"yes","payment:visa":"yes","start_date":"2022-02-01","website":"https://www.ptj.se/vardcentralen-limhamnslakarna/"}},"geometry":{"type":"Point","coordinates":[12.9335547,55.5815625]}},{"type":"Feature","properties":{"id":12618278619,"osm_type":"node","name":"Vaccincenter Varvet","category":"healthcare_center","tags":{"addr:city":"Malmö","addr:housenumber":"27","addr:postcode":"211 10","addr:street":"Stora Varvsgatan","amenity":"clinic","contact:email":"vaccincenter.varvet@ptj.se","contact:phone":"+46 40-655 66 44","contact:website":"https://www.ptj.se/vaccincenter-varvet/kontakt--oppettider/","healthcare":"clinic","healthcare:speciality":"vaccination","name":"Vaccincenter Varvet","opening_hours":"Mo 10:00-19:00, Tu-Th 10:00-18:00, Fr 10:00-17:00, Sa 10:00-14:00","operator":"Praktikertjänst Vaccincenter Varvet","operator:type":"private","payment:cash":"no","payment:invoice":"no","payment:mastercard":"yes","payment:swish":"no","payment:visa":"yes","website":"https://www.ptj.se/vaccincenter-varvet/"}},"geometry":{"type":"Point","coordinates":[12.9806928,55.6105379]}},{"type":"Feature","properties":{"id":12734094085,"osm_type":"node","name":"Barnavårdscentralen Hyllie","category":"healthcare_center","tags":{"addr:housenumber":"26","addr:street":"Lorensborgsgatan","amenity":"clinic","healthcare":"clinic","name":"Barnavårdscentralen Hyllie","operator:type":"public"}},"geometry":{"type":"Point","coordinates":[12.9738691,55.5766796]}},{"type":"Feature","properties":{"id":12777860495,"osm_type":"node","name":"VaccinDirekt","category":"healthcare_center","tags":{"addr:city":"Malmö","addr:housenumber":"6","addr:postcode":"211 35","addr:street":"Djäknegatan","healthcare":"vaccination_centre","name":"VaccinDirekt","operator":"VaccinDirekt","phone":"+460724526535","website":"https://vaccindirekt.se/mottagningar/malmo-djaknegatan/"}},"geometry":{"type":"Point","coordinates":[13.0047942,55.6056059]}},{"type":"Feature","properties":{"id":13018577502,"osm_type":"node","name":"Provtagning & Klinisk kemi","category":"healthcare_center","tags":{"addr:housenumber":"14","addr:postcode":"214 21","addr:street":"Jan Waldenströms gata","amenity":"clinic","name":"Provtagning & Klinisk kemi","opening_hours":"Mo-Fr 07:00-15:00","phone":"+4640331416","website":"https://www.1177.se/hitta-vard/kontaktkort/Provtagning-Malmo/"}},"geometry":{"type":"Point","coordinates":[13.0004674,55.5883609]}},{"type":"Feature","properties":{"id":13037811521,"osm_type":"node","name":"Dr. Dropin Hudcentrum","category":"healthcare_center","tags":{"amenity":"clinic","healthcare":"clinic","name":"Dr. Dropin Hudcentrum"}},"geometry":{"type":"Point","coordinates":[12.9958642,55.6090181]}},{"type":"Feature","properties":{"id":13037841010,"osm_type":"node","name":"Lirema Ögonklinik","category":"healthcare_center","tags":{"amenity":"clinic","name":"Lirema Ögonklinik"}},"geometry":{"type":"Point","coordinates":[12.9948554,55.6117493]}},{"type":"Feature","properties":{"id":13051584101,"osm_type":"node","name":"Gynekologimottagning akut Malmö","category":"healthcare_center","tags":{"addr:housenumber":"74","addr:postcode":"214 66","addr:street":"Jan Waldenströms gata","amenity":"clinic","name":"Gynekologimottagning akut Malmö","name:en":"Emergency Gynecologist Malmö","opening_hours":"24/7","phone":"+46771111888","website":"https://vard.skane.se/skanes-universitetssjukhus-sus/mottagningar-och-avdelningar/gynekologimottagning-akut-malmo/"}},"geometry":{"type":"Point","coordinates":[12.9999922,55.5875097]}},{"type":"Feature","properties":{"id":13074105701,"osm_type":"node","name":"Svea vaccin","category":"healthcare_center","tags":{"addr:housenumber":"12C","addr:postcode":"211 46","addr:street":"Rådmansgatan","amenity":"clinic","email":"mamot@sveavaccin.se","healthcare":"clinic","level":"0","name":"Svea vaccin","name:en":"Svea Vaccine","opening_hours":"Mo-Fr 10:00-13:30, 14:00-18:00; Sa 10:00-15:00","phone":"+46406170351","website":"https://sveavaccin.se/vara-mottagningar/malmo/triangeln/"}},"geometry":{"type":"Point","coordinates":[13.0006592,55.5954571]}},{"type":"Feature","properties":{"id":13096121734,"osm_type":"node","name":"Evidia Hyllie Röntgen","category":"healthcare_center","tags":{"addr:city":"Malmö","addr:housenumber":"2B","addr:postcode":"21532","addr:street":"Hyllie stationstorg","amenity":"clinic","healthcare":"clinic","healthcare:speciality":"radiology","information":"Drop-in 07:45-15:45","name":"Evidia Hyllie Röntgen","opening_hours":"Mo-Fr 07:30-16:00","phone":"+46 40 619 69 80","website":"https://www.evidia.se/kontakta-oss/enheter/evidia-hyllie-rontgen/"}},"geometry":{"type":"Point","coordinates":[12.9757124,55.5638352]}},{"type":"Feature","properties":{"id":13519709702,"osm_type":"node","name":"Artist- & Musikerhälsan","category":"healthcare_center","tags":{"addr:housenumber":"9B","addr:postcode":"211 47","addr:street":"Östra Rönneholmsvägen","amenity":"clinic","healthcare":"clinic","name":"Artist- & Musikerhälsan","phone":"+46708670647","website":"https://artist-musikerhalsan.se/"}},"geometry":{"type":"Point","coordinates":[12.9981681,55.5971822]}},{"type":"Feature","properties":{"id":13666962001,"osm_type":"node","name":"Hyllie Vårdcentral","category":"healthcare_center","tags":{"amenity":"clinic","name":"Hyllie Vårdcentral","opening_hours":"Mo-Fr 08:00-20:00; Su 11:00-15:00","phone":"+46 40 617 00 07","website":"https://www.hyllie-vardcentral.se"}},"geometry":{"type":"Point","coordinates":[12.9762909,55.5624358]}},{"type":"Feature","properties":{"id":13734757042,"osm_type":"node","name":"Limhamns Sjöstad Vårdcentral","category":"healthcare_center","tags":{"addr:city":"Limhamn","addr:housenumber":"2e","addr:postcode":"216 18","addr:street":"Geijersgatan","amenity":"clinic","contact:phone":"0406148100","healthcare":"clinic","healthcare:speciality":"general","name":"Limhamns Sjöstad Vårdcentral","opening_hours":"Mo 08:00-19:00,Tu 08:00-17:00,We 08:00-19:00,Th-Fr 08:00-17:00,Sa 10:00-14:00, Su off","website":"https://limhamnssjostadvc.se/"}},"geometry":{"type":"Point","coordinates":[12.9388511,55.5913422]}},{"type":"Feature","properties":{"id":87663984,"osm_type":"way","name":"Södervärns Vårdcentral","category":"healthcare_center","tags":{"amenity":"clinic","building":"hospital","building:levels":"3","healthcare":"clinic","name":"Södervärns Vårdcentral","roof:levels":"0"}},"geometry":{"type":"Point","coordinates":[13.0044756,55.5891209]}},{"type":"Feature","properties":{"id":89605796,"osm_type":"way","name":"","category":"healthcare_center","tags":{"amenity":"clinic","building":"yes","healthcare":"clinic"}},"geometry":{"type":"Point","coordinates":[13.0855087,55.6347295]}},{"type":"Feature","properties":{"id":132645778,"osm_type":"way","name":"Capio Citykliniken","category":"healthcare_center","tags":{"addr:city":"Limhamn","addr:country":"SE","addr:housenumber":"56","addr:street":"Järnvägsgatan","amenity":"clinic","building":"yes","healthcare":"clinic","name":"Capio Citykliniken","operator":"Capio","operator:type":"private","operator:wikidata":"Q498606"}},"geometry":{"type":"Point","coordinates":[12.9324897,55.5799675]}},{"type":"Feature","properties":{"id":161293456,"osm_type":"way","name":"Vårdcentralen Husie","category":"healthcare_center","tags":{"addr:city":"Malmö","addr:housenumber":"21","addr:postcode":"212 33","addr:street":"Höjagatan","amenity":"clinic","building":"yes","contact:phone":"+46 40-623 47 00","emergency":"no","healthcare":"clinic","healthcare:speciality":"diabetology;allergology;vaccination;psychiatry;w","loc_name":"Husie vårdcentral","name":"Vårdcentralen Husie","opening_hours":"Mo-Fr 08:00-17:00","website":"https://www.1177.se/Skane/hitta-vard/kontaktkort/Vardcentralen-Husie/"}},"geometry":{"type":"Point","coordinates":[13.0677134,55.5802903]}},{"type":"Feature","properties":{"id":173143944,"osm_type":"way","name":"Bellevue naprapatklinik","category":"healthcare_center","tags":{"addr:city":"Malmö","addr:country":"SE","addr:housenumber":"55","addr:postcode":"216 19","addr:street":"Geijersgatan","building":"office","building:levels":"2","email":"pia@bellevuenaprapatklinik.se","healthcare":"clinic","healthcare:speciality":"chiropractic","name":"Bellevue naprapatklinik","phone":"+4640132313","roof:levels":"1","roof:shape":"gabled","website":"https://bellevuenaprapatklinik.se/"}},"geometry":{"type":"Point","coordinates":[12.9559687,55.5851041]}},{"type":"Feature","properties":{"id":219542114,"osm_type":"way","name":"Rosengårdskliniken","category":"healthcare_center","tags":{"addr:city":"Malmö","addr:country":"SE","addr:housenumber":"8A","addr:postcode":"21373","addr:street":"Von Troils väg","amenity":"clinic","building":"yes","healthcare":"clinic","name":"Rosengårdskliniken","opening_hours":"Mo-Fr 09:00-12:00,13:00-17:00","phone":"+46 40-18 19 19","url":"https://www.1177.se/Skane/hitta-vard/kontaktkort/Rosengardskliniken-Malmo/","website":"https://www.rosengardskliniken.se/"}},"geometry":{"type":"Point","coordinates":[13.0503512,55.5854722]}},{"type":"Feature","properties":{"id":361096422,"osm_type":"way","name":"Arlövs vårdcentral","category":"healthcare_center","tags":{"addr:city":"Arlöv","addr:country":"SE","addr:housenumber":"6","addr:postcode":"232 38","addr:street":"Svenshögsvägen","amenity":"clinic","healthcare":"clinic","name":"Arlövs vårdcentral"}},"geometry":{"type":"Point","coordinates":[13.0854746,55.6346424]}},{"type":"Feature","properties":{"id":1036504110,"osm_type":"way","name":"Svea Vaccin","category":"healthcare_center","tags":{"amenity":"clinic","check_date":"2023-07-13","healthcare":"vaccination_centre","name":"Svea Vaccin","opening_hours":"Mo-Fr 10:00-13:30,14:00-18:00"}},"geometry":{"type":"Point","coordinates":[13.0014533,55.6021312]}},{"type":"Feature","properties":{"id":1036504144,"osm_type":"way","name":"VaccinDirekt","category":"healthcare_center","tags":{"addr:city":"Malmö","addr:housenumber":"5","addr:postcode":"211 43","addr:street":"Södra Förstadsgatan","branch":"Malmö City","contact:email":"malmocity@vaccindirekt.se","contact:phone":"+46 40-22 99 90","healthcare":"vaccination_centre","healthcare:speciality":"vaccination","name":"VaccinDirekt","opening_hours":"Mo 10:00-19:00, Tu-Th 10:00-18:00, Fr 10:00-17:00, Sa 10:00-14:00","operator":"VaccinDirekt i Sverige AB","website":"https://vaccindirekt.se/mottagningar/malmo-city/"}},"geometry":{"type":"Point","coordinates":[13.0008112,55.6003235]}},{"type":"Feature","properties":{"id":1123407450,"osm_type":"way","name":"Vårdcentralen Lindeborg","category":"healthcare_center","tags":{"addr:city":"Malmö","addr:country":"SE","addr:housenumber":"13A","addr:street":"Orkestergatan","building":"healthcare","contact:phone":"+46 40-623 40 20","healthcare":"centre","name":"Vårdcentralen Lindeborg","opening_hours":"Mo-Fr 07:45-17:00","website":"https://www.1177.se/hitta-vard/kontaktkort/Vardcentralen-Lindeborg/"}},"geometry":{"type":"Point","coordinates":[12.9908893,55.5622756]}}]}