{"type":"FeatureCollection","features":[{"type":"Feature","properties":{"id":1607415347,"osm_type":"node","name":"Sightseeing by boat","category":"historic_landmark","tags":{"name":"Sightseeing by boat","tourism":"attraction","wheelchair":"no"}},"geometry":{"type":"Point","coordinates":[12.9958821,55.609576]}},{"type":"Feature","properties":{"id":4396261190,"osm_type":"node","name":"Svängsta Bilservice","category":"historic_landmark","tags":{"advertising":"sign","historic":"yes","name":"Svängsta Bilservice","name:sv":"Svängsta Bilservice"}},"geometry":{"type":"Point","coordinates":[13.0229078,55.5932353]}},{"type":"Feature","properties":{"id":9674528757,"osm_type":"node","name":"","category":"historic_landmark","tags":{"drinking_water":"no","man_made":"water_well","material":"stone","name:signed":"no","tourism":"attraction"}},"geometry":{"type":"Point","coordinates":[12.9873861,55.6047313]}},{"type":"Feature","properties":{"id":11868162176,"osm_type":"node","name":"Scaniabadet","category":"historic_landmark","tags":{"addr:postcode":"211 14","addr:street":"Scaniastigen","email":"malmostad@malmo.se","name":"Scaniabadet","name:en":"Scania Public Bath","opening_hours":"24/7","operator":"City of Malmö","phone":"+4640341000","tourism":"attraction","website":"https://malmo.se/Uppleva-och-gora/Bada-och-simma/Strander-och-badplatser/Scaniabadet.html","wheelchair":"limited","wheelchair:description:en":"Technically yes there is a wooden ramp to the sea, the surface is smooth enough for wheelchairs. But there is no place to park a wheelchair if you want to go for a swim."}},"geometry":{"type":"Point","coordinates":[12.9745619,55.617435]}},{"type":"Feature","properties":{"id":12075550754,"osm_type":"node","name":"Rikstelefon","category":"historic_landmark","tags":{"booth":"yes","name":"Rikstelefon","tourism":"attraction","wheelchair":"no"}},"geometry":{"type":"Point","coordinates":[12.9990201,55.6053529]}},{"type":"Feature","properties":{"id":12100979043,"osm_type":"node","name":"I love Malmo","category":"historic_landmark","tags":{"name":"I love Malmo","tourism":"attraction"}},"geometry":{"type":"Point","coordinates":[13.00094,55.6011702]}},{"type":"Feature","properties":{"id":12450325368,"osm_type":"node","name":"Burlöv Selfie Museum","category":"historic_landmark","tags":{"description":"Tre rum som är byggda för att man ska kunna ta fina självporträtt med sin mobilkamera","description:en":"Three rooms built for selfie photography with your own phone","name":"Burlöv Selfie Museum","opening_hours":"Mo-Fr 10:00-20:00, Sa-Su 10:00-18:00","operator":"Burlöv Center","tourism":"attraction"}},"geometry":{"type":"Point","coordinates":[13.0839851,55.6396165]}},{"type":"Feature","properties":{"id":13786399534,"osm_type":"node","name":"The white buses 1945","category":"historic_landmark","tags":{"name":"The white buses 1945","tourism":"attraction"}},"geometry":{"type":"Point","coordinates":[12.9866966,55.6049814]}},{"type":"Feature","properties":{"id":46104282,"osm_type":"way","name":"Museispårvägen","category":"historic_landmark","tags":{"electrified":"contact_line","frequency":"0","gauge":"1435","historic":"yes","name":"Museispårvägen","preserved":"yes","railway":"tram","tracks":"1","voltage":"750"}},"geometry":{"type":"Point","coordinates":[12.9878612,55.6019145]}},{"type":"Feature","properties":{"id":46104286,"osm_type":"way","name":"Museispårvägen Malmö","category":"historic_landmark","tags":{"electrified":"contact_line","gauge":"1435","historic":"yes","name":"Museispårvägen Malmö","preserved":"yes","railway":"tram"}},"geometry":{"type":"Point","coordinates":[12.983168,55.6052634]}},{"type":"Feature","properties":{"id":46104287,"osm_type":"way","name":"Museispårvägen Malmö","category":"historic_landmark","tags":{"electrified":"contact_line","gauge":"1435","historic":"yes","name":"Museispårvägen Malmö","preserved":"yes","railway":"tram"}},"geometry":{"type":"Point","coordinates":[12.9839646,55.6049838]}},{"type":"Feature","properties":{"id":51745568,"osm_type":"way","name":"","category":"historic_landmark","tags":{"building":"yes","historic":"building","wikidata":"Q10655123"}},"geometry":{"type":"Point","coordinates":[13.0027597,55.6072635]}},{"type":"Feature","properties":{"id":104297624,"osm_type":"way","name":"Barnens Scen","category":"historic_landmark","tags":{"amenity":"theatre","building":"yes","height":"7","historic":"yes","name":"Barnens Scen","roof:shape":"pyramidal","website":"https://www.barnensscen.se/"}},"geometry":{"type":"Point","coordinates":[13.0146551,55.5920688]}},{"type":"Feature","properties":{"id":267876952,"osm_type":"way","name":"","category":"historic_landmark","tags":{"covered":"yes","historic":"yes","preserved":"yes","railway":"tram","source":"bing"}},"geometry":{"type":"Point","coordinates":[12.9824939,55.6055269]}},{"type":"Feature","properties":{"id":288998852,"osm_type":"way","name":"","category":"historic_landmark","tags":{"building":"yes","historic":"yes"}},"geometry":{"type":"Point","coordinates":[13.0074259,55.5937919]}},{"type":"Feature","properties":{"id":288998854,"osm_type":"way","name":"","category":"historic_landmark","tags":{"building":"yes","building:levels":"4","historic":"yes","wikidata":"Q10549993"}},"geometry":{"type":"Point","coordinates":[13.0073603,55.5944563]}},{"type":"Feature","properties":{"id":288998859,"osm_type":"way","name":"","category":"historic_landmark","tags":{"building":"yes","historic":"yes","wikidata":"Q10549993"}},"geometry":{"type":"Point","coordinates":[13.0077591,55.5942454]}},{"type":"Feature","properties":{"id":921326885,"osm_type":"way","name":"","category":"historic_landmark","tags":{"building":"bunker","historic":"yes","military":"bunker"}},"geometry":{"type":"Point","coordinates":[12.9562653,55.599565]}},{"type":"Feature","properties":{"id":933405979,"osm_type":"way","name":"Museispårvägen","category":"historic_landmark","tags":{"electrified":"contact_line","gauge":"1435","historic":"yes","name":"Museispårvägen","preserved":"yes","railway":"tram"}},"geometry":{"type":"Point","coordinates":[12.9855991,55.6051032]}},{"type":"Feature","properties":{"id":933405980,"osm_type":"way","name":"Museispårvägen","category":"historic_landmark","tags":{"bridge":"yes","electrified":"contact_line","gauge":"1435","historic":"yes","layer":"1","name":"Museispårvägen","preserved":"yes","railway":"tram"}},"geometry":{"type":"Point","coordinates":[12.9821711,55.6038678]}},{"type":"Feature","properties":{"id":933496567,"osm_type":"way","name":"U3","category":"historic_landmark","tags":{"building":"ship","floating":"no","historic":"ship","image":"File:U 3 in Malmö 01.08.09.JPG","name":"U3","ship:type":"submarine","tourism":"attraction","website":"https://malmo.se/Uppleva-och-gora/Konst-och-museer/Malmo-Museer/Utstallningar/Aktuella-utstallningar/Fordon-och-farkoster/Ubaten-U3.html","wheelchair":"no","wikidata":"Q10515204","wikipedia":"sv:HMS U3"}},"geometry":{"type":"Point","coordinates":[12.9825554,55.6051035]}},{"type":"Feature","properties":{"id":978830895,"osm_type":"way","name":"Spetsbunkern","category":"historic_landmark","tags":{"building":"yes","colour":"#808080","fixme":"Källa till höjd: https://web.archive.org/web/20130703180111/http://www.expressen.se/kvp/betongklump-skulle-stoppa-bomberna/. Takets höjd uppskattad ur foton","height":"18","historic":"building","material":"concrete","name":"Spetsbunkern","roof:colour":"#4a0505","roof:height":"3.5","roof:material":"metal","roof:shape":"cone"}},"geometry":{"type":"Point","coordinates":[12.9908694,55.6119937]}},{"type":"Feature","properties":{"id":1093230568,"osm_type":"way","name":"Museispårvägen Malmö","category":"historic_landmark","tags":{"covered":"yes","electrified":"contact_line","gauge":"1435","historic":"yes","name":"Museispårvägen Malmö","preserved":"yes","railway":"tram"}},"geometry":{"type":"Point","coordinates":[12.9824596,55.6055566]}},{"type":"Feature","properties":{"id":1093230569,"osm_type":"way","name":"","category":"historic_landmark","tags":{"historic":"yes","preserved":"yes","railway":"tram","source":"bing"}},"geometry":{"type":"Point","coordinates":[12.982622,55.6056085]}}]}