{"type":"FeatureCollection","features":[{"type":"Feature","properties":{"id":4796528222,"osm_type":"node","name":"Minneskliniken","category":"hospital","tags":{"amenity":"hospital","emergency":"yes","healthcare":"hospital","name":"Minneskliniken"}},"geometry":{"type":"Point","coordinates":[13.0596507,55.6114724]}},{"type":"Feature","properties":{"id":5940305316,"osm_type":"node","name":"Ögonmottagning Malmö","category":"hospital","tags":{"addr:city":"Malmö","addr:country":"SE","addr:housenumber":"17","addr:postcode":"205 02","addr:street":"Tora Kjellgrens gata","amenity":"hospital","entrance":"yes","healthcare":"hospital","healthcare:speciality":"ophthalmology","internet_access:fee":"no","level":"0","name":"Ögonmottagning Malmö","phone":"040-33 27 50","website":"https://vard.skane.se/skanes-universitetssjukhus-sus/mottagningar-och-avdelningar/ogonmottagning-malmo"}},"geometry":{"type":"Point","coordinates":[13.0024958,55.5873014]}},{"type":"Feature","properties":{"id":12754603760,"osm_type":"node","name":"Endokrinologimottagning","category":"hospital","tags":{"addr:city":"Malmö","addr:country":"SE","addr:housenumber":"17","addr:street":"Tora Kjellgrens gata","amenity":"hospital","entrance":"yes","healthcare":"hospital","healthcare:speciality":"endocrinology","level":"3","name":"Endokrinologimottagning","phone":"040-33 60 24","website":"https://vard.skane.se/skanes-universitetssjukhus-sus/mottagningar-och-avdelningar/endokrinologimottagning-malmo/"}},"geometry":{"type":"Point","coordinates":[13.0025138,55.5872752]}},{"type":"Feature","properties":{"id":12754666719,"osm_type":"node","name":"Lungavdelning Malmö","category":"hospital","tags":{"addr:city":"Malmö","addr:housenumber":"17","addr:postcode":"214 28","addr:street":"Tora Kjellgrens gata","amenity":"hospital","healthcare":"hospital","healthcare:speciality":"pulmonology","level":"4","name":"Lungavdelning Malmö","phone":"040-33 61 50","website":"https://vard.skane.se/skanes-universitetssjukhus-sus/mottagningar-och-avdelningar/lungavdelning-malmo/"}},"geometry":{"type":"Point","coordinates":[13.0024835,55.587323]}},{"type":"Feature","properties":{"id":28807180,"osm_type":"way","name":"Skånes Universitetsjukhus Malmö","category":"hospital","tags":{"amenity":"hospital","check_date":"2025-06-20","emergency":"yes","health_specialty:emergency_medicine":"yes","health_specialty:family_medicine":"yes","health_specialty:intensive_care_medicine":"yes","health_specialty:orthopaedics":"yes","health_specialty:paediatrics":"yes","health_specialty:surgery":"yes","health_specialty:vascular_surgery":"yes","healthcare":"hospital","name":"Skånes Universitetsjukhus Malmö","opening_hours":"24/7","wheelchair":"yes","wikidata":"Q781200"}},"geometry":{"type":"Point","coordinates":[13.0018988,55.5870809]}}]}