{"type":"FeatureCollection","features":[{"type":"Feature","properties":{"id":444832884,"osm_type":"node","name":"First Hotel Garden","category":"hotel","tags":{"check_date":"2024-09-08","name":"First Hotel Garden","tourism":"hotel"}},"geometry":{"type":"Point","coordinates":[13.0037875,55.6045522]}},{"type":"Feature","properties":{"id":444832888,"osm_type":"node","name":"EliteHotel Residens","category":"hotel","tags":{"name":"EliteHotel Residens","operator":"Elite Hotels","tourism":"hotel"}},"geometry":{"type":"Point","coordinates":[13.0013398,55.607457]}},{"type":"Feature","properties":{"id":444832889,"osm_type":"node","name":"The Mayfair Hotel tunneln","category":"hotel","tags":{"check_date":"2025-05-07","name":"The Mayfair Hotel tunneln","tourism":"hotel"}},"geometry":{"type":"Point","coordinates":[13.0015259,55.6072469]}},{"type":"Feature","properties":{"id":444865281,"osm_type":"node","name":"Hotel Noble House","category":"hotel","tags":{"addr:city":"Malmö","addr:country":"SE","addr:housenumber":"6","addr:postcode":"211 34","addr:street":"Per Weijersgatan","alt_name":"Best Western Plus Hotel Noble House","contact:email":"info@hotelnoblehouse.se","contact:fax":"+46406643050","contact:phone":"+46406643000","contact:website":"http://www.hotelnoblehouse.se","name":"Hotel Noble House","operator":"Best Western","tourism":"hotel"}},"geometry":{"type":"Point","coordinates":[12.9997441,55.6036203]}},{"type":"Feature","properties":{"id":444868954,"osm_type":"node","name":"Scandic Stortorget","category":"hotel","tags":{"addr:city":"Malmö","addr:country":"SE","addr:housenumber":"15","addr:street":"Stortorget","brand":"Scandic Hotels","brand:wikidata":"Q129391","name":"Scandic Stortorget","tourism":"hotel","wheelchair":"limited"}},"geometry":{"type":"Point","coordinates":[12.9989894,55.6057336]}},{"type":"Feature","properties":{"id":444869482,"osm_type":"node","name":"Moment Hotels","category":"hotel","tags":{"addr:city":"Malmö","addr:country":"SE","addr:housenumber":"54","addr:street":"Norra Vallgatan","check_date":"2025-09-08","name":"Moment Hotels","toilets:wheelchair":"yes","tourism":"hotel","website":"https://www.momenthotels.com/","wheelchair":"yes"}},"geometry":{"type":"Point","coordinates":[13.0016056,55.6077984]}},{"type":"Feature","properties":{"id":603085817,"osm_type":"node","name":"First Hotel Jörgen Kock","category":"hotel","tags":{"addr:city":"Malmö","addr:country":"SE","addr:housenumber":"3","addr:street":"Jörgen Kocksgatan","brand":"First Hotels","brand:wikidata":"Q11969007","name":"First Hotel Jörgen Kock","operator":"First Hotels","tourism":"hotel","website":"https://www.firsthotels.com/sv/Vara-hotell/Sverige/Malmoe/First-Hotel-Jorgen-Kock/","website:da":"https://www.firsthotels.dk/hoteller/sverige/malmo/first-hotel-jorgen-kock/","website:en":"https://www.firsthotels.com/hotels/sweden/malmo/first-hotel-jorgen-kock/","website:no":"https://www.firsthotels.no/hoteller/sverige/malmo/first-hotel-jorgen-kock/","website:sv":"https://www.firsthotels.se/hotell/sverige/malmo/first-hotel-jorgen-kock/"}},"geometry":{"type":"Point","coordinates":[12.9995023,55.6113835]}},{"type":"Feature","properties":{"id":1035561825,"osm_type":"node","name":"Scandic Segevång","category":"hotel","tags":{"internet_access":"wlan","name":"Scandic Segevång","payment:cash":"no","phone":"+46 40 6934500","stars":"4","tourism":"hotel","website":"https://www.scandichotels.com/Hotels/Sweden/Malmo/Scandic-Segevang/","wheelchair":"yes"}},"geometry":{"type":"Point","coordinates":[13.0633118,55.6186003]}},{"type":"Feature","properties":{"id":1181418038,"osm_type":"node","name":"Best Western Hotel Royal","category":"hotel","tags":{"brand":"Best Western","brand:wikidata":"Q830334","name":"Best Western Hotel Royal","tourism":"hotel"}},"geometry":{"type":"Point","coordinates":[12.9953619,55.6065502]}},{"type":"Feature","properties":{"id":1751710259,"osm_type":"node","name":"Henrik Smith Residence","category":"hotel","tags":{"description":"World Maritime University Student Hostel","name":"Henrik Smith Residence","tourism":"hostel"}},"geometry":{"type":"Point","coordinates":[13.014118,55.5991972]}},{"type":"Feature","properties":{"id":1855385441,"osm_type":"node","name":"Rut & Ragnars Vandrarhem AB","category":"hotel","tags":{"addr:city":"Malmö","addr:country":"SE","addr:housenumber":"113","addr:postcode":"214 33","addr:street":"Nobelvägen","email":"info@rutochragnars.se","guest_house":"hostel","internet_access":"wlan","name":"Rut & Ragnars Vandrarhem AB","phone":"+46 40 6116060","tourism":"hostel","website":"https://www.rutochragnars.se/"}},"geometry":{"type":"Point","coordinates":[13.0219589,55.5942989]}},{"type":"Feature","properties":{"id":2291411019,"osm_type":"node","name":"Elite Hotel Savoy Malmö","category":"hotel","tags":{"addr:city":"Malmö","addr:country":"SE","addr:housenumber":"62","addr:postcode":"21122","addr:street":"Norra Vallgatan","brand":"Elite","contact:phone":"+46 40 664 48 00","name":"Elite Hotel Savoy Malmö","tourism":"hotel","website":"https://elite.se/"}},"geometry":{"type":"Point","coordinates":[13.0002187,55.6076532]}},{"type":"Feature","properties":{"id":2293728921,"osm_type":"node","name":"Elite Hotel Plaza","category":"hotel","tags":{"addr:city":"Malmö","addr:country":"SE","addr:housenumber":"49","addr:postcode":"201 80","addr:street":"Gustav Adolfs torg","email":"info.plazamalmo@elite.se","internet_access":"wlan","internet_access:fee":"no","name":"Elite Hotel Plaza","phone":"+46 40 6644870","toilets:wheelchair":"yes","tourism":"hotel","website":"https://www.elite.se/en/hotels/malmo/elite-plaza-hotel-malmo/","wheelchair":"yes"}},"geometry":{"type":"Point","coordinates":[12.999329,55.6032015]}},{"type":"Feature","properties":{"id":2293728948,"osm_type":"node","name":"Hotel Noble House","category":"hotel","tags":{"name":"Hotel Noble House","tourism":"hotel"}},"geometry":{"type":"Point","coordinates":[12.9998484,55.6032163]}},{"type":"Feature","properties":{"id":2295943593,"osm_type":"node","name":"The More Hotel","category":"hotel","tags":{"check_date":"2024-07-08","name":"The More Hotel","tourism":"hotel","wikidata":"Q111875666"}},"geometry":{"type":"Point","coordinates":[13.006539,55.5943218]}},{"type":"Feature","properties":{"id":2715579189,"osm_type":"node","name":"Hotell Norrvalla","category":"hotel","tags":{"name":"Hotell Norrvalla","tourism":"hotel"}},"geometry":{"type":"Point","coordinates":[13.004999,55.608142]}},{"type":"Feature","properties":{"id":3358053111,"osm_type":"node","name":"Continental Hotel","category":"hotel","tags":{"addr:city":"Malmö","addr:country":"SE","addr:housenumber":"2","addr:postcode":"211 33","addr:street":"Hospitalsgatan","check_date":"2025-04-18","name":"Continental Hotel","phone":"+46 40 121977","tourism":"hotel","website":"www.continental-hotel.se","wheelchair":"limited"}},"geometry":{"type":"Point","coordinates":[12.995573,55.6043275]}},{"type":"Feature","properties":{"id":3393579536,"osm_type":"node","name":"Scandic Sankt Jörgen","category":"hotel","tags":{"addr:city":"Malmö","addr:country":"SE","addr:housenumber":"35","addr:postcode":"211 37","addr:street":"Stora Nygatan","brand":"Scandic Hotels","brand:wikidata":"Q129391","name":"Scandic Sankt Jörgen","short_name":"Scandic S:t Jörgen","tourism":"hotel","wikidata":"Q111410183"}},"geometry":{"type":"Point","coordinates":[13.0017909,55.6035172]}},{"type":"Feature","properties":{"id":3398710390,"osm_type":"node","name":"Scandic Malmö City","category":"hotel","tags":{"brand":"Scandic Hotels","brand:wikidata":"Q129391","name":"Scandic Malmö City","tourism":"hotel","wheelchair":"yes","wikidata":"Q111410186"}},"geometry":{"type":"Point","coordinates":[13.0040424,55.6009917]}},{"type":"Feature","properties":{"id":3470842010,"osm_type":"node","name":"Clarion Hotel Malmö Live","category":"hotel","tags":{"addr:country":"SE","addr:housenumber":"2","addr:street":"Dag Hammarskjölds torg","brand":"Clarion","brand:wikidata":"Q10454567","name":"Clarion Hotel Malmö Live","operator":"Clarion","tourism":"hotel"}},"geometry":{"type":"Point","coordinates":[12.9943943,55.6072965]}},{"type":"Feature","properties":{"id":3786483535,"osm_type":"node","name":"Quality Hotel View","category":"hotel","tags":{"addr:city":"Malmö","addr:country":"SE","addr:housenumber":"29","addr:postcode":"21532","addr:street":"Hyllie stationstorg","bar":"yes","brand":"Quality Hotel","contact:email":"q.view@choice.se","contact:phone":"+46 40 37 41 00","name":"Quality Hotel View","rooms":"302","tourism":"hotel","website":"https://www.nordicchoicehotels.se/hotell/sverige/malmo/quality-hotel-view/","wikidata":"Q111410189"}},"geometry":{"type":"Point","coordinates":[12.9762326,55.5619302]}},{"type":"Feature","properties":{"id":3929741009,"osm_type":"node","name":"Radisson Blu","category":"hotel","tags":{"addr:city":"Malmö","addr:country":"SE","addr:housenumber":"10","addr:street":"Östergatan","brand":"Radisson Blu","brand:wikidata":"Q7281341","brand:wikipedia":"en:Radisson Blu","name":"Radisson Blu","tourism":"hotel"}},"geometry":{"type":"Point","coordinates":[13.0077105,55.6076558]}},{"type":"Feature","properties":{"id":4359242138,"osm_type":"node","name":"Havshotellet Limhamn","category":"hotel","tags":{"addr:housenumber":"50","addr:postcode":"216 12","addr:street":"Strandgatan","check_date":"2026-05-15","contact:facebook":"Havshotellet","contact:instagram":"havshotellet","contact:twitter":"HavshotelletSWE","email":"info@havshotelletmalmo.se","name":"Havshotellet Limhamn","phone":"+46 40 16 20 30","tourism":"hotel","website":"https://havshotelletmalmo.se/"}},"geometry":{"type":"Point","coordinates":[12.9216747,55.5822828]}},{"type":"Feature","properties":{"id":6462975064,"osm_type":"node","name":"Grand Circus Hotel","category":"hotel","tags":{"addr:housenumber":"51","addr:street":"Södra Bulltoftavägen","beds":"24","check_date":"2025-08-19","check_date:internet_access":"2025-08-19","contact:email":"grandcircushotel@gmail.com","internet_access":"wlan","name":"Grand Circus Hotel","phone":"+4670525708","tourism":"hotel","website":"https://grandcircushotel.com/"}},"geometry":{"type":"Point","coordinates":[13.0442453,55.603653]}},{"type":"Feature","properties":{"id":8606570483,"osm_type":"node","name":"The Nooq Malmö","category":"hotel","tags":{"addr:city":"Malmö","addr:country":"SE","addr:housenumber":"10","addr:postcode":"21119","addr:street":"Stora Varvsgatan","check_date":"2026-05-03","contact:instagram":"the.nooq","internet_access":"wlan","name":"The Nooq Malmö","phone":"+46406522195","tourism":"hotel","website":"https://thenooq.se/#hotels"}},"geometry":{"type":"Point","coordinates":[12.989073,55.6121243]}},{"type":"Feature","properties":{"id":9277943232,"osm_type":"node","name":"","category":"hotel","tags":{"addr:country":"SE","addr:housenumber":"41","entrance":"yes","tourism":"guest_house"}},"geometry":{"type":"Point","coordinates":[12.9775193,55.5831226]}},{"type":"Feature","properties":{"id":10737975049,"osm_type":"node","name":"MJs","category":"hotel","tags":{"addr:city":"Malmö","addr:country":"SE","addr:housenumber":"13","addr:street":"Mäster Johansgatan","brand":"ESS Group","internet_access":"yes","name":"MJs","phone":"+46 40 664 64 00","tourism":"hotel","website":"https://mjs.life/#"}},"geometry":{"type":"Point","coordinates":[12.9978395,55.6058691]}},{"type":"Feature","properties":{"id":29784950,"osm_type":"way","name":"Hotel Scandic Triangeln","category":"hotel","tags":{"addr:city":"Malmö","addr:country":"SE","addr:housenumber":"2","addr:postcode":"21143","addr:street":"Triangeln","bar":"yes","brand":"Scandic Hotel","building":"yes","building:colour":"beige","building:levels":"22","contact:facebook":"https://facebook.com/scandictriangeln","email":"triangeln@scandichotels.com","fax":"+46 40 6934711","height":"69","internet_access":"wlan","internet_access:fee":"no","internet_access:ssid":"scandic_easy","name":"Hotel Scandic Triangeln","phone":"+46406934700","roof:colour":"gray","start_date":"1989","toilets:wheelchair":"yes","tourism":"hotel","website":"https://www.scandichotels.se/hotell/sverige/malmo/scandic-triangeln","wheelchair":"yes","wikidata":"Q17457554","wikipedia":"sv:Scandic Triangeln"}},"geometry":{"type":"Point","coordinates":[13.0013953,55.5963503]}},{"type":"Feature","properties":{"id":30407148,"osm_type":"way","name":"Mäster Johan","category":"hotel","tags":{"alt_name":"MJ's","brand":"Best Western","brand:wikidata":"Q830334","brand:wikipedia":"en:Best Western","building":"yes","check_date":"2024-05-30","name":"Mäster Johan","operator":"Best Western","tourism":"hotel","wheelchair":"limited"}},"geometry":{"type":"Point","coordinates":[12.9976681,55.6059056]}},{"type":"Feature","properties":{"id":52243638,"osm_type":"way","name":"Comfort Hotel Malmö","category":"hotel","tags":{"addr:city":"Malmö","addr:country":"SE","addr:housenumber":"10C","addr:postcode":"211 20","addr:street":"Carlsgatan","building":"yes","check_date":"2025-11-21","internet_access":"wlan","internet_access:fee":"no","name":"Comfort Hotel Malmö","opening_hours":"24/7","operator":"Choice Hotels Scandinavia","payment:cash":"no","payment:credit_cards":"yes","payment:debit_cards":"yes","phone":"+46 40 33 04 40","roof:shape":"gabled","tourism":"hotel","website":"https://choice.se/","wheelchair":"yes"}},"geometry":{"type":"Point","coordinates":[13.0009882,55.6110513]}},{"type":"Feature","properties":{"id":52518466,"osm_type":"way","name":"Goodmorning+ Hotel Malmö","category":"hotel","tags":{"addr:city":"Malmö","addr:country":"SE","addr:housenumber":"21","addr:postcode":"217 62","addr:street":"Stadiongatan","building":"yes","name":"Goodmorning+ Hotel Malmö","phone":"+46 40 672 85 70","tourism":"hotel"}},"geometry":{"type":"Point","coordinates":[12.9934594,55.5810509]}},{"type":"Feature","properties":{"id":102209299,"osm_type":"way","name":"Quality Hotel The Mill","category":"hotel","tags":{"addr:city":"Malmö","addr:country":"SE","addr:housenumber":"19","addr:street":"Amiralsgatan","alt_name":"Quality Hotel Konserthuset","building":"yes","building:levels":"13","internet_access":"wlan","name":"Quality Hotel The Mill","phone":"+46 40 664 60 00","source":"Bing","tourism":"hotel","website":"https://www.nordicchoicehotels.com/hotels/sweden/malmo/quality-hotel-the-mill/","wikidata":"Q111875665"}},"geometry":{"type":"Point","coordinates":[13.0073982,55.5995646]}},{"type":"Feature","properties":{"id":155719722,"osm_type":"way","name":"Best Western Hotel Jägersro","category":"hotel","tags":{"addr:city":"Malmö","addr:country":"SE","addr:housename":"Best Western Hotel Jägersro","addr:housenumber":"160","addr:street":"Jägersrovägen","brand":"Best Western","brand:wikidata":"Q830334","building":"yes","name":"Best Western Hotel Jägersro","tourism":"hotel"}},"geometry":{"type":"Point","coordinates":[13.0617868,55.5691896]}},{"type":"Feature","properties":{"id":166505253,"osm_type":"way","name":"Best Western Plus Park City","category":"hotel","tags":{"addr:city":"Malmö","addr:country":"SE","addr:housenumber":"2","addr:postcode":"21119","addr:street":"Sjömansgatan","brand":"Best Western Plus","brand:wikidata":"Q830334","building":"yes","email":"hotelmalmo@parkcity.se","internet_access":"wlan","internet_access:fee":"no","name":"Best Western Plus Park City","phone":"+46 40 628 60 00","tourism":"hotel","website":"https://ligula.se/en/bestwesternplus/best-western-park-city-malmo/","wheelchair":"limited"}},"geometry":{"type":"Point","coordinates":[12.9801574,55.6097977]}},{"type":"Feature","properties":{"id":208669166,"osm_type":"way","name":"Arlöv Park Hotel","category":"hotel","tags":{"addr:city":"Arlöv","addr:country":"SE","addr:housenumber":"10","addr:street":"Kronetorpsvägen","building":"yes","name":"Arlöv Park Hotel","tourism":"hotel"}},"geometry":{"type":"Point","coordinates":[13.0808749,55.6467169]}},{"type":"Feature","properties":{"id":208690575,"osm_type":"way","name":"","category":"hotel","tags":{"building":"yes","tourism":"hostel"}},"geometry":{"type":"Point","coordinates":[13.0695349,55.6251242]}},{"type":"Feature","properties":{"id":208690585,"osm_type":"way","name":"","category":"hotel","tags":{"addr:city":"Arlöv","addr:country":"SE","addr:housenumber":"165","addr:street":"Allégatan","building":"yes","tourism":"hostel"}},"geometry":{"type":"Point","coordinates":[13.0693834,55.6252863]}},{"type":"Feature","properties":{"id":332190875,"osm_type":"way","name":"Malmö Arena Hotel","category":"hotel","tags":{"addr:country":"SE","addr:housenumber":"2","addr:street":"Hyllie boulevard","bar":"yes","brand":"Best Western","brand:wikidata":"Q830334","breakfast":"yes","building":"yes","building:levels":"16","email":"info@malmoarenahotel.com","gym":"mini","height":"62","internet_access":"wlan","internet_access:fee":"no","name":"Malmö Arena Hotel","opening_hours":"24/7","operator":"Best Western","phone":"+46 40 642 04 00","rooms":"395","smoking":"outside","stars":"3","tourism":"hotel","website":"https://malmoarenahotel.com"}},"geometry":{"type":"Point","coordinates":[12.9758234,55.5655941]}},{"type":"Feature","properties":{"id":462883288,"osm_type":"way","name":"Ohboy Hotell","category":"hotel","tags":{"addr:city":"Malmö","addr:country":"SE","addr:housenumber":"24","addr:postcode":"21175","addr:street":"Lilla Varvsgatan","building":"hotel","building:levels":"7","check_date":"2026-05-06","email":"info@ohboy.se","name":"Ohboy Hotell","phone":"+46 40 85606","roof:levels":"1","tourism":"hotel","website":"https://ohboy.se/"}},"geometry":{"type":"Point","coordinates":[12.9833319,55.6142021]}},{"type":"Feature","properties":{"id":1093128509,"osm_type":"way","name":"Home Hotel Baltzar","category":"hotel","tags":{"addr:city":"Malmö","addr:country":"SE","addr:housenumber":"45","addr:street":"Baltzarsgatan","contact:website":"https://www.strawberry.se/hotell/sverige/malmo/home-hotel-baltzar/","name":"Home Hotel Baltzar","tourism":"hotel"}},"geometry":{"type":"Point","coordinates":[13.0018039,55.6047067]}},{"type":"Feature","properties":{"id":1093128529,"osm_type":"way","name":"Home Hotel Temperance","category":"hotel","tags":{"addr:city":"Malmö","addr:country":"SE","addr:housenumber":"16","addr:postcode":"211 33","addr:street":"Engelbrektsgatan","brand":"Home Hotel","brand:wikidata":"Q10454567","name":"Home Hotel Temperance","not:brand:wikidata":"Q135249100","old_name":"Clarion Collection Hotel Temperance","tfn":"040-71020","toilets:wheelchair":"yes","tourism":"hotel","wheelchair":"yes"}},"geometry":{"type":"Point","coordinates":[12.9984265,55.6039232]}},{"type":"Feature","properties":{"id":1094515818,"osm_type":"way","name":"The More Hotel","category":"hotel","tags":{"addr:city":"Malmö","addr:country":"SE","addr:housenumber":"26","addr:postcode":"21175","addr:street":"Lilla Varvsgatan","building":"yes","check_date":"2026-05-06","email":"vh@themorehotel.com","name":"The More Hotel","phone":"+46 40 653 88 00","tourism":"hotel","website":"https://www.themorehotel.se/en/hotel-malmo-vastra-hamnen/"}},"geometry":{"type":"Point","coordinates":[12.9843728,55.6144302]}},{"type":"Feature","properties":{"id":1435064303,"osm_type":"way","name":"Story Hotel Studio Malmo, Part of JDV by Hyatt","category":"hotel","tags":{"addr:city":"Malmö","addr:housenumber":"1","addr:place":"Tyfonen","addr:postcode":"21119","air_conditioning":"yes","bar":"yes","brand":"Hyatt","brand:wikidata":"Q1425063","building":"yes","contact:facebook":"https://www.facebook.com/storyhotels/","description":"4-star hotel in Malmoe, Sweden.","email":"info@storyhotel-studiomalmo.com","internet_access":"yes","internet_access:fee":"customers","name":"Story Hotel Studio Malmo, Part of JDV by Hyatt","opening_hours":"24/7","operator":"Hyatt Hotels Corporation","payment:american_express":"yes","payment:cash":"yes","payment:credit_cards":"yes","payment:debit_cards":"yes","payment:diners_club":"yes","payment:discover_card":"yes","payment:maestro":"yes","payment:mastercard":"yes","payment:visa":"yes","payment:visa_electron":"yes","phone":"+46 40 616 52 00","reservation":"yes","rooms":"95","short_name":"Story Hotel Studio Malmö","smoking":"no","stars":"4","tourism":"hotel","website":"https://www.hyatt.com/jdv-by-hyatt/en-US/mmxjd-story-hotel-studio-malmo","wheelchair":"yes","wikidata":"Q111410174"}},"geometry":{"type":"Point","coordinates":[12.9951892,55.611845]}},{"type":"Feature","properties":{"id":446664,"osm_type":"relation","name":"Hotel Kramer","category":"hotel","tags":{"alt_name":"Scandic Kramer","building":"yes","building:levels":"4","name":"Hotel Kramer","operator":"Scandic","tourism":"hotel","type":"multipolygon","website":"https://www.scandichotels.com/en/hotels/scandic-kramer","wikidata":"Q10526585"}},"geometry":{"type":"Point","coordinates":[12.9994422,55.6069127]}},{"type":"Feature","properties":{"id":7872479,"osm_type":"relation","name":"Teaterhotellet","category":"hotel","tags":{"addr:city":"Malmö","addr:country":"SE","addr:housenumber":"20","addr:street":"Fersens väg","internet_access":"wlan","internet_access:fee":"no","name":"Teaterhotellet","phone":"+46 40 6655800","stars":"3","tourism":"hotel","type":"multipolygon","website":"https://teaterhotellet.se/"}},"geometry":{"type":"Point","coordinates":[12.9968168,55.5975375]}},{"type":"Feature","properties":{"id":9444570,"osm_type":"relation","name":"Elite Hotel Esplanade","category":"hotel","tags":{"building":"yes","height":"12 m","name":"Elite Hotel Esplanade","tourism":"hotel","type":"multipolygon","wikidata":"Q7312432"}},"geometry":{"type":"Point","coordinates":[12.9976877,55.605454]}}]}