{"type":"FeatureCollection","features":[{"type":"Feature","properties":{"id":1293126934,"osm_type":"node","name":"Mossebo förskola","category":"kindergarten","tags":{"alt_name":"Mossebo dagis","amenity":"kindergarten","name":"Mossebo förskola","old_name":"Husie allergiförskola"}},"geometry":{"type":"Point","coordinates":[13.0855217,55.5815285]}},{"type":"Feature","properties":{"id":2376160209,"osm_type":"node","name":"","category":"kindergarten","tags":{"amenity":"kindergarten"}},"geometry":{"type":"Point","coordinates":[12.9143705,55.558122]}},{"type":"Feature","properties":{"id":2932124335,"osm_type":"node","name":"Lugnets förskola","category":"kindergarten","tags":{"amenity":"kindergarten","name":"Lugnets förskola"}},"geometry":{"type":"Point","coordinates":[13.004036,55.5982265]}},{"type":"Feature","properties":{"id":3352895194,"osm_type":"node","name":"","category":"kindergarten","tags":{"amenity":"kindergarten"}},"geometry":{"type":"Point","coordinates":[13.0637504,55.5822534]}},{"type":"Feature","properties":{"id":3359288094,"osm_type":"node","name":"Lorens förskola","category":"kindergarten","tags":{"amenity":"kindergarten","education":"kindergarten","name":"Lorens förskola"}},"geometry":{"type":"Point","coordinates":[12.9954221,55.6049892]}},{"type":"Feature","properties":{"id":3359288096,"osm_type":"node","name":"Tranans förskola","category":"kindergarten","tags":{"amenity":"kindergarten","education":"kindergarten","name":"Tranans förskola"}},"geometry":{"type":"Point","coordinates":[12.9960447,55.6039956]}},{"type":"Feature","properties":{"id":5158269943,"osm_type":"node","name":"Förskolan Prästkragen","category":"kindergarten","tags":{"addr:city":"Arlöv","addr:country":"SE","addr:housenumber":"28","addr:postcode":"232 33","addr:street":"Dalbyvägen","amenity":"kindergarten","name":"Förskolan Prästkragen"}},"geometry":{"type":"Point","coordinates":[13.0796439,55.634023]}},{"type":"Feature","properties":{"id":7128267686,"osm_type":"node","name":"Älggårdens förskola","category":"kindergarten","tags":{"addr:city":"Limhamn","addr:country":"SE","addr:housenumber":"14","addr:postcode":"21613","addr:street":"Älggatan","amenity":"kindergarten","check_date":"2025-07-11","name":"Älggårdens förskola"}},"geometry":{"type":"Point","coordinates":[12.9412119,55.5861994]}},{"type":"Feature","properties":{"id":7741158386,"osm_type":"node","name":"","category":"kindergarten","tags":{"amenity":"kindergarten"}},"geometry":{"type":"Point","coordinates":[12.9628937,55.5554023]}},{"type":"Feature","properties":{"id":8606570484,"osm_type":"node","name":"Sjösättningens förskola","category":"kindergarten","tags":{"addr:city":"Malmö","addr:country":"SE","addr:housenumber":"15b","addr:street":"Stora Varvsgatan","amenity":"kindergarten","check_date":"2025-12-21","education":"kindergarten","name":"Sjösättningens förskola"}},"geometry":{"type":"Point","coordinates":[12.9848713,55.6114102]}},{"type":"Feature","properties":{"id":8612500740,"osm_type":"node","name":"Småvisan","category":"kindergarten","tags":{"alt_name":"Småvisans förskola","amenity":"kindergarten","education":"kindergarten","name":"Småvisan","website":"https://smavisansforskola.se/"}},"geometry":{"type":"Point","coordinates":[12.9826183,55.6140963]}},{"type":"Feature","properties":{"id":9214826249,"osm_type":"node","name":"Storken","category":"kindergarten","tags":{"addr:city":"Malmö","addr:country":"SE","addr:housenumber":"16","addr:street":"Gasverksgatan","amenity":"kindergarten","name":"Storken","operator":"Malmö kommun","operator:type":"public","website":"https://malmo.se/Bo-och-leva/Utbildning-och-forskola/Forskola/Forskolor-A-O/Forskolor/S/Storkens-forskola.html"}},"geometry":{"type":"Point","coordinates":[13.0096616,55.6049421]}},{"type":"Feature","properties":{"id":9214826250,"osm_type":"node","name":"Peter Pans förskola","category":"kindergarten","tags":{"addr:city":"Malmö","addr:country":"SE","addr:housenumber":"8","addr:postcode":"21129","addr:street":"Gasverksgatan","amenity":"kindergarten","name":"Peter Pans förskola","opening_hours":"Mo-Fr 07:30-17:15","website":"https://www.peterpansforskola.se/"}},"geometry":{"type":"Point","coordinates":[13.0092286,55.6050814]}},{"type":"Feature","properties":{"id":9483339838,"osm_type":"node","name":"Äventyrsbåtens förskola","category":"kindergarten","tags":{"amenity":"kindergarten","check_date":"2024-02-18","education":"kindergarten","name":"Äventyrsbåtens förskola","operator":"Norlandia","operator:type":"private"}},"geometry":{"type":"Point","coordinates":[12.9788956,55.6125124]}},{"type":"Feature","properties":{"id":9509332281,"osm_type":"node","name":"Nattfjärilens OB-förskola","category":"kindergarten","tags":{"addr:city":"Malmö","addr:country":"SE","addr:housenumber":"52G-H","addr:postcode":"216 23","addr:street":"Elinelundsvägen","amenity":"kindergarten","name":"Nattfjärilens OB-förskola","operator":"Malmö stad","operator:type":"government","preschool":"yes"}},"geometry":{"type":"Point","coordinates":[12.957763,55.5660769]}},{"type":"Feature","properties":{"id":9516740482,"osm_type":"node","name":"Ubåtens förskola","category":"kindergarten","tags":{"amenity":"kindergarten","check_date":"2024-04-20","education":"kindergarten","name":"Ubåtens förskola"}},"geometry":{"type":"Point","coordinates":[12.9847562,55.6087493]}},{"type":"Feature","properties":{"id":9544886962,"osm_type":"node","name":"Tritons förskola","category":"kindergarten","tags":{"addr:country":"SE","addr:housenumber":"7","addr:street":"Argogatan","amenity":"kindergarten","education":"kindergarten","name":"Tritons förskola"}},"geometry":{"type":"Point","coordinates":[12.9878166,55.6074358]}},{"type":"Feature","properties":{"id":9841490036,"osm_type":"node","name":"Juvelens Förskola","category":"kindergarten","tags":{"addr:city":"Malmö","addr:country":"SE","addr:housenumber":"19B","addr:postcode":"211 49","addr:street":"Kungsgatan","amenity":"kindergarten","name":"Juvelens Förskola"}},"geometry":{"type":"Point","coordinates":[13.0158716,55.6040669]}},{"type":"Feature","properties":{"id":9868119817,"osm_type":"node","name":"Molnets förskola","category":"kindergarten","tags":{"amenity":"kindergarten","check_date":"2024-07-07","level":"4","name":"Molnets förskola","operator":"Malmö stad","operator:type":"government","operator:wikidata":"Q503361"}},"geometry":{"type":"Point","coordinates":[13.0064636,55.5866827]}},{"type":"Feature","properties":{"id":10752148647,"osm_type":"node","name":"Cymbalens Förskola AB","category":"kindergarten","tags":{"amenity":"kindergarten","name":"Cymbalens Förskola AB"}},"geometry":{"type":"Point","coordinates":[13.0367912,55.6090382]}},{"type":"Feature","properties":{"id":10752148648,"osm_type":"node","name":"Kirsebergstornets Förskola","category":"kindergarten","tags":{"amenity":"kindergarten","name":"Kirsebergstornets Förskola"}},"geometry":{"type":"Point","coordinates":[13.035206,55.6093848]}},{"type":"Feature","properties":{"id":10978609656,"osm_type":"node","name":"Björnens förskola","category":"kindergarten","tags":{"addr:city":"Malmö","addr:country":"SE","addr:housenumber":"8","addr:street":"Holmgatan","amenity":"kindergarten","name":"Björnens förskola"}},"geometry":{"type":"Point","coordinates":[12.9978321,55.5978649]}},{"type":"Feature","properties":{"id":11086091977,"osm_type":"node","name":"Kaptenens förskola","category":"kindergarten","tags":{"addr:country":"SE","addr:housenumber":"9","addr:street":"Tampgatan","amenity":"kindergarten","education":"kindergarten","name":"Kaptenens förskola","operator":"Malmö stad","operator:type":"government","operator:wikidata":"Q503361"}},"geometry":{"type":"Point","coordinates":[12.9805061,55.6109756]}},{"type":"Feature","properties":{"id":11280924958,"osm_type":"node","name":"Gullängens förskola","category":"kindergarten","tags":{"addr:housenumber":"21","addr:street":"Västanforsgatan","amenity":"kindergarten","name":"Gullängens förskola"}},"geometry":{"type":"Point","coordinates":[13.0244434,55.5840706]}},{"type":"Feature","properties":{"id":11293604046,"osm_type":"node","name":"Estetens Förskola","category":"kindergarten","tags":{"amenity":"kindergarten","education":"kindergarten","name":"Estetens Förskola","operator:type":"public"}},"geometry":{"type":"Point","coordinates":[13.0179914,55.5780644]}},{"type":"Feature","properties":{"id":11293604047,"osm_type":"node","name":"Tornfalkens Förskola","category":"kindergarten","tags":{"amenity":"kindergarten","education":"kindergarten","name":"Tornfalkens Förskola","operator:type":"public"}},"geometry":{"type":"Point","coordinates":[13.0140349,55.5677985]}},{"type":"Feature","properties":{"id":11648603277,"osm_type":"node","name":"Sagoskeppet","category":"kindergarten","tags":{"amenity":"kindergarten","name":"Sagoskeppet","operator":"Norlandia","operator:type":"private"}},"geometry":{"type":"Point","coordinates":[12.9840513,55.5880111]}},{"type":"Feature","properties":{"id":11862152028,"osm_type":"node","name":"Draken","category":"kindergarten","tags":{"amenity":"kindergarten","name":"Draken"}},"geometry":{"type":"Point","coordinates":[13.0107757,55.5930173]}},{"type":"Feature","properties":{"id":12041124241,"osm_type":"node","name":"Förskolan Kråkan","category":"kindergarten","tags":{"addr:housenumber":"41","addr:street":"Södra Skolgatan","amenity":"kindergarten","name":"Förskolan Kråkan"}},"geometry":{"type":"Point","coordinates":[13.0063939,55.5926139]}},{"type":"Feature","properties":{"id":12041142593,"osm_type":"node","name":"Förskolan Spaden","category":"kindergarten","tags":{"addr:housenumber":"40","addr:street":"Möllevångsgatan","amenity":"kindergarten","name":"Förskolan Spaden","website":"https://www.spaden.nu/"}},"geometry":{"type":"Point","coordinates":[13.0094958,55.593108]}},{"type":"Feature","properties":{"id":12041155291,"osm_type":"node","name":"Ånglokets förskola","category":"kindergarten","tags":{"addr:housenumber":"13","addr:street":"Södervärnsgatan","amenity":"kindergarten","name":"Ånglokets förskola"}},"geometry":{"type":"Point","coordinates":[13.0106012,55.5877281]}},{"type":"Feature","properties":{"id":12123612455,"osm_type":"node","name":"Leonardo Förskola","category":"kindergarten","tags":{"amenity":"kindergarten","level":"1","name":"Leonardo Förskola"}},"geometry":{"type":"Point","coordinates":[13.0096528,55.5898807]}},{"type":"Feature","properties":{"id":12272881977,"osm_type":"node","name":"Oasens förskola","category":"kindergarten","tags":{"addr:housenumber":"1","addr:street":"Hörbygatan","amenity":"kindergarten","name":"Oasens förskola"}},"geometry":{"type":"Point","coordinates":[13.0188512,55.5893873]}},{"type":"Feature","properties":{"id":12787248830,"osm_type":"node","name":"Änghagensförskolan","category":"kindergarten","tags":{"addr:city":"Malmö","addr:housenumber":"3F","addr:postcode":"214 42","addr:street":"Vitemöllegatan","amenity":"kindergarten","name":"Änghagensförskolan","operator":"Malmö stad","operator:type":"government","operator:wikidata":"Q503361","preschool":"yes"}},"geometry":{"type":"Point","coordinates":[13.0226926,55.5896433]}},{"type":"Feature","properties":{"id":12825364731,"osm_type":"node","name":"Personalkooperativet Filifjonkan","category":"kindergarten","tags":{"amenity":"kindergarten","name":"Personalkooperativet Filifjonkan"}},"geometry":{"type":"Point","coordinates":[13.0123407,55.5979539]}},{"type":"Feature","properties":{"id":28417814,"osm_type":"way","name":"Maria förskola","category":"kindergarten","tags":{"addr:country":"SE","addr:housenumber":"17","addr:street":"Sorgenfrivägen","amenity":"kindergarten","check_date":"2024-05-24","name":"Maria förskola","operator":"Malmö stad","operator:type":"government","operator:wikidata":"Q503361"}},"geometry":{"type":"Point","coordinates":[13.02023,55.596422]}},{"type":"Feature","properties":{"id":28798919,"osm_type":"way","name":"Linnéskolan","category":"kindergarten","tags":{"addr:country":"SE","addr:housenumber":"58","addr:street":"Linnégatan","amenity":"kindergarten","contact:phone":"+46 40-34 71 85","contact:website":"https://malmo.se/Bo-och-leva/Utbildning-och-forskola/Grundskola/Grundskolor/Linneskolan/Kontakta-oss.html","grades":"4-9","name":"Linnéskolan","operator":"Malmö stad","operator:type":"government","operator:wikidata":"Q503361","start_date":"1904","website":"https://malmo.se/Bo-och-leva/Utbildning-och-forskola/Grundskola/Grundskolor/Linneskolan.html","wikidata":"Q89197420"}},"geometry":{"type":"Point","coordinates":[12.9380397,55.5819601]}},{"type":"Feature","properties":{"id":51318797,"osm_type":"way","name":"Bastionens Förskola","category":"kindergarten","tags":{"addr:city":"Malmö","addr:country":"SE","addr:housenumber":"3","addr:postcode":"211 18","addr:street":"Malmöhusvägen","amenity":"kindergarten","building":"kindergarten","building:levels":"3","check_date":"2025-12-21","education":"kindergarten","name":"Bastionens Förskola"}},"geometry":{"type":"Point","coordinates":[12.9893102,55.6061613]}},{"type":"Feature","properties":{"id":52405476,"osm_type":"way","name":"Enebackens barn- och familjeinstitution","category":"kindergarten","tags":{"addr:city":"Malmö","addr:country":"SE","addr:housenumber":"1","addr:postcode":"217 64","addr:street":"Enebacksvägen","amenity":"childcare","building":"yes","name":"Enebackens barn- och familjeinstitution","operator":"Malmö Stad","operator:type":"government"}},"geometry":{"type":"Point","coordinates":[12.973016,55.5858781]}},{"type":"Feature","properties":{"id":52725212,"osm_type":"way","name":"","category":"kindergarten","tags":{"amenity":"kindergarten"}},"geometry":{"type":"Point","coordinates":[13.0053502,55.5611883]}},{"type":"Feature","properties":{"id":55840038,"osm_type":"way","name":"Vårberga förskola","category":"kindergarten","tags":{"addr:city":"Malmö","addr:country":"SE","addr:housenumber":"6","addr:postcode":"212 30","addr:street":"Solbergagatan","amenity":"kindergarten","name":"Vårberga förskola","wheelchair":"yes"}},"geometry":{"type":"Point","coordinates":[13.0799362,55.6030675]}},{"type":"Feature","properties":{"id":87714639,"osm_type":"way","name":"Virvelhusets förskola","category":"kindergarten","tags":{"amenity":"kindergarten","name":"Virvelhusets förskola"}},"geometry":{"type":"Point","coordinates":[13.0674139,55.6419081]}},{"type":"Feature","properties":{"id":123387877,"osm_type":"way","name":"Montessoriförskolan Bambina","category":"kindergarten","tags":{"amenity":"kindergarten","name":"Montessoriförskolan Bambina"}},"geometry":{"type":"Point","coordinates":[13.0776139,55.5793783]}},{"type":"Feature","properties":{"id":127981969,"osm_type":"way","name":"Djupadalsskolan","category":"kindergarten","tags":{"amenity":"kindergarten","name":"Djupadalsskolan","operator":"Malmö stad","operator:type":"government","operator:wikidata":"Q503361"}},"geometry":{"type":"Point","coordinates":[12.9541557,55.5741383]}},{"type":"Feature","properties":{"id":132635657,"osm_type":"way","name":"Limhamns förskola","category":"kindergarten","tags":{"amenity":"kindergarten","name":"Limhamns förskola"}},"geometry":{"type":"Point","coordinates":[12.9312528,55.5766868]}},{"type":"Feature","properties":{"id":208960500,"osm_type":"way","name":"Havrens förskola","category":"kindergarten","tags":{"addr:city":"Arlöv","addr:country":"SE","addr:housenumber":"4","addr:postcode":"232 38","addr:street":"Svenshögsvägen","amenity":"kindergarten","name":"Havrens förskola"}},"geometry":{"type":"Point","coordinates":[13.0853372,55.6356335]}},{"type":"Feature","properties":{"id":208960502,"osm_type":"way","name":"Klöverängens förskola","category":"kindergarten","tags":{"amenity":"kindergarten","name":"Klöverängens förskola"}},"geometry":{"type":"Point","coordinates":[13.0904343,55.6362862]}},{"type":"Feature","properties":{"id":208960503,"osm_type":"way","name":"Sommarängens förskola","category":"kindergarten","tags":{"amenity":"kindergarten","name":"Sommarängens förskola"}},"geometry":{"type":"Point","coordinates":[13.0890952,55.6382833]}},{"type":"Feature","properties":{"id":208960504,"osm_type":"way","name":"Svenshögs förskola","category":"kindergarten","tags":{"addr:city":"Arlöv","addr:country":"SE","addr:housenumber":"1","addr:postcode":"232 38","addr:street":"Kornvägen","amenity":"kindergarten","name":"Svenshögs förskola"}},"geometry":{"type":"Point","coordinates":[13.0851356,55.6372976]}},{"type":"Feature","properties":{"id":208960505,"osm_type":"way","name":"Torngatans förskola","category":"kindergarten","tags":{"addr:city":"Arlöv","addr:country":"SE","addr:housenumber":"4","addr:postcode":"232 34","addr:street":"Torngatan","amenity":"kindergarten","name":"Torngatans förskola"}},"geometry":{"type":"Point","coordinates":[13.0758315,55.6339135]}},{"type":"Feature","properties":{"id":208960507,"osm_type":"way","name":"Virvelvindens förskola","category":"kindergarten","tags":{"amenity":"kindergarten","name":"Virvelvindens förskola"}},"geometry":{"type":"Point","coordinates":[13.0701554,55.6418388]}},{"type":"Feature","properties":{"id":211681360,"osm_type":"way","name":"Hindby småskola","category":"kindergarten","tags":{"amenity":"kindergarten","name":"Hindby småskola"}},"geometry":{"type":"Point","coordinates":[13.0104204,55.5749336]}},{"type":"Feature","properties":{"id":211689526,"osm_type":"way","name":"Almängens förskola","category":"kindergarten","tags":{"addr:city":"Malmö","addr:country":"SE","addr:housenumber":"20","addr:postcode":"21457","addr:street":"Solvändegatan","amenity":"kindergarten","education":"kindergarten","name":"Almängens förskola"}},"geometry":{"type":"Point","coordinates":[13.0222322,55.576153]}},{"type":"Feature","properties":{"id":211965869,"osm_type":"way","name":"Knäbäcks förskola","category":"kindergarten","tags":{"amenity":"kindergarten","name":"Knäbäcks förskola"}},"geometry":{"type":"Point","coordinates":[12.9663599,55.5788908]}},{"type":"Feature","properties":{"id":216822055,"osm_type":"way","name":"Byängens förskola","category":"kindergarten","tags":{"amenity":"kindergarten","name":"Byängens förskola"}},"geometry":{"type":"Point","coordinates":[13.1055341,55.548152]}},{"type":"Feature","properties":{"id":219235752,"osm_type":"way","name":"Tussilagons förskola","category":"kindergarten","tags":{"amenity":"kindergarten","name":"Tussilagons förskola"}},"geometry":{"type":"Point","coordinates":[13.0913588,55.6034189]}},{"type":"Feature","properties":{"id":219435680,"osm_type":"way","name":"Barnavårdscentralen Granbacken","category":"kindergarten","tags":{"addr:city":"Malmö","addr:country":"SE","addr:housenumber":"101","addr:postcode":"212 31","addr:street":"Granbacksvägen","amenity":"childcare","building":"yes","name":"Barnavårdscentralen Granbacken","opening_hours":"Mo-Fr 08:00-16:30","operator":"Region Skåne","operator:type":"state_primary_health_care","phone":"+46 40 623 47 31","website":"https://www.1177.se/Skane/hitta-vard/kontaktkort/Barnavardscentralen-Granbacken-Malmo/"}},"geometry":{"type":"Point","coordinates":[13.0702982,55.594099]}},{"type":"Feature","properties":{"id":231558533,"osm_type":"way","name":"Katrinelunds Förskola","category":"kindergarten","tags":{"amenity":"kindergarten","name":"Katrinelunds Förskola"}},"geometry":{"type":"Point","coordinates":[13.0353713,55.6000424]}},{"type":"Feature","properties":{"id":267914148,"osm_type":"way","name":"Lärkträdets Förskola","category":"kindergarten","tags":{"addr:city":"Malmö","addr:country":"SE","addr:housenumber":"64B","addr:postcode":"21214","addr:street":"Zenithgatan","amenity":"kindergarten","name":"Lärkträdets Förskola"}},"geometry":{"type":"Point","coordinates":[13.0229697,55.6027121]}},{"type":"Feature","properties":{"id":282020395,"osm_type":"way","name":"Björkhagens förskola","category":"kindergarten","tags":{"amenity":"kindergarten","name":"Björkhagens förskola"}},"geometry":{"type":"Point","coordinates":[13.0148482,55.5992012]}},{"type":"Feature","properties":{"id":285710501,"osm_type":"way","name":"","category":"kindergarten","tags":{"amenity":"kindergarten"}},"geometry":{"type":"Point","coordinates":[13.0073328,55.5677763]}},{"type":"Feature","properties":{"id":288996382,"osm_type":"way","name":"Rönneholms förskola","category":"kindergarten","tags":{"amenity":"kindergarten","name":"Rönneholms förskola","operator":"Malmö stad","operator:type":"government","operator:wikidata":"Q503361","website":"https://malmo.se/Bo-och-leva/Utbildning-och-forskola/Forskola/Forskolor-A-O/Forskolor/R/Ronneholms-forskola.html"}},"geometry":{"type":"Point","coordinates":[12.97385,55.5944999]}},{"type":"Feature","properties":{"id":288999314,"osm_type":"way","name":"Droppens förskola","category":"kindergarten","tags":{"amenity":"kindergarten","check_date":"2025-06-20","name":"Droppens förskola"}},"geometry":{"type":"Point","coordinates":[13.0032039,55.5903783]}},{"type":"Feature","properties":{"id":295236500,"osm_type":"way","name":"","category":"kindergarten","tags":{"amenity":"kindergarten"}},"geometry":{"type":"Point","coordinates":[13.0823615,55.5869919]}},{"type":"Feature","properties":{"id":325388362,"osm_type":"way","name":"Berga förskola","category":"kindergarten","tags":{"addr:country":"SE","addr:housenumber":"12","addr:street":"Hylltorpsgatan","amenity":"kindergarten","name":"Berga förskola","operator":"Malmö stad","operator:type":"government","operator:wikidata":"Q503361","preschool":"yes","website":"https://malmo.se/Bo-och-leva/Utbildning-och-forskola/Forskola/Forskolor-A-O/Forskolor/B/Berga-forskola.html"}},"geometry":{"type":"Point","coordinates":[12.9395854,55.5784941]}},{"type":"Feature","properties":{"id":332425227,"osm_type":"way","name":"Mariehage förskola","category":"kindergarten","tags":{"amenity":"kindergarten","name":"Mariehage förskola"}},"geometry":{"type":"Point","coordinates":[12.9826242,55.602906]}},{"type":"Feature","properties":{"id":332628687,"osm_type":"way","name":"Sjöhästens förskola","category":"kindergarten","tags":{"addr:city":"Malmö","addr:country":"SE","addr:housenumber":"51","addr:postcode":"21160","addr:street":"Lugna gatan","amenity":"kindergarten","building":"kindergarten","building:levels":"2","check_date":"2023-10-18","name":"Sjöhästens förskola","phone":"+46-768-55 59 52","website":"https://malmo.se/Forskola--utbildning/Forskola/Forskola-och-pedagogisk-omsorg/Forskolor-A-O/Forskolor/S/Sjohastens-forskola.html"}},"geometry":{"type":"Point","coordinates":[13.0038104,55.5992279]}},{"type":"Feature","properties":{"id":334385177,"osm_type":"way","name":"Förskolan Rolf","category":"kindergarten","tags":{"amenity":"kindergarten","building":"kindergarten","check_date":"2023-12-02","name":"Förskolan Rolf","source":"Bing"}},"geometry":{"type":"Point","coordinates":[13.0182128,55.5882192]}},{"type":"Feature","properties":{"id":336068931,"osm_type":"way","name":"Klövervallens förskola","category":"kindergarten","tags":{"amenity":"kindergarten","name":"Klövervallens förskola"}},"geometry":{"type":"Point","coordinates":[13.0425756,55.5827981]}},{"type":"Feature","properties":{"id":338305731,"osm_type":"way","name":"","category":"kindergarten","tags":{"amenity":"kindergarten"}},"geometry":{"type":"Point","coordinates":[12.9749016,55.5837466]}},{"type":"Feature","properties":{"id":341943222,"osm_type":"way","name":"Förskola Valdemarsro","category":"kindergarten","tags":{"addr:city":"Malmö","addr:country":"SE","addr:housenumber":"5","addr:postcode":"212 23","addr:street":"Staffanstorpsvägen","amenity":"kindergarten","name":"Förskola Valdemarsro"}},"geometry":{"type":"Point","coordinates":[13.0714742,55.6103527]}},{"type":"Feature","properties":{"id":343991215,"osm_type":"way","name":"Sannaparken Förskola","category":"kindergarten","tags":{"addr:city":"Limhamn","addr:country":"SE","addr:housenumber":"19","addr:postcode":"216 17","addr:street":"Rudbecksgatan","amenity":"kindergarten","check_date":"2025-07-11","name":"Sannaparken Förskola"}},"geometry":{"type":"Point","coordinates":[12.9475745,55.5798593]}},{"type":"Feature","properties":{"id":353377341,"osm_type":"way","name":"","category":"kindergarten","tags":{"amenity":"kindergarten"}},"geometry":{"type":"Point","coordinates":[12.9184694,55.5573325]}},{"type":"Feature","properties":{"id":360800748,"osm_type":"way","name":"Gånglåtens förskola","category":"kindergarten","tags":{"addr:city":"Malmö","addr:country":"SE","addr:housenumber":"177","addr:postcode":"215 78","addr:street":"Gånglåtsvägen","amenity":"kindergarten","name":"Gånglåtens förskola"}},"geometry":{"type":"Point","coordinates":[13.0196312,55.553622]}},{"type":"Feature","properties":{"id":361100202,"osm_type":"way","name":"Lorensborgs förskola","category":"kindergarten","tags":{"addr:city":"Malmö","addr:country":"SE","addr:housenumber":"31","addr:postcode":"217 63","addr:street":"Vilebovägen","amenity":"kindergarten","barrier":"fence","name":"Lorensborgs förskola"}},"geometry":{"type":"Point","coordinates":[12.9789245,55.5873667]}},{"type":"Feature","properties":{"id":362863050,"osm_type":"way","name":"Förskolan Cypressens skola","category":"kindergarten","tags":{"addr:city":"Malmö","addr:country":"SE","addr:housenumber":"18","addr:postcode":"213 63","addr:street":"Monicavägen","amenity":"kindergarten","check_date":"2024-08-10","education":"kindergarten","name":"Förskolan Cypressens skola"}},"geometry":{"type":"Point","coordinates":[13.0332702,55.576421]}},{"type":"Feature","properties":{"id":364053647,"osm_type":"way","name":"Slånbärets förskola","category":"kindergarten","tags":{"addr:city":"Malmö","addr:country":"SE","addr:housenumber":"2","addr:postcode":"212 29","addr:street":"Enbärsgatan","amenity":"kindergarten","name":"Slånbärets förskola"}},"geometry":{"type":"Point","coordinates":[13.0586592,55.5917174]}},{"type":"Feature","properties":{"id":364230410,"osm_type":"way","name":"Runstyckets förskola","category":"kindergarten","tags":{"amenity":"kindergarten","name":"Runstyckets förskola","operator":"Runstyckets förskola AB"}},"geometry":{"type":"Point","coordinates":[13.0596602,55.5852688]}},{"type":"Feature","properties":{"id":365052794,"osm_type":"way","name":"Förskolan Kalinan","category":"kindergarten","tags":{"amenity":"kindergarten","name":"Förskolan Kalinan"}},"geometry":{"type":"Point","coordinates":[13.0685369,55.6292153]}},{"type":"Feature","properties":{"id":366503032,"osm_type":"way","name":"Grönebo förskola","category":"kindergarten","tags":{"amenity":"kindergarten","name":"Grönebo förskola"}},"geometry":{"type":"Point","coordinates":[13.0784772,55.6316245]}},{"type":"Feature","properties":{"id":366503074,"osm_type":"way","name":"Humlemadens förskola","category":"kindergarten","tags":{"amenity":"kindergarten","name":"Humlemadens förskola"}},"geometry":{"type":"Point","coordinates":[13.0794626,55.6312906]}},{"type":"Feature","properties":{"id":366503075,"osm_type":"way","name":"Vanningåkers förskola","category":"kindergarten","tags":{"amenity":"kindergarten","name":"Vanningåkers förskola"}},"geometry":{"type":"Point","coordinates":[13.078316,55.6319126]}},{"type":"Feature","properties":{"id":366658153,"osm_type":"way","name":"Ellstorps förskola","category":"kindergarten","tags":{"addr:country":"SE","addr:housenumber":"52","addr:street":"Idaborgsgatan","amenity":"kindergarten","name":"Ellstorps förskola"}},"geometry":{"type":"Point","coordinates":[13.0334304,55.6040629]}},{"type":"Feature","properties":{"id":367379539,"osm_type":"way","name":"Almgårdens förskola","category":"kindergarten","tags":{"addr:city":"Malmö","addr:housenumber":"105","addr:postcode":"212 37","addr:street":"Agnesfridsvägen","amenity":"kindergarten","education":"kindergarten","name":"Almgårdens förskola"}},"geometry":{"type":"Point","coordinates":[13.0579852,55.5780718]}},{"type":"Feature","properties":{"id":367379540,"osm_type":"way","name":"Fölets förskola","category":"kindergarten","tags":{"amenity":"kindergarten","name":"Fölets förskola"}},"geometry":{"type":"Point","coordinates":[13.0579813,55.576141]}},{"type":"Feature","properties":{"id":377763538,"osm_type":"way","name":"","category":"kindergarten","tags":{"amenity":"kindergarten"}},"geometry":{"type":"Point","coordinates":[12.9218851,55.551611]}},{"type":"Feature","properties":{"id":384551689,"osm_type":"way","name":"","category":"kindergarten","tags":{"amenity":"kindergarten"}},"geometry":{"type":"Point","coordinates":[13.0242031,55.5595642]}},{"type":"Feature","properties":{"id":385089344,"osm_type":"way","name":"Kullabäckens förskola","category":"kindergarten","tags":{"amenity":"kindergarten","name":"Kullabäckens förskola","operator":"Malmö kommun"}},"geometry":{"type":"Point","coordinates":[12.9774808,55.5742977]}},{"type":"Feature","properties":{"id":390988395,"osm_type":"way","name":"Stackens förskola","category":"kindergarten","tags":{"amenity":"kindergarten","education":"kindergarten","name":"Stackens förskola"}},"geometry":{"type":"Point","coordinates":[13.0226347,55.5742667]}},{"type":"Feature","properties":{"id":399079035,"osm_type":"way","name":"Per Albins hems förskola","category":"kindergarten","tags":{"amenity":"kindergarten","name":"Per Albins hems förskola"}},"geometry":{"type":"Point","coordinates":[12.9992781,55.5730498]}},{"type":"Feature","properties":{"id":424484009,"osm_type":"way","name":"Uteförskolan Stock och Sten","category":"kindergarten","tags":{"addr:city":"Malmö","addr:country":"SE","addr:housenumber":"26","addr:postcode":"21746","addr:street":"Roskildevägen","amenity":"kindergarten","check_date":"2025-12-10","contact:website":"https://malmo.se/Bo-och-leva/Utbildning-och-forskola/Forskola/Forskolor-A-O/Forskolor/S/Uteforskolan-Stock-och-Sten.html","name":"Uteförskolan Stock och Sten"}},"geometry":{"type":"Point","coordinates":[12.9871918,55.5914952]}},{"type":"Feature","properties":{"id":424870147,"osm_type":"way","name":"","category":"kindergarten","tags":{"amenity":"kindergarten","education":"kindergarten"}},"geometry":{"type":"Point","coordinates":[13.0268831,55.567168]}},{"type":"Feature","properties":{"id":425076305,"osm_type":"way","name":"","category":"kindergarten","tags":{"amenity":"kindergarten"}},"geometry":{"type":"Point","coordinates":[12.9299816,55.5585212]}},{"type":"Feature","properties":{"id":425076307,"osm_type":"way","name":"","category":"kindergarten","tags":{"amenity":"kindergarten"}},"geometry":{"type":"Point","coordinates":[12.930531,55.5585311]}},{"type":"Feature","properties":{"id":437355223,"osm_type":"way","name":"Förskolan Södertorp","category":"kindergarten","tags":{"amenity":"kindergarten","check_date":"2024-02-29","name":"Förskolan Södertorp"}},"geometry":{"type":"Point","coordinates":[12.9944343,55.5763546]}},{"type":"Feature","properties":{"id":437362432,"osm_type":"way","name":"Hästhagens förskola","category":"kindergarten","tags":{"amenity":"kindergarten","barrier":"fence","construction":"kindergarten","landuse":"construction","name":"Hästhagens förskola"}},"geometry":{"type":"Point","coordinates":[12.9901205,55.5976301]}},{"type":"Feature","properties":{"id":437865639,"osm_type":"way","name":"Nathan Söderblom Förskola","category":"kindergarten","tags":{"amenity":"kindergarten","name":"Nathan Söderblom Förskola","operator":"Rumänska ortodoxa församlingen i södra Sverige","operator:type":"religious"}},"geometry":{"type":"Point","coordinates":[12.9659177,55.5799427]}},{"type":"Feature","properties":{"id":437895925,"osm_type":"way","name":"","category":"kindergarten","tags":{"amenity":"kindergarten","education":"kindergarten"}},"geometry":{"type":"Point","coordinates":[13.0262674,55.5699759]}},{"type":"Feature","properties":{"id":437895926,"osm_type":"way","name":"Maryhills förskola","category":"kindergarten","tags":{"amenity":"kindergarten","education":"kindergarten","name":"Maryhills förskola"}},"geometry":{"type":"Point","coordinates":[13.0254779,55.569045]}},{"type":"Feature","properties":{"id":504080385,"osm_type":"way","name":"Sofielunds Förskola","category":"kindergarten","tags":{"amenity":"kindergarten","check_date":"2023-12-02","name":"Sofielunds Förskola"}},"geometry":{"type":"Point","coordinates":[13.0169971,55.5872152]}},{"type":"Feature","properties":{"id":528931626,"osm_type":"way","name":"Lillängen","category":"kindergarten","tags":{"amenity":"kindergarten","name":"Lillängen"}},"geometry":{"type":"Point","coordinates":[12.9710339,55.5760477]}},{"type":"Feature","properties":{"id":609783214,"osm_type":"way","name":"Ormvråkens Förskola","category":"kindergarten","tags":{"amenity":"kindergarten","name":"Ormvråkens Förskola"}},"geometry":{"type":"Point","coordinates":[13.0116103,55.566689]}},{"type":"Feature","properties":{"id":610296279,"osm_type":"way","name":"Kryddgårdens förskola","category":"kindergarten","tags":{"amenity":"kindergarten","isced:level":"0","name":"Kryddgårdens förskola","website":"https://malmo.se/Bo-och-leva/Utbildning-och-forskola/Forskola/Forskola-och-pedagogisk-omsorg/Forskolor-A-O/Forskolor/K/Kryddgardens-forskola.html"}},"geometry":{"type":"Point","coordinates":[13.050461,55.5873188]}},{"type":"Feature","properties":{"id":610343999,"osm_type":"way","name":"Ulricedals förskola","category":"kindergarten","tags":{"amenity":"kindergarten","isced:level":"0","name":"Ulricedals förskola","website":"https://malmo.se/Bo-och-leva/Utbildning-och-forskola/Forskola/Forskola-och-pedagogisk-omsorg/Forskolor-A-O/Forskolor/U/Ulricedals-forskola.html"}},"geometry":{"type":"Point","coordinates":[13.0422965,55.5895184]}},{"type":"Feature","properties":{"id":610843250,"osm_type":"way","name":"Junibackens förskola","category":"kindergarten","tags":{"amenity":"kindergarten","name":"Junibackens förskola"}},"geometry":{"type":"Point","coordinates":[13.0955661,55.5928147]}},{"type":"Feature","properties":{"id":610870843,"osm_type":"way","name":"Fosiedals förskola","category":"kindergarten","tags":{"amenity":"kindergarten","name":"Fosiedals förskola"}},"geometry":{"type":"Point","coordinates":[12.9822446,55.5719269]}},{"type":"Feature","properties":{"id":611361765,"osm_type":"way","name":"","category":"kindergarten","tags":{"amenity":"kindergarten"}},"geometry":{"type":"Point","coordinates":[13.0526114,55.6132501]}},{"type":"Feature","properties":{"id":687026009,"osm_type":"way","name":"Hattstugan","category":"kindergarten","tags":{"amenity":"kindergarten","name":"Hattstugan"}},"geometry":{"type":"Point","coordinates":[13.0507413,55.6018508]}},{"type":"Feature","properties":{"id":737281632,"osm_type":"way","name":"Jollen","category":"kindergarten","tags":{"amenity":"kindergarten","name":"Jollen","operator":"Malmö stad","operator:type":"government","operator:wikidata":"Q503361"}},"geometry":{"type":"Point","coordinates":[12.940019,55.589917]}},{"type":"Feature","properties":{"id":749950130,"osm_type":"way","name":"Rostorps förskola","category":"kindergarten","tags":{"amenity":"kindergarten","name":"Rostorps förskola"}},"geometry":{"type":"Point","coordinates":[13.0437779,55.613762]}},{"type":"Feature","properties":{"id":791063718,"osm_type":"way","name":"Djupadals förskola","category":"kindergarten","tags":{"amenity":"kindergarten","name":"Djupadals förskola"}},"geometry":{"type":"Point","coordinates":[12.9542736,55.5771499]}},{"type":"Feature","properties":{"id":791286815,"osm_type":"way","name":"Brodda förskola","category":"kindergarten","tags":{"addr:city":"Malmö","addr:country":"SE","addr:housenumber":"57","addr:postcode":"216 23","addr:street":"Broddagatan","amenity":"kindergarten","name":"Brodda förskola","operator":"Malmö Stad","operator:type":"government","phone":"+46733534810","preschool":"yes"}},"geometry":{"type":"Point","coordinates":[12.9556757,55.5703525]}},{"type":"Feature","properties":{"id":807395288,"osm_type":"way","name":"","category":"kindergarten","tags":{"amenity":"kindergarten"}},"geometry":{"type":"Point","coordinates":[13.0421179,55.5841194]}},{"type":"Feature","properties":{"id":807395324,"osm_type":"way","name":"","category":"kindergarten","tags":{"amenity":"kindergarten"}},"geometry":{"type":"Point","coordinates":[13.0491306,55.5822282]}},{"type":"Feature","properties":{"id":817361679,"osm_type":"way","name":"Bellisgårdens förskola","category":"kindergarten","tags":{"amenity":"kindergarten","name":"Bellisgårdens förskola"}},"geometry":{"type":"Point","coordinates":[13.0792052,55.5913833]}},{"type":"Feature","properties":{"id":818908815,"osm_type":"way","name":"Nicke Pings förskola","category":"kindergarten","tags":{"amenity":"kindergarten","name":"Nicke Pings förskola"}},"geometry":{"type":"Point","coordinates":[13.1019588,55.5500844]}},{"type":"Feature","properties":{"id":912865531,"osm_type":"way","name":"Bellevue förskola","category":"kindergarten","tags":{"addr:city":"Malmö","addr:country":"SE","addr:housenumber":"1","addr:postcode":"217 73","addr:street":"Trollenäsgatan","amenity":"kindergarten","name":"Bellevue förskola","operator":"Malmö Stad","operator:type":"public","phone":"+46 40 34 74 99","preschool":"yes","website":"https://malmo.se/Service/Utbildning-och-forskola/Forskola/Forskola-och-pedagogisk-omsorg/Forskolor-A-O/Forskolor/B/Bellevue-forskola.html"}},"geometry":{"type":"Point","coordinates":[12.9596787,55.5887524]}},{"type":"Feature","properties":{"id":913138593,"osm_type":"way","name":"Gyllebo förskola","category":"kindergarten","tags":{"addr:city":"Malmö","addr:country":"SE","addr:housenumber":"3","addr:postcode":"217 73","addr:street":"Gyllebogången","amenity":"kindergarten","name":"Gyllebo förskola","operator":"Malmö stad","operator:type":"government","operator:wikidata":"Q503361","phone":"+46 40 34 69 79","preschool":"yes"}},"geometry":{"type":"Point","coordinates":[12.9649525,55.5900115]}},{"type":"Feature","properties":{"id":917403352,"osm_type":"way","name":"Svansjöns förskola","category":"kindergarten","tags":{"addr:city":"Malmö","addr:country":"SE","addr:housenumber":"81","addr:postcode":"217 66","addr:street":"Svansjögatan","amenity":"kindergarten","name":"Svansjöns förskola","operator":"Malmö stad","operator:type":"government","operator:wikidata":"Q503361","preschool":"yes","website":"https://malmo.se/Service/Utbildning-och-forskola/Forskola/Forskola-och-pedagogisk-omsorg/Forskolor-A-O/Forskolor/S/Svansjons-forskola.html"}},"geometry":{"type":"Point","coordinates":[12.9718896,55.5822529]}},{"type":"Feature","properties":{"id":920883685,"osm_type":"way","name":"Gröna Dockan","category":"kindergarten","tags":{"amenity":"kindergarten","name":"Gröna Dockan","operator":"Malmö stad","preschool":"yes"}},"geometry":{"type":"Point","coordinates":[12.9850182,55.6170953]}},{"type":"Feature","properties":{"id":930696421,"osm_type":"way","name":"Flodillerns förskola","category":"kindergarten","tags":{"addr:country":"SE","addr:housenumber":"80D","addr:street":"Västanväg","amenity":"kindergarten","name":"Flodillerns förskola","operator":"Malmö stad","operator:type":"government","operator:wikidata":"Q503361","preschool":"yes","website":"https://malmo.se/Bo-och-leva/Utbildning-och-forskola/Forskola/Forskolor-A-O/Forskolor/F/Flodillerns-forskola.html"}},"geometry":{"type":"Point","coordinates":[12.9425525,55.580113]}},{"type":"Feature","properties":{"id":930884719,"osm_type":"way","name":"Tröskans förskola","category":"kindergarten","tags":{"addr:country":"SE","addr:housenumber":"3","addr:street":"Tröskgatan","amenity":"kindergarten","name":"Tröskans förskola","operator":"Malmö Stad","operator:type":"government","preschool":"yes","website":"https://malmo.se/Bo-och-leva/Utbildning-och-forskola/Forskola/Forskola-och-pedagogisk-omsorg/Forskolor-A-O/Forskolor/T/Troskans-forskola.html"}},"geometry":{"type":"Point","coordinates":[12.9475767,55.5691828]}},{"type":"Feature","properties":{"id":953794023,"osm_type":"way","name":"Arkitektens förskola","category":"kindergarten","tags":{"addr:country":"SE","addr:housenumber":"2","addr:street":"Arkitektgatan","amenity":"kindergarten","name":"Arkitektens förskola","operator":"Malmö stad","operator:type":"government","operator:wikidata":"Q503361","phone":"+46 709 595610","preschool":"yes"}},"geometry":{"type":"Point","coordinates":[12.992449,55.5779395]}},{"type":"Feature","properties":{"id":959791524,"osm_type":"way","name":"Stensjöns förskola","category":"kindergarten","tags":{"addr:city":"Malmö","addr:country":"SE","addr:housenumber":"2B","addr:postcode":"217 65","addr:street":"Stensjögatan","amenity":"kindergarten","barrier":"fence","name":"Stensjöns förskola","operator":"Malmö stad","operator:type":"government","operator:wikidata":"Q503361","preschool":"no","religion":"none","website":"https://malmo.se/Bo-och-leva/Utbildning-och-forskola/Forskola/Forskolor-A-O/Forskolor/S/Stensjons-forskola.html"}},"geometry":{"type":"Point","coordinates":[12.9822124,55.5806243]}},{"type":"Feature","properties":{"id":965727402,"osm_type":"way","name":"Jensen förskola Hyllie Gård","category":"kindergarten","tags":{"amenity":"kindergarten","name":"Jensen förskola Hyllie Gård","operator":"Jensen education","operator:type":"private","preschool":"yes"}},"geometry":{"type":"Point","coordinates":[12.9641205,55.5647329]}},{"type":"Feature","properties":{"id":998710067,"osm_type":"way","name":"Villa Lindhaga Montessoriförskola","category":"kindergarten","tags":{"addr:city":"Malmö","addr:country":"SE","addr:housenumber":"60","addr:postcode":"217 74","addr:street":"Vikingagatan","amenity":"kindergarten","name":"Villa Lindhaga Montessoriförskola","operator":"Montessori","operator:type":"private","phone":"+4640152645","website":"http://montessori.se/montessoriskola/275/montessoriforskolan-villa-lindhaga/"}},"geometry":{"type":"Point","coordinates":[12.9538027,55.5913968]}},{"type":"Feature","properties":{"id":999729399,"osm_type":"way","name":"Lillsjöns förskola","category":"kindergarten","tags":{"addr:city":"Malmö","addr:country":"SE","addr:housenumber":"31A","addr:postcode":"214 31","addr:street":"Fosievägen","amenity":"kindergarten","name":"Lillsjöns förskola","operator":"Malmö stad","operator:type":"government","operator:wikidata":"Q503361","preschool":"yes","website":"https://malmo.se/Bo-och-leva/Utbildning-och-forskola/Forskola/Forskolor-A-O/Forskolor/L/Lillsjons-forskola.html"}},"geometry":{"type":"Point","coordinates":[13.0080497,55.5789585]}},{"type":"Feature","properties":{"id":1004691512,"osm_type":"way","name":"Grönalunds förskola","category":"kindergarten","tags":{"addr:country":"SE","addr:housenumber":"6","addr:street":"Grönalundsgatan","amenity":"kindergarten","barrier":"fence","name":"Grönalunds förskola","operator":"Malmö stad","operator:type":"government","operator:wikidata":"Q503361","preschool":"yes","website":"https://malmo.se/Bo-och-leva/Utbildning-och-forskola/Forskola/Forskolor-A-O/Forskolor/G/Gronalunds-forskola.html"}},"geometry":{"type":"Point","coordinates":[12.9374382,55.5760175]}},{"type":"Feature","properties":{"id":1005589615,"osm_type":"way","name":"","category":"kindergarten","tags":{"amenity":"kindergarten","barrier":"fence"}},"geometry":{"type":"Point","coordinates":[12.9705743,55.5845388]}},{"type":"Feature","properties":{"id":1005589625,"osm_type":"way","name":"","category":"kindergarten","tags":{"amenity":"kindergarten","barrier":"fence"}},"geometry":{"type":"Point","coordinates":[12.9702158,55.5846276]}},{"type":"Feature","properties":{"id":1005589652,"osm_type":"way","name":"","category":"kindergarten","tags":{"amenity":"kindergarten"}},"geometry":{"type":"Point","coordinates":[12.9763794,55.5846018]}},{"type":"Feature","properties":{"id":1005624805,"osm_type":"way","name":"","category":"kindergarten","tags":{"amenity":"kindergarten","barrier":"fence"}},"geometry":{"type":"Point","coordinates":[12.9808417,55.5819641]}},{"type":"Feature","properties":{"id":1023295968,"osm_type":"way","name":"Bojens förskola","category":"kindergarten","tags":{"amenity":"kindergarten","name":"Bojens förskola","operator":"Malmö stad","operator:type":"government","operator:wikidata":"Q503361"}},"geometry":{"type":"Point","coordinates":[12.9342,55.5881792]}},{"type":"Feature","properties":{"id":1028999509,"osm_type":"way","name":"Johanneslusts förskola","category":"kindergarten","tags":{"addr:city":"Malmö","addr:country":"SE","addr:housenumber":"12C","addr:street":"Johanneslustgatan","amenity":"kindergarten","contact:website":"https://malmo.se/Bo-och-leva/Utbildning-och-forskola/Forskola/Forskolor-A-O/Forskolor/J/Johanneslusts-forskola.html","name":"Johanneslusts förskola"}},"geometry":{"type":"Point","coordinates":[13.0445412,55.6023201]}},{"type":"Feature","properties":{"id":1028999599,"osm_type":"way","name":"Bulltofta förskola","category":"kindergarten","tags":{"amenity":"kindergarten","name":"Bulltofta förskola"}},"geometry":{"type":"Point","coordinates":[13.0489329,55.6074596]}},{"type":"Feature","properties":{"id":1031854971,"osm_type":"way","name":"Fläderängens förskola","category":"kindergarten","tags":{"addr:city":"Malmö","addr:country":"SE","addr:housenumber":"52D","addr:postcode":"216 23","addr:street":"Elinelundsvägen","amenity":"kindergarten","name":"Fläderängens förskola","operator":"Malmö stad","operator:type":"government","preschool":"yes"}},"geometry":{"type":"Point","coordinates":[12.9561526,55.5672597]}},{"type":"Feature","properties":{"id":1031855015,"osm_type":"way","name":"Mossängens förskola","category":"kindergarten","tags":{"amenity":"kindergarten","name":"Mossängens förskola","operator":"Malmö stad","operator:type":"government","preschool":"yes"}},"geometry":{"type":"Point","coordinates":[12.9549149,55.566502]}},{"type":"Feature","properties":{"id":1031855036,"osm_type":"way","name":"Hyllie Park Förskola","category":"kindergarten","tags":{"addr:city":"Malmö","addr:country":"SE","addr:housenumber":"55E","addr:postcode":"216 23","addr:street":"Elinelundsvägen","amenity":"kindergarten","denomination":"evangelical","name":"Hyllie Park Förskola","operator":"Hyllie Park Diakoni AB","operator:type":"private_non_profit","preschool":"yes","religion":"christian","website":"https://www.hylliepark.se/forskola"}},"geometry":{"type":"Point","coordinates":[12.9528558,55.5673781]}},{"type":"Feature","properties":{"id":1031855077,"osm_type":"way","name":"Pilängens förskola","category":"kindergarten","tags":{"addr:city":"Malmö","addr:country":"SE","addr:housenumber":"52G-H","addr:postcode":"216 23","addr:street":"Elinelundsvägen","amenity":"kindergarten","name":"Pilängens förskola","operator":"Malmö stad","operator:type":"government","preschool":"yes","website":"https://malmo.se/Bo-och-leva/Utbildning-och-forskola/Forskola/Forskolor-A-O/Forskolor/P/Pilangens-forskola.html"}},"geometry":{"type":"Point","coordinates":[12.9577115,55.5660652]}},{"type":"Feature","properties":{"id":1031855086,"osm_type":"way","name":"Björkängens uteförskola","category":"kindergarten","tags":{"addr:city":"Malmö","addr:country":"SE","addr:housenumber":"52G-H","addr:postcode":"216 23","addr:street":"Elinelundsvägen","amenity":"kindergarten","name":"Björkängens uteförskola","operator":"Malmö stad","operator:type":"government","phone":"+46 701 42 32 29","preschool":"yes","website":"https://malmo.se/Bo-och-leva/Utbildning-och-forskola/Forskola/Forskolor-A-O/Forskolor/B/Bjorkangens-uteforskola.html"}},"geometry":{"type":"Point","coordinates":[12.9568569,55.5660936]}},{"type":"Feature","properties":{"id":1032365208,"osm_type":"way","name":"Carl-Gustafs förskola","category":"kindergarten","tags":{"addr:country":"SE","addr:housenumber":"4","addr:street":"Roskildevägen","alt_name":"Carl Gustafs förskola","amenity":"kindergarten","barrier":"fence","name":"Carl-Gustafs förskola","operator":"Malmö stad","operator:type":"government","operator:wikidata":"Q503361","website":"https://malmo.se/Bo-och-leva/Utbildning-och-forskola/Forskola/Forskolor-A-O/Forskolor/C/Carl-Gustafs-forskola.html"}},"geometry":{"type":"Point","coordinates":[12.994058,55.5946629]}},{"type":"Feature","properties":{"id":1035823210,"osm_type":"way","name":"Sjösättningens förskola","category":"kindergarten","tags":{"amenity":"kindergarten","check_date":"2025-12-21","education":"kindergarten","name":"Sjösättningens förskola"}},"geometry":{"type":"Point","coordinates":[12.9844988,55.6117231]}},{"type":"Feature","properties":{"id":1076216359,"osm_type":"way","name":"","category":"kindergarten","tags":{"amenity":"kindergarten"}},"geometry":{"type":"Point","coordinates":[12.9826141,55.5761909]}},{"type":"Feature","properties":{"id":1081542460,"osm_type":"way","name":"","category":"kindergarten","tags":{"amenity":"kindergarten","barrier":"fence"}},"geometry":{"type":"Point","coordinates":[12.9895504,55.5634036]}},{"type":"Feature","properties":{"id":1093326262,"osm_type":"way","name":"Ubåtens förskola","category":"kindergarten","tags":{"amenity":"kindergarten","education":"kindergarten","name":"Ubåtens förskola","preschool":"yes"}},"geometry":{"type":"Point","coordinates":[12.9852253,55.6084909]}},{"type":"Feature","properties":{"id":1096836189,"osm_type":"way","name":"Trädgårdens förskola","category":"kindergarten","tags":{"amenity":"kindergarten","name":"Trädgårdens förskola","operator":"Malmö stad","operator:type":"government","operator:wikidata":"Q503361"}},"geometry":{"type":"Point","coordinates":[13.0983614,55.5938234]}},{"type":"Feature","properties":{"id":1135438378,"osm_type":"way","name":"Rönnens förskola","category":"kindergarten","tags":{"amenity":"kindergarten","landuse":"education","name":"Rönnens förskola","operator":"Malmö kommun","operator:wikidata":"Q503361"}},"geometry":{"type":"Point","coordinates":[13.0308762,55.6004253]}},{"type":"Feature","properties":{"id":1152381205,"osm_type":"way","name":"","category":"kindergarten","tags":{"amenity":"kindergarten"}},"geometry":{"type":"Point","coordinates":[12.9305909,55.5783161]}},{"type":"Feature","properties":{"id":1154389538,"osm_type":"way","name":"","category":"kindergarten","tags":{"amenity":"kindergarten"}},"geometry":{"type":"Point","coordinates":[12.9649013,55.5519912]}},{"type":"Feature","properties":{"id":1170958046,"osm_type":"way","name":"Ribersborgs förskola","category":"kindergarten","tags":{"addr:city":"Malmö","addr:country":"SE","addr:housenumber":"21","addr:street":"Erikstorpsgatan","amenity":"kindergarten","name":"Ribersborgs förskola","operator":"Malmö stad","operator:type":"public","website":"https://malmo.se/Bo-och-leva/Utbildning-och-forskola/Forskola/Forskolor-A-O/Forskolor/R/Ribersborgs-forskola.html"}},"geometry":{"type":"Point","coordinates":[12.9770238,55.5991554]}},{"type":"Feature","properties":{"id":1178368098,"osm_type":"way","name":"","category":"kindergarten","tags":{"amenity":"kindergarten"}},"geometry":{"type":"Point","coordinates":[12.9187854,55.5510882]}},{"type":"Feature","properties":{"id":1207116169,"osm_type":"way","name":"Pilotens förskola","category":"kindergarten","tags":{"addr:city":"Malmö","addr:country":"SE","addr:housenumber":"4","addr:street":"Cederströmsgatan","amenity":"kindergarten","name":"Pilotens förskola","operator":"Malmö stad","operator:type":"government","operator:wikidata":"Q503361","preschool":"yes","website":"https://malmo.se/Bo-och-leva/Utbildning-och-forskola/Forskola/Forskolor-A-O/Forskolor/P/Pilotens-forskola.html"}},"geometry":{"type":"Point","coordinates":[13.0633316,55.5967848]}},{"type":"Feature","properties":{"id":1214849399,"osm_type":"way","name":"SIFS Förskola","category":"kindergarten","tags":{"amenity":"kindergarten","name":"SIFS Förskola"}},"geometry":{"type":"Point","coordinates":[12.9814146,55.5631149]}},{"type":"Feature","properties":{"id":1263804745,"osm_type":"way","name":"","category":"kindergarten","tags":{"amenity":"kindergarten"}},"geometry":{"type":"Point","coordinates":[13.0335495,55.6082387]}},{"type":"Feature","properties":{"id":1359598961,"osm_type":"way","name":"Källängens förskola","category":"kindergarten","tags":{"amenity":"kindergarten","name":"Källängens förskola","operator":"Malmö stad","operator:type":"government","operator:wikidata":"Q503361"}},"geometry":{"type":"Point","coordinates":[12.9985619,55.5934764]}},{"type":"Feature","properties":{"id":1381282176,"osm_type":"way","name":"Ängshagen förskola lekplats","category":"kindergarten","tags":{"amenity":"kindergarten","name":"Ängshagen förskola lekplats"}},"geometry":{"type":"Point","coordinates":[13.022647,55.5893566]}},{"type":"Feature","properties":{"id":1383643718,"osm_type":"way","name":"","category":"kindergarten","tags":{"amenity":"kindergarten"}},"geometry":{"type":"Point","coordinates":[13.0703466,55.5796299]}},{"type":"Feature","properties":{"id":1417236717,"osm_type":"way","name":"Stångbönans förskola","category":"kindergarten","tags":{"amenity":"kindergarten","name":"Stångbönans förskola","operator":"Malmö stad","operator:type":"government","operator:wikidata":"Q503361","website":"https://malmo.se/Bo-och-leva/Utbildning-och-forskola/Forskola/Forskolor-A-O/Forskolor/S/Stangbonans-forskola.html"}},"geometry":{"type":"Point","coordinates":[13.042214,55.5696181]}},{"type":"Feature","properties":{"id":1422460748,"osm_type":"way","name":"Glasblåsarens förskola","category":"kindergarten","tags":{"addr:city":"Limhamn","addr:housenumber":"8","addr:postcode":"21645","addr:street":"Barlastgatan","amenity":"kindergarten","name":"Glasblåsarens förskola","operator":"Malmö stad","operator:type":"government","operator:wikidata":"Q503361"}},"geometry":{"type":"Point","coordinates":[12.9341853,55.5897544]}},{"type":"Feature","properties":{"id":1464399696,"osm_type":"way","name":"","category":"kindergarten","tags":{"amenity":"kindergarten","education":"kindergarten","preschool":"yes"}},"geometry":{"type":"Point","coordinates":[12.9811244,55.6110475]}},{"type":"Feature","properties":{"id":13883430,"osm_type":"relation","name":"Äventyrsbåtens förskola","category":"kindergarten","tags":{"amenity":"kindergarten","education":"kindergarten","name":"Äventyrsbåtens förskola","type":"multipolygon"}},"geometry":{"type":"Point","coordinates":[12.9781149,55.6125058]}},{"type":"Feature","properties":{"id":18959420,"osm_type":"relation","name":"Fregattens förskola","category":"kindergarten","tags":{"addr:city":"Malmö","addr:country":"SE","addr:postcode":"211 75","addr:street":"Fregattgatan","amenity":"kindergarten","name":"Fregattens förskola","type":"multipolygon"}},"geometry":{"type":"Point","coordinates":[12.9819691,55.6162661]}}]}