{"type":"FeatureCollection","features":[{"type":"Feature","properties":{"id":1836561506,"osm_type":"node","name":"Husie stadsdelsbibliotek","category":"library","tags":{"addr:country":"SE","addr:housenumber":"13","addr:postcode":"212 31","addr:street":"Videdalsvägen","amenity":"library","name":"Husie stadsdelsbibliotek","name:en":"Husie Library","name:sv":"Husiebiblioteket","website":"https://malmo.se/Uppleva-och-gora/Biblioteken/Vara-bibliotek/Husiebiblioteket/Besok-Husiebiblioteket/Oppettider-och-besoksinfo.html"}},"geometry":{"type":"Point","coordinates":[13.0708756,55.590857]}},{"type":"Feature","properties":{"id":1860964339,"osm_type":"node","name":"Stadsarkivet","category":"library","tags":{"addr:street":"-","amenity":"library","check_date:opening_hours":"2023-12-19","name":"Stadsarkivet","opening_hours":"Mo,Tu 14:00-18:00; We,Th 10:00-18:00; Fr 12:00-16:00; Sa 11:00-15:00","operator":"Malmö stad","website":"https://malmo.se/Uppleva-och-gora/Arkitektur-och-kulturarv/Malmo-stadsarkiv.html","wikidata":"Q10576169"}},"geometry":{"type":"Point","coordinates":[13.0086437,55.594337]}},{"type":"Feature","properties":{"id":3319507067,"osm_type":"node","name":"Rosengårds bibliotek","category":"library","tags":{"addr:city":"Malmö","addr:housenumber":"6","addr:postcode":"213 68","addr:street":"Dicksons väg","amenity":"library","email":"rosengards.bibliotek@malmo.se","internet_access":"wlan","internet_access:fee":"no","name":"Rosengårds bibliotek","opening_hours":"Mo-Tu 11:00-17:00; We 09:00-15:00; Th-Fr 11:00-17:00","phone":"+46 40 660 85 48","website":"https://malmo.se/Uppleva-och-gora/Biblioteken/Vara-bibliotek/Rosengardsbiblioteket.html","wikidata":"Q61751994"}},"geometry":{"type":"Point","coordinates":[13.0445785,55.5852099]}},{"type":"Feature","properties":{"id":3690978124,"osm_type":"node","name":"Arlövs bibliotek","category":"library","tags":{"amenity":"library","name":"Arlövs bibliotek"}},"geometry":{"type":"Point","coordinates":[13.0707131,55.6322991]}},{"type":"Feature","properties":{"id":5247956057,"osm_type":"node","name":"Kirsebergsbiblioteket","category":"library","tags":{"amenity":"library","name":"Kirsebergsbiblioteket"}},"geometry":{"type":"Point","coordinates":[13.0431935,55.6113475]}},{"type":"Feature","properties":{"id":7263456122,"osm_type":"node","name":"Bibliotek Masten 2","category":"library","tags":{"addr:city":"Malmö","addr:country":"SE","addr:housenumber":"4","addr:postcode":"21177","addr:street":"Mastgränd","amenity":"library","check_date:opening_hours":"2024-05-20","name":"Bibliotek Masten 2","opening_hours":"Mo,We 10:00-14:00; Fr,Sa 13:00-17:00; Tu 15:00-19:00; Sa,Su off","operator":"Malmö stad","operator:type":"government","wheelchair":"yes"}},"geometry":{"type":"Point","coordinates":[12.9799782,55.6120653]}},{"type":"Feature","properties":{"id":9520450513,"osm_type":"node","name":"Limhamnsbiblioteket","category":"library","tags":{"addr:country":"SE","addr:housenumber":"43","addr:postcode":"21614","addr:street":"Odengatan","amenity":"library","internet_access":"wlan","internet_access:fee":"customers","internet_access:ssid":"City of Malmö","name":"Limhamnsbiblioteket","opening_hours":"Mo 11:00-19:00; Tu 10:00-19:00; We-Th 10:00-17:00; Fr 11:00-17:00; Sa 10:00-13:00; Sa 13:15-21:00 \"med Meröppet\"; Jun-Aug Mo 13:00-18:00; Jun-Aug Tu-Fr 10:00-15:00; Jun-Aug We-Fr 15:15-21:00 \"med Meröppet\"; Jun-Aug Sa-Su 10:00-21:00 \"med Meröppet\"","operator":"Malmö stad","operator:type":"government","website":"https://malmo.se/Uppleva-och-gora/Biblioteken/Vara-bibliotek/Limhamnsbiblioteket/Besok-Limhamnsbiblioteket/Oppettider-och-besoksinfo.html","wikidata":"Q61751996"}},"geometry":{"type":"Point","coordinates":[12.9331342,55.5823019]}},{"type":"Feature","properties":{"id":10754116874,"osm_type":"node","name":"Lindängenbiblioteket","category":"library","tags":{"amenity":"library","name":"Lindängenbiblioteket","wikidata":"Q61751995"}},"geometry":{"type":"Point","coordinates":[13.0149428,55.5593531]}},{"type":"Feature","properties":{"id":12078407397,"osm_type":"node","name":"Medicinska fakultetens bibliotek","category":"library","tags":{"addr:city":"Malmö","addr:housenumber":"35","addr:postcode":"214 24","addr:street":"Jan Waldenströms gata","amenity":"library","name":"Medicinska fakultetens bibliotek","opening_hours":"Mo-Tu 12:00-16:00; We 10:00-16:00; Th-Fr 12:00-16:00","operator":"Lunds universitetsbibliotek","phone":"+46 40 39 15 00"}},"geometry":{"type":"Point","coordinates":[12.999072,55.5885427]}},{"type":"Feature","properties":{"id":12123899982,"osm_type":"node","name":"Orkanenbiblioteket","category":"library","tags":{"addr:postcode":"21119","amenity":"library","internet_access":"wlan","internet_access:fee":"no","level":"5","name":"Orkanenbiblioteket","opening_hours":"Mo-Th 08:00-20:00; Sa 11:00-16:00; Fr 08:00-17:00","operator":"Malmö universitet","operator:type":"government"}},"geometry":{"type":"Point","coordinates":[12.9953495,55.6107145]}},{"type":"Feature","properties":{"id":12803947640,"osm_type":"node","name":"Hylliebiblioteket","category":"library","tags":{"addr:housenumber":"21","addr:street":"Hyllie boulevard","amenity":"library","name":"Hylliebiblioteket","opening_hours":"Tu 10:00-16:00; We 13:00-19:00; Th 10:00-19:00; Fr 10:00-16:00; Sa 12:00-17:00","operator":"Malmö stad","operator:type":"public","phone":"+46 40 660 85 28","website":"https://malmo.se/Uppleva-och-gora/Biblioteken/Vara-bibliotek/Hylliebiblioteket/Besok-Hylliebiblioteket.html"}},"geometry":{"type":"Point","coordinates":[12.9746306,55.5628543]}},{"type":"Feature","properties":{"id":37892687,"osm_type":"way","name":"Malmö Stadsbibliotek","category":"library","tags":{"addr:country":"SE","addr:housenumber":"11","addr:street":"Kung Oscars väg","amenity":"library","building":"yes","check_date":"2026-05-21","internet_access":"wlan","internet_access:fee":"no","name":"Malmö Stadsbibliotek","name:de":"Malmö Stadtbibliothek","name:en":"Malmö City Library","opening_hours":"Mo-Th 08:30-20:00; Fr 10:00-18:00; Sa-Su 10:00-17:00","phone":"+46 660 85 00","website":"https://malmo.se/Uppleva-och-gora/Biblioteken/Vara-bibliotek/Stadsbiblioteket.html","wheelchair":"yes","wikidata":"Q119684","wikipedia":"sv:Malmö stadsbibliotek"}},"geometry":{"type":"Point","coordinates":[12.9939843,55.6004597]}},{"type":"Feature","properties":{"id":76092447,"osm_type":"way","name":"Stadsdelsbiblioteket Garaget","category":"library","tags":{"amenity":"library","building":"yes","name":"Stadsdelsbiblioteket Garaget","opening_hours":"Mo,We,Fr 11:00-18:00; Tu 11:00-20:00; Th 09:00-16:00; Su 12:00-16:00"}},"geometry":{"type":"Point","coordinates":[13.0174259,55.5850468]}},{"type":"Feature","properties":{"id":89610390,"osm_type":"way","name":"Burlövs Bibliotek","category":"library","tags":{"amenity":"library","building":"yes","name":"Burlövs Bibliotek","operator":"Burlövs Kommun","operator:type":"public"}},"geometry":{"type":"Point","coordinates":[13.0704032,55.6322067]}},{"type":"Feature","properties":{"id":133957846,"osm_type":"way","name":"Hyllie Park Bibliotekshuset","category":"library","tags":{"addr:city":"Malmö","addr:country":"SE","addr:housenumber":"55B","addr:postcode":"216 23","addr:street":"Elinelundsvägen","amenity":"library","building":"yes","building:levels":"1","name":"Hyllie Park Bibliotekshuset","operator":"Hyllie Park","operator:type":"private_non_profit"}},"geometry":{"type":"Point","coordinates":[12.9518494,55.5679816]}},{"type":"Feature","properties":{"id":997033849,"osm_type":"way","name":"Bellevuegårdsbiblioteket","category":"library","tags":{"addr:city":"Malmö","addr:country":"SE","addr:housenumber":"9","addr:postcode":"21766","addr:street":"Svansjögatan","amenity":"library","building":"yes","email":"bellevuegardens.bibliotek@malmo.se","internet_access:fee":"no","name":"Bellevuegårdsbiblioteket","opening_hours":"Mo 10:00-19:00; Tu,Th,Fr 10:00-17:00; We 13:00-19:00; Su 13:00-16:00","phone":"+46 40 6608559","website":"https://malmo.se/Kultur--fritid/Biblioteken/Vara-bibliotek/Bellevuegardsbiblioteket.html","wheelchair":"yes","wikidata":"Q61751997"}},"geometry":{"type":"Point","coordinates":[12.9767632,55.5813155]}}]}