{"type":"FeatureCollection","features":[{"type":"Feature","properties":{"id":2429958196,"osm_type":"node","name":"Mitt Möllan","category":"mall","tags":{"addr:city":"Malmö","addr:country":"SE","addr:housenumber":"8","addr:postcode":"214 25","addr:street":"Claesgatan","amenity":"food_court","changing_table":"yes","check_date":"2024-05-24","level":"0","name":"Mitt Möllan","opening_hours":"Mo-Fr 11:00-20:00; Sa 11:00-17:00","shop":"mall","toilets":"yes","website":"https://www.mittmollan.se/","wheelchair":"yes"}},"geometry":{"type":"Point","coordinates":[13.0087134,55.5897788]}},{"type":"Feature","properties":{"id":4397767524,"osm_type":"node","name":"Kv. Caroli","category":"mall","tags":{"addr:city":"Malmö","addr:country":"SE","addr:housenumber":"12","addr:street":"Östergatan","entrance":"main","name":"Kv. Caroli","shop":"mall","website":"https://caroli.se","wikidata":"Q10443181"}},"geometry":{"type":"Point","coordinates":[13.0073805,55.607673]}},{"type":"Feature","properties":{"id":9206415769,"osm_type":"node","name":"Bellevuegården köpcentrum","category":"mall","tags":{"name":"Bellevuegården köpcentrum","shop":"mall"}},"geometry":{"type":"Point","coordinates":[12.9767118,55.5810865]}},{"type":"Feature","properties":{"id":28414267,"osm_type":"way","name":"Hansacompagniet","category":"mall","tags":{"name":"Hansacompagniet","shop":"mall","toilets":"yes","wikidata":"Q10517372"}},"geometry":{"type":"Point","coordinates":[13.0041,55.6031004]}},{"type":"Feature","properties":{"id":28987753,"osm_type":"way","name":"Södra huset","category":"mall","tags":{"addr:city":"Malmö","addr:housenumber":"40","addr:postcode":"214 32","addr:street":"Per Albin Hanssons väg","building":"yes","changing_table":"yes","layer":"1","name":"Södra huset","opening_hours":"Mo-Fr 08:00-20:00; Sa-Su 09:00-18:00","operator":"Mobilia","shop":"mall","toilets":"yes","wheelchair":"yes"}},"geometry":{"type":"Point","coordinates":[13.0037687,55.5802516]}},{"type":"Feature","properties":{"id":29711745,"osm_type":"way","name":"Kronprinsen","category":"mall","tags":{"building":"yes","building:colour":"blue","building:levels":"26","contact:website":"http://www.kronprinsen.com/","height":"75","name":"Kronprinsen","roof:colour":"gray","shop":"mall","start_date":"1964","wheelchair":"yes","wikidata":"Q621216","wikipedia":"sv:Kronprinsen"}},"geometry":{"type":"Point","coordinates":[12.9851561,55.5984148]}},{"type":"Feature","properties":{"id":35672296,"osm_type":"way","name":"Entré","category":"mall","tags":{"building":"yes","building:levels":"6","email":"entre@newsec.se","name":"Entré","opening_hours":"Mo-Su 06:30-00:00","phone":"+46406200050","shop":"mall","toilets":"yes","website":"https://www.entremalmo.se/"}},"geometry":{"type":"Point","coordinates":[13.0247791,55.6076604]}},{"type":"Feature","properties":{"id":36984709,"osm_type":"way","name":"Katrinelunds köpcentrum","category":"mall","tags":{"addr:city":"Malmö","addr:country":"SE","addr:housenumber":"38","addr:postcode":"21214","addr:street":"Celsiusgatan","building":"yes","name":"Katrinelunds köpcentrum","shop":"mall","toilets":"yes"}},"geometry":{"type":"Point","coordinates":[13.033378,55.5996929]}},{"type":"Feature","properties":{"id":40663102,"osm_type":"way","name":"Rosengård Centrum","category":"mall","tags":{"building":"yes","name":"Rosengård Centrum","opening_hours":"Mo-Fr 08:00-20:00; Sa,Su 09:00-18:00","shop":"mall","toilets":"yes","wheelchair":"yes"}},"geometry":{"type":"Point","coordinates":[13.0450304,55.5861591]}},{"type":"Feature","properties":{"id":40664131,"osm_type":"way","name":"Jägersro Center","category":"mall","tags":{"addr:city":"Malmö","addr:country":"SE","addr:housenumber":"151","addr:street":"Jägersrovägen","building":"commercial","name":"Jägersro Center","shop":"mall","wikidata":"Q10541641"}},"geometry":{"type":"Point","coordinates":[13.0587671,55.5698454]}},{"type":"Feature","properties":{"id":89611697,"osm_type":"way","name":"Burlöv Center","category":"mall","tags":{"addr:city":"Arlöv","addr:country":"SE","addr:housenumber":"2","addr:postcode":"232 37","addr:street":"Kronetorpsvägen","building":"yes","name":"Burlöv Center","shop":"mall","website":"https://www.burlovcenter.se/","wikidata":"Q10437857"}},"geometry":{"type":"Point","coordinates":[13.0845031,55.6395926]}},{"type":"Feature","properties":{"id":115613088,"osm_type":"way","name":"e-center","category":"mall","tags":{"addr:housenumber":"177","addr:street":"Agnesfridsvägen","building":"yes","name":"e-center","shop":"mall"}},"geometry":{"type":"Point","coordinates":[13.0480644,55.566679]}},{"type":"Feature","properties":{"id":147530612,"osm_type":"way","name":"Emporia","category":"mall","tags":{"addr:city":"Malmö","addr:country":"SE","addr:housenumber":"19","addr:postcode":"21532","addr:street":"Hyllie boulevard","air_conditioning":"yes","architect":"Gert Wingårdh","building":"yes","colour":"#808000","fixme":"This ought to be a 3D building to accomodate for the rooftop park, staircases to street level, and differences in height in different parts of the block.","internet_access":"wlan","layer":"1","maxheight":"20","name":"Emporia","name:fi":"Emporia i Malmö","opening_hours":"Mo-Su 10:00-20:00","phone":"+46 4036 36 00","shop":"mall","website":"https://emporia.steenstrom.se/","wheelchair":"yes","wikidata":"Q2853056","wikipedia":"sv:Emporia, Malmö"}},"geometry":{"type":"Point","coordinates":[12.9734624,55.5642607]}},{"type":"Feature","properties":{"id":219950736,"osm_type":"way","name":"Triangelns köpcentrum","category":"mall","tags":{"building":"yes","changing_table":"yes","check_date":"2024-05-15","fixme":"behöver justeras något efter inner- och atriumgårdar","name":"Triangelns köpcentrum","roof:colour":"gray","shop":"mall","toilets":"yes","wheelchair":"yes","wikidata":"Q8765693"}},"geometry":{"type":"Point","coordinates":[13.0020587,55.5955443]}},{"type":"Feature","properties":{"id":230677597,"osm_type":"way","name":"Centrumhuset","category":"mall","tags":{"addr:city":"Malmö","addr:housenumber":"40","addr:postcode":"214 32","addr:street":"Per Albin Hanssons väg","building":"yes","name":"Centrumhuset","opening_hours":"Mo-Su 07:00-21:00","operator":"Mobilia","shop":"mall","toilets":"yes"}},"geometry":{"type":"Point","coordinates":[13.0045425,55.58209]}},{"type":"Feature","properties":{"id":231960894,"osm_type":"way","name":"Entré","category":"mall","tags":{"addr:city":"Malmö","addr:country":"SE","addr:housenumber":"56","addr:postcode":"21212","addr:street":"Östra Förstadsgatan","building":"yes","name":"Entré","opening_hours":"Mo-Fr 10:00-20:00;Sa-Su 10:00-21:00","shop":"mall","toilets":"yes"}},"geometry":{"type":"Point","coordinates":[13.0236948,55.6066764]}}]}