{"type":"FeatureCollection","features":[{"type":"Feature","properties":{"id":12324368797,"osm_type":"node","name":"Rosengårds herrgård","category":"manor","tags":{"historic":"manor","name":"Rosengårds herrgård","start_date":"1817","wikipedia":"sv:Rosengård herrgård"}},"geometry":{"type":"Point","coordinates":[13.0453347,55.5824539]}},{"type":"Feature","properties":{"id":52405655,"osm_type":"way","name":"Bellevuegården","category":"manor","tags":{"access":"yes","building":"yes","historic":"manor","name":"Bellevuegården"}},"geometry":{"type":"Point","coordinates":[12.9703391,55.5842725]}}]}