{"type":"FeatureCollection","features":[{"type":"Feature","properties":{"id":3414497893,"osm_type":"node","name":"Teatermuseet","category":"museum","tags":{"check_date:opening_hours":"2025-02-28","fee":"yes","name":"Teatermuseet","opening_hours":"Th-Su 13:00-16:00","tourism":"museum","wikidata":"Q10576141"}},"geometry":{"type":"Point","coordinates":[13.0027471,55.6059398]}},{"type":"Feature","properties":{"id":4895458698,"osm_type":"node","name":"Malmö Museer Slottsholmen","category":"museum","tags":{"addr:city":"Malmö","addr:country":"SE","addr:housenumber":"6","addr:postcode":"211 18","addr:street":"Malmöhusvägen","fee":"yes","name":"Malmö Museer Slottsholmen","opening_hours":"Th 11:00-19:00; Tu,We,Fr-Su 11:00-17:00","phone":"+46 40 34 44 38","tourism":"museum","website":"https://malmo.se/museer","wheelchair":"yes"}},"geometry":{"type":"Point","coordinates":[12.9869844,55.6047507]}},{"type":"Feature","properties":{"id":5349775440,"osm_type":"node","name":"Oscar Olsson-museet","category":"museum","tags":{"addr:city":"Malmö","addr:country":"SE","addr:housenumber":"15","addr:street":"Ystadvägen","check_date":"2025-06-21","name":"Oscar Olsson-museet","tourism":"museum","website":"http://www.oomuseet.se/","wikidata":"Q17487669","wikipedia":"sv:Oscar Olsson-museet"}},"geometry":{"type":"Point","coordinates":[13.0103432,55.5827535]}},{"type":"Feature","properties":{"id":6797013185,"osm_type":"node","name":"Form Design Center","category":"museum","tags":{"fee":"no","internet_access":"wlan","internet_access:fee":"no","name":"Form Design Center","opening_hours":"Tu-Sa 11:00-17:00; Su 12:00-16:00","toilets":"yes","toilets:wheelchair":"yes","tourism":"museum","website":"https://www.formdesigncenter.com/","wheelchair":"yes"}},"geometry":{"type":"Point","coordinates":[12.9992059,55.6045029]}},{"type":"Feature","properties":{"id":11920288480,"osm_type":"node","name":"Museispårvägen","category":"museum","tags":{"fee":"yes","museum":"transport","name":"Museispårvägen","tourism":"museum","website":"https://www.mss.se/"}},"geometry":{"type":"Point","coordinates":[12.9831976,55.60553]}},{"type":"Feature","properties":{"id":12162144902,"osm_type":"node","name":"Monopoly Fanclub Sweden","category":"museum","tags":{"addr:city":"Malmö","addr:housenumber":"66","addr:postcode":"217 61","addr:street":"Mariedalsvägen","email":"monopolyfanclub1@gmail.com","facebook":"https://www.facebook.com/p/Monopoly-Fanclub-Sweden-100089234974191/","name":"Monopoly Fanclub Sweden","operator":"Jerry","operator:type":"private","tourism":"museum","website":"https://monopolyfanclub.com/"}},"geometry":{"type":"Point","coordinates":[12.9837479,55.5897772]}},{"type":"Feature","properties":{"id":12610499383,"osm_type":"node","name":"Brandmuséet","category":"museum","tags":{"addr:city":"Malmö","addr:housenumber":"20","addr:street":"Drottninggatan","contact:email":"brandmuseum@brandmuseumrsyd.se","contact:phone":"+46 46 540 51 95","museum":"fire","name":"Brandmuséet","opening_hours":"\"by appointment only\"","operator":"Rädningstjänsten Syd","operator:wikidata":"Q10658399","tourism":"museum","website":"https://brandmuseumrsyd.se/"}},"geometry":{"type":"Point","coordinates":[13.0088363,55.6024025]}},{"type":"Feature","properties":{"id":35724417,"osm_type":"way","name":"Moderna Museet","category":"museum","tags":{"addr:city":"Malmö","addr:housenumber":"2-4","addr:street":"Ola Billgrens plats","building":"yes","fee":"yes","fee:conditional":"no @ age < 26","museum":"art","name":"Moderna Museet","old_name:1988-2006":"Rooseum","opening_hours":"Tu-We,Fr-Su 11:00-17:00; Th 11:00-19:00","payment:cash":"no","payment:mastercard":"yes","payment:visa":"yes","tourism":"museum","website":"https://www.modernamuseet.se/malmo/sv/"}},"geometry":{"type":"Point","coordinates":[13.0095667,55.6046324]}},{"type":"Feature","properties":{"id":50139701,"osm_type":"way","name":"Teknikens och sjöfartens hus","category":"museum","tags":{"building":"yes","email":"malmomuseum@malmo.se","fee":"yes","name":"Teknikens och sjöfartens hus","opening_hours":"Tu,We,Fr-Su,PH 11:00-17:00; Th 11:00-19:00","phone":"+46 40 34 44 00","toilets:wheelchair":"yes","tourism":"museum","website":"https://malmo.se/Uppleva-och-gora/Konst-och-museer/Malmo-museum/","wheelchair":"yes","wikidata":"Q10692063","wikipedia":"sv:Teknikens och sjöfartens hus"}},"geometry":{"type":"Point","coordinates":[12.9827784,55.6048325]}},{"type":"Feature","properties":{"id":208001743,"osm_type":"way","name":"Möllegården kultur","category":"museum","tags":{"name":"Möllegården kultur","tourism":"museum"}},"geometry":{"type":"Point","coordinates":[13.1119049,55.6504255]}},{"type":"Feature","properties":{"id":208375037,"osm_type":"way","name":"Hembygdsmuseet i Burlövs by","category":"museum","tags":{"addr:city":"Arlöv","addr:country":"SE","addr:hamlet":"Burlövs by","addr:housenumber":"5","addr:street":"Gamla Kyrkvägen","alt_name":"Prästgården","building":"yes","contact:email":"barahdhembf@yahoo.com","museum":"local","name":"Hembygdsmuseet i Burlövs by","operator":"Bara Härads hembygdsförening","operator:type":"private_non_profit","tourism":"museum","website":"https://www.hembygd.se/bara-harad"}},"geometry":{"type":"Point","coordinates":[13.1124207,55.6369361]}},{"type":"Feature","properties":{"id":211680568,"osm_type":"way","name":"Per Albin Hanssons födelsehem","category":"museum","tags":{"addr:city":"Malmö","addr:housenumber":"91, 93","addr:postcode":"21565","addr:street":"Per Albin Hanssons väg","building":"yes","museum":"person","name":"Per Albin Hanssons födelsehem","opening_hours":"Fr 09:00-12:00","subject":"Per Albin Hansson","tourism":"museum","website":"https://www.peralbinhuset.se/","wikidata":"Q28934230"}},"geometry":{"type":"Point","coordinates":[12.9982189,55.5732506]}},{"type":"Feature","properties":{"id":622466023,"osm_type":"way","name":"Soldattorpet","category":"museum","tags":{"name":"Soldattorpet","operator":"Limhamns museiförening","tourism":"museum"}},"geometry":{"type":"Point","coordinates":[12.9418905,55.5897543]}},{"type":"Feature","properties":{"id":622466029,"osm_type":"way","name":"Limhamns museum","category":"museum","tags":{"building":"yes","building:levels":"1","museum":"history","name":"Limhamns museum","operator":"Limhamns museiförening","tourism":"museum","wikidata":"Q10562024"}},"geometry":{"type":"Point","coordinates":[12.9417535,55.5898471]}},{"type":"Feature","properties":{"id":625921964,"osm_type":"way","name":"Kretseum","category":"museum","tags":{"building":"yes","description":"Kretslopp & kunskapscentrum. Utställningen \"Den hållbara staden\" är navet i VA SYDs pedagogiska verksamhet. Här lär vi ut hur vatten, avfall och energi hanteras i en hållbar stad. Huset ligger i Malmö i Hyllie Vattenpark.","museum":"science","name":"Kretseum","operator":"VA SYD","operator:type":"public","tourism":"museum","website":"http://www.kretseum.se/Kretseumhuset"}},"geometry":{"type":"Point","coordinates":[12.9780717,55.5654461]}},{"type":"Feature","properties":{"id":681243145,"osm_type":"way","name":"Ebbas hus","category":"museum","tags":{"addr:city":"Malmö","addr:country":"SE","addr:housenumber":"10","addr:postcode":"211 35","addr:street":"Snapperupsgatan","building":"yes","name":"Ebbas hus","tourism":"museum","wikidata":"Q10478963","wikipedia":"sv:Ebbas hus"}},"geometry":{"type":"Point","coordinates":[13.0057766,55.6053708]}},{"type":"Feature","properties":{"id":1036504155,"osm_type":"way","name":"Disgusting Food Museum","category":"museum","tags":{"addr:city":"Malmö","addr:country":"SE","addr:housenumber":"2","addr:postcode":"21120","addr:street":"Södra Förstadsgatan","fee":"yes","name":"Disgusting Food Museum","name:en":"Disgusting Food Museum","opening_hours":"We-Su 12:00-18:00","tourism":"museum","website":"https://disgustingfoodmuseum.com"}},"geometry":{"type":"Point","coordinates":[13.0013096,55.6008966]}},{"type":"Feature","properties":{"id":1513013759,"osm_type":"way","name":"Bore","category":"museum","tags":{"addr:city":"Malmö","addr:housenumber":"10","addr:postcode":"211 20","addr:street":"Skeppsbron","building":"boat","museum":"boat","name":"Bore","note":"Bore has been moored since 2023 and is open in the summer for visits. Placement may vary slightly, but the city has given it an address that corresponds with this placement and can thus be considered permanent until such time as the quay is rebuilt.","operator":"Malmö stad","operator:type":"public","tourism":"museum","website":"https://malmo.se/Uppleva-och-gora/Konst-och-museer/Bore.html"}},"geometry":{"type":"Point","coordinates":[12.9970506,55.6116472]}}]}