{"type":"FeatureCollection","features":[{"type":"Feature","properties":{"id":445847413,"osm_type":"node","name":"Kulturbolaget","category":"nightclub","tags":{"amenity":"nightclub","name":"Kulturbolaget","toilets:wheelchair":"yes","wheelchair":"yes"}},"geometry":{"type":"Point","coordinates":[13.0088178,55.5947563]}},{"type":"Feature","properties":{"id":2266097331,"osm_type":"node","name":"Babel","category":"nightclub","tags":{"amenity":"nightclub","check_date":"2024-07-07","name":"Babel","wheelchair":"no"}},"geometry":{"type":"Point","coordinates":[13.0108846,55.5961035]}},{"type":"Feature","properties":{"id":2293728903,"osm_type":"node","name":"Breeze bar & nightclub","category":"nightclub","tags":{"amenity":"nightclub","name":"Breeze bar & nightclub"}},"geometry":{"type":"Point","coordinates":[13.0015136,55.6050328]}},{"type":"Feature","properties":{"id":2511321069,"osm_type":"node","name":"Inkonst","category":"nightclub","tags":{"addr:city":"Malmö","addr:country":"SE","addr:housenumber":"29","addr:postcode":"214 22","addr:street":"Bergsgatan","amenity":"nightclub","contact:instagram":"Inkonst","email":"info@inkonst.com","internet_access":"wlan","level":"1","name":"Inkonst","phone":"+46707547764","website":"https://inkonst.com/"}},"geometry":{"type":"Point","coordinates":[13.0078512,55.5940452]}},{"type":"Feature","properties":{"id":7246975485,"osm_type":"node","name":"Plan B","category":"nightclub","tags":{"amenity":"nightclub","name":"Plan B","opening_hours":"18:00-01:00","wheelchair":"yes"}},"geometry":{"type":"Point","coordinates":[13.0272499,55.5839411]}},{"type":"Feature","properties":{"id":12532773279,"osm_type":"node","name":"Moriska Paviljongen","category":"nightclub","tags":{"amenity":"nightclub","min_age":"18","name":"Moriska Paviljongen","payment:cash":"no","payment:mastercard":"yes","payment:visa":"yes"}},"geometry":{"type":"Point","coordinates":[13.0135015,55.5937841]}},{"type":"Feature","properties":{"id":13433135707,"osm_type":"node","name":"Etage","category":"nightclub","tags":{"amenity":"nightclub","name":"Etage"}},"geometry":{"type":"Point","coordinates":[13.0014527,55.6058686]}},{"type":"Feature","properties":{"id":1093128514,"osm_type":"way","name":"Breeze bar & nightclub","category":"nightclub","tags":{"amenity":"nightclub","name":"Breeze bar & nightclub"}},"geometry":{"type":"Point","coordinates":[13.0015968,55.6049905]}}]}