{"type":"FeatureCollection","features":[{"type":"Feature","properties":{"id":11772138691,"osm_type":"node","name":"","category":"park","tags":{"leisure":"park"}},"geometry":{"type":"Point","coordinates":[12.9846223,55.6138885]}},{"type":"Feature","properties":{"id":12292627090,"osm_type":"node","name":"Floras hage","category":"park","tags":{"leisure":"park","name":"Floras hage","operator":"Malmö stad"}},"geometry":{"type":"Point","coordinates":[13.008797,55.6011596]}},{"type":"Feature","properties":{"id":22953383,"osm_type":"way","name":"Pildammsparken","category":"park","tags":{"leisure":"park","name":"Pildammsparken","name:de":"Pildammspark","wikidata":"Q1579207","wikipedia":"sv:Pildammsparken"}},"geometry":{"type":"Point","coordinates":[12.9920643,55.5906227]}},{"type":"Feature","properties":{"id":28417392,"osm_type":"way","name":"Folkets park","category":"park","tags":{"barrier":"fence","dog":"yes","leisure":"park","name":"Folkets park","official_name":"Malmö Folkets park","opening_hours":"24/7","operator":"Malmö stad","operator:type":"government","wikidata":"Q10497373"}},"geometry":{"type":"Point","coordinates":[13.0138069,55.5934798]}},{"type":"Feature","properties":{"id":28434143,"osm_type":"way","name":"","category":"park","tags":{"leisure":"park"}},"geometry":{"type":"Point","coordinates":[12.9955214,55.5901043]}},{"type":"Feature","properties":{"id":28434258,"osm_type":"way","name":"","category":"park","tags":{"leisure":"park"}},"geometry":{"type":"Point","coordinates":[12.9923679,55.5935445]}},{"type":"Feature","properties":{"id":28434259,"osm_type":"way","name":"","category":"park","tags":{"leisure":"park"}},"geometry":{"type":"Point","coordinates":[12.9918503,55.5934522]}},{"type":"Feature","properties":{"id":28461042,"osm_type":"way","name":"Rörsjöparken","category":"park","tags":{"leisure":"park","name":"Rörsjöparken","wikidata":"Q7386697","wikipedia":"sv:Rörsjöparken"}},"geometry":{"type":"Point","coordinates":[13.0177777,55.6050772]}},{"type":"Feature","properties":{"id":28482241,"osm_type":"way","name":"Magistratsparken","category":"park","tags":{"leisure":"park","name":"Magistratsparken"}},"geometry":{"type":"Point","coordinates":[12.9978437,55.59612]}},{"type":"Feature","properties":{"id":28549772,"osm_type":"way","name":"Askängen","category":"park","tags":{"leisure":"park","name":"Askängen"}},"geometry":{"type":"Point","coordinates":[13.0371336,55.5699519]}},{"type":"Feature","properties":{"id":28553117,"osm_type":"way","name":"Kroksbäcksparken","category":"park","tags":{"leisure":"park","name":"Kroksbäcksparken","wikidata":"Q10549384","wikipedia":"sv:Kroksbäcksparken"}},"geometry":{"type":"Point","coordinates":[12.9795933,55.5740703]}},{"type":"Feature","properties":{"id":28567280,"osm_type":"way","name":"Vanåsparken","category":"park","tags":{"leisure":"park","name":"Vanåsparken"}},"geometry":{"type":"Point","coordinates":[12.9549937,55.5810969]}},{"type":"Feature","properties":{"id":28760689,"osm_type":"way","name":"Roshagen","category":"park","tags":{"leisure":"park","name":"Roshagen"}},"geometry":{"type":"Point","coordinates":[13.0429696,55.5794879]}},{"type":"Feature","properties":{"id":28760832,"osm_type":"way","name":"","category":"park","tags":{"leisure":"park"}},"geometry":{"type":"Point","coordinates":[13.0443643,55.5771666]}},{"type":"Feature","properties":{"id":28768793,"osm_type":"way","name":"Djupadalsparken","category":"park","tags":{"leisure":"park","name":"Djupadalsparken"}},"geometry":{"type":"Point","coordinates":[12.9546142,55.5759006]}},{"type":"Feature","properties":{"id":28790723,"osm_type":"way","name":"Knutsbacken","category":"park","tags":{"leisure":"park","name":"Knutsbacken"}},"geometry":{"type":"Point","coordinates":[12.9209267,55.5772575]}},{"type":"Feature","properties":{"id":28791053,"osm_type":"way","name":"Sannaparken","category":"park","tags":{"leisure":"park","name":"Sannaparken"}},"geometry":{"type":"Point","coordinates":[12.9462211,55.5794439]}},{"type":"Feature","properties":{"id":28792587,"osm_type":"way","name":"Högerudsplan","category":"park","tags":{"leisure":"park","name":"Högerudsplan"}},"geometry":{"type":"Point","coordinates":[12.9397222,55.5862346]}},{"type":"Feature","properties":{"id":28804590,"osm_type":"way","name":"Bellevueparken","category":"park","tags":{"leisure":"park","name":"Bellevueparken"}},"geometry":{"type":"Point","coordinates":[12.9718235,55.5838049]}},{"type":"Feature","properties":{"id":28805371,"osm_type":"way","name":"Midgårdstorget","category":"park","tags":{"leisure":"park","name":"Midgårdstorget"}},"geometry":{"type":"Point","coordinates":[12.9646063,55.5857552]}},{"type":"Feature","properties":{"id":28809216,"osm_type":"way","name":"Jesusparken","category":"park","tags":{"alt_name":"Falsterboplan","leisure":"park","name":"Jesusparken","official_name":"Falsterboplan","source":"local knowledge","wikidata":"Q120504903"}},"geometry":{"type":"Point","coordinates":[13.0152323,55.5904109]}},{"type":"Feature","properties":{"id":28809347,"osm_type":"way","name":"Arilds Plan","category":"park","tags":{"leisure":"park","name":"Arilds Plan","surface":"grass"}},"geometry":{"type":"Point","coordinates":[13.0240817,55.5945315]}},{"type":"Feature","properties":{"id":28903989,"osm_type":"way","name":"Kasernparken","category":"park","tags":{"leisure":"park","name":"Kasernparken"}},"geometry":{"type":"Point","coordinates":[13.0807078,55.5797299]}},{"type":"Feature","properties":{"id":29008390,"osm_type":"way","name":"Svenshögsparken","category":"park","tags":{"leisure":"park","name":"Svenshögsparken"}},"geometry":{"type":"Point","coordinates":[13.0846203,55.6328336]}},{"type":"Feature","properties":{"id":29068448,"osm_type":"way","name":"Pilstorpsparken","category":"park","tags":{"leisure":"park","name":"Pilstorpsparken"}},"geometry":{"type":"Point","coordinates":[12.9948875,55.5973699]}},{"type":"Feature","properties":{"id":29865956,"osm_type":"way","name":"Mellanhedsparken","category":"park","tags":{"leisure":"park","name":"Mellanhedsparken"}},"geometry":{"type":"Point","coordinates":[12.9666358,55.5901456]}},{"type":"Feature","properties":{"id":30025167,"osm_type":"way","name":"Slottsparken","category":"park","tags":{"leisure":"park","name":"Slottsparken","name:de":"Schlosspark","wikidata":"Q7541449","wikipedia":"sv:Slottsparken, Malmö"}},"geometry":{"type":"Point","coordinates":[12.988699,55.6014644]}},{"type":"Feature","properties":{"id":30037703,"osm_type":"way","name":"Engelska parken","category":"park","tags":{"leisure":"park","name":"Engelska parken"}},"geometry":{"type":"Point","coordinates":[13.0046276,55.5498895]}},{"type":"Feature","properties":{"id":30053816,"osm_type":"way","name":"Scaniaparken","category":"park","tags":{"alt_name":"Skaniaparken","leisure":"park","name":"Scaniaparken","wikidata":"Q7430034"}},"geometry":{"type":"Point","coordinates":[12.9767876,55.617678]}},{"type":"Feature","properties":{"id":30407441,"osm_type":"way","name":"","category":"park","tags":{"building:levels":"5","building:part":"yes","layer":"2","leisure":"park","location":"roof"}},"geometry":{"type":"Point","coordinates":[13.0037012,55.6041198]}},{"type":"Feature","properties":{"id":30407442,"osm_type":"way","name":"","category":"park","tags":{"building:levels":"5","building:part":"yes","layer":"2","leisure":"park","location":"roof"}},"geometry":{"type":"Point","coordinates":[13.0040667,55.6041436]}},{"type":"Feature","properties":{"id":37004082,"osm_type":"way","name":"Flygfältsparken","category":"park","tags":{"leisure":"park","name":"Flygfältsparken"}},"geometry":{"type":"Point","coordinates":[13.0528178,55.599647]}},{"type":"Feature","properties":{"id":37255055,"osm_type":"way","name":"Päronparken","category":"park","tags":{"alt_name":"Hemliga trädgården","leisure":"park","name":"Päronparken","opening_hours":"24/7"}},"geometry":{"type":"Point","coordinates":[13.0173692,55.5961881]}},{"type":"Feature","properties":{"id":37949923,"osm_type":"way","name":"Teaterparken","category":"park","tags":{"leisure":"park","name":"Teaterparken"}},"geometry":{"type":"Point","coordinates":[12.9951928,55.5965714]}},{"type":"Feature","properties":{"id":39503698,"osm_type":"way","name":"","category":"park","tags":{"leisure":"park"}},"geometry":{"type":"Point","coordinates":[13.0938462,55.6020783]}},{"type":"Feature","properties":{"id":39522296,"osm_type":"way","name":"","category":"park","tags":{"leisure":"park"}},"geometry":{"type":"Point","coordinates":[13.084739,55.5951795]}},{"type":"Feature","properties":{"id":41173378,"osm_type":"way","name":"","category":"park","tags":{"leisure":"park","wikidata":"Q8079016"}},"geometry":{"type":"Point","coordinates":[12.9700882,55.6023729]}},{"type":"Feature","properties":{"id":41174366,"osm_type":"way","name":"Badhusparken","category":"park","tags":{"alt_name":"Sibbarpsfältet","leisure":"park","name":"Badhusparken"}},"geometry":{"type":"Point","coordinates":[12.9091724,55.5748292]}},{"type":"Feature","properties":{"id":41687874,"osm_type":"way","name":"Rosengårdsfältet","category":"park","tags":{"leisure":"park","name":"Rosengårdsfältet"}},"geometry":{"type":"Point","coordinates":[13.0416398,55.580493]}},{"type":"Feature","properties":{"id":41688058,"osm_type":"way","name":"Cronheimsparken","category":"park","tags":{"leisure":"park","name":"Cronheimsparken","wikidata":"Q5187705"}},"geometry":{"type":"Point","coordinates":[13.0452578,55.5900166]}},{"type":"Feature","properties":{"id":41688630,"osm_type":"way","name":"Hermodsdalsparken","category":"park","tags":{"leisure":"park","name":"Hermodsdalsparken"}},"geometry":{"type":"Point","coordinates":[13.0154325,55.5677189]}},{"type":"Feature","properties":{"id":41688726,"osm_type":"way","name":"Nydalaparken","category":"park","tags":{"leisure":"park","name":"Nydalaparken"}},"geometry":{"type":"Point","coordinates":[13.0175654,55.5725355]}},{"type":"Feature","properties":{"id":41688947,"osm_type":"way","name":"Gullviksparken","category":"park","tags":{"fixme":"continues along inre ringvägen","leisure":"park","name":"Gullviksparken"}},"geometry":{"type":"Point","coordinates":[13.0272472,55.5670347]}},{"type":"Feature","properties":{"id":41689378,"osm_type":"way","name":"Ulricedalsparken","category":"park","tags":{"leisure":"park","name":"Ulricedalsparken"}},"geometry":{"type":"Point","coordinates":[13.056947,55.5920974]}},{"type":"Feature","properties":{"id":42051268,"osm_type":"way","name":"Fjärilsparken","category":"park","tags":{"leisure":"park","name":"Fjärilsparken"}},"geometry":{"type":"Point","coordinates":[12.9127485,55.5498859]}},{"type":"Feature","properties":{"id":42051383,"osm_type":"way","name":"Grevens park","category":"park","tags":{"leisure":"park","name":"Grevens park"}},"geometry":{"type":"Point","coordinates":[12.910264,55.5537051]}},{"type":"Feature","properties":{"id":42051659,"osm_type":"way","name":"Västra Stadionparken","category":"park","tags":{"leisure":"park","name":"Västra Stadionparken"}},"geometry":{"type":"Point","coordinates":[12.985347,55.5850924]}},{"type":"Feature","properties":{"id":42051814,"osm_type":"way","name":"Vendelsfridsparken","category":"park","tags":{"leisure":"park","name":"Vendelsfridsparken"}},"geometry":{"type":"Point","coordinates":[12.9766039,55.5860528]}},{"type":"Feature","properties":{"id":42466947,"osm_type":"way","name":"Hantverkareparken","category":"park","tags":{"leisure":"park","name":"Hantverkareparken"}},"geometry":{"type":"Point","coordinates":[12.9297575,55.5572461]}},{"type":"Feature","properties":{"id":42467147,"osm_type":"way","name":"Sundsbroparken","category":"park","tags":{"leisure":"park","name":"Sundsbroparken"}},"geometry":{"type":"Point","coordinates":[12.9232103,55.5522548]}},{"type":"Feature","properties":{"id":42630520,"osm_type":"way","name":"","category":"park","tags":{"leisure":"park"}},"geometry":{"type":"Point","coordinates":[12.9909907,55.5587121]}},{"type":"Feature","properties":{"id":42631568,"osm_type":"way","name":"","category":"park","tags":{"leisure":"park"}},"geometry":{"type":"Point","coordinates":[12.9921061,55.5642526]}},{"type":"Feature","properties":{"id":42635122,"osm_type":"way","name":"Almängen","category":"park","tags":{"leisure":"park","name":"Almängen"}},"geometry":{"type":"Point","coordinates":[13.022787,55.5754796]}},{"type":"Feature","properties":{"id":42706689,"osm_type":"way","name":"Östra Stadionparken","category":"park","tags":{"leisure":"park","name":"Östra Stadionparken"}},"geometry":{"type":"Point","coordinates":[12.9926207,55.5855918]}},{"type":"Feature","properties":{"id":42706706,"osm_type":"way","name":"Östra Stadionparken","category":"park","tags":{"leisure":"park","name":"Östra Stadionparken"}},"geometry":{"type":"Point","coordinates":[12.9931362,55.5822015]}},{"type":"Feature","properties":{"id":42706751,"osm_type":"way","name":"Gullängen","category":"park","tags":{"leisure":"park","name":"Gullängen"}},"geometry":{"type":"Point","coordinates":[13.0274931,55.5829402]}},{"type":"Feature","properties":{"id":42706757,"osm_type":"way","name":"Uddeholmsparken","category":"park","tags":{"alt_name":"Gullängen","leisure":"park","name":"Uddeholmsparken"}},"geometry":{"type":"Point","coordinates":[13.0218432,55.5842663]}},{"type":"Feature","properties":{"id":42706819,"osm_type":"way","name":"Risebergaparken","category":"park","tags":{"leisure":"park","name":"Risebergaparken"}},"geometry":{"type":"Point","coordinates":[13.0794208,55.5979758]}},{"type":"Feature","properties":{"id":42706946,"osm_type":"way","name":"","category":"park","tags":{"leisure":"park"}},"geometry":{"type":"Point","coordinates":[13.0243034,55.5560154]}},{"type":"Feature","properties":{"id":42707544,"osm_type":"way","name":"","category":"park","tags":{"leisure":"park"}},"geometry":{"type":"Point","coordinates":[13.0527323,55.6064726]}},{"type":"Feature","properties":{"id":42966949,"osm_type":"way","name":"Babelparken","category":"park","tags":{"leisure":"park","name":"Babelparken"}},"geometry":{"type":"Point","coordinates":[13.0116952,55.5964705]}},{"type":"Feature","properties":{"id":43137702,"osm_type":"way","name":"Rönneholmsparken","category":"park","tags":{"leisure":"park","name":"Rönneholmsparken","wikidata":"Q7386690"}},"geometry":{"type":"Point","coordinates":[12.9759948,55.5949495]}},{"type":"Feature","properties":{"id":52403704,"osm_type":"way","name":"Raoul Wallenbergs park","category":"park","tags":{"leisure":"park","name":"Raoul Wallenbergs park"}},"geometry":{"type":"Point","coordinates":[13.0036663,55.6021114]}},{"type":"Feature","properties":{"id":55801342,"osm_type":"way","name":"Millennieskogen","category":"park","tags":{"leisure":"park","name":"Millennieskogen"}},"geometry":{"type":"Point","coordinates":[13.0094534,55.5496949]}},{"type":"Feature","properties":{"id":55801421,"osm_type":"way","name":"","category":"park","tags":{"leisure":"park"}},"geometry":{"type":"Point","coordinates":[13.0107394,55.5547056]}},{"type":"Feature","properties":{"id":74990267,"osm_type":"way","name":"Gerlachs park","category":"park","tags":{"leisure":"park","name":"Gerlachs park","wikidata":"Q5550935","wikipedia":"sv:Gerlachs park"}},"geometry":{"type":"Point","coordinates":[13.0320875,55.6085944]}},{"type":"Feature","properties":{"id":74990273,"osm_type":"way","name":"Garnisonsplanteringen","category":"park","tags":{"leisure":"park","loc_name":"Tjyvaparken","name":"Garnisonsplanteringen","wikidata":"Q18290090","wikipedia":"sv:Garnisonsplanteringen"}},"geometry":{"type":"Point","coordinates":[13.0340616,55.6084011]}},{"type":"Feature","properties":{"id":80878999,"osm_type":"way","name":"","category":"park","tags":{"leisure":"park"}},"geometry":{"type":"Point","coordinates":[12.9262502,55.5771071]}},{"type":"Feature","properties":{"id":81309983,"osm_type":"way","name":"Södervärnsplan","category":"park","tags":{"leisure":"park","name":"Södervärnsplan"}},"geometry":{"type":"Point","coordinates":[13.0115156,55.5878311]}},{"type":"Feature","properties":{"id":82312457,"osm_type":"way","name":"Enskifteshagen","category":"park","tags":{"leisure":"park","name":"Enskifteshagen"}},"geometry":{"type":"Point","coordinates":[13.0237034,55.5888384]}},{"type":"Feature","properties":{"id":87469851,"osm_type":"way","name":"","category":"park","tags":{"leisure":"park"}},"geometry":{"type":"Point","coordinates":[13.1017918,55.6369706]}},{"type":"Feature","properties":{"id":87783156,"osm_type":"way","name":"","category":"park","tags":{"leisure":"park"}},"geometry":{"type":"Point","coordinates":[12.9212517,55.59277]}},{"type":"Feature","properties":{"id":87783167,"osm_type":"way","name":"Öparken","category":"park","tags":{"leisure":"park","name":"Öparken"}},"geometry":{"type":"Point","coordinates":[12.9184274,55.5892774]}},{"type":"Feature","properties":{"id":89757903,"osm_type":"way","name":"","category":"park","tags":{"leisure":"park"}},"geometry":{"type":"Point","coordinates":[13.0726681,55.6230252]}},{"type":"Feature","properties":{"id":99289599,"osm_type":"way","name":"","category":"park","tags":{"leisure":"park"}},"geometry":{"type":"Point","coordinates":[12.9931297,55.593038]}},{"type":"Feature","properties":{"id":99513226,"osm_type":"way","name":"","category":"park","tags":{"leisure":"park"}},"geometry":{"type":"Point","coordinates":[12.9790142,55.6025204]}},{"type":"Feature","properties":{"id":101738317,"osm_type":"way","name":"Vikingaplan","category":"park","tags":{"leisure":"park","name":"Vikingaplan"}},"geometry":{"type":"Point","coordinates":[12.9516279,55.5886957]}},{"type":"Feature","properties":{"id":102209554,"osm_type":"way","name":"Ängdalaplan","category":"park","tags":{"leisure":"park","name":"Ängdalaplan"}},"geometry":{"type":"Point","coordinates":[12.9760815,55.5923746]}},{"type":"Feature","properties":{"id":102212942,"osm_type":"way","name":"Erikslustsplan","category":"park","tags":{"leisure":"park","name":"Erikslustsplan"}},"geometry":{"type":"Point","coordinates":[12.9671744,55.5944133]}},{"type":"Feature","properties":{"id":102214386,"osm_type":"way","name":"Midsommarängen","category":"park","tags":{"leisure":"park","name":"Midsommarängen"}},"geometry":{"type":"Point","coordinates":[12.9645353,55.5950136]}},{"type":"Feature","properties":{"id":102214388,"osm_type":"way","name":"Glyttängen","category":"park","tags":{"leisure":"park","name":"Glyttängen"}},"geometry":{"type":"Point","coordinates":[12.9618453,55.5946462]}},{"type":"Feature","properties":{"id":113190231,"osm_type":"way","name":"","category":"park","tags":{"leisure":"park"}},"geometry":{"type":"Point","coordinates":[13.1066184,55.5886981]}},{"type":"Feature","properties":{"id":123385856,"osm_type":"way","name":"Lottaparken","category":"park","tags":{"leisure":"park","name":"Lottaparken"}},"geometry":{"type":"Point","coordinates":[13.07472,55.5813489]}},{"type":"Feature","properties":{"id":125738265,"osm_type":"way","name":"","category":"park","tags":{"leisure":"park"}},"geometry":{"type":"Point","coordinates":[12.9774256,55.6093204]}},{"type":"Feature","properties":{"id":126211346,"osm_type":"way","name":"","category":"park","tags":{"leisure":"park"}},"geometry":{"type":"Point","coordinates":[13.0409919,55.5979135]}},{"type":"Feature","properties":{"id":126211453,"osm_type":"way","name":"","category":"park","tags":{"leisure":"park"}},"geometry":{"type":"Point","coordinates":[13.0393257,55.5961438]}},{"type":"Feature","properties":{"id":126216178,"osm_type":"way","name":"","category":"park","tags":{"leisure":"park"}},"geometry":{"type":"Point","coordinates":[13.0502892,55.6016269]}},{"type":"Feature","properties":{"id":126221639,"osm_type":"way","name":"","category":"park","tags":{"leisure":"park"}},"geometry":{"type":"Point","coordinates":[13.0774722,55.5942216]}},{"type":"Feature","properties":{"id":126223259,"osm_type":"way","name":"Hallstorpsparken","category":"park","tags":{"leisure":"park","name":"Hallstorpsparken"}},"geometry":{"type":"Point","coordinates":[13.0716344,55.5940417]}},{"type":"Feature","properties":{"id":126224151,"osm_type":"way","name":"","category":"park","tags":{"leisure":"park"}},"geometry":{"type":"Point","coordinates":[13.0625832,55.5942778]}},{"type":"Feature","properties":{"id":126268880,"osm_type":"way","name":"","category":"park","tags":{"leisure":"park"}},"geometry":{"type":"Point","coordinates":[13.0630909,55.5927888]}},{"type":"Feature","properties":{"id":126629327,"osm_type":"way","name":"Altonaparken","category":"park","tags":{"leisure":"park","name":"Altonaparken"}},"geometry":{"type":"Point","coordinates":[13.0067689,55.6029276]}},{"type":"Feature","properties":{"id":126704642,"osm_type":"way","name":"Karlskronaplan","category":"park","tags":{"leisure":"park","name":"Karlskronaplan"}},"geometry":{"type":"Point","coordinates":[13.0177137,55.5932269]}},{"type":"Feature","properties":{"id":126704644,"osm_type":"way","name":"Karlskronaplan","category":"park","tags":{"leisure":"park","name":"Karlskronaplan"}},"geometry":{"type":"Point","coordinates":[13.018862,55.5938628]}},{"type":"Feature","properties":{"id":126783409,"osm_type":"way","name":"","category":"park","tags":{"leisure":"park"}},"geometry":{"type":"Point","coordinates":[13.0540973,55.6183546]}},{"type":"Feature","properties":{"id":128921978,"osm_type":"way","name":"","category":"park","tags":{"leisure":"park"}},"geometry":{"type":"Point","coordinates":[12.9283302,55.5794899]}},{"type":"Feature","properties":{"id":129494430,"osm_type":"way","name":"Odalängen","category":"park","tags":{"leisure":"park","name":"Odalängen"}},"geometry":{"type":"Point","coordinates":[12.9646581,55.5823757]}},{"type":"Feature","properties":{"id":129500465,"osm_type":"way","name":"Sövdeborgsplan","category":"park","tags":{"leisure":"park","name":"Sövdeborgsplan"}},"geometry":{"type":"Point","coordinates":[12.9572478,55.5838383]}},{"type":"Feature","properties":{"id":132196479,"osm_type":"way","name":"","category":"park","tags":{"leisure":"park"}},"geometry":{"type":"Point","coordinates":[13.0634433,55.5832712]}},{"type":"Feature","properties":{"id":132206144,"osm_type":"way","name":"","category":"park","tags":{"leisure":"park"}},"geometry":{"type":"Point","coordinates":[13.062139,55.5939508]}},{"type":"Feature","properties":{"id":132206538,"osm_type":"way","name":"","category":"park","tags":{"leisure":"park"}},"geometry":{"type":"Point","coordinates":[13.0585242,55.5861588]}},{"type":"Feature","properties":{"id":132312500,"osm_type":"way","name":"","category":"park","tags":{"leisure":"park"}},"geometry":{"type":"Point","coordinates":[13.0606373,55.577073]}},{"type":"Feature","properties":{"id":132314009,"osm_type":"way","name":"","category":"park","tags":{"leisure":"park"}},"geometry":{"type":"Point","coordinates":[13.0549229,55.5724252]}},{"type":"Feature","properties":{"id":132326201,"osm_type":"way","name":"","category":"park","tags":{"leisure":"park"}},"geometry":{"type":"Point","coordinates":[13.0623832,55.5752005]}},{"type":"Feature","properties":{"id":132340866,"osm_type":"way","name":"","category":"park","tags":{"leisure":"park"}},"geometry":{"type":"Point","coordinates":[13.0626919,55.5715288]}},{"type":"Feature","properties":{"id":132341325,"osm_type":"way","name":"","category":"park","tags":{"leisure":"park"}},"geometry":{"type":"Point","coordinates":[13.0593561,55.5725984]}},{"type":"Feature","properties":{"id":132401931,"osm_type":"way","name":"","category":"park","tags":{"leisure":"park"}},"geometry":{"type":"Point","coordinates":[13.0617204,55.5532499]}},{"type":"Feature","properties":{"id":132418975,"osm_type":"way","name":"","category":"park","tags":{"leisure":"park"}},"geometry":{"type":"Point","coordinates":[13.0460868,55.5596668]}},{"type":"Feature","properties":{"id":132507337,"osm_type":"way","name":"","category":"park","tags":{"leisure":"park"}},"geometry":{"type":"Point","coordinates":[13.0520997,55.5573777]}},{"type":"Feature","properties":{"id":132513570,"osm_type":"way","name":"","category":"park","tags":{"leisure":"park"}},"geometry":{"type":"Point","coordinates":[13.0618778,55.5634535]}},{"type":"Feature","properties":{"id":132524894,"osm_type":"way","name":"","category":"park","tags":{"leisure":"park"}},"geometry":{"type":"Point","coordinates":[13.0515253,55.5589668]}},{"type":"Feature","properties":{"id":132817939,"osm_type":"way","name":"","category":"park","tags":{"leisure":"park"}},"geometry":{"type":"Point","coordinates":[13.0385792,55.5670306]}},{"type":"Feature","properties":{"id":133129209,"osm_type":"way","name":"","category":"park","tags":{"leisure":"park"}},"geometry":{"type":"Point","coordinates":[12.9906496,55.576171]}},{"type":"Feature","properties":{"id":133129230,"osm_type":"way","name":"","category":"park","tags":{"leisure":"park"}},"geometry":{"type":"Point","coordinates":[12.9888358,55.5765176]}},{"type":"Feature","properties":{"id":133129522,"osm_type":"way","name":"","category":"park","tags":{"leisure":"park"}},"geometry":{"type":"Point","coordinates":[12.9893554,55.5773789]}},{"type":"Feature","properties":{"id":133129605,"osm_type":"way","name":"","category":"park","tags":{"leisure":"park"}},"geometry":{"type":"Point","coordinates":[12.9902445,55.5772037]}},{"type":"Feature","properties":{"id":133129613,"osm_type":"way","name":"","category":"park","tags":{"leisure":"park"}},"geometry":{"type":"Point","coordinates":[12.9911458,55.5770346]}},{"type":"Feature","properties":{"id":133142153,"osm_type":"way","name":"","category":"park","tags":{"leisure":"park"}},"geometry":{"type":"Point","coordinates":[12.9883293,55.5760636]}},{"type":"Feature","properties":{"id":133142448,"osm_type":"way","name":"","category":"park","tags":{"leisure":"park"}},"geometry":{"type":"Point","coordinates":[12.9881725,55.5767951]}},{"type":"Feature","properties":{"id":133257552,"osm_type":"way","name":"","category":"park","tags":{"leisure":"park"}},"geometry":{"type":"Point","coordinates":[12.9974709,55.5651852]}},{"type":"Feature","properties":{"id":133271166,"osm_type":"way","name":"","category":"park","tags":{"leisure":"park"}},"geometry":{"type":"Point","coordinates":[12.9957567,55.5630815]}},{"type":"Feature","properties":{"id":133608316,"osm_type":"way","name":"","category":"park","tags":{"leisure":"park"}},"geometry":{"type":"Point","coordinates":[12.9898735,55.5652297]}},{"type":"Feature","properties":{"id":133608715,"osm_type":"way","name":"","category":"park","tags":{"leisure":"park"}},"geometry":{"type":"Point","coordinates":[12.9887767,55.5646406]}},{"type":"Feature","properties":{"id":133608739,"osm_type":"way","name":"","category":"park","tags":{"leisure":"park"}},"geometry":{"type":"Point","coordinates":[12.9888639,55.5653293]}},{"type":"Feature","properties":{"id":133608741,"osm_type":"way","name":"","category":"park","tags":{"leisure":"park"}},"geometry":{"type":"Point","coordinates":[12.9890558,55.5657251]}},{"type":"Feature","properties":{"id":133613353,"osm_type":"way","name":"","category":"park","tags":{"leisure":"park"}},"geometry":{"type":"Point","coordinates":[12.9885306,55.5642237]}},{"type":"Feature","properties":{"id":133613375,"osm_type":"way","name":"","category":"park","tags":{"leisure":"park"}},"geometry":{"type":"Point","coordinates":[12.9892584,55.5660532]}},{"type":"Feature","properties":{"id":133727679,"osm_type":"way","name":"","category":"park","tags":{"leisure":"park"}},"geometry":{"type":"Point","coordinates":[12.9905605,55.5657689]}},{"type":"Feature","properties":{"id":149062300,"osm_type":"way","name":"Nordmannaplan","category":"park","tags":{"leisure":"park","name":"Nordmannaplan","source":"Bing"}},"geometry":{"type":"Point","coordinates":[12.9592632,55.5913813]}},{"type":"Feature","properties":{"id":158349244,"osm_type":"way","name":"","category":"park","tags":{"leisure":"park"}},"geometry":{"type":"Point","coordinates":[13.0246071,55.607691]}},{"type":"Feature","properties":{"id":158387712,"osm_type":"way","name":"Robert Linds park","category":"park","tags":{"addr:street":"Lundavägen","leisure":"park","name":"Robert Linds park"}},"geometry":{"type":"Point","coordinates":[13.0428126,55.6147831]}},{"type":"Feature","properties":{"id":158387901,"osm_type":"way","name":"","category":"park","tags":{"leisure":"park","surface":"grass"}},"geometry":{"type":"Point","coordinates":[13.0455728,55.6124435]}},{"type":"Feature","properties":{"id":158641996,"osm_type":"way","name":"","category":"park","tags":{"leisure":"park"}},"geometry":{"type":"Point","coordinates":[13.053305,55.606369]}},{"type":"Feature","properties":{"id":159634703,"osm_type":"way","name":"Hindby stationsplan","category":"park","tags":{"leisure":"park","name":"Hindby stationsplan"}},"geometry":{"type":"Point","coordinates":[13.0456089,55.5744342]}},{"type":"Feature","properties":{"id":161847340,"osm_type":"way","name":"Göingeplan","category":"park","tags":{"leisure":"park","name":"Göingeplan"}},"geometry":{"type":"Point","coordinates":[13.0180183,55.5902814]}},{"type":"Feature","properties":{"id":161847834,"osm_type":"way","name":"","category":"park","tags":{"leisure":"park"}},"geometry":{"type":"Point","coordinates":[13.0144317,55.5897595]}},{"type":"Feature","properties":{"id":164226211,"osm_type":"way","name":"","category":"park","tags":{"leisure":"park"}},"geometry":{"type":"Point","coordinates":[13.0719568,55.5844297]}},{"type":"Feature","properties":{"id":164331481,"osm_type":"way","name":"","category":"park","tags":{"leisure":"park"}},"geometry":{"type":"Point","coordinates":[13.0758813,55.5976206]}},{"type":"Feature","properties":{"id":164887989,"osm_type":"way","name":"","category":"park","tags":{"leisure":"park"}},"geometry":{"type":"Point","coordinates":[13.0377771,55.5638203]}},{"type":"Feature","properties":{"id":170189518,"osm_type":"way","name":"","category":"park","tags":{"leisure":"park"}},"geometry":{"type":"Point","coordinates":[13.0599494,55.5927065]}},{"type":"Feature","properties":{"id":170301711,"osm_type":"way","name":"","category":"park","tags":{"leisure":"park"}},"geometry":{"type":"Point","coordinates":[13.0644902,55.604562]}},{"type":"Feature","properties":{"id":173517141,"osm_type":"way","name":"","category":"park","tags":{"leisure":"park"}},"geometry":{"type":"Point","coordinates":[12.9341713,55.5721825]}},{"type":"Feature","properties":{"id":173728787,"osm_type":"way","name":"Viängen","category":"park","tags":{"leisure":"park","name":"Viängen"}},"geometry":{"type":"Point","coordinates":[12.9325673,55.5804885]}},{"type":"Feature","properties":{"id":196198441,"osm_type":"way","name":"Bågängen","category":"park","tags":{"leisure":"park","name":"Bågängen"}},"geometry":{"type":"Point","coordinates":[12.9671902,55.5766577]}},{"type":"Feature","properties":{"id":208664744,"osm_type":"way","name":"","category":"park","tags":{"leisure":"park"}},"geometry":{"type":"Point","coordinates":[13.0820712,55.6362989]}},{"type":"Feature","properties":{"id":210594603,"osm_type":"way","name":"","category":"park","tags":{"leisure":"park"}},"geometry":{"type":"Point","coordinates":[12.9371922,55.5915859]}},{"type":"Feature","properties":{"id":210594604,"osm_type":"way","name":"Glasbruksparken","category":"park","tags":{"leisure":"park","name":"Glasbruksparken"}},"geometry":{"type":"Point","coordinates":[12.9338122,55.5919984]}},{"type":"Feature","properties":{"id":211411868,"osm_type":"way","name":"Gröningen","category":"park","tags":{"leisure":"park","name":"Gröningen"}},"geometry":{"type":"Point","coordinates":[13.0301839,55.5927789]}},{"type":"Feature","properties":{"id":211923763,"osm_type":"way","name":"","category":"park","tags":{"leisure":"park"}},"geometry":{"type":"Point","coordinates":[13.0015655,55.5738575]}},{"type":"Feature","properties":{"id":211965868,"osm_type":"way","name":"Långängen","category":"park","tags":{"leisure":"park","name":"Långängen"}},"geometry":{"type":"Point","coordinates":[12.9678931,55.578413]}},{"type":"Feature","properties":{"id":213571339,"osm_type":"way","name":"Grönbetet","category":"park","tags":{"leisure":"park","name":"Grönbetet","opening_hours":"24/7"}},"geometry":{"type":"Point","coordinates":[12.965702,55.572326]}},{"type":"Feature","properties":{"id":213571345,"osm_type":"way","name":"Kalvhagen","category":"park","tags":{"leisure":"park","name":"Kalvhagen","opening_hours":"24/7"}},"geometry":{"type":"Point","coordinates":[12.9662259,55.5701258]}},{"type":"Feature","properties":{"id":216826425,"osm_type":"way","name":"Tuvängen","category":"park","tags":{"leisure":"park","name":"Tuvängen"}},"geometry":{"type":"Point","coordinates":[13.1050298,55.5473262]}},{"type":"Feature","properties":{"id":219495698,"osm_type":"way","name":"Videdalsparken","category":"park","tags":{"leisure":"park","name":"Videdalsparken"}},"geometry":{"type":"Point","coordinates":[13.0679666,55.589237]}},{"type":"Feature","properties":{"id":219844470,"osm_type":"way","name":"Syrenplanen","category":"park","tags":{"leisure":"park","name":"Syrenplanen"}},"geometry":{"type":"Point","coordinates":[13.0351536,55.5807743]}},{"type":"Feature","properties":{"id":229110771,"osm_type":"way","name":"Koggparken","category":"park","tags":{"leisure":"park","name":"Koggparken"}},"geometry":{"type":"Point","coordinates":[12.9822973,55.6149217]}},{"type":"Feature","properties":{"id":229270517,"osm_type":"way","name":"Snäckparken","category":"park","tags":{"leisure":"park","name":"Snäckparken"}},"geometry":{"type":"Point","coordinates":[12.9260922,55.5729059]}},{"type":"Feature","properties":{"id":230678187,"osm_type":"way","name":"Segeparken","category":"park","tags":{"leisure":"park","name":"Segeparken"}},"geometry":{"type":"Point","coordinates":[13.0582883,55.6133466]}},{"type":"Feature","properties":{"id":231397012,"osm_type":"way","name":"Gröningen Katrinelund","category":"park","tags":{"barrier":"fence","fence_type":"chain_link","landcover":"grass","leisure":"park","name":"Gröningen Katrinelund","surface":"grass"}},"geometry":{"type":"Point","coordinates":[13.0340605,55.6010391]}},{"type":"Feature","properties":{"id":259751145,"osm_type":"way","name":"Lugnets park","category":"park","tags":{"leisure":"park","name":"Lugnets park"}},"geometry":{"type":"Point","coordinates":[13.0043566,55.5989366]}},{"type":"Feature","properties":{"id":278834851,"osm_type":"way","name":"Segevångsparken","category":"park","tags":{"addr:city":"Malmö","leisure":"park","name":"Segevångsparken"}},"geometry":{"type":"Point","coordinates":[13.0510793,55.6165897]}},{"type":"Feature","properties":{"id":281543345,"osm_type":"way","name":"Kungsgatanparken","category":"park","tags":{"leisure":"park","name":"Kungsgatanparken"}},"geometry":{"type":"Point","coordinates":[13.0143174,55.6030077]}},{"type":"Feature","properties":{"id":281543370,"osm_type":"way","name":"","category":"park","tags":{"leisure":"park"}},"geometry":{"type":"Point","coordinates":[13.0061374,55.6001873]}},{"type":"Feature","properties":{"id":282208650,"osm_type":"way","name":"Hyllie vattenpark","category":"park","tags":{"description":"Temalekplatsen","leisure":"park","name":"Hyllie vattenpark","official_name":"Hyllie vattenpark","start_date":"2015-05","url":"https://malmo.se/Uppleva-och-gora/For-familjer-barn-och-unga/Temalekplatser/Hyllie-vattenpark.html","website":"https://www.vasyd.se/Artiklar/Hyllie-vattenpark"}},"geometry":{"type":"Point","coordinates":[12.9793561,55.5650246]}},{"type":"Feature","properties":{"id":285710503,"osm_type":"way","name":"","category":"park","tags":{"leisure":"park"}},"geometry":{"type":"Point","coordinates":[13.0067415,55.5714137]}},{"type":"Feature","properties":{"id":288245422,"osm_type":"way","name":"Naturmolnet","category":"park","tags":{"access":"yes","leisure":"park","name":"Naturmolnet","operator":"Växtverket","website":"https://malmo.se/Kvarteret-Trevnaden/Grannskapstradgarden-Naturmolnet.html"}},"geometry":{"type":"Point","coordinates":[13.0155298,55.5865532]}},{"type":"Feature","properties":{"id":288423744,"osm_type":"way","name":"Augustenborgsparken","category":"park","tags":{"leisure":"park","name":"Augustenborgsparken"}},"geometry":{"type":"Point","coordinates":[13.0225105,55.5796027]}},{"type":"Feature","properties":{"id":310130830,"osm_type":"way","name":"","category":"park","tags":{"leisure":"park"}},"geometry":{"type":"Point","coordinates":[13.0625564,55.5844216]}},{"type":"Feature","properties":{"id":325388359,"osm_type":"way","name":"Grönalund","category":"park","tags":{"leisure":"park","name":"Grönalund"}},"geometry":{"type":"Point","coordinates":[12.9354037,55.5784976]}},{"type":"Feature","properties":{"id":325388399,"osm_type":"way","name":"Hylltorpsplan","category":"park","tags":{"leisure":"park","name":"Hylltorpsplan"}},"geometry":{"type":"Point","coordinates":[12.9383313,55.5795344]}},{"type":"Feature","properties":{"id":334936400,"osm_type":"way","name":"Strandgårdsparken","category":"park","tags":{"leisure":"park","name":"Strandgårdsparken"}},"geometry":{"type":"Point","coordinates":[12.9221585,55.5472834]}},{"type":"Feature","properties":{"id":335566699,"osm_type":"way","name":"Månplan","category":"park","tags":{"leisure":"park","name":"Månplan"}},"geometry":{"type":"Point","coordinates":[12.9604811,55.5866393]}},{"type":"Feature","properties":{"id":335762253,"osm_type":"way","name":"Hammars park","category":"park","tags":{"leisure":"park","name":"Hammars park"}},"geometry":{"type":"Point","coordinates":[12.9170147,55.5717756]}},{"type":"Feature","properties":{"id":335899278,"osm_type":"way","name":"","category":"park","tags":{"leisure":"park"}},"geometry":{"type":"Point","coordinates":[12.9783275,55.5523345]}},{"type":"Feature","properties":{"id":335994468,"osm_type":"way","name":"Kalkstensparken","category":"park","tags":{"leisure":"park","name":"Kalkstensparken"}},"geometry":{"type":"Point","coordinates":[12.9419853,55.5673405]}},{"type":"Feature","properties":{"id":337800667,"osm_type":"way","name":"","category":"park","tags":{"leisure":"park"}},"geometry":{"type":"Point","coordinates":[13.1010703,55.6349629]}},{"type":"Feature","properties":{"id":365052790,"osm_type":"way","name":"","category":"park","tags":{"leisure":"park"}},"geometry":{"type":"Point","coordinates":[13.0711654,55.6274736]}},{"type":"Feature","properties":{"id":365339554,"osm_type":"way","name":"","category":"park","tags":{"leisure":"park"}},"geometry":{"type":"Point","coordinates":[13.0664998,55.6381067]}},{"type":"Feature","properties":{"id":366658154,"osm_type":"way","name":"Ellstorpsparken","category":"park","tags":{"leisure":"park","name":"Ellstorpsparken"}},"geometry":{"type":"Point","coordinates":[13.0344399,55.6032658]}},{"type":"Feature","properties":{"id":390143958,"osm_type":"way","name":"Svampängen","category":"park","tags":{"leisure":"park","name":"Svampängen"}},"geometry":{"type":"Point","coordinates":[12.9611611,55.5782022]}},{"type":"Feature","properties":{"id":401014032,"osm_type":"way","name":"","category":"park","tags":{"leisure":"park"}},"geometry":{"type":"Point","coordinates":[12.9850854,55.6120237]}},{"type":"Feature","properties":{"id":415003876,"osm_type":"way","name":"","category":"park","tags":{"leisure":"park"}},"geometry":{"type":"Point","coordinates":[12.9978334,55.6126502]}},{"type":"Feature","properties":{"id":415013532,"osm_type":"way","name":"","category":"park","tags":{"leisure":"park"}},"geometry":{"type":"Point","coordinates":[13.0217564,55.605485]}},{"type":"Feature","properties":{"id":423902353,"osm_type":"way","name":"Neptuniparken","category":"park","tags":{"leisure":"park","name":"Neptuniparken"}},"geometry":{"type":"Point","coordinates":[12.9967531,55.6072669]}},{"type":"Feature","properties":{"id":430414893,"osm_type":"way","name":"Cementparken","category":"park","tags":{"leisure":"park","name":"Cementparken"}},"geometry":{"type":"Point","coordinates":[12.9324428,55.5876438]}},{"type":"Feature","properties":{"id":444457628,"osm_type":"way","name":"","category":"park","tags":{"leisure":"park"}},"geometry":{"type":"Point","coordinates":[13.0608701,55.5787123]}},{"type":"Feature","properties":{"id":444457629,"osm_type":"way","name":"","category":"park","tags":{"leisure":"park"}},"geometry":{"type":"Point","coordinates":[13.0593248,55.5796901]}},{"type":"Feature","properties":{"id":444457630,"osm_type":"way","name":"","category":"park","tags":{"leisure":"park"}},"geometry":{"type":"Point","coordinates":[13.0600998,55.5816289]}},{"type":"Feature","properties":{"id":470634606,"osm_type":"way","name":"Heleneholmsparken","category":"park","tags":{"leisure":"park","name":"Heleneholmsparken"}},"geometry":{"type":"Point","coordinates":[13.0145128,55.5806309]}},{"type":"Feature","properties":{"id":473654362,"osm_type":"way","name":"","category":"park","tags":{"leisure":"park","source":"Mapbox;Mapillary"}},"geometry":{"type":"Point","coordinates":[12.9904383,55.6135067]}},{"type":"Feature","properties":{"id":476858782,"osm_type":"way","name":"Byåkersparken","category":"park","tags":{"leisure":"park","name":"Byåkersparken","source":"Kommunen"}},"geometry":{"type":"Point","coordinates":[13.0898818,55.5475079]}},{"type":"Feature","properties":{"id":491823898,"osm_type":"way","name":"","category":"park","tags":{"leisure":"park"}},"geometry":{"type":"Point","coordinates":[13.0618046,55.5893825]}},{"type":"Feature","properties":{"id":492193628,"osm_type":"way","name":"","category":"park","tags":{"leisure":"park"}},"geometry":{"type":"Point","coordinates":[13.0571464,55.5953936]}},{"type":"Feature","properties":{"id":496751026,"osm_type":"way","name":"Gröngräsparken","category":"park","tags":{"leisure":"park","name":"Gröngräsparken"}},"geometry":{"type":"Point","coordinates":[13.0171726,55.5944751]}},{"type":"Feature","properties":{"id":497816343,"osm_type":"way","name":"Poppeludden","category":"park","tags":{"leisure":"park","name":"Poppeludden"}},"geometry":{"type":"Point","coordinates":[12.9936433,55.5900929]}},{"type":"Feature","properties":{"id":499579263,"osm_type":"way","name":"Aftontrappan","category":"park","tags":{"leisure":"park","name":"Aftontrappan"}},"geometry":{"type":"Point","coordinates":[12.9970243,55.5898957]}},{"type":"Feature","properties":{"id":500043350,"osm_type":"way","name":"Borgmästarlunden","category":"park","tags":{"leisure":"park","name":"Borgmästarlunden"}},"geometry":{"type":"Point","coordinates":[12.9977501,55.5828239]}},{"type":"Feature","properties":{"id":502628210,"osm_type":"way","name":"Klövervallen","category":"park","tags":{"leisure":"park","name":"Klövervallen"}},"geometry":{"type":"Point","coordinates":[12.9722187,55.5910528]}},{"type":"Feature","properties":{"id":507215302,"osm_type":"way","name":"","category":"park","tags":{"leisure":"park"}},"geometry":{"type":"Point","coordinates":[13.0563639,55.5957876]}},{"type":"Feature","properties":{"id":507215304,"osm_type":"way","name":"","category":"park","tags":{"leisure":"park"}},"geometry":{"type":"Point","coordinates":[13.0580027,55.595705]}},{"type":"Feature","properties":{"id":524194034,"osm_type":"way","name":"","category":"park","tags":{"leisure":"park"}},"geometry":{"type":"Point","coordinates":[13.005704,55.5594917]}},{"type":"Feature","properties":{"id":524194036,"osm_type":"way","name":"","category":"park","tags":{"leisure":"park"}},"geometry":{"type":"Point","coordinates":[13.0072997,55.5586528]}},{"type":"Feature","properties":{"id":524195257,"osm_type":"way","name":"","category":"park","tags":{"leisure":"park"}},"geometry":{"type":"Point","coordinates":[13.0009834,55.6081398]}},{"type":"Feature","properties":{"id":528327921,"osm_type":"way","name":"Ärtholmsparken","category":"park","tags":{"leisure":"park","name":"Ärtholmsparken"}},"geometry":{"type":"Point","coordinates":[12.9810384,55.5791117]}},{"type":"Feature","properties":{"id":528739032,"osm_type":"way","name":"Skärvängen","category":"park","tags":{"leisure":"park","name":"Skärvängen"}},"geometry":{"type":"Point","coordinates":[12.9149,55.573989]}},{"type":"Feature","properties":{"id":528932048,"osm_type":"way","name":"Skäralidsparken","category":"park","tags":{"leisure":"park","name":"Skäralidsparken","old_name":"Krossverksparken"}},"geometry":{"type":"Point","coordinates":[12.9288216,55.5750527]}},{"type":"Feature","properties":{"id":528932599,"osm_type":"way","name":"Gnällegraven","category":"park","tags":{"leisure":"park","name":"Gnällegraven"}},"geometry":{"type":"Point","coordinates":[12.9383961,55.5763025]}},{"type":"Feature","properties":{"id":528932874,"osm_type":"way","name":"Annetorpsparken","category":"park","tags":{"leisure":"park","name":"Annetorpsparken"}},"geometry":{"type":"Point","coordinates":[12.9370064,55.5733864]}},{"type":"Feature","properties":{"id":528933733,"osm_type":"way","name":"Elinelundsparken","category":"park","tags":{"leisure":"park","name":"Elinelundsparken"}},"geometry":{"type":"Point","coordinates":[12.9599257,55.5617485]}},{"type":"Feature","properties":{"id":528933943,"osm_type":"way","name":"Kohagen","category":"park","tags":{"leisure":"park","name":"Kohagen","opening_hours":"24/7"}},"geometry":{"type":"Point","coordinates":[12.9623896,55.570692]}},{"type":"Feature","properties":{"id":528933967,"osm_type":"way","name":"Svennedalsparken","category":"park","tags":{"leisure":"park","name":"Svennedalsparken"}},"geometry":{"type":"Point","coordinates":[12.9607059,55.5684799]}},{"type":"Feature","properties":{"id":528933996,"osm_type":"way","name":"Broddaparken","category":"park","tags":{"leisure":"park","name":"Broddaparken"}},"geometry":{"type":"Point","coordinates":[12.9529208,55.5717348]}},{"type":"Feature","properties":{"id":528934256,"osm_type":"way","name":"Högbo hage","category":"park","tags":{"leisure":"park","name":"Högbo hage"}},"geometry":{"type":"Point","coordinates":[12.9470781,55.5753416]}},{"type":"Feature","properties":{"id":528934402,"osm_type":"way","name":"Högsåkerhagen","category":"park","tags":{"leisure":"park","name":"Högsåkerhagen"}},"geometry":{"type":"Point","coordinates":[12.9611853,55.5738152]}},{"type":"Feature","properties":{"id":528934986,"osm_type":"way","name":"Badhusparken","category":"park","tags":{"leisure":"park","name":"Badhusparken"}},"geometry":{"type":"Point","coordinates":[12.9732221,55.5722027]}},{"type":"Feature","properties":{"id":530533698,"osm_type":"way","name":"Öresundsparken, västra","category":"park","tags":{"leisure":"park","name":"Öresundsparken, västra","operator":"Malmö stad"}},"geometry":{"type":"Point","coordinates":[12.9455993,55.5957889]}},{"type":"Feature","properties":{"id":531186314,"osm_type":"way","name":"Segeåparken","category":"park","tags":{"leisure":"park","name":"Segeåparken"}},"geometry":{"type":"Point","coordinates":[13.06428,55.6184855]}},{"type":"Feature","properties":{"id":531204568,"osm_type":"way","name":"Vitoxeln","category":"park","tags":{"leisure":"park","name":"Vitoxeln"}},"geometry":{"type":"Point","coordinates":[13.0401249,55.5762744]}},{"type":"Feature","properties":{"id":531209252,"osm_type":"way","name":"Hjortkällans grönområde","category":"park","tags":{"leisure":"park","name":"Hjortkällans grönområde"}},"geometry":{"type":"Point","coordinates":[13.003991,55.5873935]}},{"type":"Feature","properties":{"id":531209506,"osm_type":"way","name":"Rönnhagen","category":"park","tags":{"leisure":"park","name":"Rönnhagen"}},"geometry":{"type":"Point","coordinates":[13.0148346,55.5701928]}},{"type":"Feature","properties":{"id":531393525,"osm_type":"way","name":"Lorensborgs gräsmatta","category":"park","tags":{"leisure":"park","name":"Lorensborgs gräsmatta"}},"geometry":{"type":"Point","coordinates":[12.9688185,55.5697778]}},{"type":"Feature","properties":{"id":531393668,"osm_type":"way","name":"Lorensborgs gräsmatta","category":"park","tags":{"leisure":"park","name":"Lorensborgs gräsmatta"}},"geometry":{"type":"Point","coordinates":[12.9708739,55.5748275]}},{"type":"Feature","properties":{"id":534643579,"osm_type":"way","name":"Enebacken","category":"park","tags":{"leisure":"park","name":"Enebacken"}},"geometry":{"type":"Point","coordinates":[12.9732692,55.586436]}},{"type":"Feature","properties":{"id":534754074,"osm_type":"way","name":"Lotsparken","category":"park","tags":{"leisure":"park","name":"Lotsparken"}},"geometry":{"type":"Point","coordinates":[12.9206598,55.5903994]}},{"type":"Feature","properties":{"id":534760707,"osm_type":"way","name":"Strandparken","category":"park","tags":{"leisure":"park","name":"Strandparken"}},"geometry":{"type":"Point","coordinates":[12.9213337,55.5828989]}},{"type":"Feature","properties":{"id":534761249,"osm_type":"way","name":"Gjuteriparken","category":"park","tags":{"leisure":"park","name":"Gjuteriparken"}},"geometry":{"type":"Point","coordinates":[12.9366637,55.5899213]}},{"type":"Feature","properties":{"id":537917493,"osm_type":"way","name":"Gottorpsparken","category":"park","tags":{"leisure":"park","name":"Gottorpsparken"}},"geometry":{"type":"Point","coordinates":[12.9302293,55.5506589]}},{"type":"Feature","properties":{"id":537919787,"osm_type":"way","name":"Ängslättsparken","category":"park","tags":{"leisure":"park","name":"Ängslättsparken"}},"geometry":{"type":"Point","coordinates":[12.9235188,55.5552489]}},{"type":"Feature","properties":{"id":538770759,"osm_type":"way","name":"Gottorps hörna","category":"park","tags":{"leisure":"park","name":"Gottorps hörna"}},"geometry":{"type":"Point","coordinates":[12.9300501,55.5522119]}},{"type":"Feature","properties":{"id":538944119,"osm_type":"way","name":"Hantverkareparken","category":"park","tags":{"leisure":"park","name":"Hantverkareparken"}},"geometry":{"type":"Point","coordinates":[12.9298093,55.5588137]}},{"type":"Feature","properties":{"id":538961567,"osm_type":"way","name":"Hantverkareparken","category":"park","tags":{"leisure":"park","name":"Hantverkareparken"}},"geometry":{"type":"Point","coordinates":[12.9275945,55.5604706]}},{"type":"Feature","properties":{"id":539164345,"osm_type":"way","name":"Guldbaggen","category":"park","tags":{"leisure":"park","name":"Guldbaggen"}},"geometry":{"type":"Point","coordinates":[12.930002,55.5505404]}},{"type":"Feature","properties":{"id":583266269,"osm_type":"way","name":"","category":"park","tags":{"leisure":"park"}},"geometry":{"type":"Point","coordinates":[13.0828875,55.593308]}},{"type":"Feature","properties":{"id":583266270,"osm_type":"way","name":"","category":"park","tags":{"leisure":"park"}},"geometry":{"type":"Point","coordinates":[13.0951684,55.5870353]}},{"type":"Feature","properties":{"id":583266274,"osm_type":"way","name":"","category":"park","tags":{"leisure":"park"}},"geometry":{"type":"Point","coordinates":[13.0789387,55.5822051]}},{"type":"Feature","properties":{"id":583266275,"osm_type":"way","name":"","category":"park","tags":{"leisure":"park"}},"geometry":{"type":"Point","coordinates":[13.074629,55.5749685]}},{"type":"Feature","properties":{"id":583266278,"osm_type":"way","name":"Gyllins trädgård","category":"park","tags":{"landuse":"forest","leisure":"park","name":"Gyllins trädgård"}},"geometry":{"type":"Point","coordinates":[13.09382,55.5913903]}},{"type":"Feature","properties":{"id":583266292,"osm_type":"way","name":"","category":"park","tags":{"leisure":"park"}},"geometry":{"type":"Point","coordinates":[13.0659007,55.5895717]}},{"type":"Feature","properties":{"id":585168238,"osm_type":"way","name":"","category":"park","tags":{"leisure":"park"}},"geometry":{"type":"Point","coordinates":[13.0683954,55.596068]}},{"type":"Feature","properties":{"id":585939134,"osm_type":"way","name":"Kastanjeplatsen","category":"park","tags":{"leisure":"park","name":"Kastanjeplatsen","wikidata":"Q124696081"}},"geometry":{"type":"Point","coordinates":[13.0401452,55.5775879]}},{"type":"Feature","properties":{"id":596130927,"osm_type":"way","name":"","category":"park","tags":{"leisure":"park"}},"geometry":{"type":"Point","coordinates":[13.0070011,55.5669353]}},{"type":"Feature","properties":{"id":620647782,"osm_type":"way","name":"Torekovsplan","category":"park","tags":{"landuse":"grass","leisure":"park","name":"Torekovsplan"}},"geometry":{"type":"Point","coordinates":[13.0222597,55.5926027]}},{"type":"Feature","properties":{"id":627181957,"osm_type":"way","name":"","category":"park","tags":{"leisure":"park"}},"geometry":{"type":"Point","coordinates":[13.0646489,55.5921559]}},{"type":"Feature","properties":{"id":633296172,"osm_type":"way","name":"","category":"park","tags":{"leisure":"park"}},"geometry":{"type":"Point","coordinates":[13.0046966,55.588921]}},{"type":"Feature","properties":{"id":723135676,"osm_type":"way","name":"","category":"park","tags":{"leisure":"park"}},"geometry":{"type":"Point","coordinates":[13.0966399,55.5868975]}},{"type":"Feature","properties":{"id":727254627,"osm_type":"way","name":"Elinelundsparken","category":"park","tags":{"leisure":"park","name":"Elinelundsparken"}},"geometry":{"type":"Point","coordinates":[12.9480808,55.5662835]}},{"type":"Feature","properties":{"id":727255762,"osm_type":"way","name":"Elinelundsparken","category":"park","tags":{"leisure":"park","name":"Elinelundsparken"}},"geometry":{"type":"Point","coordinates":[12.9478692,55.5651364]}},{"type":"Feature","properties":{"id":753574140,"osm_type":"way","name":"","category":"park","tags":{"leisure":"park"}},"geometry":{"type":"Point","coordinates":[13.036887,55.6070653]}},{"type":"Feature","properties":{"id":813265689,"osm_type":"way","name":"","category":"park","tags":{"leisure":"park"}},"geometry":{"type":"Point","coordinates":[12.970459,55.6004926]}},{"type":"Feature","properties":{"id":818908814,"osm_type":"way","name":"","category":"park","tags":{"leisure":"park"}},"geometry":{"type":"Point","coordinates":[13.0996164,55.5494316]}},{"type":"Feature","properties":{"id":870826537,"osm_type":"way","name":"Svågertorpsparken","category":"park","tags":{"leisure":"park","name":"Svågertorpsparken"}},"geometry":{"type":"Point","coordinates":[12.9915902,55.5507778]}},{"type":"Feature","properties":{"id":912949111,"osm_type":"way","name":"Sjöscoutsparken","category":"park","tags":{"leisure":"park","name":"Sjöscoutsparken"}},"geometry":{"type":"Point","coordinates":[12.9266082,55.5884557]}},{"type":"Feature","properties":{"id":912949119,"osm_type":"way","name":"Formparken","category":"park","tags":{"leisure":"park","name":"Formparken"}},"geometry":{"type":"Point","coordinates":[12.9312277,55.5898867]}},{"type":"Feature","properties":{"id":912957333,"osm_type":"way","name":"Tors park","category":"park","tags":{"leisure":"park","name":"Tors park"}},"geometry":{"type":"Point","coordinates":[12.9804495,55.5623835]}},{"type":"Feature","properties":{"id":912963261,"osm_type":"way","name":"Dagvattenparken","category":"park","tags":{"leisure":"park","name":"Dagvattenparken"}},"geometry":{"type":"Point","coordinates":[12.9804536,55.5641324]}},{"type":"Feature","properties":{"id":912963266,"osm_type":"way","name":"Ymers park","category":"park","tags":{"leisure":"park","name":"Ymers park"}},"geometry":{"type":"Point","coordinates":[12.9779197,55.5607568]}},{"type":"Feature","properties":{"id":914168195,"osm_type":"way","name":"Skrivareparken","category":"park","tags":{"leisure":"park","name":"Skrivareparken"}},"geometry":{"type":"Point","coordinates":[12.9724365,55.5600747]}},{"type":"Feature","properties":{"id":914824893,"osm_type":"way","name":"","category":"park","tags":{"leisure":"park"}},"geometry":{"type":"Point","coordinates":[12.9480991,55.569279]}},{"type":"Feature","properties":{"id":930784826,"osm_type":"way","name":"Källlängen","category":"park","tags":{"leisure":"park","name":"Källlängen"}},"geometry":{"type":"Point","coordinates":[12.9993177,55.5928974]}},{"type":"Feature","properties":{"id":932767815,"osm_type":"way","name":"Kronetorpsparken","category":"park","tags":{"leisure":"park","name":"Kronetorpsparken"}},"geometry":{"type":"Point","coordinates":[13.054704,55.6148901]}},{"type":"Feature","properties":{"id":932767816,"osm_type":"way","name":"Ögonfröjdsparken","category":"park","tags":{"leisure":"park","name":"Ögonfröjdsparken"}},"geometry":{"type":"Point","coordinates":[13.0609068,55.6142813]}},{"type":"Feature","properties":{"id":932767817,"osm_type":"way","name":"Köksträdgården","category":"park","tags":{"leisure":"park","name":"Köksträdgården"}},"geometry":{"type":"Point","coordinates":[13.0544196,55.6108308]}},{"type":"Feature","properties":{"id":946723052,"osm_type":"way","name":"Nils Holmströms plats","category":"park","tags":{"leisure":"park","name":"Nils Holmströms plats","opening_hours":"24/7"}},"geometry":{"type":"Point","coordinates":[12.9893044,55.6118788]}},{"type":"Feature","properties":{"id":946971974,"osm_type":"way","name":"","category":"park","tags":{"leisure":"park"}},"geometry":{"type":"Point","coordinates":[12.9776211,55.6088474]}},{"type":"Feature","properties":{"id":948724299,"osm_type":"way","name":"","category":"park","tags":{"leisure":"park"}},"geometry":{"type":"Point","coordinates":[12.9388026,55.5729694]}},{"type":"Feature","properties":{"id":965142471,"osm_type":"way","name":"Östergårdsplan","category":"park","tags":{"leisure":"park","name":"Östergårdsplan"}},"geometry":{"type":"Point","coordinates":[13.0400196,55.6074004]}},{"type":"Feature","properties":{"id":965142723,"osm_type":"way","name":"Gustav Freijs plats","category":"park","tags":{"leisure":"park","name":"Gustav Freijs plats"}},"geometry":{"type":"Point","coordinates":[13.040215,55.6081519]}},{"type":"Feature","properties":{"id":992681735,"osm_type":"way","name":"Iduns park","category":"park","tags":{"leisure":"park","name":"Iduns park"}},"geometry":{"type":"Point","coordinates":[12.9804252,55.5588318]}},{"type":"Feature","properties":{"id":992681736,"osm_type":"way","name":"Hyllievångsparken","category":"park","tags":{"leisure":"park","name":"Hyllievångsparken"}},"geometry":{"type":"Point","coordinates":[12.9759167,55.558052]}},{"type":"Feature","properties":{"id":1037358778,"osm_type":"way","name":"","category":"park","tags":{"layer":"5","leisure":"park","level":"5","location":"roof"}},"geometry":{"type":"Point","coordinates":[12.9731858,55.5644225]}},{"type":"Feature","properties":{"id":1039442907,"osm_type":"way","name":"","category":"park","tags":{"amenity":"parking","building":"yes","leisure":"park","location":"rooftop","parking":"multi-storey"}},"geometry":{"type":"Point","coordinates":[13.0104265,55.5851445]}},{"type":"Feature","properties":{"id":1040050680,"osm_type":"way","name":"Lyckesholmsparken","category":"park","tags":{"fixme":"all greenery in this neighbourhood is Lyckesholmsparken. Multipolygon?","leisure":"park","name":"Lyckesholmsparken"}},"geometry":{"type":"Point","coordinates":[13.0312885,55.5660757]}},{"type":"Feature","properties":{"id":1040050688,"osm_type":"way","name":"Hindby mosse","category":"park","tags":{"leisure":"park","name":"Hindby mosse"}},"geometry":{"type":"Point","coordinates":[13.0358589,55.5670459]}},{"type":"Feature","properties":{"id":1058067433,"osm_type":"way","name":"","category":"park","tags":{"leisure":"park","location":"rooftop"}},"geometry":{"type":"Point","coordinates":[13.0040106,55.5821691]}},{"type":"Feature","properties":{"id":1062676613,"osm_type":"way","name":"Rundelsparken","category":"park","tags":{"leisure":"park","name":"Rundelsparken"}},"geometry":{"type":"Point","coordinates":[13.0062392,55.6056032]}},{"type":"Feature","properties":{"id":1081532291,"osm_type":"way","name":"","category":"park","tags":{"leisure":"park"}},"geometry":{"type":"Point","coordinates":[12.9938455,55.5550865]}},{"type":"Feature","properties":{"id":1081559226,"osm_type":"way","name":"","category":"park","tags":{"leisure":"park"}},"geometry":{"type":"Point","coordinates":[13.0666068,55.5762983]}},{"type":"Feature","properties":{"id":1105162015,"osm_type":"way","name":"","category":"park","tags":{"leisure":"park"}},"geometry":{"type":"Point","coordinates":[12.9334844,55.5501008]}},{"type":"Feature","properties":{"id":1105163855,"osm_type":"way","name":"","category":"park","tags":{"leisure":"park"}},"geometry":{"type":"Point","coordinates":[12.930661,55.5548271]}},{"type":"Feature","properties":{"id":1105163866,"osm_type":"way","name":"","category":"park","tags":{"leisure":"park"}},"geometry":{"type":"Point","coordinates":[12.9315734,55.5547887]}},{"type":"Feature","properties":{"id":1105173778,"osm_type":"way","name":"","category":"park","tags":{"leisure":"park"}},"geometry":{"type":"Point","coordinates":[12.9351427,55.5533675]}},{"type":"Feature","properties":{"id":1105173848,"osm_type":"way","name":"","category":"park","tags":{"leisure":"park"}},"geometry":{"type":"Point","coordinates":[12.9377169,55.5531283]}},{"type":"Feature","properties":{"id":1105184610,"osm_type":"way","name":"","category":"park","tags":{"leisure":"park"}},"geometry":{"type":"Point","coordinates":[12.931959,55.5541743]}},{"type":"Feature","properties":{"id":1105184611,"osm_type":"way","name":"","category":"park","tags":{"leisure":"park"}},"geometry":{"type":"Point","coordinates":[12.9329892,55.5542373]}},{"type":"Feature","properties":{"id":1105184612,"osm_type":"way","name":"","category":"park","tags":{"leisure":"park"}},"geometry":{"type":"Point","coordinates":[12.9324534,55.5531602]}},{"type":"Feature","properties":{"id":1105184613,"osm_type":"way","name":"","category":"park","tags":{"leisure":"park"}},"geometry":{"type":"Point","coordinates":[12.9319388,55.5537766]}},{"type":"Feature","properties":{"id":1105198874,"osm_type":"way","name":"","category":"park","tags":{"leisure":"park"}},"geometry":{"type":"Point","coordinates":[12.9300759,55.555712]}},{"type":"Feature","properties":{"id":1105199686,"osm_type":"way","name":"","category":"park","tags":{"leisure":"park"}},"geometry":{"type":"Point","coordinates":[12.9292898,55.5597675]}},{"type":"Feature","properties":{"id":1105215069,"osm_type":"way","name":"","category":"park","tags":{"leisure":"park"}},"geometry":{"type":"Point","coordinates":[12.9268558,55.5481188]}},{"type":"Feature","properties":{"id":1105557866,"osm_type":"way","name":"","category":"park","tags":{"leisure":"park"}},"geometry":{"type":"Point","coordinates":[12.9353684,55.557028]}},{"type":"Feature","properties":{"id":1148321519,"osm_type":"way","name":"","category":"park","tags":{"layer":"1","leisure":"park","location":"rooftop"}},"geometry":{"type":"Point","coordinates":[12.9985663,55.5945177]}},{"type":"Feature","properties":{"id":1173125289,"osm_type":"way","name":"","category":"park","tags":{"leisure":"park"}},"geometry":{"type":"Point","coordinates":[13.0566228,55.5674102]}},{"type":"Feature","properties":{"id":1183773454,"osm_type":"way","name":"Garageplan","category":"park","tags":{"leisure":"park","name":"Garageplan"}},"geometry":{"type":"Point","coordinates":[13.0237383,55.6012827]}},{"type":"Feature","properties":{"id":1183773455,"osm_type":"way","name":"Bussparken","category":"park","tags":{"leisure":"park","name":"Bussparken"}},"geometry":{"type":"Point","coordinates":[13.0249338,55.6008394]}},{"type":"Feature","properties":{"id":1193426573,"osm_type":"way","name":"Skogholms ängar","category":"park","tags":{"addr:city":"Malmö","addr:country":"SE","addr:housenumber":"12","addr:street":"Skogholmsgatan","leisure":"park","name":"Skogholms ängar","start_date":"2013-09-19"}},"geometry":{"type":"Point","coordinates":[13.0556675,55.5552782]}},{"type":"Feature","properties":{"id":1196077234,"osm_type":"way","name":"Lillängen","category":"park","tags":{"leisure":"park","name":"Lillängen"}},"geometry":{"type":"Point","coordinates":[12.9717885,55.5762039]}},{"type":"Feature","properties":{"id":1215042627,"osm_type":"way","name":"","category":"park","tags":{"layer":"1","leisure":"park","location":"roof","surface":"artificial_turf"}},"geometry":{"type":"Point","coordinates":[13.0069095,55.586391]}},{"type":"Feature","properties":{"id":1234312488,"osm_type":"way","name":"Tallriken","category":"park","tags":{"description":"Open green space where there's often music festivals and different gatherings.","leisure":"park","name":"Tallriken","operator":"Malmö Stad","operator:type":"public/government"}},"geometry":{"type":"Point","coordinates":[12.9887077,55.5900926]}},{"type":"Feature","properties":{"id":1299933358,"osm_type":"way","name":"","category":"park","tags":{"landuse":"grass","leisure":"park"}},"geometry":{"type":"Point","coordinates":[13.0034545,55.5930948]}},{"type":"Feature","properties":{"id":1315713329,"osm_type":"way","name":"","category":"park","tags":{"leisure":"park"}},"geometry":{"type":"Point","coordinates":[12.924306,55.5886709]}},{"type":"Feature","properties":{"id":1317438848,"osm_type":"way","name":"Läparken","category":"park","tags":{"leisure":"park","name":"Läparken"}},"geometry":{"type":"Point","coordinates":[12.9874287,55.6134484]}},{"type":"Feature","properties":{"id":1320442521,"osm_type":"way","name":"","category":"park","tags":{"leisure":"park"}},"geometry":{"type":"Point","coordinates":[13.0797537,55.638801]}},{"type":"Feature","properties":{"id":1326071320,"osm_type":"way","name":"","category":"park","tags":{"leisure":"park"}},"geometry":{"type":"Point","coordinates":[12.9961836,55.5765285]}},{"type":"Feature","properties":{"id":1332043428,"osm_type":"way","name":"Vänskapsparken","category":"park","tags":{"leisure":"park","name":"Vänskapsparken"}},"geometry":{"type":"Point","coordinates":[13.050581,55.5816351]}},{"type":"Feature","properties":{"id":1332043429,"osm_type":"way","name":"Rosengårdsparken","category":"park","tags":{"leisure":"park","name":"Rosengårdsparken"}},"geometry":{"type":"Point","coordinates":[13.0448373,55.5829794]}},{"type":"Feature","properties":{"id":1355494478,"osm_type":"way","name":"","category":"park","tags":{"access":"private","building:part":"office","leisure":"park","location":"roof"}},"geometry":{"type":"Point","coordinates":[13.008777,55.5934493]}},{"type":"Feature","properties":{"id":1381292762,"osm_type":"way","name":"Sperlings hage","category":"park","tags":{"leisure":"park","name":"Sperlings hage"}},"geometry":{"type":"Point","coordinates":[13.0423815,55.6095985]}},{"type":"Feature","properties":{"id":1383641503,"osm_type":"way","name":"Vidars plan","category":"park","tags":{"leisure":"park","name":"Vidars plan"}},"geometry":{"type":"Point","coordinates":[13.0290871,55.6060702]}},{"type":"Feature","properties":{"id":1383641508,"osm_type":"way","name":"Östervärnsparken","category":"park","tags":{"construction":"yes","leisure":"park","name":"Östervärnsparken"}},"geometry":{"type":"Point","coordinates":[13.032455,55.6060844]}},{"type":"Feature","properties":{"id":1383643719,"osm_type":"way","name":"Höjaparken","category":"park","tags":{"leisure":"park","name":"Höjaparken"}},"geometry":{"type":"Point","coordinates":[13.0675231,55.5819239]}},{"type":"Feature","properties":{"id":1385451430,"osm_type":"way","name":"","category":"park","tags":{"leisure":"park"}},"geometry":{"type":"Point","coordinates":[13.095964,55.589421]}},{"type":"Feature","properties":{"id":1385682405,"osm_type":"way","name":"Drottning Silvia Rosenträdgård","category":"park","tags":{"leisure":"park","name":"Drottning Silvia Rosenträdgård"}},"geometry":{"type":"Point","coordinates":[12.9924186,55.5891149]}},{"type":"Feature","properties":{"id":1389500226,"osm_type":"way","name":"","category":"park","tags":{"leisure":"park"}},"geometry":{"type":"Point","coordinates":[12.9753768,55.5601521]}},{"type":"Feature","properties":{"id":1389503748,"osm_type":"way","name":"","category":"park","tags":{"leisure":"park"}},"geometry":{"type":"Point","coordinates":[12.9717027,55.5581408]}},{"type":"Feature","properties":{"id":1445999278,"osm_type":"way","name":"","category":"park","tags":{"leisure":"park"}},"geometry":{"type":"Point","coordinates":[12.9803262,55.6040294]}},{"type":"Feature","properties":{"id":1460707875,"osm_type":"way","name":"Sjukhusparken","category":"park","tags":{"leisure":"park","name":"Sjukhusparken","operator":"Region Skåne","operator:type":"public"}},"geometry":{"type":"Point","coordinates":[13.0034015,55.5879615]}},{"type":"Feature","properties":{"id":1476327305,"osm_type":"way","name":"Minneslund","category":"park","tags":{"leisure":"park","name":"Minneslund","name:es":"Jardín del recuerdo"}},"geometry":{"type":"Point","coordinates":[12.9980132,55.6016363]}},{"type":"Feature","properties":{"id":55430,"osm_type":"relation","name":"Ögårdsparken","category":"park","tags":{"leisure":"park","name":"Ögårdsparken","type":"multipolygon","wikidata":"Q18335292"}},"geometry":{"type":"Point","coordinates":[13.0544395,55.5758906]}},{"type":"Feature","properties":{"id":1992391,"osm_type":"relation","name":"Varvsparken","category":"park","tags":{"leisure":"park","name":"Varvsparken","type":"multipolygon"}},"geometry":{"type":"Point","coordinates":[12.9792477,55.6144266]}},{"type":"Feature","properties":{"id":2219450,"osm_type":"relation","name":"Ankarparken","category":"park","tags":{"leisure":"park","name":"Ankarparken","type":"multipolygon"}},"geometry":{"type":"Point","coordinates":[12.9757113,55.6128768]}},{"type":"Feature","properties":{"id":2219452,"osm_type":"relation","name":"Kranplatsen","category":"park","tags":{"leisure":"park","name":"Kranplatsen","type":"multipolygon"}},"geometry":{"type":"Point","coordinates":[12.9888306,55.6187242]}},{"type":"Feature","properties":{"id":6275856,"osm_type":"relation","name":"","category":"park","tags":{"barrier":"wall","barrier_1":"hedge","barrier_2":"fence","leisure":"park","type":"multipolygon"}},"geometry":{"type":"Point","coordinates":[13.0477359,55.6081403]}},{"type":"Feature","properties":{"id":9932767,"osm_type":"relation","name":"Stenåkersparken","category":"park","tags":{"leisure":"park","name":"Stenåkersparken","type":"multipolygon"}},"geometry":{"type":"Point","coordinates":[13.1047381,55.5511365]}},{"type":"Feature","properties":{"id":10344681,"osm_type":"relation","name":"Beijers park","category":"park","tags":{"leisure":"park","name":"Beijers park","name:etymology:wikidata":"Q5568976;Q63155833","type":"multipolygon","wikidata":"Q3133813","wikipedia":"sv:Beijers park"}},"geometry":{"type":"Point","coordinates":[13.0502877,55.610485]}},{"type":"Feature","properties":{"id":10529667,"osm_type":"relation","name":"Odlingsparken","category":"park","tags":{"leisure":"park","name":"Odlingsparken","type":"multipolygon"}},"geometry":{"type":"Point","coordinates":[12.9325374,55.5608627]}},{"type":"Feature","properties":{"id":10529668,"osm_type":"relation","name":"Skåneparken","category":"park","tags":{"leisure":"park","name":"Skåneparken","type":"multipolygon"}},"geometry":{"type":"Point","coordinates":[12.9380368,55.5578372]}},{"type":"Feature","properties":{"id":11076658,"osm_type":"relation","name":"Bulltofta rekreationsområde","category":"park","tags":{"alt_name":"Bulltoftaparken","leisure":"park","name":"Bulltofta rekreationsområde","operator":"Malmö Stad","operator:type":"government","type":"multipolygon","wikidata":"Q4997067"}},"geometry":{"type":"Point","coordinates":[13.0779038,55.6014575]}},{"type":"Feature","properties":{"id":11137372,"osm_type":"relation","name":"Kalkugnsparken","category":"park","tags":{"leisure":"park","name":"Kalkugnsparken","type":"multipolygon"}},"geometry":{"type":"Point","coordinates":[12.9297785,55.5857261]}},{"type":"Feature","properties":{"id":11149078,"osm_type":"relation","name":"Espresso Park","category":"park","tags":{"leisure":"park","name":"Espresso Park","type":"multipolygon"}},"geometry":{"type":"Point","coordinates":[13.0161141,55.6225917]}},{"type":"Feature","properties":{"id":12887996,"osm_type":"relation","name":"Kungsparken","category":"park","tags":{"leisure":"park","name":"Kungsparken","name:de":"Königspark","type":"multipolygon","wikidata":"Q59032","wikipedia":"sv:Kungsparken, Malmö"}},"geometry":{"type":"Point","coordinates":[12.9914943,55.6036946]}},{"type":"Feature","properties":{"id":13509465,"osm_type":"relation","name":"","category":"park","tags":{"leisure":"park","type":"multipolygon"}},"geometry":{"type":"Point","coordinates":[12.9869365,55.6047027]}},{"type":"Feature","properties":{"id":16455976,"osm_type":"relation","name":"Kockums park","category":"park","tags":{"leisure":"park","name":"Kockums park","type":"multipolygon"}},"geometry":{"type":"Point","coordinates":[12.9813111,55.6093304]}},{"type":"Feature","properties":{"id":18035056,"osm_type":"relation","name":"Hamnparken","category":"park","tags":{"leisure":"park","name":"Hamnparken","type":"multipolygon"}},"geometry":{"type":"Point","coordinates":[12.995244,55.616932]}},{"type":"Feature","properties":{"id":18959424,"osm_type":"relation","name":"Fregattparken","category":"park","tags":{"leisure":"park","name":"Fregattparken","type":"multipolygon"}},"geometry":{"type":"Point","coordinates":[12.9816871,55.6167104]}},{"type":"Feature","properties":{"id":19210437,"osm_type":"relation","name":"Stolpalösaparken","category":"park","tags":{"leisure":"park","name":"Stolpalösaparken","source:name":"Malmö Stadsatlas CC-0 https://stadsatlas.malmo.se/stadsatlas/","type":"multipolygon"}},"geometry":{"type":"Point","coordinates":[12.9875406,55.5561582]}},{"type":"Feature","properties":{"id":19412138,"osm_type":"relation","name":"Daniaparken","category":"park","tags":{"leisure":"park","name":"Daniaparken","type":"multipolygon","wikidata":"Q5216270"}},"geometry":{"type":"Point","coordinates":[12.9716915,55.6139688]}}]}