{"type":"FeatureCollection","features":[{"type":"Feature","properties":{"id":536818488,"osm_type":"node","name":"Apoteket","category":"pharmacy","tags":{"addr:city":"Malmö","addr:housenumber":"48","addr:postcode":"214 20","addr:street":"Bergsgatan","amenity":"pharmacy","branch":"Gripen","brand":"Apoteket","brand:wikidata":"Q1785637","check_date:opening_hours":"2025-11-23","dispensing":"yes","drive_through":"no","healthcare":"pharmacy","name":"Apoteket","opening_hours":"Mo-Su 08:00-23:00","operator":"Apoteket AB","website":"https://www.apoteket.se/apotek/apoteket-gripen-malmo/","wheelchair":"yes"}},"geometry":{"type":"Point","coordinates":[13.0062943,55.5903106]}},{"type":"Feature","properties":{"id":780210441,"osm_type":"node","name":"Kronans Apotek","category":"pharmacy","tags":{"addr:housenumber":"41","addr:postcode":"216 14","addr:street":"Linnégatan","amenity":"pharmacy","app:apple":"https://itunes.apple.com/se/app/kronans-apotek/id1129771604?l=en","app:google":"https://play.google.com/store/apps/details?id=se.kronansapotek.kronan","brand":"Kronans Apotek","brand:wikidata":"Q10549422","dispensing":"yes","drive_through":"no","healthcare":"pharmacy","level":"0","name":"Kronans Apotek","opening_hours":"Mo-Fr 09:00-19:00; Sa 09:30-16:00; Su 11:00-15:00","operator":"Kronans Droghandel Apotek AB","phone":"+46771612612","website":"https://www.kronansapotek.se/hitta-apotek/kronans-apotek-limhamn-0793/","website:stock":"https://www.fass.se/"}},"geometry":{"type":"Point","coordinates":[12.9321248,55.5817339]}},{"type":"Feature","properties":{"id":786405168,"osm_type":"node","name":"","category":"pharmacy","tags":{"amenity":"pharmacy","drive_through":"no","healthcare":"pharmacy","wheelchair":"yes"}},"geometry":{"type":"Point","coordinates":[13.0046295,55.5795658]}},{"type":"Feature","properties":{"id":1261385383,"osm_type":"node","name":"Apotek Hjärtat","category":"pharmacy","tags":{"amenity":"pharmacy","app:apple":"https://itunes.apple.com/se/app/apotek-hj%C3%A4rtat-n%C3%A4ra-dig/id1150817089","app:google":"https://play.google.com/store/apps/details?id=com.presencekit.apotek.se&hl=en_US","brand":"Apotek Hjärtat","brand:wikidata":"Q10416114","brand:wikipedia":"sv:Apotek Hjärtat","drive_through":"no","healthcare":"pharmacy","name":"Apotek Hjärtat","opening_hours":"Mo-Fr 09:00-19:00; Sa 09:00-17:00; Su 11:00-15:00","operator":"Apotek Hjärtat Retail AB","owner":"ICA Gruppen AB","ownership":"private","phone":"+46771405405"}},"geometry":{"type":"Point","coordinates":[12.9328694,55.5819175]}},{"type":"Feature","properties":{"id":1449110047,"osm_type":"node","name":"Apoteket","category":"pharmacy","tags":{"amenity":"pharmacy","brand":"Apoteket","brand:wikidata":"Q1785637","healthcare":"pharmacy","name":"Apoteket","website:stock":"https://www.fass.se/","wheelchair":"yes"}},"geometry":{"type":"Point","coordinates":[13.0030482,55.5800305]}},{"type":"Feature","properties":{"id":2282518886,"osm_type":"node","name":"DOZ Apotek","category":"pharmacy","tags":{"addr:city":"Malmö","addr:street":"Hallenborgs gata","amenity":"pharmacy","brand":"DOZ Apotek","brand:wikidata":"Q10475311","check_date:opening_hours":"2024-05-20","dispensing":"yes","drive_through":"no","healthcare":"pharmacy","name":"DOZ Apotek","opening_hours":"Mo-Fr 10:00-14:00,14:30-18:00","operator":"LloydsApotek AB","owner":"Admenta Sweden AB","ownership":"private","website:stock":"https://www.fass.se/","wheelchair":"yes","wikipedia":"sv:LloydsApotek"}},"geometry":{"type":"Point","coordinates":[12.9895744,55.6129021]}},{"type":"Feature","properties":{"id":2390394554,"osm_type":"node","name":"DOZ Apotek","category":"pharmacy","tags":{"amenity":"pharmacy","brand":"DOZ Apotek","brand:wikidata":"Q10475311","healthcare":"pharmacy","level":"0","name":"DOZ Apotek","opening_hours":"Mo-Fr 09:00-19:00; Sa 10:00-17:00; Sa 11:00-16:00","operator":"LloydsApotek AB","owner":"Admenta Sweden AB","ownership":"private","phone":"+46-40-628 50 90","website":"https://dozapotek.se/apotek/malmo/doz-apotek-malmo-katrinelund","website:stock":"https://www.fass.se/"}},"geometry":{"type":"Point","coordinates":[13.0329421,55.5998467]}},{"type":"Feature","properties":{"id":3051074396,"osm_type":"node","name":"Apotek hjärta","category":"pharmacy","tags":{"amenity":"pharmacy","healthcare":"pharmacy","indoor":"yes","level":"0","name":"Apotek hjärta","opening_hours":"Mo-Fr 08:00-20:00; Sa,Su 10:00-18:00","source":"survey","website:stock":"https://www.fass.se/","wheelchair":"yes"}},"geometry":{"type":"Point","coordinates":[13.003271,55.5950943]}},{"type":"Feature","properties":{"id":3319507066,"osm_type":"node","name":"Kronans Apotek","category":"pharmacy","tags":{"amenity":"pharmacy","app:apple":"https://itunes.apple.com/se/app/kronans-apotek/id1129771604?l=en","app:google":"https://play.google.com/store/apps/details?id=se.kronansapotek.kronan","brand":"Kronans Apotek","dispensing":"yes","name":"Kronans Apotek","operator":"Kronans Droghandel Apotek AB","phone":"+46771612612","website:stock":"https://www.fass.se/","wheelchair":"yes"}},"geometry":{"type":"Point","coordinates":[13.0444155,55.5857101]}},{"type":"Feature","properties":{"id":3319507068,"osm_type":"node","name":"DOZ Apotek","category":"pharmacy","tags":{"amenity":"pharmacy","brand":"DOZ Apotek","brand:wikidata":"Q10475311","healthcare":"pharmacy","name":"DOZ Apotek","operator":"LloydsApotek AB","owner":"Admenta Sweden AB","ownership":"private","website:stock":"https://www.fass.se/","wheelchair":"yes","wikipedia":"sv:LloydsApotek"}},"geometry":{"type":"Point","coordinates":[13.045976,55.586241]}},{"type":"Feature","properties":{"id":3359429292,"osm_type":"node","name":"Kronans Apotek","category":"pharmacy","tags":{"amenity":"pharmacy","app:apple":"https://itunes.apple.com/se/app/kronans-apotek/id1129771604?l=en","app:google":"https://play.google.com/store/apps/details?id=se.kronansapotek.kronan","brand":"Kronans Apotek","brand:wikidata":"Q10549422","brand:wikipedia":"sv:Kronans Droghandel","check_date":"2023-07-12","dispensing":"yes","drive_through":"no","healthcare":"pharmacy","name":"Kronans Apotek","opening_hours":"Mo-Fr 09:00-19:00; Sa 10:00-16:00; Su 12:00-16:00","operator":"Kronans Droghandel Apotek AB","phone":"+46771612612","website:stock":"https://www.fass.se/"}},"geometry":{"type":"Point","coordinates":[13.0037905,55.6037288]}},{"type":"Feature","properties":{"id":3402696460,"osm_type":"node","name":"Apoteket","category":"pharmacy","tags":{"amenity":"pharmacy","app:apk":"se.apoteket.recept","app:apple":"https://itunes.apple.com/se/app/mitt-apotek/id1053398061","brand":"Apoteket","brand:wikidata":"Q1785637","check_date":"2023-08-23","dispensing":"no","drive_through":"no","healthcare":"pharmacy","name":"Apoteket","opening_hours":"Mo-Fr 09:00-20:00, Sa 10:00-18:00, Su 11:00-16:00","operator":"Apoteket AB (556138-6532)","owner":"Svenska Staten","ownership":"national","phone":"+46771450450","website:stock":"https://apoteket.se"}},"geometry":{"type":"Point","coordinates":[13.002213,55.596721]}},{"type":"Feature","properties":{"id":3786516972,"osm_type":"node","name":"Apoteket","category":"pharmacy","tags":{"amenity":"pharmacy","app:apk":"se.apoteket.recept","app:apple":"https://itunes.apple.com/se/app/mitt-apotek/id1053398061","branch":"Västra Hamnen","brand":"Apoteket","brand:wikidata":"Q1785637","check_date:opening_hours":"2025-12-28","drive_through":"no","healthcare":"pharmacy","name":"Apoteket","opening_hours":"Mo-Fr 09:00-20:00; Sa 10:00-18:00; Su 10:00-15:00","operator":"Apoteket AB (556138-6532)","owner":"Svenska Staten","ownership":"national","phone":"+46771450450","website:stock":"https://www.fass.se/","wheelchair":"yes"}},"geometry":{"type":"Point","coordinates":[12.9802694,55.6116877]}},{"type":"Feature","properties":{"id":3961586496,"osm_type":"node","name":"Apoteket","category":"pharmacy","tags":{"addr:city":"Malmö","addr:country":"SE","addr:housenumber":"56","addr:postcode":"21212","addr:street":"Östra Förstadsgatan","amenity":"pharmacy","app:apk":"se.apoteket.recept","app:apple":"https://itunes.apple.com/se/app/mitt-apotek/id1053398061","branch":"Apoteket Värnhemstorget","brand":"Apoteket","brand:wikidata":"Q1785637","dispensing":"yes","drive_through":"no","healthcare":"pharmacy","name":"Apoteket","opening_hours":"Mo-Fr 08:00-21:00; Sa-Su 10:00-17:00","operator":"Apoteket AB (556138-6532)","operator:wikidata":"Q1785637","ownership":"national","payment:cash":"yes","phone":"+46771450450","website":"https://www.apoteket.se/apotek/apoteket-varnhemstorget-malmo-malmo/","website:stock":"https://www.fass.se/"}},"geometry":{"type":"Point","coordinates":[13.0228407,55.6061662]}},{"type":"Feature","properties":{"id":4037719298,"osm_type":"node","name":"Kronans Apotek","category":"pharmacy","tags":{"addr:city":"Malmö","addr:country":"SE","addr:housenumber":"50","addr:postcode":"212 12","addr:street":"Östra Förstadsgatan","amenity":"pharmacy","brand":"Kronans Apotek","brand:wikidata":"Q10549422","healthcare":"pharmacy","name":"Kronans Apotek","opening_hours":"Mo-Fr 09:00-12:45, 13:30-18:00; Sa 11:00-16:00","phone":"+46 771 612 612","website":"https://kronansapotek.se/"}},"geometry":{"type":"Point","coordinates":[13.0217092,55.6064527]}},{"type":"Feature","properties":{"id":4248067502,"osm_type":"node","name":"Apoteksgruppen","category":"pharmacy","tags":{"amenity":"pharmacy","brand":"Apoteksgruppen","brand:wikidata":"Q10416129","brand:wikipedia":"sv:Apoteksgruppen","drive_through":"no","healthcare":"pharmacy","name":"Apoteksgruppen","website:stock":"https://www.fass.se/"}},"geometry":{"type":"Point","coordinates":[13.0368285,55.6091672]}},{"type":"Feature","properties":{"id":5837664021,"osm_type":"node","name":"Apotek Hjärtat","category":"pharmacy","tags":{"addr:housenumber":"45","addr:street":"Inga Marie Nilssons gata","amenity":"pharmacy","app:apple":"https://itunes.apple.com/se/app/apotek-hj%C3%A4rtat-n%C3%A4ra-dig/id1150817089","app:google":"https://play.google.com/store/apps/details?id=com.presencekit.apotek.se&hl=en_US","brand":"Apotek Hjärtat","brand:wikidata":"Q10416114","brand:wikipedia":"sv:Apotek Hjärtat","dispensing":"yes","drive_through":"no","entrance":"yes","healthcare":"pharmacy","name":"Apotek Hjärtat","opening_hours":"Mo-Fr 08:00-18:00; Sa,Su 10:00-14:00","operator":"Apotek Hjärtat Retail AB","owner":"ICA Gruppen AB","ownership":"private","phone":"+46 77 140 54 05","website:stock":"https://www.fass.se/"}},"geometry":{"type":"Point","coordinates":[13.0015223,55.5888945]}},{"type":"Feature","properties":{"id":6250400772,"osm_type":"node","name":"Apoteket","category":"pharmacy","tags":{"amenity":"pharmacy","branch":"Källan","brand":"Apoteket","brand:wikidata":"Q1785637","contact:phone":"+46 771-45 04 50","contact:website":"https://www.apoteket.se/apotek/apoteket-kallan-arlov/","dispensing":"yes","drive_through":"no","healthcare":"pharmacy","name":"Apoteket","opening_hours":"Mo-Fr 09:00-20:00, Sa 09:00-18:00, Su 10:00-18:00"}},"geometry":{"type":"Point","coordinates":[13.0840783,55.6406423]}},{"type":"Feature","properties":{"id":6250400773,"osm_type":"node","name":"Apotek Hjärtat","category":"pharmacy","tags":{"amenity":"pharmacy","brand":"Apotek Hjärtat","brand:wikidata":"Q10416114","brand:wikipedia":"sv:Apotek Hjärtat","contact:phone":"+46 771-40 54 05","dispensing":"yes","drive_through":"no","healthcare":"pharmacy","name":"Apotek Hjärtat","opening_hours":"Mo-Fr 09:00-20:00, Sa 09:00-18:00, Su 10:00-18:00","payment:cash":"yes","payment:mastercard":"yes","payment:visa":"yes","phone":"+46 10-499 13 40","website":"https://www.apotekhjartat.se/hitta-apotek-hjartat/skane/apotek_hjartat_burlov_malmo/"}},"geometry":{"type":"Point","coordinates":[13.0845025,55.639238]}},{"type":"Feature","properties":{"id":7038193633,"osm_type":"node","name":"Apoteket","category":"pharmacy","tags":{"amenity":"pharmacy","brand":"Apoteket","brand:wikidata":"Q1785637","dispensing":"yes","drive_through":"no","healthcare":"pharmacy","name":"Apoteket","opening_hours":"Mo-Fr 09:00-18:00; Sa 09:00-15:00; Su off","operator":"Apoteket AB","wheelchair":"yes"}},"geometry":{"type":"Point","coordinates":[12.9273273,55.5871547]}},{"type":"Feature","properties":{"id":7658571801,"osm_type":"node","name":"Apoteket","category":"pharmacy","tags":{"addr:city":"Malmö","addr:country":"SE","addr:housenumber":"12 B","addr:postcode":"21212","addr:street":"Fredsgatan","amenity":"pharmacy","branch":"Apoteket Entré","brand":"Apoteket","brand:wikidata":"Q1785637","dispensing":"yes","drive_through":"no","healthcare":"pharmacy","level":"0","name":"Apoteket","opening_hours":"Mo-Fr 10:00-20:00; Sa-Su 10:00-18:00","operator":"Apoteket AB (556138-6532)","owner":"Svenska Staten","ownership":"national","payment:cash":"yes","phone":"+46771450450","website":"https://www.apoteket.se/apotek/apoteket-entre-malmo-malmo/","website:stock":"https://www.fass.se/","wheelchair":"yes"}},"geometry":{"type":"Point","coordinates":[13.0252851,55.6073593]}},{"type":"Feature","properties":{"id":8595346910,"osm_type":"node","name":"Regements Apotek","category":"pharmacy","tags":{"addr:city":"Malmö","addr:country":"SE","addr:housenumber":"94","addr:street":"Regementsgatan","amenity":"pharmacy","dispensing":"yes","drive_through":"no","healthcare":"pharmacy","name":"Regements Apotek","opening_hours":"Mo-Fr 08:00-20:00; Sa 09:00-17:00","wheelchair":"no"}},"geometry":{"type":"Point","coordinates":[12.97427,55.5978878]}},{"type":"Feature","properties":{"id":8993076819,"osm_type":"node","name":"DOZ Apotek","category":"pharmacy","tags":{"amenity":"pharmacy","brand":"DOZ Apotek","brand:wikidata":"Q10475311","healthcare":"pharmacy","name":"DOZ Apotek","opening_hours":"Mo-Fr 07:00-20:00; Sa,Su 10:00-18:00","payment:cash":"yes"}},"geometry":{"type":"Point","coordinates":[13.0001908,55.6090852]}},{"type":"Feature","properties":{"id":9949473008,"osm_type":"node","name":"Apotek Hjärtat","category":"pharmacy","tags":{"amenity":"pharmacy","brand":"Apotek Hjärtat","brand:wikidata":"Q10416114","check_date":"2025-12-30","check_date:opening_hours":"2025-12-30","dispensing":"yes","drive_through":"no","healthcare":"pharmacy","name":"Apotek Hjärtat","opening_hours":"Mo-Fr 09:30-18:00; Sa 11:00-16:00","payment:cash":"yes","payment:mastercard":"yes","payment:visa":"yes","website":"https://apotekhjärtat.se/"}},"geometry":{"type":"Point","coordinates":[13.0012769,55.5980194]}},{"type":"Feature","properties":{"id":9949588102,"osm_type":"node","name":"Kronans Apotek","category":"pharmacy","tags":{"addr:country":"SE","addr:housenumber":"31","addr:street":"Södra Förstadsgatan","amenity":"pharmacy","brand":"Kronans Apotek","brand:wikidata":"Q10549422","check_date":"2022-08-12","dispensing":"yes","drive_through":"no","healthcare":"pharmacy","name":"Kronans Apotek","opening_hours":"Mo-Fr 09:00-18:30; Sa 10:00-16:00","operator":"Kronans Droghandel Apotek AB","payment:cash":"yes","payment:mastercard":"yes","payment:visa":"yes","wheelchair":"yes"}},"geometry":{"type":"Point","coordinates":[13.0009323,55.5973529]}},{"type":"Feature","properties":{"id":10112480545,"osm_type":"node","name":"Apotek Bunkeflostrand","category":"pharmacy","tags":{"amenity":"pharmacy","dispensing":"yes","healthcare":"pharmacy","name":"Apotek Bunkeflostrand"}},"geometry":{"type":"Point","coordinates":[12.9193753,55.5556066]}},{"type":"Feature","properties":{"id":10754116873,"osm_type":"node","name":"Apotek Hjärtat","category":"pharmacy","tags":{"amenity":"pharmacy","brand":"Apotek Hjärtat","brand:wikidata":"Q10416114","healthcare":"pharmacy","name":"Apotek Hjärtat"}},"geometry":{"type":"Point","coordinates":[13.0152456,55.559004]}},{"type":"Feature","properties":{"id":10754157989,"osm_type":"node","name":"Apotek Hjärtat","category":"pharmacy","tags":{"amenity":"pharmacy","brand":"Apotek Hjärtat","brand:wikidata":"Q10416114","healthcare":"pharmacy","name":"Apotek Hjärtat","opening_hours":"Mo-Fr 09:00-18:00; Sa 10:00-14:00"}},"geometry":{"type":"Point","coordinates":[12.9759006,55.5807372]}},{"type":"Feature","properties":{"id":10754158015,"osm_type":"node","name":"Apoteket","category":"pharmacy","tags":{"amenity":"pharmacy","brand":"Apoteket","brand:wikidata":"Q1785637","healthcare":"pharmacy","name":"Apoteket"}},"geometry":{"type":"Point","coordinates":[13.0046024,55.6031819]}},{"type":"Feature","properties":{"id":10754158034,"osm_type":"node","name":"Limhamn Apotek","category":"pharmacy","tags":{"amenity":"pharmacy","healthcare":"pharmacy","name":"Limhamn Apotek"}},"geometry":{"type":"Point","coordinates":[12.9312826,55.574061]}},{"type":"Feature","properties":{"id":10756727717,"osm_type":"node","name":"DOZ Apotek","category":"pharmacy","tags":{"amenity":"pharmacy","brand":"DOZ Apotek","brand:wikidata":"Q10475311","healthcare":"pharmacy","name":"DOZ Apotek"}},"geometry":{"type":"Point","coordinates":[13.0011812,55.5955877]}},{"type":"Feature","properties":{"id":10756727724,"osm_type":"node","name":"Apoteket","category":"pharmacy","tags":{"amenity":"pharmacy","brand":"Apoteket","brand:wikidata":"Q1785637","healthcare":"pharmacy","name":"Apoteket"}},"geometry":{"type":"Point","coordinates":[12.9739811,55.5642015]}},{"type":"Feature","properties":{"id":10756727725,"osm_type":"node","name":"Apotek Hjärtat","category":"pharmacy","tags":{"amenity":"pharmacy","brand":"Apotek Hjärtat","brand:wikidata":"Q10416114","healthcare":"pharmacy","name":"Apotek Hjärtat"}},"geometry":{"type":"Point","coordinates":[12.9733889,55.5645177]}},{"type":"Feature","properties":{"id":12730495001,"osm_type":"node","name":"Kronans Apotek","category":"pharmacy","tags":{"amenity":"pharmacy","name":"Kronans Apotek"}},"geometry":{"type":"Point","coordinates":[12.9847227,55.5976944]}},{"type":"Feature","properties":{"id":12816700829,"osm_type":"node","name":"Apotek Hjärtat","category":"pharmacy","tags":{"amenity":"pharmacy","brand":"Apotek Hjärtat","brand:wikidata":"Q10416114","dispensing":"yes","drive_through":"no","healthcare":"pharmacy","name":"Apotek Hjärtat","opening_hours":"Mo-Su 07:00-22:00","website":"https://www.apotekhjartat.se/hitta-apotek-hjartat/apotek-hjartat-ica-maxi-toftanas-malmo"}},"geometry":{"type":"Point","coordinates":[13.0980674,55.5976433]}},{"type":"Feature","properties":{"id":1091108914,"osm_type":"way","name":"Apoteket","category":"pharmacy","tags":{"addr:city":"Malmö","addr:country":"SE","addr:housenumber":"8","addr:street":"Stortorget","amenity":"pharmacy","app:apk":"se.apoteket.recept","app:apple":"https://itunes.apple.com/se/app/mitt-apotek/id1053398061","branch":"Apoteket Lejonet","brand":"Apoteket","brand:wikidata":"Q1785637","healthcare":"pharmacy","name":"Apoteket","opening_hours":"Mo-Fr 09:00-13:00,14:00-18:00; Sa 10:00-13:00,14:00-15:00; Su off","operator":"Apoteket AB (556138-6532)","owner":"Svenska Staten","ownership":"national","phone":"+46771450450","website:stock":"https://www.fass.se/","wheelchair":"yes"}},"geometry":{"type":"Point","coordinates":[13.0015419,55.6057163]}}]}