{"type":"FeatureCollection","features":[{"type":"Feature","properties":{"id":879023258,"osm_type":"node","name":"C3 Church","category":"place_of_worship","tags":{"alt_name":"Frälsningsarmén","amenity":"place_of_worship","name":"C3 Church","religion":"christian"}},"geometry":{"type":"Point","coordinates":[12.9967209,55.6058332]}},{"type":"Feature","properties":{"id":8506599040,"osm_type":"node","name":"Helgeandskyrkan","category":"place_of_worship","tags":{"amenity":"place_of_worship","check_date":"2024-07-29","denomination":"lutheran","name":"Helgeandskyrkan","religion":"christian","wikidata":"Q10519529"}},"geometry":{"type":"Point","coordinates":[12.9861268,55.5968061]}},{"type":"Feature","properties":{"id":9509332224,"osm_type":"node","name":"Hyllie Park Kyrkan","category":"place_of_worship","tags":{"addr:city":"Malmö","addr:country":"SE","addr:housenumber":"55D","addr:postcode":"216 23","addr:street":"Elinelundsvägen","amenity":"place_of_worship","denomination":"evangelical","name":"Hyllie Park Kyrkan","operator":"Hyllie Park Resurs","religion":"christian","website":"https://www.hyllieparkportal.com/kyrkan"}},"geometry":{"type":"Point","coordinates":[12.9533837,55.5677269]}},{"type":"Feature","properties":{"id":10752148643,"osm_type":"node","name":"Hillsong Church Malmö","category":"place_of_worship","tags":{"addr:city":"Malmö","addr:street":"Vattenverksvägen","amenity":"place_of_worship","name":"Hillsong Church Malmö","religion":"christian"}},"geometry":{"type":"Point","coordinates":[13.0445631,55.6090897]}},{"type":"Feature","properties":{"id":10754116847,"osm_type":"node","name":"Wesleykyrkan","category":"place_of_worship","tags":{"addr:city":"Limhamn","addr:country":"SE","addr:housenumber":"27","addr:postcode":"216 12","addr:street":"Linnégatan","amenity":"place_of_worship","check_date":"2026-05-08","name":"Wesleykyrkan","religion":"christian"}},"geometry":{"type":"Point","coordinates":[12.9293414,55.5820435]}},{"type":"Feature","properties":{"id":11984886125,"osm_type":"node","name":"Malmö Chán Buddhist Temple","category":"place_of_worship","tags":{"addr:housenumber":"20A","addr:postcode":"21427","addr:street":"Ahlmansgatan","amenity":"place_of_worship","contact:facebook":"https://facebook.com/share/19v3nLNG2c","contact:instagram":"malmochanbuddhisttemple","email":"templet@taozen.se","name":"Malmö Chán Buddhist Temple","opening_hours":"We 18:40-20:30; Su 17:45-19:30","religion":"buddhist","website":"https://taozen.se"}},"geometry":{"type":"Point","coordinates":[13.0103727,55.5887262]}},{"type":"Feature","properties":{"id":12145973902,"osm_type":"node","name":"Al-Hoda-moskén","category":"place_of_worship","tags":{"amenity":"place_of_worship","denomination":"sunni","name":"Al-Hoda-moskén","religion":"muslim","website":"https://www.ifbs.se/"}},"geometry":{"type":"Point","coordinates":[13.0248337,55.5846892]}},{"type":"Feature","properties":{"id":12675448318,"osm_type":"node","name":"Huda mosken","category":"place_of_worship","tags":{"addr:city":"Malmö","addr:housenumber":"3b","addr:postcode":"215 52","addr:street":"Docentgatan","amenity":"place_of_worship","denomination":"sunni","name":"Huda mosken","opening_hours":"https://time.my-masjid.com/timingscreen/7255efef-15f1-4c8e-a52d-b54e8e8eef0e","religion":"muslim","website":"https://www.facebook.com/Hudamosken"}},"geometry":{"type":"Point","coordinates":[13.0198229,55.5664527]}},{"type":"Feature","properties":{"id":13142817314,"osm_type":"node","name":"Korskyrkan","category":"place_of_worship","tags":{"addr:city":"Malmö","addr:housenumber":"11","addr:postcode":"212 18","addr:street":"Vårgatan","amenity":"place_of_worship","denomination":"evangelical","email":"info@korskyrkan.se","mobile":"+46 73 318 70 19","name":"Korskyrkan","payment:swish":"yes","religion":"christian","website":"https://korskyrkanmalmo.se"}},"geometry":{"type":"Point","coordinates":[13.0277137,55.6053119]}},{"type":"Feature","properties":{"id":13893476201,"osm_type":"node","name":"Islamakademin","category":"place_of_worship","tags":{"amenity":"place_of_worship","check_date":"2026-05-29","name":"Islamakademin","religion":"muslim"}},"geometry":{"type":"Point","coordinates":[13.0060807,55.5945893]}},{"type":"Feature","properties":{"id":28415187,"osm_type":"way","name":"Sankt Petri kyrka","category":"place_of_worship","tags":{"addr:city":"Malmö","amenity":"place_of_worship","building":"church","building:architecture":"gothic","building:material":"brick","capacity:seats":"600","denomination":"lutheran","diocese":"Lunds stift","emergency":"fire_detection_system","heritage":"2","heritage:operator":"raa","heritage:ref":"21300000002259","heritage:website":"https://bebyggelseregistret.raa.se/bbr2/anlaggning/visaHistorik.raa?page=historik&visaHistorik=true&anlaggningId=21300000002259","name":"Sankt Petri kyrka","parish":"Malmö S:t Petri församling","religion":"christian","short_name":"S:t Petri kyrka","start_date":"1300s","wheelchair":"yes","wikidata":"Q2756744","wikipedia":"sv:Sankt Petri kyrka, Malmö"}},"geometry":{"type":"Point","coordinates":[13.0033176,55.6069359]}},{"type":"Feature","properties":{"id":28481855,"osm_type":"way","name":"Sankt Pauli kyrka","category":"place_of_worship","tags":{"amenity":"place_of_worship","building":"church","capacity:seats":"900","check_date":"2023-08-29","denomination":"lutheran","name":"Sankt Pauli kyrka","religion":"christian","wikidata":"Q889213"}},"geometry":{"type":"Point","coordinates":[13.0143821,55.6030171]}},{"type":"Feature","properties":{"id":28482245,"osm_type":"way","name":"Sankt Johannes kyrka","category":"place_of_worship","tags":{"addr:city":"Malmö","amenity":"place_of_worship","architect":"Axel Anderberg","architect:wikidata":"Q721287","building":"church","capacity:seats":"650","denomination":"lutheran","diocese":"Lunds stift","heritage":"2","heritage:operator":"raa","heritage:website":"https://bebyggelseregistret.raa.se/bbr2/anlaggning/visaHistorik.raa?page=historik&visaHistorik=true&anlaggningId=21300000002223","loc_name":"Johanneskyrkan","name":"Sankt Johannes kyrka","religion":"christian","short_name":"S:t Johannes Kyrka","start_date":"1907","wheelchair":"yes","wikidata":"Q889502","wikipedia":"sv:Sankt Johannes kyrka, Malmö"}},"geometry":{"type":"Point","coordinates":[13.0017501,55.5941992]}},{"type":"Feature","properties":{"id":28494120,"osm_type":"way","name":"Husie kyrka","category":"place_of_worship","tags":{"amenity":"place_of_worship","building":"yes","check_date":"2024-07-27","denomination":"lutheran","name":"Husie kyrka","religion":"christian","wikidata":"Q10527399"}},"geometry":{"type":"Point","coordinates":[13.0838761,55.5772937]}},{"type":"Feature","properties":{"id":28558032,"osm_type":"way","name":"Fosie kyrka","category":"place_of_worship","tags":{"amenity":"place_of_worship","building":"church","denomination":"lutheran","name":"Fosie kyrka","religion":"christian","wikidata":"Q10498249"}},"geometry":{"type":"Point","coordinates":[13.0250382,55.5626623]}},{"type":"Feature","properties":{"id":28576312,"osm_type":"way","name":"Limhamns kyrka","category":"place_of_worship","tags":{"amenity":"place_of_worship","building":"church","capacity:seats":"300","denomination":"lutheran","name":"Limhamns kyrka","religion":"christian","wikidata":"Q2566963"}},"geometry":{"type":"Point","coordinates":[12.9447444,55.5748301]}},{"type":"Feature","properties":{"id":28582100,"osm_type":"way","name":"Arlövs kyrka","category":"place_of_worship","tags":{"amenity":"place_of_worship","building":"church","denomination":"lutheran","name":"Arlövs kyrka","religion":"christian","wikidata":"Q10418083"}},"geometry":{"type":"Point","coordinates":[13.0781391,55.6351144]}},{"type":"Feature","properties":{"id":28757719,"osm_type":"way","name":"Västra Skrävlinge kyrka","category":"place_of_worship","tags":{"amenity":"place_of_worship","building":"church","denomination":"lutheran","name":"Västra Skrävlinge kyrka","religion":"christian","wikidata":"Q2262193"}},"geometry":{"type":"Point","coordinates":[13.0541787,55.5782721]}},{"type":"Feature","properties":{"id":28760536,"osm_type":"way","name":"Sankta Maria i Rosengård","category":"place_of_worship","tags":{"amenity":"place_of_worship","building":"yes","check_date":"2025-10-26","denomination":"catholic","name":"Sankta Maria i Rosengård","religion":"christian","wikidata":"Q10661534"}},"geometry":{"type":"Point","coordinates":[13.0487446,55.5796863]}},{"type":"Feature","properties":{"id":29061690,"osm_type":"way","name":"Adventkyrkan","category":"place_of_worship","tags":{"amenity":"place_of_worship","building":"yes","check_date":"2025-06-03","denomination":"seventh_day_adventist","name":"Adventkyrkan","religion":"christian"}},"geometry":{"type":"Point","coordinates":[12.992457,55.5960071]}},{"type":"Feature","properties":{"id":37253592,"osm_type":"way","name":"Malmö synagoga","category":"place_of_worship","tags":{"amenity":"place_of_worship","building":"synagogue","check_date":"2024-07-07","name":"Malmö synagoga","religion":"jewish","website":"https://www.jfm.se/","wikidata":"Q2096330","wikipedia":"sv:Malmö synagoga"}},"geometry":{"type":"Point","coordinates":[13.0108228,55.5995339]}},{"type":"Feature","properties":{"id":37857305,"osm_type":"way","name":"Sankt Mikaels kyrka","category":"place_of_worship","tags":{"amenity":"place_of_worship","building":"church","check_date":"2026-01-04","denomination":"lutheran","name":"Sankt Mikaels kyrka","operator":"Svenska kyrkan","religion":"christian","wheelchair":"yes","wikidata":"Q10661418","wikipedia":"sv:Sankt Mikaels kyrka, Malmö"}},"geometry":{"type":"Point","coordinates":[12.9890932,55.5616399]}},{"type":"Feature","properties":{"id":42466641,"osm_type":"way","name":"Bunkeflo strandkyrka","category":"place_of_worship","tags":{"amenity":"place_of_worship","building":"church","denomination":"lutheran","name":"Bunkeflo strandkyrka","operator":"Svenska kyrkan","religion":"christian","wikidata":"Q10437759"}},"geometry":{"type":"Point","coordinates":[12.9190251,55.5541331]}},{"type":"Feature","properties":{"id":45706659,"osm_type":"way","name":"Sankt Andreas kyrka","category":"place_of_worship","tags":{"amenity":"place_of_worship","building":"church","capacity:seats":"500","check_date":"2024-06-15","denomination":"lutheran","name":"Sankt Andreas kyrka","religion":"christian","wikidata":"Q10661318"}},"geometry":{"type":"Point","coordinates":[12.9712788,55.5992131]}},{"type":"Feature","properties":{"id":52245268,"osm_type":"way","name":"Jesu Kristi kyrka av sista dagars heliga","category":"place_of_worship","tags":{"amenity":"place_of_worship","building":"yes","denomination":"latter-day_saints","name":"Jesu Kristi kyrka av sista dagars heliga","religion":"christian"}},"geometry":{"type":"Point","coordinates":[12.9600111,55.5950811]}},{"type":"Feature","properties":{"id":52245269,"osm_type":"way","name":"Tyska kyrkan","category":"place_of_worship","tags":{"amenity":"place_of_worship","building":"church","check_date":"2023-07-16","denomination":"evangelical","name":"Tyska kyrkan","religion":"christian","wheelchair":"yes","wikidata":"Q10707822"}},"geometry":{"type":"Point","coordinates":[12.9631469,55.5960431]}},{"type":"Feature","properties":{"id":52374858,"osm_type":"way","name":"Stadionkyrkan","category":"place_of_worship","tags":{"amenity":"place_of_worship","building":"yes","denomination":"united","name":"Stadionkyrkan","religion":"christian"}},"geometry":{"type":"Point","coordinates":[12.9833699,55.5818876]}},{"type":"Feature","properties":{"id":54149469,"osm_type":"way","name":"Heliga Trefaldighetskyrkan","category":"place_of_worship","tags":{"addr:city":"Malmö","addr:country":"SE","addr:housenumber":"1","addr:street":"Eriksfältsgatan","amenity":"place_of_worship","building":"church","capacity:seats":"250","check_date":"2025-01-18","denomination":"lutheran","name":"Heliga Trefaldighetskyrkan","opening_hours":"Mo-Fr 09:00-15:00","operator":"Svenska kyrkan","religion":"christian","website":"https://www.svenskakyrkan.se/malmo/heliga-trefaldighetskyrkan","wikidata":"Q10520037","wikipedia":"sv:Heliga Trefaldighetskyrkan, Malmö"}},"geometry":{"type":"Point","coordinates":[13.0056333,55.5780939]}},{"type":"Feature","properties":{"id":76451815,"osm_type":"way","name":"Oxie kyrka","category":"place_of_worship","tags":{"amenity":"place_of_worship","building":"yes","denomination":"lutheran","name":"Oxie kyrka","religion":"christian","wikidata":"Q10613684"}},"geometry":{"type":"Point","coordinates":[13.0977026,55.5505962]}},{"type":"Feature","properties":{"id":77954072,"osm_type":"way","name":"Betaniakyrkan","category":"place_of_worship","tags":{"amenity":"place_of_worship","building":"church","name":"Betaniakyrkan","religion":"christian","website":"https://www.betaniakyrkan.com/"}},"geometry":{"type":"Point","coordinates":[13.0103234,55.5992899]}},{"type":"Feature","properties":{"id":81310001,"osm_type":"way","name":"Sankta Maria kyrka","category":"place_of_worship","tags":{"amenity":"place_of_worship","building":"church","check_date":"2025-06-20","denomination":"lutheran","loc_name":"Mariakyrkan","name":"Sankta Maria kyrka","religion":"christian","wikidata":"Q10661536","wikipedia":"sv:Sankta Maria kyrka, Malmö"}},"geometry":{"type":"Point","coordinates":[13.0121599,55.5884746]}},{"type":"Feature","properties":{"id":82312304,"osm_type":"way","name":"Sankt Matteus kyrka","category":"place_of_worship","tags":{"addr:city":"Malmö","addr:country":"SE","addr:housenumber":"8","addr:street":"Lantmannagatan","amenity":"place_of_worship","architect":"Sten Samuelson","building":"church","check_date":"2025-08-15","date_start":"1983","denomination":"lutheran","name":"Sankt Matteus kyrka","religion":"christian","short_name":"S:t Matteus","website":"https://svenskakyrkanmalmo.se/st-matteus-kyrka/","wikidata":"Q10661412","wikipedia":"sv:Sankt Matteus kyrka, Malmö"}},"geometry":{"type":"Point","coordinates":[13.0213364,55.5890209]}},{"type":"Feature","properties":{"id":87743209,"osm_type":"way","name":"Burlövs gamla kyrka","category":"place_of_worship","tags":{"amenity":"place_of_worship","building":"yes","denomination":"lutheran","name":"Burlövs gamla kyrka","religion":"christian","wikidata":"Q10437863"}},"geometry":{"type":"Point","coordinates":[13.1131862,55.6366836]}},{"type":"Feature","properties":{"id":89610446,"osm_type":"way","name":"Scientologi-kyrkan i Malmö","category":"place_of_worship","tags":{"amenity":"place_of_worship","building":"yes","name":"Scientologi-kyrkan i Malmö","religion":"scientology"}},"geometry":{"type":"Point","coordinates":[13.0679451,55.6303105]}},{"type":"Feature","properties":{"id":89891277,"osm_type":"way","name":"Södra Sallerups kyrka","category":"place_of_worship","tags":{"amenity":"place_of_worship","building":"yes","denomination":"lutheran","name":"Södra Sallerups kyrka","religion":"christian","wikidata":"Q10688984"}},"geometry":{"type":"Point","coordinates":[13.1191345,55.5853599]}},{"type":"Feature","properties":{"id":117742397,"osm_type":"way","name":"Hyllie kyrka","category":"place_of_worship","tags":{"amenity":"place_of_worship","building":"church","denomination":"lutheran","layer":"1","name":"Hyllie kyrka","religion":"christian","wikidata":"Q10529118","wikipedia":"sv:Hyllie kyrka"}},"geometry":{"type":"Point","coordinates":[12.9707517,55.5758366]}},{"type":"Feature","properties":{"id":187971995,"osm_type":"way","name":"","category":"place_of_worship","tags":{"amenity":"place_of_worship","building":"yes","denomination":"jehovahs_witness","religion":"christian"}},"geometry":{"type":"Point","coordinates":[12.970362,55.5870046]}},{"type":"Feature","properties":{"id":211930661,"osm_type":"way","name":"C3 Church","category":"place_of_worship","tags":{"addr:city":"Limhamn","addr:country":"SE","addr:housenumber":"56","addr:postcode":"216 16","addr:street":"R F Bergsgatan","amenity":"place_of_worship","building":"church","name":"C3 Church","religion":"christian","service_times":"Su 10:30","website":"https://malmo.church/"}},"geometry":{"type":"Point","coordinates":[12.9379,55.5803225]}},{"type":"Feature","properties":{"id":211956051,"osm_type":"way","name":"Rumänska ortodoxa församlingen i södra Sverige","category":"place_of_worship","tags":{"addr:city":"Malmö","addr:country":"SE","addr:housenumber":"66","addr:street":"Vanåsgatan","amenity":"place_of_worship","building":"church","denomination":"orthodox","name":"Rumänska ortodoxa församlingen i södra Sverige","religion":"christian","website":"http://rumanskaortodoxakyrkan.se/kyrkobyggnader-och-forsamlingar/forsamlingar-i-goteborg-malmo-och-solvesborg/"}},"geometry":{"type":"Point","coordinates":[12.965713,55.5800026]}},{"type":"Feature","properties":{"id":219950730,"osm_type":"way","name":"Bunkeflo kyrka","category":"place_of_worship","tags":{"amenity":"place_of_worship","building":"church","check_date":"2024-04-25","denomination":"lutheran","name":"Bunkeflo kyrka","operator":"Svenska kyrkan","religion":"christian","wikidata":"Q10437757"}},"geometry":{"type":"Point","coordinates":[12.9644289,55.5557943]}},{"type":"Feature","properties":{"id":230610822,"osm_type":"way","name":"Heliga Korsets Kapell","category":"place_of_worship","tags":{"amenity":"place_of_worship","building":"chapel","name":"Heliga Korsets Kapell","religion":"christian"}},"geometry":{"type":"Point","coordinates":[13.0237978,55.5617904]}},{"type":"Feature","properties":{"id":249514905,"osm_type":"way","name":"Makedoniska ortodoxa kyrkan","category":"place_of_worship","tags":{"amenity":"place_of_worship","building":"yes","check_date":"2025-06-28","denomination":"orthodox","name":"Makedoniska ortodoxa kyrkan","religion":"christian"}},"geometry":{"type":"Point","coordinates":[13.0389447,55.5939307]}},{"type":"Feature","properties":{"id":250774470,"osm_type":"way","name":"Kirsebergs kyrka","category":"place_of_worship","tags":{"amenity":"place_of_worship","building":"church","check_date":"2024-07-28","denomination":"lutheran","name":"Kirsebergs kyrka","religion":"christian","wikidata":"Q10545804"}},"geometry":{"type":"Point","coordinates":[13.0413223,55.6088533]}},{"type":"Feature","properties":{"id":424484007,"osm_type":"way","name":"Immanuelskyrkan","category":"place_of_worship","tags":{"amenity":"place_of_worship","building":"yes","denomination":"pentecostal","name":"Immanuelskyrkan","religion":"christian","wikidata":"Q10534723"}},"geometry":{"type":"Point","coordinates":[12.9868651,55.5938912]}},{"type":"Feature","properties":{"id":638684255,"osm_type":"way","name":"Det Skandinaviska Wakf i Sverige","category":"place_of_worship","tags":{"addr:city":"Malmö","addr:housenumber":"26","addr:postcode":"212 29","addr:street":"Danska vägen","amenity":"place_of_worship","building":"yes","denomination":"sunni","name":"Det Skandinaviska Wakf i Sverige","name:ar":"الوقف الإسكندنافي في السويد","name:en":"The Scandinavian Wakf in Sweden","religion":"muslim","wikidata":"Q81807121"}},"geometry":{"type":"Point","coordinates":[13.0396844,55.5942626]}},{"type":"Feature","properties":{"id":806337057,"osm_type":"way","name":"Mahmoodmoskén","category":"place_of_worship","tags":{"addr:city":"Malmö","addr:housenumber":"1","addr:postcode":"213 77","addr:street":"Hästskogatan","alt_name:en":"Mehmood Mosque","amenity":"place_of_worship","building":"yes","denomination":"ahmadiyya","name":"Mahmoodmoskén","name:en":"Mahmood Mosque","name:ur":"مسجد محمود","religion":"muslim","wikidata":"Q26256844"}},"geometry":{"type":"Point","coordinates":[13.0826836,55.5662588]}},{"type":"Feature","properties":{"id":1327225673,"osm_type":"way","name":"Betlehemskyrkan","category":"place_of_worship","tags":{"addr:city":"Malmö","addr:housenumber":"7","addr:postcode":"214 27","addr:street":"Södervärnsgatan","amenity":"place_of_worship","building":"church","denomination":"evangelical_lutheran","name":"Betlehemskyrkan","religion":"christian"}},"geometry":{"type":"Point","coordinates":[13.0110727,55.5882173]}},{"type":"Feature","properties":{"id":176711,"osm_type":"relation","name":"Vår Frälsares Kyrka","category":"place_of_worship","tags":{"addr:city":"Malmö","addr:country":"SE","addr:housenumber":"13","addr:street":"Helmfeltsgatan","amenity":"place_of_worship","building":"yes","denomination":"catholic","name":"Vår Frälsares Kyrka","religion":"christian","type":"multipolygon","wikidata":"Q12344088"}},"geometry":{"type":"Point","coordinates":[12.9919173,55.5972747]}},{"type":"Feature","properties":{"id":2835333,"osm_type":"relation","name":"Malmö Islamic Center","category":"place_of_worship","tags":{"addr:city":"Malmö","addr:country":"SE","addr:housenumber":"1","addr:street":"Västra Skrävlinge kyrkoväg","amenity":"place_of_worship","building":"yes","name":"Malmö Islamic Center","religion":"muslim","type":"multipolygon","wikidata":"Q676673"}},"geometry":{"type":"Point","coordinates":[13.0514545,55.5749589]}},{"type":"Feature","properties":{"id":13802358,"osm_type":"relation","name":"","category":"place_of_worship","tags":{"amenity":"place_of_worship","building":"yes","office":"religion","religion":"christian","type":"multipolygon"}},"geometry":{"type":"Point","coordinates":[12.9707584,55.5991963]}}]}