{"type":"FeatureCollection","features":[{"type":"Feature","properties":{"id":9570917282,"osm_type":"node","name":"Malmö hittegods/beslag","category":"police","tags":{"addr:city":"Malmö","addr:country":"SE","addr:housenumber":"10","addr:street":"Sturkögatan","amenity":"police","description":"Upphittade nycklar finns på stationen på Porslinsgatan 4B","name":"Malmö hittegods/beslag","opening_hours":"Tu,Th 12:00-16:00","operator":"Polisen","website":"https://polisen.se/om-polisen/kontakt/polisstationer/skane/malmo-hittegodsbeslag/"}},"geometry":{"type":"Point","coordinates":[13.0414949,55.6227199]}},{"type":"Feature","properties":{"id":10814286205,"osm_type":"node","name":"Polisen Malmö Drottninggatan","category":"police","tags":{"addr:city":"Malmö","addr:housenumber":"18","addr:postcode":"211 49","addr:street":"Drottninggatan","amenity":"police","name":"Polisen Malmö Drottninggatan","opening_hours":"Mo-Tu 08:00-19:00, We-Fr 08:00-16:00, Sa-Su 09:00-16:00","website":"https://polisen.se/om-polisen/kontakt/polisstationer/skane/malmo-drottninggatan/"}},"geometry":{"type":"Point","coordinates":[13.0110654,55.6031862]}},{"type":"Feature","properties":{"id":12297788399,"osm_type":"node","name":"","category":"police","tags":{"amenity":"police","description":"Kommunpolis i Medborgarhuset. Ingen egen station / Police service in the municipal building, not a police station","opening_hours":"Tu 13:00-15:00"}},"geometry":{"type":"Point","coordinates":[13.0704619,55.6333864]}},{"type":"Feature","properties":{"id":219542120,"osm_type":"way","name":"Rosengårds polisstation","category":"police","tags":{"amenity":"police","building":"yes","name":"Rosengårds polisstation"}},"geometry":{"type":"Point","coordinates":[13.0513027,55.5865396]}},{"type":"Feature","properties":{"id":1336343370,"osm_type":"way","name":"","category":"police","tags":{"addr:city":"Malmö","addr:housenumber":"4","addr:postcode":"201 25","addr:street":"Vevaxelgatan","amenity":"police","opening_hours":"off","operator":"Polismyndigheten"}},"geometry":{"type":"Point","coordinates":[13.0962708,55.6023112]}},{"type":"Feature","properties":{"id":1379187972,"osm_type":"way","name":"","category":"police","tags":{"amenity":"police","building":"yes","operator":"Burlövs Kommun"}},"geometry":{"type":"Point","coordinates":[13.0709632,55.6333217]}},{"type":"Feature","properties":{"id":5926519,"osm_type":"relation","name":"Polisen Malmö Porslinsgatan","category":"police","tags":{"addr:city":"Malmö","addr:housenumber":"4B","addr:street":"Porslinsgatan","amenity":"police","building":"yes","loc_name":"Nya Polishuset","name":"Polisen Malmö Porslinsgatan","opening_hours":"Mo-Fr 08:00-20:00, Sa-Su 08:00-17:00","type":"multipolygon","website":"https://polisen.se/om-polisen/kontakt/polisstationer/skane/malmo-porslinsgatan/"}},"geometry":{"type":"Point","coordinates":[13.0162298,55.6057744]}}]}