{"type":"FeatureCollection","features":[{"type":"Feature","properties":{"id":3141286869,"osm_type":"node","name":"Einar Hansengymnasiet","category":"school_high","tags":{"amenity":"school","education":"school","isced:level":"3","name":"Einar Hansengymnasiet","operator":"Stiftelsen Kursverksamheten Vid Lunds Universitet"}},"geometry":{"type":"Point","coordinates":[13.0001407,55.600734]}},{"type":"Feature","properties":{"id":3141287366,"osm_type":"node","name":"Snitz Gymnasium","category":"school_high","tags":{"addr:city":"Malmö","addr:country":"SE","addr:housenumber":"3","addr:postcode":"21141","addr:street":"Östra Kanalgatan","amenity":"school","isced:level":"3","name":"Snitz Gymnasium","operator":"PPS Power Planning System AB","position:accuracy":"1","position:provider":"shapefile","postnummeruppror.nu:location_sample:id":"5243","ref:SE:kommun":"Malmö","ref:SE:län":"Skåne län","ref:SE:skola:skolenhetskod":"25160697","ref:SE:skola:verkform":"Gymnasieskola","source":"postnummeruppror.nu","wikidata":"Q89192744"}},"geometry":{"type":"Point","coordinates":[13.0034366,55.6010154]}},{"type":"Feature","properties":{"id":51349013,"osm_type":"way","name":"Bladins gymnasium","category":"school_high","tags":{"addr:city":"Malmö","addr:postcode":"21748","addr:street":"Nordlinds väg 84","amenity":"school","building":"yes","check_date":"2023-09-03","isced:level":"3","name":"Bladins gymnasium","name:sv":"Bladins gymnasium","operator":"Bladins Skola, Stiftelsen","position:accuracy":"1","position:provider":"shapefile","postnummeruppror.nu:location_sample:id":"5028","ref:SE:kommun":"Malmö","ref:SE:lan":"Skåne län","ref:SE:skola:skolenhetskod":"21938183","ref:SE:skola:verkform":"Gymnasieskola","source":"postnummeruppror.nu"}},"geometry":{"type":"Point","coordinates":[12.976278,55.5945923]}},{"type":"Feature","properties":{"id":52245410,"osm_type":"way","name":"Sankt Petri skola","category":"school_high","tags":{"amenity":"school","isced:level":"3","name":"Sankt Petri skola","operator":"Malmö kommun","ref:SE:skola:skolenhetskod":"78231062","ref:SE:skola:verkform":"Gymnasieskola","short_name":"S:t Petri skola"}},"geometry":{"type":"Point","coordinates":[12.9945466,55.5995322]}},{"type":"Feature","properties":{"id":1138676986,"osm_type":"way","name":"Kvarnby folkhögskola","category":"school_high","tags":{"addr:city":"Malmö","addr:country":"SE","addr:housename":"Kvarnby folkhögskola","addr:housenumber":"68","addr:postcode":"21236","addr:street":"Kvarnbyvägen","amenity":"college","check_date":"2025-11-04","isced:level":"3;4","name":"Kvarnby folkhögskola","source":"local knowledge","website":"https://www.kvarnby.se/","wikidata":"Q45171"}},"geometry":{"type":"Point","coordinates":[13.0979524,55.5741825]}}]}