{"type":"FeatureCollection","features":[{"type":"Feature","properties":{"id":2829522425,"osm_type":"node","name":"TAU hantverksskola","category":"school_primary","tags":{"addr:city":"Malmö","addr:country":"SE","addr:housenumber":"2","addr:postcode":"21124","addr:street":"Brännögatan","amenity":"school","name":"TAU hantverksskola","operator":"TAU Learning AB"}},"geometry":{"type":"Point","coordinates":[13.0359345,55.617292]}},{"type":"Feature","properties":{"id":3141286866,"osm_type":"node","name":"BUP skolan","category":"school_primary","tags":{"addr:city":"Malmö","addr:postcode":"20502","addr:street":"BUP-kliniken, ing. 124","amenity":"school","name":"BUP skolan","operator":"Malmö kommun","position:accuracy":"1","position:provider":"shapefile","postnummeruppror.nu:location_sample:id":"10125","ref:SE:kommun":"Malmö","ref:SE:lan":"Skåne län","ref:SE:skola:skolenhetskod":"40730198","ref:SE:skola:verkform":"Grundskola","source":"postnummeruppror.nu"}},"geometry":{"type":"Point","coordinates":[13.0003463,55.5836397]}},{"type":"Feature","properties":{"id":3141287367,"osm_type":"node","name":"Videdals Privatskolor 2","category":"school_primary","tags":{"addr:city":"Malmö","addr:country":"SE","addr:housenumber":"2","addr:street":"Tuborgsgatan","amenity":"school","name":"Videdals Privatskolor 2","operator":"AB Videdals Privatskolor","position:accuracy":"1","position:provider":"shapefile","postnummeruppror.nu:location_sample:id":"6230","ref:SE:kommun":"Malmö","ref:SE:län":"Skåne län","ref:SE:skola:skolenhetskod":"83404058","ref:SE:skola:verkform":"Grundskola","source":"postnummeruppror.nu"}},"geometry":{"type":"Point","coordinates":[12.9883185,55.5947222]}},{"type":"Feature","properties":{"id":5813408212,"osm_type":"node","name":"Boukefs Privatskola","category":"school_primary","tags":{"addr:country":"SE","addr:housenumber":"3","addr:street":"Kungsörnsgatan","amenity":"school","name":"Boukefs Privatskola"}},"geometry":{"type":"Point","coordinates":[13.0090512,55.5654224]}},{"type":"Feature","properties":{"id":5813418469,"osm_type":"node","name":"Boukefs Småskola","category":"school_primary","tags":{"addr:country":"SE","addr:housenumber":"76","addr:street":"Husie kyrkoväg","amenity":"school","name":"Boukefs Småskola","wikidata":"Q89197199"}},"geometry":{"type":"Point","coordinates":[13.0841757,55.5817951]}},{"type":"Feature","properties":{"id":9509332223,"osm_type":"node","name":"Hyllie Park Grundskola","category":"school_primary","tags":{"addr:city":"Malmö","addr:country":"SE","addr:housenumber":"55G","addr:postcode":"216 23","addr:street":"Elinelundsvägen","amenity":"school","denomination":"evangelical","grades":"0-6","name":"Hyllie Park Grundskola","operator":"Hyllie Park Diakoni AB","operator:type":"private_non_profit","religion":"christian","website":"https://www.hyllieparkportal.com/grundskola","wikidata":"Q89198707"}},"geometry":{"type":"Point","coordinates":[12.9521878,55.5666701]}},{"type":"Feature","properties":{"id":9682712873,"osm_type":"node","name":"Medborgarskolan","category":"school_primary","tags":{"amenity":"school","name":"Medborgarskolan"}},"geometry":{"type":"Point","coordinates":[13.0013913,55.6131563]}},{"type":"Feature","properties":{"id":10583990118,"osm_type":"node","name":"Östra Skolan","category":"school_primary","tags":{"addr:city":"Malmö","addr:country":"SE","addr:housenumber":"4","addr:postcode":"21216","addr:street":"Rönnbladsgatan","amenity":"school","isced:level":"2","name":"Östra Skolan"}},"geometry":{"type":"Point","coordinates":[13.0282129,55.6019301]}},{"type":"Feature","properties":{"id":11685917871,"osm_type":"node","name":"Malmö Kulturskola","category":"school_primary","tags":{"addr:street":"Friisgatan","after_school":"yes","age":"7-19","amenity":"school","contact:email":"kulturskolan@malmo.se","contact:phone":"+46 40-34 48 00","name":"Malmö Kulturskola","opening_hours":"Mo-Th 08:00-12:15, 13:00-20:00, Fr 08:00-12:15, 13:00-18:30","operator":"Malmö stad","operator:type":"government","website":"https://malmo.se/Uppleva-och-gora/For-familjer-barn-och-unga/Malmo-Kulturskola.html"}},"geometry":{"type":"Point","coordinates":[13.0076563,55.594473]}},{"type":"Feature","properties":{"id":36998984,"osm_type":"way","name":"Rönnenskolan","category":"school_primary","tags":{"addr:city":"Malmö","addr:country":"SE","addr:housenumber":"7","addr:street":"Rönnblomsgatan","amenity":"school","building":"school","name":"Rönnenskolan"}},"geometry":{"type":"Point","coordinates":[13.0306427,55.6024249]}},{"type":"Feature","properties":{"id":50018607,"osm_type":"way","name":"Pauliskolan","category":"school_primary","tags":{"amenity":"school","name":"Pauliskolan","wikidata":"Q89193644"}},"geometry":{"type":"Point","coordinates":[13.0097143,55.6003693]}},{"type":"Feature","properties":{"id":52090688,"osm_type":"way","name":"Mellanhedsskolan","category":"school_primary","tags":{"amenity":"school","name":"Mellanhedsskolan","wikidata":"Q89194798"}},"geometry":{"type":"Point","coordinates":[12.9648437,55.5905357]}},{"type":"Feature","properties":{"id":52245434,"osm_type":"way","name":"Rörsjöskolan","category":"school_primary","tags":{"amenity":"school","check_date":"2025-11-25","name":"Rörsjöskolan"}},"geometry":{"type":"Point","coordinates":[13.022322,55.6034656]}},{"type":"Feature","properties":{"id":54146671,"osm_type":"way","name":"Kulladalsskolan","category":"school_primary","tags":{"amenity":"school","name":"Kulladalsskolan","wikidata":"Q89195920"}},"geometry":{"type":"Point","coordinates":[12.9983303,55.5686769]}},{"type":"Feature","properties":{"id":55806293,"osm_type":"way","name":"Risebergaskolan","category":"school_primary","tags":{"addr:city":"Malmö","addr:country":"SE","addr:housenumber":"57","addr:street":"Långhällagatan","amenity":"school","name":"Risebergaskolan"}},"geometry":{"type":"Point","coordinates":[13.0859759,55.6020307]}},{"type":"Feature","properties":{"id":83853489,"osm_type":"way","name":"Stenkulaskolan","category":"school_primary","tags":{"amenity":"school","name":"Stenkulaskolan"}},"geometry":{"type":"Point","coordinates":[13.0287243,55.5935666]}},{"type":"Feature","properties":{"id":87690426,"osm_type":"way","name":"Skolan på Ön","category":"school_primary","tags":{"amenity":"school","check_date":"2026-05-07","name":"Skolan på Ön"}},"geometry":{"type":"Point","coordinates":[12.9202545,55.5898438]}},{"type":"Feature","properties":{"id":89613496,"osm_type":"way","name":"Slottsstadens skola","category":"school_primary","tags":{"amenity":"school","name":"Slottsstadens skola"}},"geometry":{"type":"Point","coordinates":[12.966913,55.5919223]}},{"type":"Feature","properties":{"id":89613497,"osm_type":"way","name":"Lorensborgsskolan","category":"school_primary","tags":{"amenity":"school","name":"Lorensborgsskolan"}},"geometry":{"type":"Point","coordinates":[12.9850938,55.586688]}},{"type":"Feature","properties":{"id":89613498,"osm_type":"way","name":"Dammfriskolan","category":"school_primary","tags":{"addr:city":"Malmö","addr:housenumber":"9","addr:street":"Dammfrigången","amenity":"school","check_date":"2025-08-17","education":"school","name":"Dammfriskolan","website":"https://malmo.se/dammfriskolan"}},"geometry":{"type":"Point","coordinates":[12.9801914,55.5916558]}},{"type":"Feature","properties":{"id":89613499,"osm_type":"way","name":"Augustenborgsskolan","category":"school_primary","tags":{"amenity":"school","education":"school","name":"Augustenborgsskolan","wikidata":"Q89190761"}},"geometry":{"type":"Point","coordinates":[13.022628,55.5787354]}},{"type":"Feature","properties":{"id":89616277,"osm_type":"way","name":"Möllevångsskolan","category":"school_primary","tags":{"amenity":"school","check_date":"2024-05-24","name":"Möllevångsskolan","wheelchair":"yes"}},"geometry":{"type":"Point","coordinates":[13.0115825,55.5944273]}},{"type":"Feature","properties":{"id":89867618,"osm_type":"way","name":"Nydalaskolan","category":"school_primary","tags":{"amenity":"school","education":"school","name":"Nydalaskolan"}},"geometry":{"type":"Point","coordinates":[13.0178216,55.5711756]}},{"type":"Feature","properties":{"id":89867619,"osm_type":"way","name":"Hermodsdalsskolan","category":"school_primary","tags":{"amenity":"school","education":"school","name":"Hermodsdalsskolan"}},"geometry":{"type":"Point","coordinates":[13.0187608,55.567466]}},{"type":"Feature","properties":{"id":89867620,"osm_type":"way","name":"Lindängeskolan","category":"school_primary","tags":{"amenity":"school","name":"Lindängeskolan","wikidata":"Q89191642"}},"geometry":{"type":"Point","coordinates":[13.0141313,55.5573574]}},{"type":"Feature","properties":{"id":89867621,"osm_type":"way","name":"Söderkullaskolan","category":"school_primary","tags":{"amenity":"school","name":"Söderkullaskolan","wikidata":"Q89197820"}},"geometry":{"type":"Point","coordinates":[13.0104302,55.5704362]}},{"type":"Feature","properties":{"id":89867622,"osm_type":"way","name":"Lindeborgskolan","category":"school_primary","tags":{"amenity":"school","name":"Lindeborgskolan","wheelchair":"yes","wikidata":"Q89193742"}},"geometry":{"type":"Point","coordinates":[12.9908655,55.5612641]}},{"type":"Feature","properties":{"id":89867623,"osm_type":"way","name":"Kroksbäcksskolan","category":"school_primary","tags":{"amenity":"school","name":"Kroksbäcksskolan"}},"geometry":{"type":"Point","coordinates":[12.9771394,55.5729752]}},{"type":"Feature","properties":{"id":126187745,"osm_type":"way","name":"Husieskolan","category":"school_primary","tags":{"amenity":"school","name":"Husieskolan"}},"geometry":{"type":"Point","coordinates":[13.0820236,55.589971]}},{"type":"Feature","properties":{"id":126783175,"osm_type":"way","name":"Segevångsskolan","category":"school_primary","tags":{"amenity":"school","name":"Segevångsskolan"}},"geometry":{"type":"Point","coordinates":[13.0545302,55.618301]}},{"type":"Feature","properties":{"id":127979331,"osm_type":"way","name":"Sundsbroskolan","category":"school_primary","tags":{"amenity":"school","name":"Sundsbroskolan"}},"geometry":{"type":"Point","coordinates":[12.920349,55.553662]}},{"type":"Feature","properties":{"id":127979332,"osm_type":"way","name":"Ängslättsskolan","category":"school_primary","tags":{"amenity":"school","name":"Ängslättsskolan"}},"geometry":{"type":"Point","coordinates":[12.9197987,55.5522553]}},{"type":"Feature","properties":{"id":127980498,"osm_type":"way","name":"Ängsdalskolan","category":"school_primary","tags":{"amenity":"school","name":"Ängsdalskolan"}},"geometry":{"type":"Point","coordinates":[12.914159,55.5579276]}},{"type":"Feature","properties":{"id":127980716,"osm_type":"way","name":"Bergaskolan","category":"school_primary","tags":{"amenity":"school","name":"Bergaskolan","wikidata":"Q89196365"}},"geometry":{"type":"Point","coordinates":[12.9372407,55.5770663]}},{"type":"Feature","properties":{"id":127981965,"osm_type":"way","name":"Holmaskolan","category":"school_primary","tags":{"amenity":"school","name":"Holmaskolan","phone":"+46 40 34 65 21"}},"geometry":{"type":"Point","coordinates":[12.9840255,55.5738198]}},{"type":"Feature","properties":{"id":127981973,"osm_type":"way","name":"Annebergsskolan","category":"school_primary","tags":{"amenity":"school","name":"Annebergsskolan"}},"geometry":{"type":"Point","coordinates":[12.9940515,55.5841644]}},{"type":"Feature","properties":{"id":132311296,"osm_type":"way","name":"Videdalsskolan","category":"school_primary","tags":{"amenity":"school","name":"Videdalsskolan","operator":"Malmö stad","operator:type":"government","operator:wikidata":"Q503361","wikidata":"Q89903434"}},"geometry":{"type":"Point","coordinates":[13.0699338,55.5908417]}},{"type":"Feature","properties":{"id":164216003,"osm_type":"way","name":"","category":"school_primary","tags":{"amenity":"school"}},"geometry":{"type":"Point","coordinates":[13.072992,55.5790744]}},{"type":"Feature","properties":{"id":166505248,"osm_type":"way","name":"Västra Hamnens skola","category":"school_primary","tags":{"amenity":"school","education":"school","grades":"mellanstadie åk 4-6","landuse":"education","name":"Västra Hamnens skola","operator":"Malmö kommun","operator:type":"public"}},"geometry":{"type":"Point","coordinates":[12.9773638,55.614355]}},{"type":"Feature","properties":{"id":208001744,"osm_type":"way","name":"Södervångskolan","category":"school_primary","tags":{"amenity":"school","name":"Södervångskolan"}},"geometry":{"type":"Point","coordinates":[13.1094393,55.6501293]}},{"type":"Feature","properties":{"id":208846617,"osm_type":"way","name":"Tågarpskolan","category":"school_primary","tags":{"amenity":"school","name":"Tågarpskolan"}},"geometry":{"type":"Point","coordinates":[13.0680539,55.6371693]}},{"type":"Feature","properties":{"id":208957667,"osm_type":"way","name":"Humlemadskolan","category":"school_primary","tags":{"amenity":"school","name":"Humlemadskolan"}},"geometry":{"type":"Point","coordinates":[13.081873,55.6310689]}},{"type":"Feature","properties":{"id":208957669,"osm_type":"way","name":"Svenshögskolan","category":"school_primary","tags":{"addr:city":"Arlöv","addr:country":"SE","addr:housenumber":"2","addr:postcode":"232 38","addr:street":"Svenshögsvägen","amenity":"school","name":"Svenshögskolan"}},"geometry":{"type":"Point","coordinates":[13.0852352,55.6363496]}},{"type":"Feature","properties":{"id":208957670,"osm_type":"way","name":"Vårboskolan","category":"school_primary","tags":{"amenity":"school","name":"Vårboskolan"}},"geometry":{"type":"Point","coordinates":[13.0719309,55.6343395]}},{"type":"Feature","properties":{"id":211930420,"osm_type":"way","name":"Karl Johansskolan","category":"school_primary","tags":{"amenity":"school","name":"Karl Johansskolan","wikidata":"Q89196211"}},"geometry":{"type":"Point","coordinates":[12.9301058,55.5799213]}},{"type":"Feature","properties":{"id":216959778,"osm_type":"way","name":"Sockerbruksskolan","category":"school_primary","tags":{"amenity":"school","name":"Sockerbruksskolan"}},"geometry":{"type":"Point","coordinates":[13.094123,55.5487781]}},{"type":"Feature","properties":{"id":219863860,"osm_type":"way","name":"Rosenholmskolan","category":"school_primary","tags":{"amenity":"school","education":"school","name":"Rosenholmskolan","wikidata":"Q89198876"}},"geometry":{"type":"Point","coordinates":[13.0349068,55.5768728]}},{"type":"Feature","properties":{"id":226863999,"osm_type":"way","name":"Sorgenfriskolan","category":"school_primary","tags":{"amenity":"school","check_date":"2024-05-24","name":"Sorgenfriskolan"}},"geometry":{"type":"Point","coordinates":[13.0193725,55.5959794]}},{"type":"Feature","properties":{"id":281543959,"osm_type":"way","name":"Sofielundsskolan","category":"school_primary","tags":{"amenity":"school","name":"Sofielundsskolan"}},"geometry":{"type":"Point","coordinates":[13.0176346,55.5864745]}},{"type":"Feature","properties":{"id":281548024,"osm_type":"way","name":"Kastanjeskolan","category":"school_primary","tags":{"amenity":"school","name":"Kastanjeskolan"}},"geometry":{"type":"Point","coordinates":[13.0149828,55.586305]}},{"type":"Feature","properties":{"id":282020400,"osm_type":"way","name":"Mellersta Förstadsskolan","category":"school_primary","tags":{"amenity":"school","name":"Mellersta Förstadsskolan"}},"geometry":{"type":"Point","coordinates":[13.0135672,55.6001032]}},{"type":"Feature","properties":{"id":285711286,"osm_type":"way","name":"Fridhemsskolan","category":"school_primary","tags":{"amenity":"school","check_date":"2024-06-15","name":"Fridhemsskolan","wikidata":"Q89195817"}},"geometry":{"type":"Point","coordinates":[12.9708592,55.5996955]}},{"type":"Feature","properties":{"id":288999315,"osm_type":"way","name":"Johannesskolan","category":"school_primary","tags":{"amenity":"school","check_date":"2024-07-08","name":"Johannesskolan"}},"geometry":{"type":"Point","coordinates":[13.0029585,55.5910811]}},{"type":"Feature","properties":{"id":295236356,"osm_type":"way","name":"Bäckagårdsskolan","category":"school_primary","tags":{"addr:city":"Malmö","addr:country":"SE","addr:housenumber":"342","addr:postcode":"212 36","addr:street":"Klågerupsvägen","amenity":"school","name":"Bäckagårdsskolan"}},"geometry":{"type":"Point","coordinates":[13.0891548,55.5890464]}},{"type":"Feature","properties":{"id":308835441,"osm_type":"way","name":"Ribersborgsskolan","category":"school_primary","tags":{"amenity":"school","name":"Ribersborgsskolan","wikidata":"Q89198565"}},"geometry":{"type":"Point","coordinates":[12.9768697,55.599423]}},{"type":"Feature","properties":{"id":310130827,"osm_type":"way","name":"Höjaskolan","category":"school_primary","tags":{"amenity":"school","name":"Höjaskolan","wikidata":"Q89192346"}},"geometry":{"type":"Point","coordinates":[13.0654613,55.5830501]}},{"type":"Feature","properties":{"id":314703354,"osm_type":"way","name":"Montessorigrundskolan Maria","category":"school_primary","tags":{"addr:street":"Luftvärnsgatan","amenity":"school","name":"Montessorigrundskolan Maria","wikidata":"Q89197425"}},"geometry":{"type":"Point","coordinates":[13.08555,55.5835014]}},{"type":"Feature","properties":{"id":328982981,"osm_type":"way","name":"Västra skolan","category":"school_primary","tags":{"amenity":"school","check_date":"2025-04-18","education":"school","name":"Västra skolan"}},"geometry":{"type":"Point","coordinates":[12.9949803,55.6045611]}},{"type":"Feature","properties":{"id":330517436,"osm_type":"way","name":"Geijerskolan","category":"school_primary","tags":{"addr:country":"SE","addr:housenumber":"48","addr:street":"Västanväg","alt_name":"Geijersskolan","amenity":"school","capacity":"600","grades":"0-6","name":"Geijerskolan","website":"https://malmo.se/Bo-och-leva/Utbildning-och-forskola/Grundskola/Grundskolor/Geijerskolan/Om-Geijerskolan.html","wikidata":"Q89194300"}},"geometry":{"type":"Point","coordinates":[12.9449586,55.5851724]}},{"type":"Feature","properties":{"id":336068932,"osm_type":"way","name":"Rosengårdsskolan","category":"school_primary","tags":{"amenity":"school","name":"Rosengårdsskolan","wikidata":"Q10656980"}},"geometry":{"type":"Point","coordinates":[13.0471594,55.5824354]}},{"type":"Feature","properties":{"id":336068933,"osm_type":"way","name":"Värner Rydénskolan","category":"school_primary","tags":{"amenity":"school","name":"Värner Rydénskolan","wikidata":"Q89197562"}},"geometry":{"type":"Point","coordinates":[13.0322512,55.5847091]}},{"type":"Feature","properties":{"id":336069025,"osm_type":"way","name":"Örtagårdsskolan","category":"school_primary","tags":{"amenity":"school","name":"Örtagårdsskolan","wikidata":"Q89192037"}},"geometry":{"type":"Point","coordinates":[13.0410226,55.5823963]}},{"type":"Feature","properties":{"id":363629183,"osm_type":"way","name":"Gullviksskolan","category":"school_primary","tags":{"addr:city":"Malmö","addr:country":"SE","addr:housenumber":"9","addr:postcode":"213 74","addr:street":"Ljungholmsgatan","amenity":"school","education":"school","name":"Gullviksskolan"}},"geometry":{"type":"Point","coordinates":[13.0321159,55.5666883]}},{"type":"Feature","properties":{"id":364259013,"osm_type":"way","name":"Gottorpskolan","category":"school_primary","tags":{"amenity":"school","name":"Gottorpskolan"}},"geometry":{"type":"Point","coordinates":[12.9303894,55.5535138]}},{"type":"Feature","properties":{"id":377763537,"osm_type":"way","name":"","category":"school_primary","tags":{"amenity":"school"}},"geometry":{"type":"Point","coordinates":[12.9215461,55.5516121]}},{"type":"Feature","properties":{"id":390183384,"osm_type":"way","name":"Komvux Malmö","category":"school_primary","tags":{"amenity":"school","name":"Komvux Malmö","wheelchair":"yes"}},"geometry":{"type":"Point","coordinates":[13.0095091,55.5866778]}},{"type":"Feature","properties":{"id":424484005,"osm_type":"way","name":"Bladins International School of Malmö","category":"school_primary","tags":{"amenity":"school","name":"Bladins International School of Malmö","operator":"Bladins Skola, Stiftelsen"}},"geometry":{"type":"Point","coordinates":[12.987103,55.5926196]}},{"type":"Feature","properties":{"id":542844583,"osm_type":"way","name":"Hvilan Utbildning","category":"school_primary","tags":{"amenity":"school","name":"Hvilan Utbildning","wikidata":"Q10527509"}},"geometry":{"type":"Point","coordinates":[13.1312911,55.6445253]}},{"type":"Feature","properties":{"id":570515164,"osm_type":"way","name":"Glasbruksskolan","category":"school_primary","tags":{"amenity":"school","building":"school","name":"Glasbruksskolan","wikidata":"Q89193031"}},"geometry":{"type":"Point","coordinates":[12.9354208,55.5908752]}},{"type":"Feature","properties":{"id":610876455,"osm_type":"way","name":"Hyllievångsskolan","category":"school_primary","tags":{"amenity":"school","name":"Hyllievångsskolan","opening_hours":"Mo-Fr 06:00-17:00","phone":"+46 73 387 63 13","website":"https://malmo.se/Bo-och-leva/Utbildning-och-forskola/Grundskola/Grundskolor-A-O/Hyllievangsskolan.html","wikidata":"Q89198448"}},"geometry":{"type":"Point","coordinates":[12.9804138,55.5590842]}},{"type":"Feature","properties":{"id":639124586,"osm_type":"way","name":"Boukefs Privatskola","category":"school_primary","tags":{"addr:country":"SE","addr:housenumber":"3","addr:street":"Kungsörnsgatan","amenity":"school","barrier":"fence","name":"Boukefs Privatskola","wikidata":"Q89197281"}},"geometry":{"type":"Point","coordinates":[13.0088876,55.5655495]}},{"type":"Feature","properties":{"id":644901941,"osm_type":"way","name":"Bulltoftaskolan","category":"school_primary","tags":{"amenity":"school","name":"Bulltoftaskolan","note":"tillfällig placering","operator":"Malmö stad"}},"geometry":{"type":"Point","coordinates":[13.0007648,55.5929941]}},{"type":"Feature","properties":{"id":689436417,"osm_type":"way","name":"Fågelbacksskolan","category":"school_primary","tags":{"amenity":"school","grades":"6-9","name":"Fågelbacksskolan"}},"geometry":{"type":"Point","coordinates":[12.9914246,55.5978727]}},{"type":"Feature","properties":{"id":727255763,"osm_type":"way","name":"Elinelundsskolan","category":"school_primary","tags":{"amenity":"school","name":"Elinelundsskolan","operator":"Malmö Stad","operator:type":"government","wikidata":"Q111335453"}},"geometry":{"type":"Point","coordinates":[12.945797,55.5639582]}},{"type":"Feature","properties":{"id":750954816,"osm_type":"way","name":"Högaholmsskolan","category":"school_primary","tags":{"amenity":"school","name":"Högaholmsskolan","wikidata":"Q89195595"}},"geometry":{"type":"Point","coordinates":[13.0141131,55.5603488]}},{"type":"Feature","properties":{"id":912199676,"osm_type":"way","name":"Sveaskolan","category":"school_primary","tags":{"addr:city":"Limhamn","addr:country":"SE","addr:housenumber":"1","addr:postcode":"216 16","addr:street":"Ringugnsgatan","amenity":"school","grades":"6-9","name":"Sveaskolan","operator":"Sveaskolan AB","operator:type":"private","phone":"+46 40 16 06 55","religion":"none","website":"https://www.sveaskolan.nu/","wikidata":"Q89198580"}},"geometry":{"type":"Point","coordinates":[12.936863,55.5733133]}},{"type":"Feature","properties":{"id":912582569,"osm_type":"way","name":"Malmö Montessoriskola","category":"school_primary","tags":{"addr:city":"Malmö","addr:country":"SE","addr:housenumber":"3","addr:postcode":"217 64","addr:street":"Backåkersvägen","amenity":"school","barrier":"fence","email":"kansliet@montessoriskolan.com","grades":"0-9","name":"Malmö Montessoriskola","operator":"Föreningen Hemgårdar","operator:type":"private_non_profit","phone":"+4640 98 88 90","religion":"none","website":"https://montessoriskolan.com","wikidata":"Q89195253"}},"geometry":{"type":"Point","coordinates":[12.9715166,55.5862418]}},{"type":"Feature","properties":{"id":947030327,"osm_type":"way","name":"Malmö idrottsgrundskola","category":"school_primary","tags":{"amenity":"school","construction":"school","grades":"7-9","name":"Malmö idrottsgrundskola","opening_date":"2021-11-31","operator":"Malmö stad","operator:type":"government","website":"https://malmo.se/Bo-och-leva/Utbildning-och-forskola/Grundskola/Grundskolor/Malmo-idrottsgrundskola.html"}},"geometry":{"type":"Point","coordinates":[12.9908307,55.5848215]}},{"type":"Feature","properties":{"id":949368344,"osm_type":"way","name":"Limhamnsskolan","category":"school_primary","tags":{"amenity":"school","check_date":"2026-05-06","name":"Limhamnsskolan"}},"geometry":{"type":"Point","coordinates":[12.9354837,55.5876528]}},{"type":"Feature","properties":{"id":952738742,"osm_type":"way","name":"Neptuniskolan","category":"school_primary","tags":{"amenity":"school","education":"school","grades":"högstadiet åk 7-9","name":"Neptuniskolan","website":"https://malmo.se/Bo-och-leva/Utbildning-och-forskola/Grundskola/Grundskolor/Neptuniskolan.html"}},"geometry":{"type":"Point","coordinates":[12.9844589,55.608349]}},{"type":"Feature","properties":{"id":959791523,"osm_type":"way","name":"Mariaskolan","category":"school_primary","tags":{"addr:city":"Malmö","addr:country":"SE","addr:housenumber":"2A","addr:postcode":"217 65","addr:street":"Stensjögatan","amenity":"school","barrier":"fence","email":"info@mariaskolan.net","grades":"0-9","name":"Mariaskolan","operator":"Mariaskolan","operator:type":"private_non_profit","phone":"+46721589010","religion":"christian","website":"https://www.mariaskolan.net/"}},"geometry":{"type":"Point","coordinates":[12.9829441,55.5812478]}},{"type":"Feature","properties":{"id":1096836188,"osm_type":"way","name":"Toftanässkolan","category":"school_primary","tags":{"amenity":"school","name":"Toftanässkolan","operator":"Malmö stad","operator:type":"government","operator:wikidata":"Q503361"}},"geometry":{"type":"Point","coordinates":[13.0968109,55.5938148]}},{"type":"Feature","properties":{"id":1105182572,"osm_type":"way","name":"","category":"school_primary","tags":{"amenity":"school"}},"geometry":{"type":"Point","coordinates":[12.9371617,55.5583676]}},{"type":"Feature","properties":{"id":1130701327,"osm_type":"way","name":"Österportskolan","category":"school_primary","tags":{"amenity":"school","grades":"0-6","name":"Österportskolan","operator":"Malmö stad","operator:type":"government","website":"https://malmo.se/Bo-och-leva/Utbildning-och-forskola/Grundskola/Grundskolor/Osterportskolan.html"}},"geometry":{"type":"Point","coordinates":[13.0107096,55.6053822]}},{"type":"Feature","properties":{"id":1263804747,"osm_type":"way","name":"","category":"school_primary","tags":{"amenity":"school"}},"geometry":{"type":"Point","coordinates":[13.0361825,55.6070225]}},{"type":"Feature","properties":{"id":1315794130,"osm_type":"way","name":"","category":"school_primary","tags":{"amenity":"school"}},"geometry":{"type":"Point","coordinates":[13.0167183,55.5589442]}},{"type":"Feature","properties":{"id":1343084863,"osm_type":"way","name":"Monbijouskolan","category":"school_primary","tags":{"amenity":"school","name":"Monbijouskolan"}},"geometry":{"type":"Point","coordinates":[13.0067674,55.5959]}},{"type":"Feature","properties":{"id":1343101195,"osm_type":"way","name":"Karlshögsskolan","category":"school_primary","tags":{"addr:city":"Malmö","addr:housenumber":"12","addr:street":"Brynjegatan","amenity":"school","grades":"0-3","name":"Karlshögsskolan","operator":"Malmö stad","operator:type":"government","operator:wikidata":"Q503361","preschool":"no","website":"https://malmo.se/Bo-och-leva/Utbildning-och-forskola/Grundskola/Grundskolor/Karlshogsskolan.html","wikidata":"Q89198846"}},"geometry":{"type":"Point","coordinates":[13.0424753,55.5983645]}},{"type":"Feature","properties":{"id":1343104075,"osm_type":"way","name":"Mölletoftaskolan","category":"school_primary","tags":{"addr:city":"Malmö","addr:housenumber":"15","addr:street":"Flygledaregatan","amenity":"school","grades":"0-3","name":"Mölletoftaskolan","operator":"Malmö stad","operator:type":"government","operator:wikidata":"Q503361","website":"https://malmo.se/Bo-och-leva/Utbildning-och-forskola/Grundskola/Grundskolor/Molletoftaskolan.html","wikidata":"Q89197510"}},"geometry":{"type":"Point","coordinates":[13.0544673,55.6036509]}},{"type":"Feature","properties":{"id":1359597864,"osm_type":"way","name":"Rådmansvångens skola","category":"school_primary","tags":{"amenity":"school","name":"Rådmansvångens skola"}},"geometry":{"type":"Point","coordinates":[13.0018923,55.5931813]}},{"type":"Feature","properties":{"id":1381292565,"osm_type":"way","name":"Bulltoftaskolan","category":"school_primary","tags":{"amenity":"school","name":"Bulltoftaskolan"}},"geometry":{"type":"Point","coordinates":[13.04868,55.6081633]}},{"type":"Feature","properties":{"id":1381292765,"osm_type":"way","name":"Kirsebergsskolan","category":"school_primary","tags":{"amenity":"school","name":"Kirsebergsskolan"}},"geometry":{"type":"Point","coordinates":[13.0373952,55.6113637]}},{"type":"Feature","properties":{"id":1381819261,"osm_type":"way","name":"Kryddgårdsskolan","category":"school_primary","tags":{"addr:city":"Malmö","addr:country":"SE","addr:housenumber":"15","addr:postcode":"20580","addr:street":"Vougts väg","amenity":"school","contact:facebook":"Kryddg%C3%A5rdsskolan-Malm%C3%B6-825172824295136","fax":"+46 40-34 65 25","isced:level":"1","min_age":"6","name":"Kryddgårdsskolan","operator":"Malmö stad","operator:type":"government","phone":"+46 40-34 65 05","source":"yahoo","website":"https://malmo.se/Bo-och-leva/Utbildning-och-forskola/Grundskola/Grundskolor/Kryddgardsskolan.html","wikidata":"Q89197829","wikipedia":"sv:Kryddgårdsskolan"}},"geometry":{"type":"Point","coordinates":[13.051537,55.5889615]}},{"type":"Feature","properties":{"id":1453076272,"osm_type":"way","name":"Malmö International School","category":"school_primary","tags":{"amenity":"school","education":"school","name":"Malmö International School"}},"geometry":{"type":"Point","coordinates":[12.9708847,55.5592977]}},{"type":"Feature","properties":{"id":13684280,"osm_type":"relation","name":"Stapelbäddsskolan","category":"school_primary","tags":{"access:conditional":"private @ (Mo-Fr 18:30-06:00); yes @ (Mo-Fr 18:30-06:00; Sa; Su)","amenity":"school","education":"school","name":"Stapelbäddsskolan","type":"multipolygon","website":"https://malmo.se/Bo-och-leva/Utbildning-och-forskola/Grundskola/Grundskolor/Stapelbaddsskolan.html","wheelchair":"yes"}},"geometry":{"type":"Point","coordinates":[12.9832563,55.6125828]}}]}