{"type":"FeatureCollection","features":[{"type":"Feature","properties":{"id":51767169,"osm_type":"way","name":"Malmö Motorstadion","category":"stadium","tags":{"leisure":"stadium","location":"outdoor","name":"Malmö Motorstadion","sport":"motor"}},"geometry":{"type":"Point","coordinates":[13.0869841,55.5699059]}},{"type":"Feature","properties":{"id":175446799,"osm_type":"way","name":"Eleda Stadion","category":"stadium","tags":{"alt_name":"Nya Malmö Stadion","capacity":"22500","leisure":"stadium","name":"Eleda Stadion","old_name":"Swedbank Stadion","sport":"soccer","start_date":"2009","wikidata":"Q867234","wikipedia":"sv:Eleda Stadion"}},"geometry":{"type":"Point","coordinates":[12.9877224,55.5836998]}}]}