{"type":"FeatureCollection","features":[{"type":"Feature","properties":{"id":417994868,"osm_type":"node","name":"Victoriateatern","category":"theatre","tags":{"amenity":"theatre","check_date":"2024-08-24","name":"Victoriateatern","website":"https://victoria.se/","wikidata":"Q31897680"}},"geometry":{"type":"Point","coordinates":[13.0012401,55.599199]}},{"type":"Feature","properties":{"id":417994869,"osm_type":"node","name":"Filmstaden Storgatan","category":"theatre","tags":{"addr:housenumber":"22","addr:postcode":"211 42","addr:street":"Storgatan","amenity":"cinema","check_date":"2026-05-31","name":"Filmstaden Storgatan","wikidata":"Q37302115"}},"geometry":{"type":"Point","coordinates":[13.0004135,55.5995865]}},{"type":"Feature","properties":{"id":417994879,"osm_type":"node","name":"Palladium","category":"theatre","tags":{"amenity":"theatre","name":"Palladium","wikidata":"Q10615413"}},"geometry":{"type":"Point","coordinates":[13.001061,55.6040997]}},{"type":"Feature","properties":{"id":422554200,"osm_type":"node","name":"Free Urban arts outdoor gallery","category":"theatre","tags":{"amenity":"arts_centre","check_date":"2025-03-04","name":"Free Urban arts outdoor gallery"}},"geometry":{"type":"Point","coordinates":[13.0045094,55.6011112]}},{"type":"Feature","properties":{"id":1624179502,"osm_type":"node","name":"Filmstaden Entré","category":"theatre","tags":{"amenity":"cinema","brand":"Filmstaden","brand:wikidata":"Q3459512","level":"2","name":"Filmstaden Entré","operator":"SF Bio","wheelchair":"yes","wikidata":"Q106574387"}},"geometry":{"type":"Point","coordinates":[13.0240788,55.6078926]}},{"type":"Feature","properties":{"id":2726151710,"osm_type":"node","name":"Spelens Hus","category":"theatre","tags":{"addr:city":"Malmö","addr:country":"SE","addr:housenumber":"145 A","addr:postcode":"212 15","addr:street":"Nobelvägen","amenity":"arts_centre","contact:city":"Malmö","contact:country":"SE","contact:housenumber":"145A","contact:postcode":"212 15","contact:street":"Nobelvägen","email":"info@spelenshus.se","image":"https://www.spelenshus.se/wp-content/uploads/2020/01/cropped-Spelenshus.png","internet_access":"wlan","name":"Spelens Hus","opening_hours":"Mo-Su 17:00-22:00","opening_hours:covid19":"closed","website":"https://www.spelenshus.se/","wheelchair":"yes"}},"geometry":{"type":"Point","coordinates":[13.0285006,55.6037459]}},{"type":"Feature","properties":{"id":2850202405,"osm_type":"node","name":"Skånes Dansteater","category":"theatre","tags":{"addr:city":"Malmö","addr:country":"SE","addr:housenumber":"13A","addr:postcode":"211 73","addr:street":"Östra Varvsgatan","amenity":"theatre","email":"info@skanesdansteater.se","name":"Skånes Dansteater","phone":"+46703445811","website":"https://www.skanesdansteater.se/"}},"geometry":{"type":"Point","coordinates":[12.9853208,55.616226]}},{"type":"Feature","properties":{"id":3794911363,"osm_type":"node","name":"Ateljé Penseldraget","category":"theatre","tags":{"amenity":"arts_centre","name":"Ateljé Penseldraget","wheelchair":"no"}},"geometry":{"type":"Point","coordinates":[12.9891654,55.6179924]}},{"type":"Feature","properties":{"id":3946144179,"osm_type":"node","name":"Panora","category":"theatre","tags":{"addr:housenumber":"19D","addr:street":"Friisgatan","amenity":"cinema","check_date":"2025-11-22","contact:instagram":"https://www.instagram.com/panora_malmo","email":"info@panora.se","name":"Panora","opening_hours":"PH,Mo-Su 10:00-24:00+","phone":"+46406112097","screen":"3","website":"https://panora.se/","wikidata":"Q106592879"}},"geometry":{"type":"Point","coordinates":[13.0093116,55.5942791]}},{"type":"Feature","properties":{"id":4392221169,"osm_type":"node","name":"Malmö Live Konserthus","category":"theatre","tags":{"amenity":"theatre","capacity:seats":"1607","check_date":"2025-06-24","name":"Malmö Live Konserthus","theatre":"concert_hall","website":"https://malmolive.se/","wikidata":"Q10576157","wikipedia":"sv:Malmö Live"}},"geometry":{"type":"Point","coordinates":[12.993645,55.6073522]}},{"type":"Feature","properties":{"id":4489083189,"osm_type":"node","name":"Mooms-Teatern","category":"theatre","tags":{"addr:city":"Malmö","addr:housenumber":"1","addr:postcode":"21444","addr:street":"Olof Palmes Plats","amenity":"theatre","check_date":"2024-07-08","name":"Mooms-Teatern","name:sv":"Mooms-Teatern","phone":"+46 40 10 30 20","website":"https://moomsteatern.com/"}},"geometry":{"type":"Point","coordinates":[13.0209615,55.5910903]}},{"type":"Feature","properties":{"id":8894575915,"osm_type":"node","name":"Stadionmässan","category":"theatre","tags":{"addr:country":"SE","addr:housenumber":"25 A","addr:postcode":"21762","addr:street":"Stadiongatan","amenity":"events_venue","door":"yes","email":"info@stadionmassan.se","entrance":"main","fax":"+46 40 19 25 20","name":"Stadionmässan","phone":"+46 40 32 63 00","website":"https://www.stadionmassan.se"}},"geometry":{"type":"Point","coordinates":[12.9912715,55.5810126]}},{"type":"Feature","properties":{"id":9571378009,"osm_type":"node","name":"Teater JaLaDa","category":"theatre","tags":{"addr:city":"Malmö","addr:country":"SE","addr:housenumber":"3B","addr:postcode":"214 58","addr:street":"Helenetorpsgatan","amenity":"theatre","email":"info@jalada.se","name":"Teater JaLaDa","opening_hours":"Mo-Fr 10:00-20:00","phone":"+46 737 32 58 77","website":"https://www.jalada.se/"}},"geometry":{"type":"Point","coordinates":[13.0208333,55.57177]}},{"type":"Feature","properties":{"id":9687808841,"osm_type":"node","name":"Ateljéföreningen Addo","category":"theatre","tags":{"amenity":"arts_centre","name":"Ateljéföreningen Addo"}},"geometry":{"type":"Point","coordinates":[13.0213711,55.6157814]}},{"type":"Feature","properties":{"id":9937628281,"osm_type":"node","name":"Malmö Stadsteater","category":"theatre","tags":{"amenity":"theatre","name":"Malmö Stadsteater"}},"geometry":{"type":"Point","coordinates":[13.0037865,55.6057199]}},{"type":"Feature","properties":{"id":10273890323,"osm_type":"node","name":"Signal – Center för samtidskonst","category":"theatre","tags":{"addr:city":"Malmö","addr:country":"SE","addr:housenumber":"17D","addr:postcode":"211 53","addr:street":"Monbijougatan","amenity":"arts_centre","check_date":"2025-06-20","contact:email":"info@signalsignal.org","contact:phone":"+46 40 97 92 10","contact:website":"http://www.signalsignal.org/kontakt/kontakt/","level":"0.5","name":"Signal – Center för samtidskonst","opening_hours":"Th-Fr 12:00-18:00, Sa-Su 12:00-16:00 || \"By appointment or if there's an event (usually starting at 19:00)\"","website":"http://www.signalsignal.org/","wheelchair":"no"}},"geometry":{"type":"Point","coordinates":[13.0092558,55.5948429]}},{"type":"Feature","properties":{"id":10754158007,"osm_type":"node","name":"Nöjesteatern","category":"theatre","tags":{"addr:housenumber":"35","addr:postcode":"21437","addr:street":"Amiralsgatan","amenity":"theatre","check_date":"2025-04-02","email":"info@nojesteatern.se","name":"Nöjesteatern","phone":"+46 40 791 80","website":"https://nojesteatern.se"}},"geometry":{"type":"Point","coordinates":[13.0156395,55.594469]}},{"type":"Feature","properties":{"id":11281533312,"osm_type":"node","name":"Hypnos Theater","category":"theatre","tags":{"addr:housenumber":"15","addr:street":"Norra Grängesbergsgatan","amenity":"cinema","name":"Hypnos Theater","website":"https://hypnostheatre.com/"}},"geometry":{"type":"Point","coordinates":[13.0263258,55.5854479]}},{"type":"Feature","properties":{"id":11763806797,"osm_type":"node","name":"Malmö AmatörteaterForum","category":"theatre","tags":{"amenity":"theatre","name":"Malmö AmatörteaterForum","website":"https://m-a-f.org/"}},"geometry":{"type":"Point","coordinates":[13.006333,55.5964258]}},{"type":"Feature","properties":{"id":11925305351,"osm_type":"node","name":"Expressteatern","category":"theatre","tags":{"addr:city":"Malmö","addr:country":"SE","addr:housenumber":"26","addr:street":"Rörsjögatan","amenity":"theatre","name":"Expressteatern","website":"https://www.expressteatern.nu/"}},"geometry":{"type":"Point","coordinates":[13.0086922,55.6040041]}},{"type":"Feature","properties":{"id":12118885223,"osm_type":"node","name":"Hangaren – Centrum För Urbankonst","category":"theatre","tags":{"amenity":"arts_centre","name":"Hangaren – Centrum För Urbankonst","website":"https://cfuk.nu/"}},"geometry":{"type":"Point","coordinates":[13.0242014,55.587979]}},{"type":"Feature","properties":{"id":12324368174,"osm_type":"node","name":"","category":"theatre","tags":{"amenity":"theatre","theatre:type":"amphi"}},"geometry":{"type":"Point","coordinates":[13.0408967,55.5841125]}},{"type":"Feature","properties":{"id":12324368767,"osm_type":"node","name":"","category":"theatre","tags":{"amenity":"theatre","theatre:type":"amphi"}},"geometry":{"type":"Point","coordinates":[13.0469896,55.5819896]}},{"type":"Feature","properties":{"id":12760339816,"osm_type":"node","name":"Kipi Art Studios","category":"theatre","tags":{"addr:city":"Malmö","addr:housenumber":"2","addr:postcode":"211 24","addr:street":"Borrgatan","amenity":"arts_centre","contact:facebook":"https://www.facebook.com/people/Kipi-Studios/61574117737499/","contact:instagram":"https://www.instagram.com/kipistudios/","name":"Kipi Art Studios","website":"https://kipi.se"}},"geometry":{"type":"Point","coordinates":[13.0197955,55.6155184]}},{"type":"Feature","properties":{"id":13096085401,"osm_type":"node","name":"Borrgatans Ateljéförening","category":"theatre","tags":{"addr:housenumber":"3","addr:street":"Borrgatan","amenity":"arts_centre","name":"Borrgatans Ateljéförening"}},"geometry":{"type":"Point","coordinates":[13.0215397,55.6152477]}},{"type":"Feature","properties":{"id":13330099326,"osm_type":"node","name":"Teamfabriken Malmö","category":"theatre","tags":{"addr:city":"Limhamn","addr:housenumber":"8","addr:postcode":"216 18","addr:street":"Geijersgatan","amenity":"events_venue","description":"Till Teamfabriken kommer stora och små grupper för att utmanas tillsammans i lag och (förhoppningsvis) lämna oss som ett starkare team!","email":"malmo@teamfabriken.se","internet_access:fee":"customers","name":"Teamfabriken Malmö","opening_hours":"Mo-Th 08:00-21:00; Fr 09:00-21:00; Sa 10:00-18:00","phone":"+46 40 51 01 75","smoking":"no","website":"https://malmo.teamfabriken.se"}},"geometry":{"type":"Point","coordinates":[12.9412303,55.590654]}},{"type":"Feature","properties":{"id":13339876785,"osm_type":"node","name":"Bågscenen","category":"theatre","tags":{"addr:city":"Malmö","addr:country":"SE","addr:housenumber":"13 D","addr:postcode":"211 73","addr:street":"Östra Varvsgatan","amenity":"theatre","check_date":"2025-11-22","email":"info@skanesdansteater.se","name":"Bågscenen","operator":"Skånes Dansteater","phone":"+46703445811","website":"https://www.skanesdansteater.se/"}},"geometry":{"type":"Point","coordinates":[12.9859498,55.6167607]}},{"type":"Feature","properties":{"id":28414605,"osm_type":"way","name":"Malmö Opera","category":"theatre","tags":{"addr:housenumber":"20","addr:street":"Östra Rönneholmsvägen","amenity":"theatre","building":"yes","name":"Malmö Opera","wheelchair":"yes","wikidata":"Q1507772","wikipedia":"sv:Malmö Opera"}},"geometry":{"type":"Point","coordinates":[12.9957017,55.5961218]}},{"type":"Feature","properties":{"id":28482240,"osm_type":"way","name":"Malmö konsthall","category":"theatre","tags":{"alt_name":"Konsthallen","amenity":"arts_centre","building":"yes","check_date":"2024-05-15","name":"Malmö konsthall","wheelchair":"yes","wikidata":"Q633078","wikipedia":"sv:Malmö konsthall"}},"geometry":{"type":"Point","coordinates":[12.9992402,55.5952697]}},{"type":"Feature","properties":{"id":96200140,"osm_type":"way","name":"Pildammsteatern","category":"theatre","tags":{"access":"yes","amenity":"theatre","check_date":"2025-05-24","leisure":"bleachers","name":"Pildammsteatern","theatre:type":"open_air","wikidata":"Q10631660","wikipedia":"sv:Pildammsteatern"}},"geometry":{"type":"Point","coordinates":[12.992882,55.5881164]}},{"type":"Feature","properties":{"id":104297624,"osm_type":"way","name":"Barnens Scen","category":"theatre","tags":{"amenity":"theatre","building":"yes","height":"7","historic":"yes","name":"Barnens Scen","roof:shape":"pyramidal","website":"https://www.barnensscen.se/"}},"geometry":{"type":"Point","coordinates":[13.0146551,55.5920688]}},{"type":"Feature","properties":{"id":182238945,"osm_type":"way","name":"Arlövs teater","category":"theatre","tags":{"addr:city":"Arlöv","addr:country":"SE","addr:housenumber":"10","addr:street":"Bolagsgatan","amenity":"theatre","building":"yes","name":"Arlövs teater"}},"geometry":{"type":"Point","coordinates":[13.0703555,55.6290343]}},{"type":"Feature","properties":{"id":1036504120,"osm_type":"way","name":"Royal","category":"theatre","tags":{"amenity":"cinema","check_date":"2024-07-29","name":"Royal","wheelchair":"yes","wikidata":"Q10657472"}},"geometry":{"type":"Point","coordinates":[13.0008486,55.601705]}},{"type":"Feature","properties":{"id":1091108912,"osm_type":"way","name":"Spegeln","category":"theatre","tags":{"amenity":"cinema","check_date:opening_hours":"2024-07-29","name":"Spegeln","opening_hours":"Tu-Su 16:00-23:00; Mo off","wheelchair":"no","wikidata":"Q10674618"}},"geometry":{"type":"Point","coordinates":[13.0006246,55.6054922]}},{"type":"Feature","properties":{"id":1352062482,"osm_type":"way","name":"Blå Båten","category":"theatre","tags":{"amenity":"events_venue","area":"yes","building":"boat","name":"Blå Båten","name:en":"The Blue Boat","name:sv":"Blå Båten","note":"Boat has been moored there since at least 2017. A permanent-enough feature in the area to be treated as a 'building' of sorts."}},"geometry":{"type":"Point","coordinates":[12.9964357,55.6097266]}},{"type":"Feature","properties":{"id":1352062483,"osm_type":"way","name":"Tintin","category":"theatre","tags":{"amenity":"events_venue","area":"yes","building":"boat","name":"Tintin","note":"Boat has been moored there since at least 2017. A permanent-enough feature in the area to be treated as a 'building' of sorts."}},"geometry":{"type":"Point","coordinates":[12.9963189,55.6101348]}},{"type":"Feature","properties":{"id":1352204857,"osm_type":"way","name":"","category":"theatre","tags":{"amenity":"theatre","theatre:type":"amphi"}},"geometry":{"type":"Point","coordinates":[12.9757625,55.6131277]}},{"type":"Feature","properties":{"id":1357534255,"osm_type":"way","name":"Poeten på hörnet","category":"theatre","tags":{"amenity":"arts_centre","building:part":"yes","level":"0","name":"Poeten på hörnet"}},"geometry":{"type":"Point","coordinates":[13.0044193,55.5938624]}},{"type":"Feature","properties":{"id":10719436,"osm_type":"relation","name":"Moriska paviljongen","category":"theatre","tags":{"addr:housenumber":"2","addr:street":"Norra Parkgatan","amenity":"events_venue","building":"retail","building:levels":"2","loc_name":"Moriskan","name":"Moriska paviljongen","payment:cash":"no","payment:mastercard":"yes","payment:visa":"yes","roof:levels":"0","type":"multipolygon","website":"https://moriskapaviljongen.se/","wikidata":"Q10589124","wikipedia":"sv:Moriska paviljongen"}},"geometry":{"type":"Point","coordinates":[13.0135129,55.5937403]}}]}