{"type":"FeatureCollection","features":[{"type":"Feature","properties":{"id":13019867792,"osm_type":"node","name":"Musikhögskolan","category":"university","tags":{"amenity":"university","education":"university","name":"Musikhögskolan"}},"geometry":{"type":"Point","coordinates":[13.0163893,55.57939]}},{"type":"Feature","properties":{"id":781396833,"osm_type":"way","name":"Konsthögskolan","category":"university","tags":{"addr:city":"Malmö","addr:country":"SE","addr:housenumber":"4","addr:postcode":"21252","addr:street":"Föraregatan","alt_name":"Båghallarna","amenity":"university","building":"yes","name":"Konsthögskolan","name:en":"Malmö Art Academy","official_name":"Konsthögskolan i Malmö","operator":"Lunds universitet","website":"https://www.khm.lu.se/","wikidata":"Q10547697"}},"geometry":{"type":"Point","coordinates":[13.0241201,55.6010878]}},{"type":"Feature","properties":{"id":2220493,"osm_type":"relation","name":"Malmö universitet","category":"university","tags":{"amenity":"university","contact:phone":"+46-40-665 70 00","contact:website":"http://www.mah.se/","education":"university","name":"Malmö universitet","name:en":"Malmö University","old_name":"Malmö högskola","operator":"Malmö universitet","type":"multipolygon","website":"https://www.mau.se/","wikidata":"Q977781"}},"geometry":{"type":"Point","coordinates":[12.9936885,55.6027304]}},{"type":"Feature","properties":{"id":7759683,"osm_type":"relation","name":"World Maritime University","category":"university","tags":{"amenity":"university","education":"university","name":"World Maritime University","type":"multipolygon"}},"geometry":{"type":"Point","coordinates":[12.9963836,55.6078086]}}]}