{"type":"FeatureCollection","features":[{"type":"Feature","properties":{"id":1836562892,"osm_type":"node","name":"","category":"veterinary","tags":{"amenity":"veterinary"}},"geometry":{"type":"Point","coordinates":[13.1080296,55.591245]}},{"type":"Feature","properties":{"id":3693537014,"osm_type":"node","name":"Veterinär","category":"veterinary","tags":{"amenity":"veterinary","name":"Veterinär"}},"geometry":{"type":"Point","coordinates":[13.0711999,55.6328193]}},{"type":"Feature","properties":{"id":10738188064,"osm_type":"node","name":"AniCura","category":"veterinary","tags":{"addr:city":"Malmö","addr:country":"SE","addr:housenumber":"44","addr:street":"Köpenhamnsvägen","amenity":"veterinary","branch":"Erikslust","brand":"AniCura","brand:wikidata":"Q21100245","name":"AniCura","operator":"AniCura"}},"geometry":{"type":"Point","coordinates":[12.9700073,55.5936358]}},{"type":"Feature","properties":{"id":11204920520,"osm_type":"node","name":"Evidensia","category":"veterinary","tags":{"addr:city":"Limhamn","addr:country":"SE","addr:housenumber":"16","addr:postcode":"216 16","addr:street":"Ringugnsgatan","amenity":"veterinary","contact:facebook":"https://www.facebook.com/evidensialimhamn","email":"veterinarkliniken.limhamn@evidensia.se","name":"Evidensia","opening_hours":"Mo-Fr 08:00-17:00","phone":"+4640496160","website":"https://evidensia.se/klinik/veterinarkliniken-limhamn/"}},"geometry":{"type":"Point","coordinates":[12.9306209,55.5739656]}},{"type":"Feature","properties":{"id":191453687,"osm_type":"way","name":"Evidensia Djursjukhuset Malmö","category":"veterinary","tags":{"addr:city":"Malmö","addr:country":"SE","addr:housenumber":"11","addr:street":"Cypressvägen","amenity":"veterinary","building":"yes","check_date":"2024-10-15","name":"Evidensia Djursjukhuset Malmö","opening_hours":"24/7"}},"geometry":{"type":"Point","coordinates":[13.0449542,55.5708892]}}]}